{"version": 0.6, "generator": "Overpass API 0.7.62.5 1bd436f1", "osm3s": {"timestamp_osm_base": "2025-04-09T14:10:45Z", "copyright": "The data included in this document is from www.openstreetmap.org. The data is made available under ODbL."}, "elements": [{"type": "node", "id": 1423114427, "lat": 6.5417787, "lon": 3.3674144, "tags": {"highway": "bus_stop", "name": "BRT Palmgrove", "public_transport": "platform"}}, {"type": "node", "id": 1423114428, "lat": 6.5465534, "lon": 3.367578, "tags": {"highway": "bus_stop", "name": "BRT Obanikoro", "public_transport": "platform"}}, {"type": "node", "id": 1423114429, "lat": 6.5059942, "lon": 3.3645844, "tags": {"highway": "bus_stop", "name": "BRT Barracks", "public_transport": "platform"}}, {"type": "node", "id": 1423114431, "lat": 6.5983761, "lon": 3.3864292, "tags": {"bus": "yes", "highway": "bus_stop", "name": "BRT Ketu", "public_transport": "platform"}}, {"type": "node", "id": 1423114432, "lat": 6.5248153, "lon": 3.367682, "tags": {"addr:country": "NG", "bus": "yes", "highway": "bus_stop", "name": "Fadeyi Bus Stop", "operator": "LAMATA", "public_transport": "platform", "shelter": "yes"}}, {"type": "node", "id": 1513671680, "lat": 6.5001473, "lon": 3.3782136, "tags": {"highway": "bus_stop", "name": "Alagomeji"}}, {"type": "node", "id": 1513671684, "lat": 6.4970901, "lon": 3.3801169, "tags": {"highway": "bus_stop", "name": "Casino"}}, {"type": "node", "id": 1513671690, "lat": 6.5021015, "lon": 3.3774681, "tags": {"highway": "bus_stop", "name": "Spencer"}}, {"type": "node", "id": 1577482636, "lat": 6.5999593, "lon": 3.295719, "tags": {"bus": "yes", "highway": "bus_stop", "name": "Bakery", "public_transport": "platform"}}, {"type": "node", "id": 1577482674, "lat": 6.6001365, "lon": 3.295816, "tags": {"bus": "yes", "highway": "bus_stop", "name": "Bakery", "public_transport": "platform"}}, {"type": "node", "id": 1577482955, "lat": 6.6004622, "lon": 3.2971865, "tags": {"bus": "yes", "highway": "bus_stop", "name": "Micom", "public_transport": "platform"}}, {"type": "node", "id": 1578567850, "lat": 6.6004652, "lon": 3.2974606, "tags": {"bus": "yes", "highway": "bus_stop", "name": "Micom", "public_transport": "platform"}}, {"type": "node", "id": 2335292454, "lat": 6.6057316, "lon": 3.3998072, "tags": {"bus": "yes", "highway": "bus_stop", "name": "Mile 12 Bus Stop", "public_transport": "stop_position"}}, {"type": "node", "id": 2541435553, "lat": 6.5658262, "lon": 3.251099, "tags": {"bus": "yes", "highway": "bus_stop", "name": "Oko-Filling", "public_transport": "platform"}}, {"type": "node", "id": 2541613435, "lat": 6.4629402, "lon": 3.3866909, "tags": {"highway": "bus_stop", "name": "Idumota", "note": "A major bus stop on the Lagos Island"}}, {"type": "node", "id": 3085114169, "lat": 6.5462266, "lon": 3.2722601, "tags": {"highway": "bus_stop", "name": "Synagogue Bus-Stop"}}, {"type": "node", "id": 3095002640, "lat": 6.4410322, "lon": 3.5297134, "tags": {"highway": "bus_stop", "name": "Chevron"}}, {"type": "node", "id": 3095002719, "lat": 6.4417146, "lon": 3.5320166, "tags": {"highway": "bus_stop", "name": "Chevron"}}, {"type": "node", "id": 3742522981, "lat": 6.4991715, "lon": 3.2420223, "tags": {"bus": "yes", "highway": "bus_stop", "name": "Last bus stop", "public_transport": "platform"}}, {"type": "node", "id": 4348858649, "lat": 6.4993144, "lon": 3.2452573, "tags": {"bus": "yes", "highway": "bus_stop", "name": "Iya Segun bus stop", "public_transport": "platform"}}, {"type": "node", "id": 4394960000, "lat": 6.5095116, "lon": 3.383897, "tags": {"highway": "bus_stop", "name": "Onike R / A"}}, {"type": "node", "id": 4720420511, "lat": 6.5291967, "lon": 3.2156075, "tags": {"highway": "bus_stop", "name": "Adexson Ilepo Busstop"}}, {"type": "node", "id": 5194462785, "lat": 6.4305929, "lon": 3.4670081, "tags": {"highway": "bus_stop"}}, {"type": "node", "id": 5194462786, "lat": 6.4309154, "lon": 3.4669598, "tags": {"highway": "bus_stop"}}, {"type": "node", "id": 5194462787, "lat": 6.4309502, "lon": 3.4700022, "tags": {"highway": "bus_stop"}}, {"type": "node", "id": 5194462788, "lat": 6.4313941, "lon": 3.4702002, "tags": {"highway": "bus_stop"}}, {"type": "node", "id": 5194462789, "lat": 6.4329767, "lon": 3.4810817, "tags": {"highway": "bus_stop"}}, {"type": "node", "id": 5194462790, "lat": 6.432643, "lon": 3.4811464, "tags": {"highway": "bus_stop"}}, {"type": "node", "id": 5194462791, "lat": 6.4332951, "lon": 3.4832569, "tags": {"highway": "bus_stop"}}, {"type": "node", "id": 5194462792, "lat": 6.4329675, "lon": 3.4833216, "tags": {"highway": "bus_stop"}}, {"type": "node", "id": 5194462793, "lat": 6.4342716, "lon": 3.4898773, "tags": {"highway": "bus_stop"}}, {"type": "node", "id": 5194462794, "lat": 6.4339385, "lon": 3.4899256, "tags": {"highway": "bus_stop"}}, {"type": "node", "id": 5194462796, "lat": 6.4345888, "lon": 3.4921089, "tags": {"highway": "bus_stop"}}, {"type": "node", "id": 5194462797, "lat": 6.4341877, "lon": 3.4921411, "tags": {"bus": "yes", "highway": "bus_stop", "public_transport": "platform"}}, {"type": "node", "id": 5194462798, "lat": 6.4360286, "lon": 3.5018694, "tags": {"highway": "bus_stop"}}, {"type": "node", "id": 5194462799, "lat": 6.4356857, "lon": 3.5019341, "tags": {"highway": "bus_stop"}}, {"type": "node", "id": 5194462800, "lat": 6.4363409, "lon": 3.5039337, "tags": {"highway": "bus_stop"}}, {"type": "node", "id": 5194462801, "lat": 6.4359735, "lon": 3.5040046, "tags": {"bus": "yes", "highway": "bus_stop", "public_transport": "platform"}}, {"type": "node", "id": 5194462802, "lat": 6.4370797, "lon": 3.5091629, "tags": {"highway": "bus_stop"}}, {"type": "node", "id": 5194462803, "lat": 6.4367399, "lon": 3.5092245, "tags": {"highway": "bus_stop"}}, {"type": "node", "id": 5194462804, "lat": 6.4386993, "lon": 3.5205213, "tags": {"highway": "bus_stop"}}, {"type": "node", "id": 5194462805, "lat": 6.4383594, "lon": 3.5205829, "tags": {"highway": "bus_stop"}}, {"type": "node", "id": 5194462806, "lat": 6.4390299, "lon": 3.5227519, "tags": {"highway": "bus_stop"}}, {"type": "node", "id": 5194462807, "lat": 6.4386931, "lon": 3.522832, "tags": {"highway": "bus_stop"}}, {"type": "node", "id": 5194462808, "lat": 6.4407177, "lon": 3.529829, "tags": {"highway": "bus_stop", "name": "Chevron"}}, {"type": "node", "id": 5194462809, "lat": 6.4419224, "lon": 3.5319104, "tags": {"highway": "bus_stop", "name": "Chevron"}}, {"type": "node", "id": 5206471624, "lat": 6.5538125, "lon": 3.325181, "tags": {"highway": "bus_stop", "name": "Stop over bus stop"}}, {"type": "node", "id": 5206477223, "lat": 6.5521983, "lon": 3.3288226, "tags": {"highway": "bus_stop", "name": "Ajao Estate main entrance"}}, {"type": "node", "id": 5212289128, "lat": 6.5520558, "lon": 3.3291611, "tags": {"highway": "bus_stop", "name": "Junction bus stop"}}, {"type": "node", "id": 5649291344, "lat": 6.6154055, "lon": 3.3572665, "tags": {"bus": "yes", "highway": "bus_stop", "name": "Ikeja City Mall", "public_transport": "platform"}}, {"type": "node", "id": 5649291345, "lat": 6.6153805, "lon": 3.3569029, "tags": {"bus": "yes", "highway": "bus_stop", "name": "Ikeja City Mall", "public_transport": "platform"}}, {"type": "node", "id": 5661711530, "lat": 6.4376645, "lon": 3.408765, "tags": {"bus": "yes", "highway": "bus_stop", "name": "Bonny Camp", "public_transport": "platform"}}, {"type": "node", "id": 5661711531, "lat": 6.4381611, "lon": 3.4095706, "tags": {"bus": "yes", "highway": "bus_stop", "name": "Bonny Camp", "public_transport": "platform"}}, {"type": "node", "id": 5661711532, "lat": 6.4377773, "lon": 3.4076698, "tags": {"bus": "yes", "highway": "bus_stop", "name": "Bonny Camp", "public_transport": "platform"}}, {"type": "node", "id": 5661711533, "lat": 6.4374708, "lon": 3.4074847, "tags": {"bus": "yes", "highway": "bus_stop", "name": "phone tracking", "phone": "08166318737", "public_transport": "platform"}}, {"type": "node", "id": 5661711556, "lat": 6.4444127, "lon": 3.4260352, "tags": {"bench": "yes", "bin": "no", "bus": "yes", "highway": "bus_stop", "name": "Falomo", "public_transport": "platform", "shelter": "yes"}}, {"type": "node", "id": 5661711557, "lat": 6.4446043, "lon": 3.4258296, "tags": {"bench": "yes", "bin": "no", "bus": "yes", "highway": "bus_stop", "name": "Falomo", "public_transport": "platform", "shelter": "yes"}}, {"type": "node", "id": 5661711558, "lat": 6.4541624, "lon": 3.4307082, "tags": {"bus": "yes", "highway": "bus_stop", "public_transport": "platform"}}, {"type": "node", "id": 5661711559, "lat": 6.4542411, "lon": 3.4310456, "tags": {"bus": "yes", "highway": "bus_stop", "public_transport": "platform"}}, {"type": "node", "id": 5665683280, "lat": 6.5412545, "lon": 3.3084254, "tags": {"highway": "bus_stop"}}, {"type": "node", "id": 5673266187, "lat": 6.430141, "lon": 3.4114056, "tags": {"bus": "yes", "highway": "bus_stop", "public_transport": "platform"}}, {"type": "node", "id": 5673266188, "lat": 6.4302597, "lon": 3.4111437, "tags": {"bus": "yes", "highway": "bus_stop", "public_transport": "platform"}}, {"type": "node", "id": 5674250723, "lat": 6.6196284, "lon": 3.474762, "tags": {"highway": "bus_stop", "name": "Ogolonto"}}, {"type": "node", "id": 5674250822, "lat": 6.6566872, "lon": 3.4759899, "tags": {"highway": "bus_stop", "name": "Asolo"}}, {"type": "node", "id": 5674250824, "lat": 6.4544702, "lon": 3.4308879, "tags": {"bus": "yes", "highway": "bus_stop", "name": "Golden Gate", "public_transport": "platform"}}, {"type": "node", "id": 5674251021, "lat": 6.6254126, "lon": 3.4839309, "tags": {"highway": "bus_stop", "name": "Agric"}}, {"type": "node", "id": 5676295239, "lat": 6.4454158, "lon": 3.4351838, "tags": {"bus": "yes", "highway": "bus_stop", "public_transport": "platform"}}, {"type": "node", "id": 5676295240, "lat": 6.4458661, "lon": 3.435917, "tags": {"bus": "yes", "highway": "bus_stop", "public_transport": "platform"}}, {"type": "node", "id": 5703157712, "lat": 6.4363867, "lon": 3.4182258, "tags": {"bus": "yes", "highway": "bus_stop", "name": "Oniru", "public_transport": "platform"}}, {"type": "node", "id": 5703157713, "lat": 6.4367405, "lon": 3.4189453, "tags": {"bus": "yes", "highway": "bus_stop", "name": "Oniru", "public_transport": "platform"}}, {"type": "node", "id": 5729098591, "lat": 6.4391004, "lon": 3.4266989, "tags": {"bus": "yes", "highway": "bus_stop", "name": "Law School", "public_transport": "platform"}}, {"type": "node", "id": 5729098592, "lat": 6.4388774, "lon": 3.4249643, "tags": {"bus": "yes", "highway": "bus_stop", "name": "Law School", "public_transport": "platform"}}, {"type": "node", "id": 5777682132, "lat": 6.4307513, "lon": 3.413552, "tags": {"bus": "yes", "highway": "bus_stop", "public_transport": "platform"}}, {"type": "node", "id": 5777682133, "lat": 6.4305573, "lon": 3.4149086, "tags": {"bus": "yes", "highway": "bus_stop", "public_transport": "platform"}}, {"type": "node", "id": 5777682134, "lat": 6.4307087, "lon": 3.4166975, "tags": {"bus": "yes", "highway": "bus_stop", "public_transport": "platform"}}, {"type": "node", "id": 5777682135, "lat": 6.4304685, "lon": 3.4170102, "tags": {"bus": "yes", "highway": "bus_stop", "public_transport": "platform"}}, {"type": "node", "id": 5777682136, "lat": 6.4294355, "lon": 3.4210443, "tags": {"bus": "yes", "highway": "bus_stop", "public_transport": "platform"}}, {"type": "node", "id": 5777682137, "lat": 6.4296418, "lon": 3.4210455, "tags": {"bus": "yes", "highway": "bus_stop", "public_transport": "platform"}}, {"type": "node", "id": 5777682138, "lat": 6.4293286, "lon": 3.4226782, "tags": {"bus": "yes", "highway": "bus_stop", "public_transport": "platform"}}, {"type": "node", "id": 5777682139, "lat": 6.4291074, "lon": 3.4229542, "tags": {"bus": "yes", "highway": "bus_stop", "public_transport": "platform"}}, {"type": "node", "id": 6291068267, "lat": 6.6245943, "lon": 3.4927082, "tags": {"bus": "yes", "highway": "bus_stop", "name": "Aruna Bus Stop", "operator": "Primero", "public_transport": "stop_position"}}, {"type": "node", "id": 6291068268, "lat": 6.6247402, "lon": 3.4917301, "tags": {"bus": "yes", "highway": "bus_stop", "name": "Aruna Bus Stop", "public_transport": "stop_position"}}, {"type": "node", "id": 6291068704, "lat": 6.6253321, "lon": 3.4878266, "tags": {"bus": "yes", "highway": "bus_stop", "name": "Agric Bus Stop", "public_transport": "stop_position"}}, {"type": "node", "id": 6291068705, "lat": 6.6255612, "lon": 3.4863272, "tags": {"bus": "yes", "highway": "bus_stop", "name": "Agric Bus Stop", "public_transport": "stop_position"}}, {"type": "node", "id": 6291068706, "lat": 6.6253867, "lon": 3.4840018, "tags": {"bus": "yes", "highway": "bus_stop", "name": "Agric", "public_transport": "stop_position"}}, {"type": "node", "id": 6291069012, "lat": 6.6195958, "lon": 3.4731978, "tags": {"bus": "yes", "highway": "bus_stop", "name": "Majidun Ogolonto Bus Stop", "public_transport": "stop_position"}}, {"type": "node", "id": 6291069013, "lat": 6.6196784, "lon": 3.4722322, "tags": {"bus": "yes", "highway": "bus_stop", "name": "Majidun Ogolonto Bus Stop", "public_transport": "stop_position"}}, {"type": "node", "id": 6291069035, "lat": 6.6189812, "lon": 3.4629496, "tags": {"bus": "yes", "highway": "bus_stop", "name": "Majidun Awori Bus Stop", "public_transport": "stop_position"}}, {"type": "node", "id": 6291069036, "lat": 6.6187297, "lon": 3.4620357, "tags": {"bus": "yes", "highway": "bus_stop", "name": "Majidun Awori Bus Stop", "public_transport": "stop_position"}}, {"type": "node", "id": 6291069267, "lat": 6.6098363, "lon": 3.4220803, "tags": {"bus": "yes", "highway": "bus_stop", "name": "Irawo Bus Stop", "public_transport": "stop_position"}}, {"type": "node", "id": 6291069371, "lat": 6.6102786, "lon": 3.4212542, "tags": {"bus": "yes", "highway": "bus_stop", "name": "Irawo Bus Stop", "public_transport": "stop_position"}}, {"type": "node", "id": 6291069506, "lat": 6.6120477, "lon": 3.4155384, "tags": {"bus": "yes", "highway": "bus_stop", "name": "Idera Bus Stop", "public_transport": "stop_position"}}, {"type": "node", "id": 6291069507, "lat": 6.6118878, "lon": 3.4145755, "tags": {"bus": "yes", "highway": "bus_stop", "name": "Idera Bus Stop", "public_transport": "stop_position"}}, {"type": "node", "id": 6291069508, "lat": 6.608584, "lon": 3.4092298, "tags": {"bus": "yes", "highway": "bus_stop", "name": "Onirin Bus Stop", "public_transport": "stop_position"}}, {"type": "node", "id": 6291069559, "lat": 6.6078646, "lon": 3.4086183, "tags": {"bus": "yes", "highway": "bus_stop", "name": "Onirin Bus Stop", "public_transport": "stop_position"}}, {"type": "node", "id": 6291069586, "lat": 6.6044942, "lon": 3.4019369, "tags": {"bus": "yes", "highway": "bus_stop", "name": "Mile 12 Bus Stop", "public_transport": "stop_position"}}, {"type": "node", "id": 6291361173, "lat": 6.5968718, "lon": 3.3856605, "tags": {"bus": "yes", "highway": "bus_stop", "public_transport": "stop_position"}}, {"type": "node", "id": 6291361174, "lat": 6.587407, "lon": 3.3787519, "tags": {"bus": "yes", "highway": "bus_stop", "public_transport": "stop_position"}}, {"type": "node", "id": 6291361179, "lat": 6.5873857, "lon": 3.378481, "tags": {"bus": "yes", "highway": "bus_stop", "public_transport": "stop_position"}}, {"type": "node", "id": 6291362221, "lat": 6.596762, "lon": 3.385338, "tags": {"bus": "yes", "highway": "bus_stop", "public_transport": "stop_position"}}, {"type": "node", "id": 6518697909, "lat": 6.5706693, "lon": 3.3456776, "tags": {"bus": "yes", "highway": "bus_stop", "public_transport": "platform"}}, {"type": "node", "id": 6518697911, "lat": 6.5756883, "lon": 3.3436566, "tags": {"bus": "yes", "highway": "bus_stop", "public_transport": "platform"}}, {"type": "node", "id": 6518697912, "lat": 6.5796001, "lon": 3.3420418, "tags": {"bus": "yes", "highway": "bus_stop", "public_transport": "platform"}}, {"type": "node", "id": 6518697915, "lat": 6.5873149, "lon": 3.3389332, "tags": {"bus": "yes", "highway": "bus_stop", "public_transport": "platform"}}, {"type": "node", "id": 6871106617, "lat": 6.5980531, "lon": 3.3867844, "tags": {"bus": "yes", "highway": "bus_stop", "name": "BRT Ketu", "public_transport": "platform"}}, {"type": "node", "id": 6871106823, "lat": 6.6179855, "lon": 3.3645471, "tags": {"bus": "yes", "highway": "bus_stop", "public_transport": "platform"}}, {"type": "node", "id": 6871106824, "lat": 6.6180415, "lon": 3.3648517, "tags": {"bus": "yes", "highway": "bus_stop", "public_transport": "platform"}}, {"type": "node", "id": 6871106873, "lat": 6.6168984, "lon": 3.36537, "tags": {"bus": "yes", "highway": "bus_stop", "public_transport": "platform"}}, {"type": "node", "id": 6871106874, "lat": 6.6170184, "lon": 3.3657733, "tags": {"bus": "yes", "highway": "bus_stop", "public_transport": "platform"}}, {"type": "node", "id": 6887250412, "lat": 6.4712722, "lon": 3.3828594, "tags": {"bus": "yes", "highway": "bus_stop", "public_transport": "platform"}}, {"type": "node", "id": 6887250417, "lat": 6.4704852, "lon": 3.3827562, "tags": {"bus": "yes", "highway": "bus_stop", "public_transport": "platform"}}, {"type": "node", "id": 6919151216, "lat": 6.5058662, "lon": 3.3639822, "tags": {"bus": "yes", "highway": "bus_stop", "public_transport": "station"}}, {"type": "node", "id": 6919151222, "lat": 6.5059957, "lon": 3.3637306, "tags": {"bus": "yes", "highway": "bus_stop", "public_transport": "station"}}, {"type": "node", "id": 6967079690, "lat": 6.5584274, "lon": 3.3671172, "tags": {"bus": "yes", "highway": "bus_stop", "public_transport": "platform"}}, {"type": "node", "id": 6967079715, "lat": 6.5589729, "lon": 3.3669627, "tags": {"bus": "yes", "bus_stop:category": "BRT", "highway": "bus_stop", "name": "Anthony Bus Stop", "public_transport": "platform"}}, {"type": "node", "id": 6967079716, "lat": 6.5570516, "lon": 3.3667482, "tags": {"bus": "yes", "bus_stop:category": "BRT", "highway": "bus_stop", "name": "Anthony Bus Stop", "public_transport": "platform"}}, {"type": "node", "id": 6967418559, "lat": 6.5750088, "lon": 3.36981, "tags": {"bus": "yes", "bus_stop:category": "BRT", "highway": "bus_stop", "name": "Maryland Bus Stop", "public_transport": "platform"}}, {"type": "node", "id": 6967418560, "lat": 6.5742742, "lon": 3.3689705, "tags": {"bus": "yes", "bus_stop:category": "BRT", "highway": "bus_stop", "name": "Maryland Bus Stop", "public_transport": "platform"}}, {"type": "node", "id": 6992641421, "lat": 6.6180254, "lon": 3.3606852, "tags": {"bus": "yes", "highway": "bus_stop", "name": "Barracks", "public_transport": "platform"}}, {"type": "node", "id": 6997535241, "lat": 6.6112012, "lon": 3.2958755, "tags": {"bus": "yes", "highway": "bus_stop", "name": "Alimosho", "public_transport": "platform"}}, {"type": "node", "id": 6997535242, "lat": 6.6116652, "lon": 3.2959545, "tags": {"bus": "yes", "highway": "bus_stop", "name": "Alimosho", "public_transport": "platform"}}, {"type": "node", "id": 7263913870, "lat": 6.6224962, "lon": 3.4992762, "tags": {"bus": "yes", "highway": "bus_stop", "name": "Benson", "public_transport": "platform"}}, {"type": "node", "id": 7377223107, "lat": 6.6006251, "lon": 3.3009008, "tags": {"bus": "yes", "highway": "bus_stop", "name": "Vulcanizer Bus Stop", "public_transport": "platform"}}, {"type": "node", "id": 7443645135, "lat": 6.5239425, "lon": 3.3625245, "tags": {"bus": "yes", "highway": "bus_stop", "public_transport": "stop_position"}}, {"type": "node", "id": 7443645136, "lat": 6.523804, "lon": 3.3621141, "tags": {"bus": "yes", "highway": "bus_stop", "public_transport": "stop_position"}}, {"type": "node", "id": 9074739313, "lat": 6.452363, "lon": 3.3687516}, {"type": "node", "id": 9074739314, "lat": 6.4517439, "lon": 3.3691452}, {"type": "node", "id": 9074739315, "lat": 6.4516394, "lon": 3.3689787}, {"type": "node", "id": 9074739316, "lat": 6.4522595, "lon": 3.3685867}, {"type": "node", "id": 9127712617, "lat": 6.5947556, "lon": 3.3360786, "tags": {"bus": "yes", "highway": "bus_stop", "name": "Ikeja Along", "public_transport": "platform"}}, {"type": "node", "id": 10760926957, "lat": 6.6216695, "lon": 3.3256683}, {"type": "node", "id": 10760926958, "lat": 6.6212575, "lon": 3.3258366}, {"type": "node", "id": 10760926959, "lat": 6.6213233, "lon": 3.326}, {"type": "node", "id": 10760926960, "lat": 6.6217353, "lon": 3.3258317}, {"type": "node", "id": 10776098576, "lat": 6.4461596, "lon": 3.3950293, "tags": {"name": "Marina", "public_transport": "station", "railway": "station", "station": "subway"}}, {"type": "node", "id": 10777382244, "lat": 6.4775535, "lon": 3.3431174, "tags": {"name": "Iganmu", "public_transport": "station", "railway": "station", "station": "subway", "subway": "yes"}}, {"type": "node", "id": 10777382245, "lat": 6.4599295, "lon": 3.3117268, "tags": {"name": "Mile 2", "public_transport": "station", "railway": "station", "station": "subway", "subway": "yes"}}, {"type": "node", "id": 10777382246, "lat": 6.4643875, "lon": 3.324479, "tags": {"name": "Alaba", "public_transport": "station", "railway": "station", "station": "subway", "subway": "yes"}}, {"type": "node", "id": 10777382247, "lat": 6.4746792, "lon": 3.3687699, "tags": {"name": "National Theatre", "public_transport": "station", "railway": "station", "station": "subway", "subway": "yes"}}, {"type": "node", "id": 11535170607, "lat": 6.5232544, "lon": 3.3673769, "tags": {"bus": "yes", "highway": "bus_stop", "name": "Fadeyi Bus Stop", "operator": "LAMATA", "public_transport": "platform", "shelter": "yes"}}, {"type": "node", "id": 12196756228, "lat": 6.4520283, "lon": 3.3686943}, {"type": "node", "id": 12196756229, "lat": 6.4518164, "lon": 3.368829}, {"type": "node", "id": 12196756230, "lat": 6.451833, "lon": 3.3688556}, {"type": "node", "id": 12196756231, "lat": 6.452046, "lon": 3.3687225}, {"type": "node", "id": 12229565715, "lat": 6.4465301, "lon": 3.3939936}, {"type": "node", "id": 12229565716, "lat": 6.4467761, "lon": 3.3941999}, {"type": "node", "id": 12229565717, "lat": 6.4457481, "lon": 3.3956527}, {"type": "node", "id": 12229565718, "lat": 6.4454862, "lon": 3.3954679}, {"type": "node", "id": 12241999694, "lat": 6.4774679, "lon": 3.3427477}, {"type": "node", "id": 12241999695, "lat": 6.4771874, "lon": 3.3428934}, {"type": "node", "id": 12241999696, "lat": 6.477554, "lon": 3.34354}, {"type": "node", "id": 12241999697, "lat": 6.4778568, "lon": 3.3433647}, {"type": "node", "id": 12241999699, "lat": 6.4773501, "lon": 3.3428089}, {"type": "node", "id": 12242003863, "lat": 6.4649297, "lon": 3.324929}, {"type": "node", "id": 12242003864, "lat": 6.463982, "lon": 3.323648}, {"type": "node", "id": 12242003865, "lat": 6.463704, "lon": 3.3238654}, {"type": "node", "id": 12242003866, "lat": 6.4646516, "lon": 3.3251443}, {"type": "node", "id": 12242003868, "lat": 6.4638567, "lon": 3.3237461}, {"type": "node", "id": 12242003870, "lat": 6.4647698, "lon": 3.3250528}, {"type": "node", "id": 12242020079, "lat": 6.4600657, "lon": 3.3108233}, {"type": "node", "id": 12242020080, "lat": 6.459687, "lon": 3.3108252}, {"type": "node", "id": 12242020081, "lat": 6.4596987, "lon": 3.3124419}, {"type": "node", "id": 12242020082, "lat": 6.4600666, "lon": 3.3124323}, {"type": "node", "id": 12242020083, "lat": 6.4598891, "lon": 3.3124369}, {"type": "node", "id": 12242020084, "lat": 6.4598656, "lon": 3.3108243}, {"type": "node", "id": 12260658320, "lat": 6.5017657, "lon": 3.3736846, "tags": {"alt_name": "Ebute Metta Station", "name": "Mobolaji Johnson Station", "public_transport": "station", "railway": "station", "start_date": "2021-06-10", "train": "yes", "wikidata": "Q110571183"}}, {"type": "node", "id": 12260658323, "lat": 6.619459, "lon": 3.3261746, "tags": {"name": "Agege", "operator": "LAMATA", "public_transport": "station", "railway": "station", "train": "yes"}}, {"type": "node", "id": 12260658324, "lat": 6.48343, "lon": 3.3814602, "tags": {"name": "Oyingbo", "public_transport": "station", "railway": "station", "wikidata": "Q130542160"}}, {"type": "node", "id": 12260658329, "lat": 6.5114693, "lon": 3.3699982, "tags": {"name": "Yaba", "public_transport": "station", "railway": "station", "train": "yes"}}, {"type": "node", "id": 12260658330, "lat": 6.5324821, "lon": 3.3614254, "tags": {"name": "Mushin", "public_transport": "station", "railway": "station", "train": "yes"}}, {"type": "node", "id": 12260658336, "lat": 6.5572533, "lon": 3.3514068, "tags": {"name": "Oshodi", "public_transport": "station", "railway": "station", "train": "yes", "wikidata": "Q130542196"}}, {"type": "node", "id": 12260658337, "lat": 6.5919092, "lon": 3.3373455, "tags": {"name": "Ikeja", "public_transport": "station", "railway": "station", "train": "yes", "wikidata": "Q130542201"}}, {"type": "way", "id": 981038963, "nodes": [9074739316, 9074739313, 9074739314, 9074739315, 12196756230, 12196756229, 12196756228, 12196756231, 9074739316], "tags": {"building": "yes", "name": "Asiwaju Bola Tinubu Station", "public_transport": "station", "railway": "station", "train": "yes"}}, {"type": "way", "id": 1157159790, "nodes": [10760926957, 10760926958, 10760926959, 10760926960, 10760926957], "tags": {"building": "yes", "construction": "yes", "name": "Agege LRMT Station", "operator": "LAMATA", "public_transport": "station", "railway": "station", "train": "yes"}}, {"type": "way", "id": 1321599125, "nodes": [12229565715, 12229565716, 12229565717, 12229565718, 12229565715], "tags": {"name": "Marina Train Station", "network": "LRMT Blue Line", "operator": "LAMATA", "public_transport": "station", "railway": "station", "train": "yes"}}, {"type": "way", "id": 1322974000, "nodes": [12241999694, 12241999699, 12241999695, 12241999696, 12241999697, 12241999694], "tags": {"name": "Iganmu", "public_transport": "station", "railway": "station", "train": "yes"}}, {"type": "way", "id": 1322975309, "nodes": [12242003863, 12242003864, 12242003868, 12242003865, 12242003866, 12242003870, 12242003863], "tags": {"name": "Alaba", "public_transport": "station", "railway": "station", "train": "yes"}}, {"type": "way", "id": 1322975948, "nodes": [12242020079, 12242020084, 12242020080, 12242020081, 12242020083, 12242020082, 12242020079], "tags": {"name": "Mile 2", "public_transport": "station", "railway": "station", "train": "yes"}}]}