{"version": 0.6, "generator": "Overpass API 0.7.62.5 1bd436f1", "osm3s": {"timestamp_osm_base": "2025-04-09T14:59:39Z", "copyright": "The data included in this document is from www.openstreetmap.org. The data is made available under ODbL."}, "elements": [{"type": "node", "id": 659300342, "lat": 36.354124, "lon": 6.6303001, "tags": {"addr:city": "\u0642\u0633\u0646\u0637\u064a\u0646\u0629", "addr:city:ar": "\u0642\u0633\u0646\u0637\u064a\u0646\u0629", "name": "Sidi Mabrouk", "name:ar": "\u0633\u064a\u062f\u064a \u0645\u0628\u0631\u0648\u0643", "name:en": "Sidi Mabrouk", "name:fr": "Sidi Mabrouk", "operator": "\u0627\u0644\u0634\u0631\u0643\u0629 \u0627\u0644\u0648\u0637\u0646\u064a\u0629 \u0644\u0644\u0646\u0642\u0644 \u0628\u0627\u0644\u0633\u0643\u0643 \u0627\u0644\u062d\u062f\u064a\u062f\u064a\u0629", "operator:ar": "\u0627\u0644\u0634\u0631\u0643\u0629 \u0627\u0644\u0648\u0637\u0646\u064a\u0629 \u0644\u0644\u0646\u0642\u0644 \u0628\u0627\u0644\u0633\u0643\u0643 \u0627\u0644\u062d\u062f\u064a\u062f\u064a\u0629", "operator:wikidata": "Q1275038", "operator:wikipedia": "ar:\u0627\u0644\u0634\u0631\u0643\u0629 \u0627\u0644\u0648\u0637\u0646\u064a\u0629 \u0644\u0644\u0646\u0642\u0644 \u0628\u0627\u0644\u0633\u0643\u0643 \u0627\u0644\u062d\u062f\u064a\u062f\u064a\u0629", "public_transport": "station", "railway": "station", "train": "yes", "wikidata": "Q117711024", "wikipedia": "fr:Gare de Sidi Mabrouk"}}, {"type": "node", "id": 1336897955, "lat": 36.3875173, "lon": 6.6403598, "tags": {"bus": "yes", "highway": "bus_stop", "public_transport": "platform"}}, {"type": "node", "id": 2464435133, "lat": 36.5307027, "lon": 6.7073401, "tags": {"bench": "yes", "bus": "yes", "highway": "bus_stop", "public_transport": "platform", "shelter": "yes"}}, {"type": "node", "id": 2464435139, "lat": 36.5312184, "lon": 6.7135242, "tags": {"bench": "yes", "bus": "yes", "highway": "bus_stop", "name": "Arr\u00eat de bus principal", "public_transport": "platform", "shelter": "yes"}}, {"type": "node", "id": 2464435150, "lat": 36.532202, "lon": 6.7091597, "tags": {"bench": "yes", "bus": "yes", "highway": "bus_stop", "public_transport": "platform", "shelter": "yes"}}, {"type": "node", "id": 2464435153, "lat": 36.5338154, "lon": 6.7115501, "tags": {"bench": "yes", "bus": "yes", "highway": "bus_stop", "public_transport": "platform", "shelter": "yes"}}, {"type": "node", "id": 2464435157, "lat": 36.5348388, "lon": 6.7153116, "tags": {"bench": "yes", "bus": "yes", "highway": "bus_stop", "public_transport": "platform", "shelter": "yes"}}, {"type": "node", "id": 2464435181, "lat": 36.5361943, "lon": 6.7132544, "tags": {"bench": "yes", "bus": "yes", "highway": "bus_stop", "public_transport": "platform", "shelter": "yes"}}, {"type": "node", "id": 2464435184, "lat": 36.5385159, "lon": 6.7162203, "tags": {"bench": "yes", "bus": "yes", "highway": "bus_stop", "public_transport": "platform", "shelter": "yes"}}, {"type": "node", "id": 2738098647, "lat": 36.3381161, "lon": 6.5949225, "tags": {"alt_name:fr": "Terminus", "bus": "yes", "highway": "bus_stop", "name": "Terminus Cit\u00e9 20 Ao\u00fbt 1955", "name:fr": "Cit\u00e9 20 Ao\u00fbt 1955 Terminus", "public_transport": "platform", "shelter": "yes"}}, {"type": "node", "id": 3150325155, "lat": 36.4389946, "lon": 6.6222287, "tags": {"bus": "yes", "highway": "bus_stop", "public_transport": "platform"}}, {"type": "node", "id": 3150325156, "lat": 36.4086183, "lon": 6.6010353, "tags": {"bus": "yes", "highway": "bus_stop", "public_transport": "platform"}}, {"type": "node", "id": 3150325634, "lat": 36.4410027, "lon": 6.6394926, "tags": {"bus": "yes", "highway": "bus_stop", "public_transport": "platform"}}, {"type": "node", "id": 3150325636, "lat": 36.3631503, "lon": 6.5886914, "tags": {"bus": "yes", "highway": "bus_stop", "public_transport": "platform"}}, {"type": "node", "id": 3150326130, "lat": 36.4374732, "lon": 6.6444162, "tags": {"bus": "yes", "highway": "bus_stop", "public_transport": "platform"}}, {"type": "node", "id": 3183752304, "lat": 36.3504344, "lon": 6.6128457, "tags": {"bus": "yes", "highway": "bus_stop", "name": "Kouhil Lakhdar", "name:ar": "\u0643\u0648\u062d\u064a\u0644 \u0644\u062e\u0636\u0631", "name:en": "Kouhil Lakhdar", "name:fr": "Kouhil Lakhdar", "public_transport": "platform"}}, {"type": "node", "id": 3183767467, "lat": 36.3490586, "lon": 6.6127869, "tags": {"bus": "yes", "highway": "bus_stop", "name": "Djenane zitoune \u062c\u0646\u0627\u0646 \u0632\u064a\u062a\u0648\u0646", "name:ar": "\u062c\u0646\u0627\u0646 \u0632\u064a\u062a\u0648\u0646", "name:fr": "Djenane zitoune", "public_transport": "platform"}}, {"type": "node", "id": 3264225026, "lat": 36.3445561, "lon": 6.6503849, "tags": {"bus": "yes", "highway": "bus_stop", "name": "Premier arr\u00eat de bus", "public_transport": "platform"}}, {"type": "node", "id": 3608167679, "lat": 36.367244, "lon": 6.6190457, "tags": {"addr:city": "\u0642\u0633\u0646\u0637\u064a\u0646\u0629", "name": "Constantine", "name:ar": "\u0642\u0633\u0646\u0637\u064a\u0646\u0629", "name:en": "Constantine", "name:fr": "Constantine", "operator": "\u0627\u0644\u0634\u0631\u0643\u0629 \u0627\u0644\u0648\u0637\u0646\u064a\u0629 \u0644\u0644\u0646\u0642\u0644 \u0628\u0627\u0644\u0633\u0643\u0643 \u0627\u0644\u062d\u062f\u064a\u062f\u064a\u0629", "public_transport": "station", "railway": "station", "train": "yes"}}, {"type": "node", "id": 3639980398, "lat": 36.1119014, "lon": 6.3554964, "tags": {"name": "Teleghma", "name:ar": "\u0627\u0644\u062a\u0644\u0627\u063a\u0645\u0629", "name:de": "Teleghma", "name:en": "Teleghma", "name:fr": "Teleghma", "operator": "SNTF", "public_transport": "station", "railway": "station", "train": "yes", "wikidata": "Q117710764", "wikipedia": "fr:Gare de Teleghma"}}, {"type": "node", "id": 3742839542, "lat": 36.3897599, "lon": 6.6028108, "tags": {"bus": "yes", "highway": "bus_stop", "public_transport": "platform"}}, {"type": "node", "id": 3779929942, "lat": 36.2591151, "lon": 6.6849114, "tags": {"addr:city": "\u0627\u0644\u062e\u0631\u0648\u0628", "addr:city:ar": "\u0627\u0644\u062e\u0631\u0648\u0628", "name": "El Khroub", "name:ar": "\u0627\u0644\u062e\u0631\u0648\u0628", "name:en": "El Khroub", "name:fr": "El Khroub", "operator": "\u0627\u0644\u0634\u0631\u0643\u0629 \u0627\u0644\u0648\u0637\u0646\u064a\u0629 \u0644\u0644\u0646\u0642\u0644 \u0628\u0627\u0644\u0633\u0643\u0643 \u0627\u0644\u062d\u062f\u064a\u062f\u064a\u0629", "operator:ar": "\u0627\u0644\u0634\u0631\u0643\u0629 \u0627\u0644\u0648\u0637\u0646\u064a\u0629 \u0644\u0644\u0646\u0642\u0644 \u0628\u0627\u0644\u0633\u0643\u0643 \u0627\u0644\u062d\u062f\u064a\u062f\u064a\u0629", "operator:wikidata": "Q1275038", "operator:wikipedia": "ar:\u0627\u0644\u0634\u0631\u0643\u0629 \u0627\u0644\u0648\u0637\u0646\u064a\u0629 \u0644\u0644\u0646\u0642\u0644 \u0628\u0627\u0644\u0633\u0643\u0643 \u0627\u0644\u062d\u062f\u064a\u062f\u064a\u0629", "public_transport": "station", "railway": "station", "train": "yes", "wikidata": "Q117710798", "wikipedia": "fr:Gare d'El Khroub"}}, {"type": "node", "id": 3917374659, "lat": 36.1709589, "lon": 6.692689, "tags": {"addr:city": "\u0623\u0648\u0644\u0627\u062f \u0631\u062d\u0645\u0648\u0646", "addr:city:ar": "\u0623\u0648\u0644\u0627\u062f \u0631\u062d\u0645\u0648\u0646", "name": "Ouled Rahmoun", "name:ar": "\u0623\u0648\u0644\u0627\u062f \u0631\u062d\u0645\u0648\u0646", "name:en": "Ouled Rahmoun", "name:fr": "Ouled Rahmoun", "name:kab": "\u0627\u0648\u0644\u0627\u062f \u0631\u062d\u0645\u0648\u0646", "operator": "\u0627\u0644\u0634\u0631\u0643\u0629 \u0627\u0644\u0648\u0637\u0646\u064a\u0629 \u0644\u0644\u0646\u0642\u0644 \u0628\u0627\u0644\u0633\u0643\u0643 \u0627\u0644\u062d\u062f\u064a\u062f\u064a\u0629", "operator:ar": "\u0627\u0644\u0634\u0631\u0643\u0629 \u0627\u0644\u0648\u0637\u0646\u064a\u0629 \u0644\u0644\u0646\u0642\u0644 \u0628\u0627\u0644\u0633\u0643\u0643 \u0627\u0644\u062d\u062f\u064a\u062f\u064a\u0629", "operator:wikidata": "Q1275038", "operator:wikipedia": "ar:\u0627\u0644\u0634\u0631\u0643\u0629 \u0627\u0644\u0648\u0637\u0646\u064a\u0629 \u0644\u0644\u0646\u0642\u0644 \u0628\u0627\u0644\u0633\u0643\u0643 \u0627\u0644\u062d\u062f\u064a\u062f\u064a\u0629", "public_transport": "station", "railway": "station", "train": "yes", "wikidata": "Q117710776", "wikipedia": "fr:Gare d'Ouled Rahmoune"}}, {"type": "node", "id": 3933877943, "lat": 36.4508708, "lon": 6.2620829, "tags": {"bench": "yes", "bus": "yes", "highway": "bus_stop", "name": "ARR\u00caT CENTRE - DNC", "network": "TRANSPORT COLLERCTIF PRIVE", "operator": "TRANSPORT COLLERCTIF PRIVE", "public_transport": "platform", "ref": "CENTRE - DNC", "shelter": "yes"}}, {"type": "node", "id": 3934173042, "lat": 36.4518427, "lon": 6.263014, "tags": {"bench": "no", "bus": "yes", "highway": "bus_stop", "name": "ARR\u00caT CENTRE - KHERBA SUP", "network": "TRANSPORT COLLERCTIF PRIVE", "operator": "TRANSPORT COLLERCTIF PRIVE", "public_transport": "platform", "ref": "CENTRE - KHERBA SUP", "shelter": "no"}}, {"type": "node", "id": 3934173154, "lat": 36.452102, "lon": 6.2628585, "tags": {"bench": "no", "bus": "yes", "highway": "bus_stop", "name": "ARR\u00caT CENTRE - KHERBA INF", "network": "TRANSPORT COLLERCTIF PRIVE", "operator": "TRANSPORT COLLERCTIF PRIVE", "public_transport": "platform", "ref": "CENTRE - KHERBA INF", "shelter": "no"}}, {"type": "node", "id": 4048773824, "lat": 36.3699711, "lon": 6.6423736, "tags": {"bus": "yes", "highway": "bus_stop", "name": "Laboum", "public_transport": "platform"}}, {"type": "node", "id": 4048773825, "lat": 36.3671088, "lon": 6.6442003, "tags": {"bus": "yes", "highway": "bus_stop", "name": "Abdelaziz", "name:ar": "\u0639\u0628\u062f \u0627\u0644\u0639\u0632\u064a\u0632", "name:en": "Abdelaziz", "name:fr": "Abdelaziz", "public_transport": "platform"}}, {"type": "node", "id": 4048773826, "lat": 36.3717891, "lon": 6.6400641, "tags": {"bus": "yes", "highway": "bus_stop", "public_transport": "platform"}}, {"type": "node", "id": 4104649890, "lat": 36.2476488, "lon": 6.5695696, "tags": {"bus": "yes", "highway": "bus_stop", "public_transport": "platform"}}, {"type": "node", "id": 4104649891, "lat": 36.2468528, "lon": 6.5690225, "tags": {"bus": "yes", "highway": "bus_stop", "public_transport": "platform"}}, {"type": "node", "id": 4104649892, "lat": 36.2466018, "lon": 6.5681856, "tags": {"bus": "yes", "highway": "bus_stop", "public_transport": "platform"}}, {"type": "node", "id": 4104649893, "lat": 36.2464374, "lon": 6.5682607, "tags": {"bus": "yes", "highway": "bus_stop", "public_transport": "platform"}}, {"type": "node", "id": 4104649894, "lat": 36.2467057, "lon": 6.5690546, "tags": {"bus": "yes", "highway": "bus_stop", "public_transport": "platform"}}, {"type": "node", "id": 4104649895, "lat": 36.246273, "lon": 6.5683036, "tags": {"bus": "yes", "highway": "bus_stop", "public_transport": "platform"}}, {"type": "node", "id": 4104649896, "lat": 36.2465759, "lon": 6.5690546, "tags": {"bus": "yes", "highway": "bus_stop", "public_transport": "platform"}}, {"type": "node", "id": 4104649897, "lat": 36.2468921, "lon": 6.567189, "tags": {"bus": "yes", "highway": "bus_stop", "public_transport": "platform"}}, {"type": "node", "id": 4104649898, "lat": 36.2427049, "lon": 6.5631449, "tags": {"bus": "yes", "highway": "bus_stop", "public_transport": "platform"}}, {"type": "node", "id": 4104649899, "lat": 36.2443736, "lon": 6.562113, "tags": {"bus": "yes", "highway": "bus_stop", "name": "Cit\u00e9 universitaire n'soumer", "name:fr": "Cit\u00e9 universitaire n'soumer", "public_transport": "platform"}}, {"type": "node", "id": 4104649900, "lat": 36.248801, "lon": 6.5726647, "tags": {"bus": "yes", "highway": "bus_stop", "public_transport": "platform"}}, {"type": "node", "id": 4104672862, "lat": 36.253012, "lon": 6.5733602, "tags": {"bus": "yes", "highway": "bus_stop", "public_transport": "platform"}}, {"type": "node", "id": 4104672863, "lat": 36.2532792, "lon": 6.5727972, "tags": {"bus": "yes", "highway": "bus_stop", "public_transport": "platform"}}, {"type": "node", "id": 4104672864, "lat": 36.2558747, "lon": 6.5780758, "tags": {"bus": "yes", "highway": "bus_stop", "name": "La Poste", "public_transport": "platform"}}, {"type": "node", "id": 4104672865, "lat": 36.2567745, "lon": 6.5827536, "tags": {"bus": "yes", "highway": "bus_stop", "name": "Cosider", "public_transport": "platform"}}, {"type": "node", "id": 4104672866, "lat": 36.2573318, "lon": 6.5863876, "tags": {"bus": "yes", "highway": "bus_stop", "name": "El Firma", "name:ar": "\u0645\u0648\u0642\u0641 \u0627\u0644\u0641\u064a\u0631\u0645\u0629", "public_transport": "platform"}}, {"type": "node", "id": 4104672867, "lat": 36.2576864, "lon": 6.5880719, "tags": {"bus": "yes", "highway": "bus_stop", "name": "El Firma", "name:ar": "\u0645\u0648\u0642\u0641 \u0627\u0644\u0641\u064a\u0631\u0645\u0629", "public_transport": "platform"}}, {"type": "node", "id": 4104672868, "lat": 36.2627778, "lon": 6.5846077, "tags": {"bus": "yes", "highway": "bus_stop", "name": "400 Logements", "public_transport": "platform"}}, {"type": "node", "id": 4104672869, "lat": 36.2579011, "lon": 6.5924659, "tags": {"bus": "yes", "highway": "bus_stop", "public_transport": "platform"}}, {"type": "node", "id": 4104672870, "lat": 36.2581349, "lon": 6.5917176, "tags": {"bus": "yes", "highway": "bus_stop", "name": "El Istiklal", "public_transport": "platform"}}, {"type": "node", "id": 4104672871, "lat": 36.2653389, "lon": 6.5747499, "tags": {"bus": "yes", "highway": "bus_stop", "public_transport": "platform"}}, {"type": "node", "id": 4104672872, "lat": 36.2563479, "lon": 6.5713242, "tags": {"bus": "yes", "highway": "bus_stop", "public_transport": "platform"}}, {"type": "node", "id": 4104672873, "lat": 36.2601312, "lon": 6.5698146, "tags": {"bus": "yes", "highway": "bus_stop", "public_transport": "platform"}}, {"type": "node", "id": 4104672874, "lat": 36.263666, "lon": 6.5694595, "tags": {"bus": "yes", "highway": "bus_stop", "public_transport": "platform"}}, {"type": "node", "id": 4109654393, "lat": 36.2557825, "lon": 6.5715919, "tags": {"bus": "yes", "highway": "bus_stop", "name": "uv", "public_transport": "platform"}}, {"type": "node", "id": 4133950540, "lat": 36.3569793, "lon": 6.6400717, "tags": {"bus": "yes", "highway": "bus_stop", "name": "\u0627\u0644\u062f\u0642\u0633\u064a", "name:ar": "\u0627\u0644\u062f\u0642\u0633\u064a", "name:fr": "daksi", "public_transport": "platform"}}, {"type": "node", "id": 4133950541, "lat": 36.3569078, "lon": 6.6402547, "tags": {"bus": "yes", "highway": "bus_stop", "name": "\u0627\u0644\u062f\u0642\u0633\u064a", "name:ar": "\u0627\u0644\u062f\u0642\u0633\u064a", "name:fr": "daksi", "public_transport": "platform"}}, {"type": "node", "id": 4133950542, "lat": 36.3616643, "lon": 6.6443332, "tags": {"bus": "yes", "highway": "bus_stop", "name": "\u0648\u0627\u062f \u0627\u0627\u062d\u062f", "name:ar": "\u0648\u0627\u062f \u0627\u0627\u062d\u062f", "name:fr": "Oued El Hed", "public_transport": "platform"}}, {"type": "node", "id": 4133950543, "lat": 36.3619882, "lon": 6.6438756, "tags": {"bus": "yes", "highway": "bus_stop", "name": "\u0648\u0627\u062f \u0627\u0644\u062d\u062f", "name:ar": "\u0648\u0627\u062f \u0627\u0644\u062d\u062f", "name:fr": "Oued El Had", "public_transport": "platform"}}, {"type": "node", "id": 4133950544, "lat": 36.3670373, "lon": 6.6441048, "tags": {"bus": "yes", "highway": "bus_stop", "public_transport": "platform"}}, {"type": "node", "id": 4133950545, "lat": 36.3711531, "lon": 6.6407255, "tags": {"bus": "yes", "highway": "bus_stop", "public_transport": "platform"}}, {"type": "node", "id": 4133950546, "lat": 36.3729993, "lon": 6.6386505, "tags": {"bus": "yes", "highway": "bus_stop", "public_transport": "platform"}}, {"type": "node", "id": 4133950547, "lat": 36.3729751, "lon": 6.6385505, "tags": {"bus": "yes", "highway": "bus_stop", "public_transport": "platform"}}, {"type": "node", "id": 4133950552, "lat": 36.3753677, "lon": 6.6367586, "tags": {"bus": "yes", "highway": "bus_stop", "public_transport": "platform"}}, {"type": "node", "id": 4133950553, "lat": 36.3755281, "lon": 6.6362115, "tags": {"bus": "yes", "highway": "bus_stop", "public_transport": "platform"}}, {"type": "node", "id": 4133950554, "lat": 36.3758538, "lon": 6.6345389, "tags": {"bus": "yes", "highway": "bus_stop", "public_transport": "platform"}}, {"type": "node", "id": 4133950556, "lat": 36.3796999, "lon": 6.6333964, "tags": {"bus": "yes", "highway": "bus_stop", "public_transport": "platform"}}, {"type": "node", "id": 4209118529, "lat": 36.3004419, "lon": 6.6178083, "tags": {"bus": "yes", "highway": "bus_stop", "name": "Arr\u00eat de bus Sounatiba", "name:ar": "\u0633\u0648\u0646\u0627\u062a\u064a\u0628\u0627", "public_transport": "platform"}}, {"type": "node", "id": 4209149492, "lat": 36.3085567, "lon": 6.6197092, "tags": {"alt_name": "Zouaghi", "bus": "yes", "highway": "bus_stop", "name": "Zwaghi", "name:ar": "\u0632\u0648\u0627\u063a\u064a", "name:en": "Zwaghi", "name:fr": "Zwaghi", "public_transport": "platform"}}, {"type": "node", "id": 4209161591, "lat": 36.3436426, "lon": 6.6173509, "tags": {"bus": "yes", "highway": "bus_stop", "name": "Universit\u00e9", "name:ar": "\u0627\u0644\u062c\u0627\u0645\u0639\u0629", "name:en": "University", "name:fr": "Universit\u00e9", "name:kab": "Taseddawit", "public_transport": "platform"}}, {"type": "node", "id": 4209183893, "lat": 36.3239729, "lon": 6.6209059, "tags": {"bus": "yes", "highway": "bus_stop", "name": "Khasna dar", "name:ar": "\u062e\u0632\u0646\u0629 \u062f\u0627\u0631", "public_transport": "platform"}}, {"type": "node", "id": 4209183992, "lat": 36.3326979, "lon": 6.6162738, "tags": {"bus": "yes", "highway": "bus_stop", "name": "Mentouri", "name:ar": "\u0645\u0646\u062a\u0648\u0631\u064a", "name:en": "Mentouri", "name:fr": "Mentouri", "name:kab": "Menturi", "public_transport": "platform"}}, {"type": "node", "id": 4209184091, "lat": 36.3505638, "lon": 6.6199607, "tags": {"bus": "yes", "highway": "bus_stop", "name": "SNTV", "name:fr": "SNTV", "public_transport": "platform"}}, {"type": "node", "id": 4209206790, "lat": 36.3518968, "lon": 6.6211535, "tags": {"bus": "yes", "highway": "bus_stop", "name": "Arr\u00eat SNTV", "public_transport": "platform"}}, {"type": "node", "id": 4220587101, "lat": 36.3939507, "lon": 6.6093177, "tags": {"bus": "yes", "highway": "bus_stop", "name": "Arr\u00eat 12", "public_transport": "platform"}}, {"type": "node", "id": 4290496897, "lat": 36.3808237, "lon": 6.6446144, "tags": {"bus": "yes", "highway": "bus_stop", "name": "\u0633\u0631\u0643\u064a\u0646\u0629", "name:ar": "\u0633\u0631\u0643\u064a\u0646\u0629", "name:en": "Sarkina", "name:fr": "Sarkina", "public_transport": "platform"}}, {"type": "node", "id": 4315501393, "lat": 36.2641195, "lon": 6.5804923, "tags": {"bus": "yes", "highway": "bus_stop", "public_transport": "platform"}}, {"type": "node", "id": 4315542598, "lat": 36.2608538, "lon": 6.5811473, "tags": {"bus": "yes", "highway": "bus_stop", "public_transport": "platform"}}, {"type": "node", "id": 4315542599, "lat": 36.2645112, "lon": 6.5784877, "tags": {"bus": "yes", "highway": "bus_stop", "public_transport": "platform"}}, {"type": "node", "id": 4315542992, "lat": 36.2571029, "lon": 6.583106, "tags": {"bus": "yes", "highway": "bus_stop", "public_transport": "platform"}}, {"type": "node", "id": 4315565190, "lat": 36.2615775, "lon": 6.5727757, "tags": {"bus": "yes", "highway": "bus_stop", "public_transport": "platform"}}, {"type": "node", "id": 4315565191, "lat": 36.2606346, "lon": 6.5701493, "tags": {"bus": "yes", "highway": "bus_stop", "public_transport": "platform"}}, {"type": "node", "id": 4315570391, "lat": 36.2559418, "lon": 6.5718125, "tags": {"bus": "yes", "highway": "bus_stop", "public_transport": "platform"}}, {"type": "node", "id": 4337480737, "lat": 36.4528402, "lon": 6.2659822, "tags": {"bench": "no", "bus": "yes", "highway": "bus_stop", "name": "ARR\u00caT LOT NORD", "network": "TRANSPORT COLLERCTIF PRIVE", "operator": "TRANSPORT COLLERCTIF PRIVE", "public_transport": "platform", "shelter": "no"}}, {"type": "node", "id": 4337626711, "lat": 36.4474413, "lon": 6.2648946, "tags": {"bus": "yes", "highway": "bus_stop", "name": "Teleghma-Chelghoum Laid-Oued Athmania-Setif", "public_transport": "platform"}}, {"type": "node", "id": 4360502763, "lat": 36.4522737, "lon": 6.2604191, "tags": {"bench": "no", "bus": "yes", "highway": "bus_stop", "name": "Arr\u00eat de bus ETUM", "network": "TRANSPORT COLLECTIF PUBLIC", "operator": "ETUM", "public_transport": "platform", "shelter": "no"}}, {"type": "node", "id": 4361883971, "lat": 36.4519509, "lon": 6.2630017, "tags": {"bench": "no", "bus": "yes", "highway": "bus_stop", "name": "ARR\u00caT CENTRE - BOULMERKA BENMAHDJOUB", "network": "TRANSPORT COLLERCTIF PRIVE", "operator": "TRANSPORT COLLERCTIF PRIVE", "public_transport": "platform", "ref": "CENTRE - BOULMERKA BENMAHDJOUB", "shelter": "no"}}, {"type": "node", "id": 4368156823, "lat": 36.4516593, "lon": 6.2681691, "tags": {"bus": "yes", "highway": "bus_stop", "name": "ARR\u00caT BUS GRAREM", "public_transport": "platform"}}, {"type": "node", "id": 4368168745, "lat": 36.4558767, "lon": 6.2666447, "tags": {"bus": "yes", "highway": "bus_stop", "name": "ARR\u00caT BUS SIDI MEROUANE", "public_transport": "platform"}}, {"type": "node", "id": 4370136036, "lat": 36.5072197, "lon": 6.2955349, "tags": {"bus": "yes", "highway": "bus_stop", "name": "Arr\u00eat de bus", "public_transport": "platform"}}, {"type": "node", "id": 4381270009, "lat": 36.3143287, "lon": 6.628113, "tags": {"bus": "yes", "highway": "bus_stop", "name": "Arr\u00eat de bus 600 lgmnt", "name:fr": "Arr\u00eat de bus 600 lgmnt", "public_transport": "platform"}}, {"type": "node", "id": 4381270209, "lat": 36.3147744, "lon": 6.633215, "tags": {"bus": "yes", "highway": "bus_stop", "name": "Terminus 500 lgmnt", "name:fr": "Terminus 500 lgmnt", "public_transport": "platform"}}, {"type": "node", "id": 4381307100, "lat": 36.3136767, "lon": 6.6305644, "tags": {"bus": "yes", "highway": "bus_stop", "name": "Arr\u00eat de bus", "name:fr": "Arr\u00eat de bus", "public_transport": "platform"}}, {"type": "node", "id": 4518514997, "lat": 36.245947, "lon": 6.7275429, "tags": {"bus": "yes", "highway": "bus_stop", "name": "\u0645\u0648\u0642\u0641 \u0627\u0644\u062d\u0627\u0641\u0644\u0627\u062a \u0645\u064a\u0644\u0633", "name:ar": "\u0645\u0648\u0642\u0641 \u0627\u0644\u062d\u0627\u0641\u0644\u0627\u062a \u0645\u064a\u0644\u0633", "name:fr": "Milse", "public_transport": "platform"}}, {"type": "node", "id": 4550822089, "lat": 36.2398406, "lon": 6.5584286, "tags": {"bus": "yes", "highway": "bus_stop", "name": "\u0627\u0644\u0648\u062d\u062f\u0629 \u0627\u0644\u062c\u0648\u0627\u0631\u064a\u0629 18", "name:ar": "\u0627\u0644\u0648\u062d\u062f\u0629 \u0627\u0644\u062c\u0648\u0627\u0631\u064a\u0629 18", "name:fr": "U.V 18", "public_transport": "platform"}}, {"type": "node", "id": 4555593592, "lat": 36.286853, "lon": 6.5225449, "tags": {"bus": "yes", "highway": "bus_stop", "name": "\u0633\u0648\u0646\u0627\u0643\u0648\u0645", "name:ar": "\u0633\u0648\u0646\u0627\u0643\u0648\u0645", "name:fr": "Sonacom", "public_transport": "platform"}}, {"type": "node", "id": 4565076890, "lat": 36.2542819, "lon": 6.7115778, "tags": {"bus": "yes", "highway": "bus_stop", "name": "\u0645\u0627\u0633\u064a\u0646\u064a\u0633\u0627", "name:ar": "\u0645\u0627\u0633\u064a\u0646\u064a\u0633\u0627", "name:en": "Massinissa", "name:fr": "Massinissa", "public_transport": "platform"}}, {"type": "node", "id": 4584008089, "lat": 36.3540156, "lon": 6.6348355, "tags": {"bus": "yes", "highway": "bus_stop", "name:ar": "\u0627\u0628\u0627 \u0627\u064a\u0648\u0628 \u0627\u0644\u0627\u0646\u0635\u0627\u0631\u064a", "name:fr": "Arr\u00eat la mosqu\u00e9e", "public_transport": "platform"}}, {"type": "node", "id": 4632152537, "lat": 36.3914205, "lon": 6.645186, "tags": {"bus": "yes", "highway": "bus_stop", "public_transport": "platform"}}, {"type": "node", "id": 4632152538, "lat": 36.389338, "lon": 6.6414705, "tags": {"bus": "yes", "highway": "bus_stop", "public_transport": "platform"}}, {"type": "node", "id": 4632194210, "lat": 36.3926764, "lon": 6.6501121, "tags": {"bus": "yes", "highway": "bus_stop", "public_transport": "platform"}}, {"type": "node", "id": 4632194212, "lat": 36.3850455, "lon": 6.6365332, "tags": {"bus": "yes", "highway": "bus_stop", "public_transport": "platform"}}, {"type": "node", "id": 4632194213, "lat": 36.3814503, "lon": 6.6340998, "tags": {"bus": "yes", "highway": "bus_stop", "public_transport": "platform"}}, {"type": "node", "id": 4632194214, "lat": 36.379144, "lon": 6.633852, "tags": {"bus": "yes", "highway": "bus_stop", "public_transport": "platform"}}, {"type": "node", "id": 4632194215, "lat": 36.3652066, "lon": 6.644065, "tags": {"bus": "yes", "highway": "bus_stop", "public_transport": "platform"}}, {"type": "node", "id": 4632194216, "lat": 36.3636587, "lon": 6.644072, "tags": {"bus": "yes", "highway": "bus_stop", "public_transport": "platform"}}, {"type": "node", "id": 4966667990, "lat": 36.4309262, "lon": 6.2523003, "tags": {"bus": "yes", "highway": "bus_stop", "name": "ARR\u00caT", "operator": "TRANSPORT COLLERCTIF PRIVE", "public_transport": "platform", "ref": "CENTRE - DNC"}}, {"type": "node", "id": 4966667991, "lat": 36.4343035, "lon": 6.2560205, "tags": {"bus": "yes", "highway": "bus_stop", "name": "ARR\u00caT", "operator": "TRANSPORT COLLERCTIF PRIVE", "public_transport": "platform", "ref": "CENTRE - DNC"}}, {"type": "node", "id": 4966667992, "lat": 36.4356619, "lon": 6.2553466, "tags": {"bus": "yes", "highway": "bus_stop", "name": "ARR\u00caT POSTE", "operator": "TRANSPORT COLLERCTIF PRIVE", "public_transport": "platform", "ref": "CENTRE - DNC"}}, {"type": "node", "id": 4966667993, "lat": 36.4368271, "lon": 6.2562525, "tags": {"bus": "yes", "highway": "bus_stop", "name": "ARR\u00caT CEM", "operator": "TRANSPORT COLLERCTIF PRIVE", "public_transport": "platform", "ref": "CENTRE - DNC"}}, {"type": "node", "id": 4966667995, "lat": 36.4395525, "lon": 6.2575393, "tags": {"bus": "yes", "highway": "bus_stop", "name": "ARR\u00caT WILAYA", "operator": "TRANSPORT COLLERCTIF PRIVE", "public_transport": "platform", "ref": "CENTRE - DNC"}}, {"type": "node", "id": 4966668000, "lat": 36.4483935, "lon": 6.2634288, "tags": {"bench": "no", "bus": "yes", "highway": "bus_stop", "name": "ARR\u00caT BOULEVARD", "network": "TRANSPORT COLLERCTIF PRIVE", "operator": "TRANSPORT COLLERCTIF PRIVE", "public_transport": "platform", "ref": "CENTRE - DNC", "shelter": "no"}}, {"type": "node", "id": 4966668002, "lat": 36.4403811, "lon": 6.2482059, "tags": {"bench": "no", "bus": "yes", "highway": "bus_stop", "name": "ARR\u00caT", "network": "TRANSPORT COLLERCTIF PRIVE", "operator": "TRANSPORT COLLERCTIF PRIVE", "public_transport": "platform", "ref": "CENTRE - KHERBA SUP", "shelter": "no"}}, {"type": "node", "id": 4966668003, "lat": 36.4409874, "lon": 6.249539, "tags": {"bench": "no", "bus": "yes", "highway": "bus_stop", "name": "ARR\u00caT", "network": "TRANSPORT COLLERCTIF PRIVE", "operator": "TRANSPORT COLLERCTIF PRIVE", "public_transport": "platform", "ref": "CENTRE - KHERBA SUP", "shelter": "no"}}, {"type": "node", "id": 4966668004, "lat": 36.4394435, "lon": 6.2449577, "tags": {"bench": "no", "bus": "yes", "highway": "bus_stop", "name": "ARR\u00caT CEM - TERMINUS KH-SUP", "network": "TRANSPORT COLLERCTIF PRIVE", "operator": "TRANSPORT COLLERCTIF PRIVE", "public_transport": "platform", "ref": "CENTRE - KHERBA SUP", "shelter": "no"}}, {"type": "node", "id": 4966668005, "lat": 36.4418122, "lon": 6.2507654, "tags": {"bench": "no", "bus": "yes", "highway": "bus_stop", "name": "ARR\u00caT MOSQU\u00c9E", "network": "TRANSPORT COLLERCTIF PRIVE", "operator": "TRANSPORT COLLERCTIF PRIVE", "public_transport": "platform", "ref": "CENTRE - KHERBA SUP", "shelter": "no"}}, {"type": "node", "id": 4966668006, "lat": 36.4421008, "lon": 6.2516713, "tags": {"bench": "no", "bus": "yes", "highway": "bus_stop", "name": "ARR\u00caT AMG", "network": "TRANSPORT COLLERCTIF PRIVE", "operator": "TRANSPORT COLLERCTIF PRIVE", "public_transport": "platform", "ref": "CENTRE - KHERBA SUP", "shelter": "no"}}, {"type": "node", "id": 4966668007, "lat": 36.4424806, "lon": 6.2531733, "tags": {"bench": "no", "bus": "yes", "highway": "bus_stop", "name": "ARR\u00caT AMG", "network": "TRANSPORT COLLERCTIF PRIVE", "operator": "TRANSPORT COLLERCTIF PRIVE", "public_transport": "platform", "ref": "CENTRE - KHERBA SUP", "shelter": "no"}}, {"type": "node", "id": 4966668008, "lat": 36.442842, "lon": 6.2552105, "tags": {"bench": "no", "bus": "yes", "highway": "bus_stop", "name": "ARR\u00caT ACAD\u00c9MIE", "network": "TRANSPORT COLLERCTIF PRIVE", "operator": "TRANSPORT COLLERCTIF PRIVE", "public_transport": "platform", "ref": "CENTRE - KHERBA SUP", "shelter": "no"}}, {"type": "node", "id": 4966668009, "lat": 36.4430772, "lon": 6.2564738, "tags": {"bench": "no", "bus": "yes", "highway": "bus_stop", "name": "ARR\u00caT", "network": "TRANSPORT COLLERCTIF PRIVE", "operator": "TRANSPORT COLLERCTIF PRIVE", "public_transport": "platform", "ref": "CENTRE - KHERBA SUP", "shelter": "no"}}, {"type": "node", "id": 4966668010, "lat": 36.4436015, "lon": 6.258523, "tags": {"bench": "no", "bus": "yes", "highway": "bus_stop", "name": "ARR\u00caT TR\u00c9SOR", "network": "TRANSPORT COLLERCTIF PRIVE", "operator": "TRANSPORT COLLERCTIF PRIVE", "public_transport": "platform", "ref": "CENTRE - KHERBA SUP", "shelter": "no"}}, {"type": "node", "id": 4966668011, "lat": 36.4447871, "lon": 6.2586551, "tags": {"bench": "no", "bus": "yes", "highway": "bus_stop", "name": "ARR\u00caT ESCALIERS", "network": "TRANSPORT COLLERCTIF PRIVE", "operator": "TRANSPORT COLLERCTIF PRIVE", "public_transport": "platform", "ref": "CENTRE - KHERBA SUP", "shelter": "no"}}, {"type": "node", "id": 4966668012, "lat": 36.4459743, "lon": 6.2585203, "tags": {"bench": "no", "bus": "yes", "highway": "bus_stop", "name": "ARR\u00caT CAF\u00c9", "network": "TRANSPORT COLLERCTIF PRIVE", "operator": "TRANSPORT COLLERCTIF PRIVE", "public_transport": "platform", "ref": "CENTRE - KHERBA SUP", "shelter": "no"}}, {"type": "node", "id": 4966668013, "lat": 36.444854, "lon": 6.2474871, "tags": {"bench": "no", "bus": "yes", "highway": "bus_stop", "name": "ARR\u00caT", "network": "TRANSPORT COLLERCTIF PRIVE", "operator": "TRANSPORT COLLERCTIF PRIVE", "public_transport": "platform", "ref": "CENTRE - KHERBA INF", "shelter": "no"}}, {"type": "node", "id": 4966668014, "lat": 36.4461831, "lon": 6.2518309, "tags": {"bench": "no", "bus": "yes", "highway": "bus_stop", "name": "ARR\u00caT CAFETTE", "network": "TRANSPORT COLLERCTIF PRIVE", "operator": "TRANSPORT COLLERCTIF PRIVE", "public_transport": "platform", "ref": "CENTRE - KHERBA INF", "shelter": "no"}}, {"type": "node", "id": 4966668015, "lat": 36.4441193, "lon": 6.2432465, "tags": {"bench": "no", "bus": "yes", "highway": "bus_stop", "name": "TERMINUS KH-INF", "network": "TRANSPORT COLLERCTIF PRIVE", "operator": "TRANSPORT COLLERCTIF PRIVE", "public_transport": "platform", "ref": "CENTRE - KHERBA INF", "shelter": "no"}}, {"type": "node", "id": 4966668016, "lat": 36.4463503, "lon": 6.2531465, "tags": {"bench": "no", "bus": "yes", "highway": "bus_stop", "name": "ARR\u00caT TAXI-PHONE", "network": "TRANSPORT COLLERCTIF PRIVE", "operator": "TRANSPORT COLLERCTIF PRIVE", "public_transport": "platform", "ref": "CENTRE - KHERBA INF", "shelter": "no"}}, {"type": "node", "id": 4966668017, "lat": 36.4461637, "lon": 6.2555927, "tags": {"bench": "no", "bus": "yes", "highway": "bus_stop", "name": "ARR\u00caT \u00c9VOLUTIFS", "network": "TRANSPORT COLLERCTIF PRIVE", "operator": "TRANSPORT COLLERCTIF PRIVE", "public_transport": "platform", "ref": "CENTRE - KHERBA INF", "shelter": "no"}}, {"type": "node", "id": 4966668018, "lat": 36.4460922, "lon": 6.2584472, "tags": {"bench": "no", "bus": "yes", "highway": "bus_stop", "name": "ARR\u00caT CAF\u00c9", "network": "TRANSPORT COLLERCTIF PRIVE", "operator": "TRANSPORT COLLERCTIF PRIVE", "public_transport": "platform", "ref": "CENTRE - KHERBA INF", "shelter": "no"}}, {"type": "node", "id": 4966672024, "lat": 36.4474011, "lon": 6.2586475, "tags": {"bench": "no", "bus": "yes", "highway": "bus_stop", "name": "ARR\u00caT STOP", "network": "TRANSPORT COLLERCTIF PRIVE", "operator": "TRANSPORT COLLERCTIF PRIVE", "public_transport": "platform", "ref": "CENTRE - KHERBA SUP", "shelter": "no"}}, {"type": "node", "id": 4966672026, "lat": 36.4477819, "lon": 6.2590706, "tags": {"bench": "no", "bus": "yes", "highway": "bus_stop", "name": "ARR\u00caT CTC", "network": "TRANSPORT COLLERCTIF PRIVE", "operator": "TRANSPORT COLLERCTIF PRIVE", "public_transport": "platform", "ref": "CENTRE - KHERBA SUP", "shelter": "no"}}, {"type": "node", "id": 4966672027, "lat": 36.4489616, "lon": 6.2600541, "tags": {"bench": "no", "bus": "yes", "highway": "bus_stop", "name": "ARR\u00caT CHATEAU D'EAU", "network": "TRANSPORT COLLERCTIF PRIVE", "operator": "TRANSPORT COLLERCTIF PRIVE", "public_transport": "platform", "ref": "CENTRE - KHERBA SUP", "shelter": "no"}}, {"type": "node", "id": 4966672028, "lat": 36.4521058, "lon": 6.2632538, "tags": {"bench": "no", "bus": "yes", "highway": "bus_stop", "name": "ARR\u00caT CENTRE - 240 Logts", "network": "TRANSPORT COLLERCTIF PRIVE", "operator": "TRANSPORT COLLERCTIF PRIVE", "public_transport": "platform", "ref": "CENTRE - 240 Logts", "shelter": "no"}}, {"type": "node", "id": 5107005924, "lat": 36.5188739, "lon": 6.3237582, "tags": {"bus": "yes", "highway": "bus_stop", "public_transport": "platform"}}, {"type": "node", "id": 5107005925, "lat": 36.5187313, "lon": 6.3264135, "tags": {"bus": "yes", "highway": "bus_stop", "public_transport": "platform"}}, {"type": "node", "id": 5107044021, "lat": 36.5186141, "lon": 6.3236702, "tags": {"bus": "yes", "highway": "bus_stop", "public_transport": "platform"}}, {"type": "node", "id": 5109230096, "lat": 36.450171, "lon": 6.2679959, "tags": {"bench": "no", "bus": "yes", "highway": "bus_stop", "name": "CENTRE - SIDI SGHIR", "network": "TRANSPORT COLLERCTIF PRIVE", "operator": "TRANSPORT COLLERCTIF PRIVE", "public_transport": "platform", "shelter": "no"}}, {"type": "node", "id": 5109230097, "lat": 36.4496488, "lon": 6.2668307, "tags": {"bench": "no", "bus": "yes", "highway": "bus_stop", "name": "CENTRE - SENNAOUA", "network": "TRANSPORT COLLERCTIF PRIVE", "operator": "TRANSPORT COLLERCTIF PRIVE", "public_transport": "platform", "shelter": "no"}}, {"type": "node", "id": 5249178413, "lat": 36.125453, "lon": 6.3688273, "tags": {"bus": "yes", "highway": "bus_stop", "name": "CNEP", "public_transport": "platform"}}, {"type": "node", "id": 5249218625, "lat": 36.1196974, "lon": 6.3598501, "tags": {"bus": "yes", "highway": "bus_stop", "public_transport": "platform"}}, {"type": "node", "id": 6806866785, "lat": 36.4271609, "lon": 6.3200912, "tags": {"highway": "bus_stop", "name": "\u0646\u0642\u0637\u0629 \u062a\u0648\u0642\u0641 \u0627\u0644\u062d\u0627\u0641\u0644\u0627\u062a", "name:ar": "\u0646\u0642\u0637\u0629 \u062a\u0648\u0642\u0641 \u0627\u0644\u062d\u0627\u0641\u0644\u0627\u062a", "name:en": "Bus Stop", "name:fr": "Arr\u00eat de Bus"}}, {"type": "node", "id": 6806866885, "lat": 36.4263263, "lon": 6.3198018, "tags": {"highway": "bus_stop", "name": "\u0645\u062d\u0637\u0629 \u062a\u0648\u0642\u0641 \u0627\u0644\u062d\u0627\u0641\u0644\u0627\u062a", "name:ar": "\u0645\u062d\u0637\u0629 \u062a\u0648\u0642\u0641 \u0627\u0644\u062d\u0627\u0641\u0644\u0627\u062a", "name:en": "Bus Stop", "name:fr": "Arr\u00eat de Bus"}}, {"type": "node", "id": 7386275085, "lat": 36.2995917, "lon": 6.6241445, "tags": {"bus": "yes", "highway": "bus_stop", "name:fr": "cit\u00e9 les cypr\u00e8s", "public_transport": "platform"}}, {"type": "node", "id": 9355174217, "lat": 36.5308659, "lon": 6.713052, "tags": {"name": "Zighoud Youcef", "public_transport": "station", "railway": "station", "train": "yes", "wikidata": "Q117608648", "wikipedia": "fr:Gare de Zighoud Youcef"}}, {"type": "node", "id": 10861721008, "lat": 36.3559576, "lon": 6.6230238, "tags": {"highway": "bus_stop", "name:fr": "Arr\u00eat de Bus Chalet Des Pins"}}]}