{"version": 0.6, "generator": "Overpass API 0.7.62.5 1bd436f1", "osm3s": {"timestamp_osm_base": "2025-04-09T14:34:15Z", "copyright": "The data included in this document is from www.openstreetmap.org. The data is made available under ODbL."}, "elements": [{"type": "node", "id": 390336343, "lat": 41.9709041, "lon": 1.0934091, "tags": {"bus": "yes", "highway": "bus_stop", "name": "Montargull", "public_transport": "stop_position", "route_ref": "L0092"}}, {"type": "node", "id": 1707108099, "lat": 42.1081871, "lon": 1.2996801, "tags": {"bus": "yes", "highway": "bus_stop", "name": "La Penella", "public_transport": "stop_position", "route_ref": "L0576"}}, {"type": "node", "id": 1712854401, "lat": 42.0855657, "lon": 1.2930237, "tags": {"bus": "yes", "highway": "bus_stop", "name": "Pont Nou", "public_transport": "stop_position", "route_ref": "L0576"}}, {"type": "node", "id": 1713447923, "lat": 42.0831802, "lon": 1.3009664, "tags": {"bus": "yes", "highway": "bus_stop", "name": "Oliana (resid\u00e8ncia)", "public_transport": "stop_position", "route_ref": "L0576"}}, {"type": "node", "id": 2052829557, "lat": 41.8031073, "lon": 1.0809203, "tags": {"bus": "yes", "highway": "bus_stop", "name": "Mafet", "public_transport": "stop_position", "route_ref": "L0092"}}, {"type": "node", "id": 2059481660, "lat": 41.9484304, "lon": 1.2764674, "tags": {"bench": "yes", "bus": "yes", "highway": "bus_stop", "name": "Tiurana", "public_transport": "platform", "route_ref": "L0576", "shelter": "yes"}}, {"type": "node", "id": 2059481661, "lat": 41.9484541, "lon": 1.2764091, "tags": {"bus": "yes", "highway": "bus_stop", "name": "Tiurana", "public_transport": "stop_position", "route_ref": "L0576"}}, {"type": "node", "id": 2059481692, "lat": 41.9493667, "lon": 1.2782321, "tags": {"bus": "yes", "highway": "bus_stop", "public_transport": "platform"}}, {"type": "node", "id": 2150235316, "lat": 41.8397105, "lon": 1.3559914, "tags": {"bus": "yes", "highway": "bus_stop", "name": "Biosca", "public_transport": "stop_position", "route_ref": "L0696"}}, {"type": "node", "id": 2150235324, "lat": 41.8397467, "lon": 1.3562473, "tags": {"bus": "yes", "highway": "bus_stop", "name": "Biosca", "public_transport": "stop_position", "route_ref": "L0696"}}, {"type": "node", "id": 2626149585, "lat": 41.922566, "lon": 1.4630089, "tags": {"bus": "yes", "highway": "bus_stop", "name": "Hostal Nou", "public_transport": "stop_position", "route_ref": "L0696 L1704"}}, {"type": "node", "id": 2626149597, "lat": 41.923565, "lon": 1.4636226, "tags": {"bus": "yes", "highway": "bus_stop", "name": "Hostal Nou", "public_transport": "stop_position", "route_ref": "L0696"}}, {"type": "node", "id": 3004629628, "lat": 42.0729649, "lon": 1.0959807, "tags": {"bus": "yes", "highway": "bus_stop", "name": "Benavent", "public_transport": "stop_position", "route_ref": "L0092"}}, {"type": "node", "id": 3004629645, "lat": 42.0731471, "lon": 1.0959817, "tags": {"bus": "yes", "highway": "bus_stop", "name": "Benavent", "public_transport": "stop_position", "route_ref": "L0092"}}, {"type": "node", "id": 3061249332, "lat": 41.9707873, "lon": 1.0933386, "tags": {"bus": "yes", "highway": "bus_stop", "name": "Montargull", "public_transport": "stop_position", "route_ref": "L0092"}}, {"type": "node", "id": 3073483398, "lat": 41.9334264, "lon": 1.0837669, "tags": {"bus": "yes", "highway": "bus_stop", "name": "Vall-llebrera", "public_transport": "stop_position", "route_ref": "L0092"}}, {"type": "node", "id": 3073484798, "lat": 41.9341663, "lon": 1.0835514, "tags": {"bus": "yes", "highway": "bus_stop", "name": "Vall-llebrera", "public_transport": "stop_position", "route_ref": "L0092"}}, {"type": "node", "id": 3177842895, "lat": 41.7820548, "lon": 1.2898563, "tags": {"bus": "yes", "highway": "bus_stop", "public_transport": "platform", "shelter": "yes"}}, {"type": "node", "id": 3177842958, "lat": 41.7866522, "lon": 1.2892, "tags": {"bus": "yes", "highway": "bus_stop", "public_transport": "platform", "shelter": "yes"}}, {"type": "node", "id": 3452611014, "lat": 42.0663402, "lon": 1.3137322, "tags": {"bus": "yes", "highway": "bus_stop", "name": "Oliana", "public_transport": "platform", "route_ref": "L0576"}}, {"type": "node", "id": 3465654659, "lat": 42.0469321, "lon": 1.0989454, "tags": {"bus": "yes", "highway": "bus_stop", "name": "Comiols", "public_transport": "stop_position", "route_ref": "L0092"}}, {"type": "node", "id": 3465654662, "lat": 42.0470028, "lon": 1.0985937, "tags": {"bus": "yes", "highway": "bus_stop", "name": "Comiols", "public_transport": "stop_position", "route_ref": "L0092"}}, {"type": "node", "id": 3751537566, "lat": 41.7306808, "lon": 1.2705169, "tags": {"bus": "yes", "highway": "bus_stop", "public_transport": "platform"}}, {"type": "node", "id": 3755546122, "lat": 42.0459954, "lon": 1.2924127, "tags": {"bench": "yes", "bus": "yes", "highway": "bus_stop", "name": "Nuncarga", "name:ca": "Nuncarga", "public_transport": "platform", "shelter": "yes", "tactile_paving": "no"}}, {"type": "node", "id": 3903217553, "lat": 41.8789292, "lon": 1.0899205, "tags": {"bench": "yes", "bus": "yes", "covered": "yes", "highway": "bus_stop", "name": "Tudela de Segre", "public_transport": "platform", "route_ref": "L0576 L0696", "shelter": "yes"}}, {"type": "node", "id": 3903220627, "lat": 41.881315, "lon": 1.1122564, "tags": {"bench": "yes", "bus": "yes", "covered": "yes", "highway": "bus_stop", "name": "Ser\u00f3 (enbrancament)", "name:ca": "Ser\u00f3 (enbrancament)", "public_transport": "platform", "route_ref": "L0576 L0696", "shelter": "yes", "tactile_paving": "no"}}, {"type": "node", "id": 3903223299, "lat": 41.8857648, "lon": 1.1332837, "tags": {"bench": "yes", "bus": "yes", "covered": "yes", "highway": "bus_stop", "name": "El Gos (enbrancament)", "public_transport": "platform", "route_ref": "L0576 L0696", "shelter": "yes"}}, {"type": "node", "id": 3903223584, "lat": 41.888884, "lon": 1.1450005, "tags": {"bench": "yes", "bus": "yes", "covered": "yes", "highway": "bus_stop", "public_transport": "platform", "shelter": "yes"}}, {"type": "node", "id": 3903223708, "lat": 41.8887074, "lon": 1.1450875, "tags": {"bench": "yes", "bus": "yes", "covered": "yes", "highway": "bus_stop", "public_transport": "platform", "shelter": "yes"}}, {"type": "node", "id": 3949996600, "lat": 42.0149001, "lon": 1.1142267, "tags": {"bus": "yes", "highway": "bus_stop", "name": "Folquer", "public_transport": "stop_position", "route_ref": "L0092"}}, {"type": "node", "id": 4589585868, "lat": 42.0729949, "lon": 1.0961163, "tags": {"bus": "yes", "highway": "bus_stop", "lanes": "1", "name": "Benavent", "public_transport": "platform", "route_ref": "L0092"}}, {"type": "node", "id": 5832167392, "lat": 42.0148938, "lon": 1.114042, "tags": {"bus": "yes", "highway": "bus_stop", "name": "Folquer", "name:ca": "Folquer", "operator": "Alsa", "public_transport": "platform", "route_ref": "L0092"}}, {"type": "node", "id": 5964299921, "lat": 41.8814953, "lon": 1.1121884, "tags": {"bus": "yes", "highway": "bus_stop", "name": "Ser\u00f3 (enbrancament)", "name:ca": "Ser\u00f3 (enbrancament)", "public_transport": "stop_position", "route_ref": "L0576 L0696"}}, {"type": "node", "id": 5978804815, "lat": 41.8856761, "lon": 1.1333394, "tags": {"bus": "yes", "highway": "bus_stop", "name": "El Gos (enbrancament)", "public_transport": "stop_position", "route_ref": "L0576 L0696"}}, {"type": "node", "id": 7653232671, "lat": 42.0859059, "lon": 1.2944971, "tags": {"bus": "yes", "highway": "bus_stop", "name": "Pont Nou", "public_transport": "stop_position", "route_ref": "L0576"}}, {"type": "node", "id": 9841548755, "lat": 41.9996506, "lon": 1.2953148, "tags": {"bus": "yes", "highway": "bus_stop", "name": "Castellnou de Basella", "public_transport": "stop_position", "route_ref": "L0576"}}, {"type": "node", "id": 10718901403, "lat": 41.7021448, "lon": 1.1246386, "tags": {"bench": "yes", "bus": "yes", "departures_board": "timetable", "highway": "bus_stop", "name": "Claravalls", "name:ca": "Claravalls", "public_transport": "platform", "ref": "ML 0227", "route_ref": "L0092", "shelter": "yes"}}, {"type": "node", "id": 10718901404, "lat": 41.7020396, "lon": 1.1244256, "tags": {"bench": "yes", "bus": "yes", "departures_board": "no", "highway": "bus_stop", "name": "Claravalls", "name:ca": "Claravalls", "public_transport": "platform", "route_ref": "L0092", "shelter": "yes"}}, {"type": "node", "id": 10733211462, "lat": 41.6565364, "lon": 1.1368007, "tags": {"bench": "yes", "bus": "yes", "departures_board": "timetable", "highway": "bus_stop", "name": "7", "public_transport": "platform", "shelter": "no"}}, {"type": "node", "id": 10733294541, "lat": 41.6957203, "lon": 1.1687167, "tags": {"bench": "yes", "bus": "yes", "departures_board": "timetable", "highway": "bus_stop", "name": "la Figuerosa", "name:ca": "la Figuerosa", "public_transport": "platform", "ref": "ML 0229", "shelter": "yes"}}, {"type": "node", "id": 10733347778, "lat": 41.720346, "lon": 1.1071588, "tags": {"bench": "yes", "bus": "yes", "departures_board": "timetable", "highway": "bus_stop", "name": "Santa Maria de Montmagastrell", "name:ca": "Santa Maria de Montmagastrell", "public_transport": "platform", "ref": "ML 0226", "shelter": "yes"}}, {"type": "node", "id": 10733350778, "lat": 41.6832306, "lon": 1.1421637, "tags": {"bench": "yes", "bus": "yes", "departures_board": "timetable", "highway": "bus_stop", "name": "Altet", "name:ca": "Altet", "public_transport": "platform", "ref": "ML 0228", "shelter": "yes"}}, {"type": "node", "id": 11405138649, "lat": 41.6944568, "lon": 1.1695116, "tags": {"bus": "yes", "highway": "bus_stop", "public_transport": "platform"}}, {"type": "node", "id": 11459184496, "lat": 41.9146374, "lon": 1.1833105, "tags": {"bus": "yes", "highway": "bus_stop", "name": "Ponts", "public_transport": "platform", "route_ref": "L0576 L0696"}}, {"type": "node", "id": 11459184497, "lat": 41.9148384, "lon": 1.1833691, "tags": {"bus": "yes", "highway": "bus_stop", "name": "Ponts", "public_transport": "platform", "route_ref": "L0576 L0696"}}, {"type": "node", "id": 11459220935, "lat": 42.085958, "lon": 1.2943876, "tags": {"bus": "yes", "highway": "bus_stop", "name": "Pont Nou", "public_transport": "platform", "route_ref": "L0576"}}, {"type": "node", "id": 11459220936, "lat": 42.0857962, "lon": 1.2958227, "tags": {"bus": "yes", "highway": "bus_stop", "public_transport": "platform", "shelter": "no"}}, {"type": "node", "id": 12056109800, "lat": 41.9708483, "lon": 1.0935341, "tags": {"bus": "yes", "highway": "bus_stop", "name": "Montargull", "public_transport": "platform", "route_ref": "L0092"}}, {"type": "node", "id": 12056109801, "lat": 41.9334508, "lon": 1.0838238, "tags": {"bus": "yes", "highway": "bus_stop", "name": "Vall-llebrera", "public_transport": "platform", "route_ref": "L0092"}}, {"type": "node", "id": 12056109804, "lat": 41.8474648, "lon": 1.0574611, "tags": {"bus": "yes", "highway": "bus_stop", "name": "Montclar", "public_transport": "stop_position", "route_ref": "L0092"}}, {"type": "node", "id": 12056109805, "lat": 41.8474904, "lon": 1.0575247, "tags": {"bus": "yes", "highway": "bus_stop", "name": "Montclar", "public_transport": "platform", "route_ref": "L0092"}}, {"type": "node", "id": 12056109806, "lat": 41.8038202, "lon": 1.0803519, "tags": {"bus": "yes", "highway": "bus_stop", "name": "Mafet", "public_transport": "stop_position", "route_ref": "L0092"}}, {"type": "node", "id": 12056109807, "lat": 41.8038597, "lon": 1.080438, "tags": {"bus": "yes", "highway": "bus_stop", "name": "Mafet", "public_transport": "platform", "route_ref": "L0092"}}, {"type": "node", "id": 12056109808, "lat": 41.7846078, "lon": 1.0949371, "tags": {"bus": "yes", "highway": "bus_stop", "name": "Agramunt", "public_transport": "stop_position", "route_ref": "L0092"}}, {"type": "node", "id": 12056109809, "lat": 41.7845861, "lon": 1.0950165, "tags": {"bus": "yes", "highway": "bus_stop", "name": "Agramunt", "public_transport": "platform", "route_ref": "L0092"}}, {"type": "node", "id": 12056109810, "lat": 41.7186339, "lon": 1.1226204, "tags": {"bus": "yes", "highway": "bus_stop", "name": "Santa Maria de Montmagastrell", "public_transport": "stop_position", "route_ref": "L0092"}}, {"type": "node", "id": 12056109811, "lat": 41.7186433, "lon": 1.1226782, "tags": {"bus": "yes", "highway": "bus_stop", "name": "Santa Maria de Montmagastrell", "public_transport": "platform", "route_ref": "L0092"}}, {"type": "node", "id": 12056109812, "lat": 41.7021577, "lon": 1.1245531, "tags": {"bus": "yes", "highway": "bus_stop", "name": "Claravalls", "public_transport": "stop_position", "route_ref": "L0092"}}, {"type": "node", "id": 12056120523, "lat": 42.0470656, "lon": 1.0986046, "tags": {"bus": "yes", "highway": "bus_stop", "name": "Comiols", "public_transport": "platform", "route_ref": "L0092"}}, {"type": "node", "id": 12056120524, "lat": 42.0148948, "lon": 1.1142707, "tags": {"bus": "yes", "highway": "bus_stop", "name": "Folquer", "public_transport": "platform", "route_ref": "L0092"}}, {"type": "node", "id": 12059428401, "lat": 41.8470544, "lon": 1.0578896, "tags": {"bus": "yes", "highway": "bus_stop", "name": "Montclar", "public_transport": "stop_position", "route_ref": "L0092"}}, {"type": "node", "id": 12059428402, "lat": 41.8470328, "lon": 1.0578285, "tags": {"bus": "yes", "highway": "bus_stop", "name": "Montclar", "public_transport": "platform", "route_ref": "L0092"}}, {"type": "node", "id": 12059428403, "lat": 41.8030488, "lon": 1.0808487, "tags": {"bus": "yes", "highway": "bus_stop", "name": "Mafet", "public_transport": "platform", "route_ref": "L0092"}}, {"type": "node", "id": 12059428404, "lat": 41.7186122, "lon": 1.1225374, "tags": {"bus": "yes", "highway": "bus_stop", "name": "Santa Maria de Montmagastrell", "public_transport": "stop_position", "route_ref": "L0092"}}, {"type": "node", "id": 12059428405, "lat": 41.7185937, "lon": 1.1224472, "tags": {"bus": "yes", "highway": "bus_stop", "name": "Santa Maria de Montmagastrell", "public_transport": "platform", "route_ref": "L0092"}}, {"type": "node", "id": 12059428406, "lat": 41.7020234, "lon": 1.1245022, "tags": {"bus": "yes", "highway": "bus_stop", "name": "Claravalls", "public_transport": "stop_position", "route_ref": "L0092"}}, {"type": "node", "id": 12059490370, "lat": 42.073146, "lon": 1.0959202, "tags": {"bus": "yes", "highway": "bus_stop", "name": "Benavent", "public_transport": "platform", "route_ref": "L0092"}}, {"type": "node", "id": 12059490371, "lat": 42.0468998, "lon": 1.0988817, "tags": {"bus": "yes", "highway": "bus_stop", "name": "Comiols", "public_transport": "platform", "route_ref": "L0092"}}, {"type": "node", "id": 12059490372, "lat": 42.014875, "lon": 1.1141297, "tags": {"bus": "yes", "highway": "bus_stop", "name": "Folquer", "public_transport": "stop_position", "route_ref": "L0092"}}, {"type": "node", "id": 12059490373, "lat": 41.9708101, "lon": 1.0932335, "tags": {"bus": "yes", "highway": "bus_stop", "name": "Montargull", "public_transport": "platform", "route_ref": "L0092"}}, {"type": "node", "id": 12059490374, "lat": 41.9341564, "lon": 1.0834855, "tags": {"bus": "yes", "highway": "bus_stop", "name": "Vall-llebrera", "public_transport": "platform", "route_ref": "L0092"}}, {"type": "node", "id": 12090508460, "lat": 42.1347725, "lon": 1.3097005, "tags": {"bus": "yes", "highway": "bus_stop", "name": "Els Espluvins", "public_transport": "stop_position", "route_ref": "L0576"}}, {"type": "node", "id": 12090508461, "lat": 42.1347849, "lon": 1.3097794, "tags": {"bus": "yes", "highway": "bus_stop", "name": "Els Espluvins", "public_transport": "platform", "route_ref": "L0576"}}, {"type": "node", "id": 12090508462, "lat": 42.1081736, "lon": 1.2997768, "tags": {"highway": "bus_stop", "name": "La Penella", "public_transport": "platform", "route_ref": "L0576"}}, {"type": "node", "id": 12090508463, "lat": 42.0832773, "lon": 1.3010962, "tags": {"bus": "yes", "highway": "bus_stop", "name": "Oliana (resid\u00e8ncia)", "public_transport": "platform", "route_ref": "L0576"}}, {"type": "node", "id": 12090508464, "lat": 42.0663125, "lon": 1.3138349, "tags": {"bus": "yes", "highway": "bus_stop", "name": "Oliana", "public_transport": "stop_position", "route_ref": "L0576"}}, {"type": "node", "id": 12090508465, "lat": 42.0663125, "lon": 1.3138847, "tags": {"bus": "yes", "highway": "bus_stop", "name": "Oliana", "public_transport": "platform", "route_ref": "L0576"}}, {"type": "node", "id": 12090508466, "lat": 42.0148963, "lon": 1.2941915, "tags": {"bus": "yes", "highway": "bus_stop", "name": "Basella", "public_transport": "stop_position", "route_ref": "L0576"}}, {"type": "node", "id": 12090508467, "lat": 42.014878, "lon": 1.2942805, "tags": {"bus": "yes", "highway": "bus_stop", "name": "Basella", "public_transport": "platform", "route_ref": "L0576"}}, {"type": "node", "id": 12090508468, "lat": 41.9996786, "lon": 1.2954033, "tags": {"bus": "yes", "highway": "bus_stop", "name": "Castellnou de Basella", "public_transport": "platform", "route_ref": "L0576"}}, {"type": "node", "id": 12090516009, "lat": 41.9146989, "lon": 1.1832346, "tags": {"bus": "yes", "highway": "bus_stop", "name": "Ponts", "public_transport": "stop_position", "route_ref": "L0576 L0696"}}, {"type": "node", "id": 12090516010, "lat": 41.8856265, "lon": 1.1333055, "tags": {"bus": "yes", "highway": "bus_stop", "name": "El Gos (enbrancament)", "public_transport": "platform", "route_ref": "L0576 L0696"}}, {"type": "node", "id": 12090516011, "lat": 41.8789829, "lon": 1.0893414, "tags": {"bus": "yes", "highway": "bus_stop", "name": "Tudela de Segre", "public_transport": "stop_position", "route_ref": "L0576 L0696"}}, {"type": "node", "id": 12090516012, "lat": 41.8789234, "lon": 1.0893229, "tags": {"bus": "yes", "highway": "bus_stop", "name": "Tudela de Segre", "public_transport": "platform", "route_ref": "L0576 L0696"}}, {"type": "node", "id": 12092410959, "lat": 41.8788354, "lon": 1.0898896, "tags": {"bus": "yes", "highway": "bus_stop", "name": "Tudela de Segre", "public_transport": "stop_position", "route_ref": "L0576 L0696"}}, {"type": "node", "id": 12092410960, "lat": 41.8815577, "lon": 1.1121437, "tags": {"bus": "yes", "highway": "bus_stop", "name": "Ser\u00f3 (enbrancament)", "public_transport": "stop_position", "route_ref": "L0576 L0696"}}, {"type": "node", "id": 12092410961, "lat": 41.8816012, "lon": 1.112126, "tags": {"bus": "yes", "highway": "bus_stop", "name": "Ser\u00f3 (enbrancament)", "public_transport": "platform", "route_ref": "L0576 L0696"}}, {"type": "node", "id": 12092410962, "lat": 41.8856789, "lon": 1.1332723, "tags": {"bus": "yes", "highway": "bus_stop", "name": "El Gos (enbrancament)", "public_transport": "stop_position", "route_ref": "L0576 L0696"}}, {"type": "node", "id": 12092410963, "lat": 41.9147602, "lon": 1.1833945, "tags": {"bus": "yes", "highway": "bus_stop", "name": "Ponts", "public_transport": "stop_position", "route_ref": "L0576 L0696"}}, {"type": "node", "id": 12092410964, "lat": 41.9493415, "lon": 1.278303, "tags": {"bus": "yes", "highway": "bus_stop", "name": "Tiurana", "public_transport": "stop_position", "route_ref": "L0576"}}, {"type": "node", "id": 12092410965, "lat": 41.9493654, "lon": 1.2782838, "tags": {"bus": "yes", "highway": "bus_stop", "name": "Tiurana", "public_transport": "platform", "route_ref": "L0576"}}, {"type": "node", "id": 12092410966, "lat": 41.9993946, "lon": 1.2955011, "tags": {"bus": "yes", "highway": "bus_stop", "name": "Castellnou de Basella", "public_transport": "stop_position", "route_ref": "L0576"}}, {"type": "node", "id": 12092410967, "lat": 41.9993834, "lon": 1.2954498, "tags": {"bus": "yes", "highway": "bus_stop", "name": "Castellnou de Basella", "public_transport": "platform", "route_ref": "L0576"}}, {"type": "node", "id": 12092472269, "lat": 42.0153159, "lon": 1.2940615, "tags": {"bus": "yes", "highway": "bus_stop", "name": "Basella", "public_transport": "platform", "route_ref": "L0576"}}, {"type": "node", "id": 12092472270, "lat": 42.0663396, "lon": 1.3138346, "tags": {"bus": "yes", "highway": "bus_stop", "name": "Oliana", "public_transport": "stop_position", "route_ref": "L0576"}}, {"type": "node", "id": 12092472272, "lat": 42.0854916, "lon": 1.2931373, "tags": {"bus": "yes", "highway": "bus_stop", "name": "Pont Nou", "public_transport": "platform", "route_ref": "L0576"}}, {"type": "node", "id": 12092472273, "lat": 42.1085104, "lon": 1.2997851, "tags": {"bus": "yes", "highway": "bus_stop", "name": "La Penella", "public_transport": "stop_position", "route_ref": "L0576"}}, {"type": "node", "id": 12092472274, "lat": 42.1085167, "lon": 1.2997013, "tags": {"bus": "yes", "highway": "bus_stop", "name": "La Penella", "public_transport": "platform", "route_ref": "L0576"}}, {"type": "node", "id": 12092472275, "lat": 42.1349402, "lon": 1.3096698, "tags": {"bus": "yes", "highway": "bus_stop", "name": "Els Espluvins", "public_transport": "stop_position", "route_ref": "L0576"}}, {"type": "node", "id": 12092472276, "lat": 42.1349399, "lon": 1.3096188, "tags": {"bus": "yes", "highway": "bus_stop", "name": "Els Espluvins", "public_transport": "platform", "route_ref": "L0576"}}, {"type": "node", "id": 12100155027, "lat": 41.8900759, "lon": 1.2307083, "tags": {"bus": "yes", "highway": "bus_stop", "name": "Vilanova de l'Aguda", "public_transport": "stop_position", "route_ref": "L0696"}}, {"type": "node", "id": 12100155028, "lat": 41.8901244, "lon": 1.2307025, "tags": {"bus": "yes", "highway": "bus_stop", "name": "Vilanova de l'Aguda", "public_transport": "platform", "route_ref": "L0696"}}, {"type": "node", "id": 12100155029, "lat": 41.8789712, "lon": 1.2685724, "tags": {"bus": "yes", "highway": "bus_stop", "name": "Ribelles", "public_transport": "stop_position", "route_ref": "L0696"}}, {"type": "node", "id": 12100155030, "lat": 41.879015, "lon": 1.2686836, "tags": {"bus": "yes", "highway": "bus_stop", "name": "Ribelles", "public_transport": "platform", "route_ref": "L0696"}}, {"type": "node", "id": 12100190109, "lat": 41.8711956, "lon": 1.3066775, "tags": {"bus": "yes", "highway": "bus_stop", "name": "Sanah\u00fcja", "public_transport": "stop_position", "route_ref": "L0696"}}, {"type": "node", "id": 12100190110, "lat": 41.8712642, "lon": 1.3068036, "tags": {"bus": "yes", "highway": "bus_stop", "name": "Sanah\u00fcja", "public_transport": "platform", "route_ref": "L0696"}}, {"type": "node", "id": 12100190111, "lat": 41.839741, "lon": 1.3560221, "tags": {"bus": "yes", "highway": "bus_stop", "name": "Biosca", "public_transport": "platform", "route_ref": "L0696"}}, {"type": "node", "id": 12100190112, "lat": 41.9236192, "lon": 1.4635805, "tags": {"bus": "yes", "highway": "bus_stop", "name": "Hostal Nou", "public_transport": "platform", "route_ref": "L0696"}}, {"type": "node", "id": 12101413666, "lat": 41.9224855, "lon": 1.4631035, "tags": {"bus": "yes", "highway": "bus_stop", "name": "Hostal Nou", "public_transport": "platform", "route_ref": "L0696 L1704"}}, {"type": "node", "id": 12101438806, "lat": 41.8397187, "lon": 1.3562824, "tags": {"bus": "yes", "highway": "bus_stop", "name": "Biosca", "public_transport": "platform", "route_ref": "L0696"}}, {"type": "node", "id": 12101438807, "lat": 41.8711265, "lon": 1.3071564, "tags": {"bus": "yes", "highway": "bus_stop", "name": "Sanah\u00fcja", "public_transport": "stop_position", "route_ref": "L0696"}}, {"type": "node", "id": 12101438808, "lat": 41.8710946, "lon": 1.3071537, "tags": {"bus": "yes", "highway": "bus_stop", "name": "Sanah\u00fcja", "public_transport": "platform", "route_ref": "L0696"}}, {"type": "node", "id": 12101438809, "lat": 41.8788599, "lon": 1.2687245, "tags": {"bus": "yes", "highway": "bus_stop", "name": "Ribelles", "public_transport": "stop_position", "route_ref": "L0696"}}, {"type": "node", "id": 12101438810, "lat": 41.8788244, "lon": 1.2686734, "tags": {"bus": "yes", "highway": "bus_stop", "name": "Ribelles", "public_transport": "platform", "route_ref": "L0696"}}, {"type": "node", "id": 12101438811, "lat": 41.8900421, "lon": 1.2304294, "tags": {"bus": "yes", "highway": "bus_stop", "name": "Vilanova de l'Aguda", "public_transport": "stop_position", "route_ref": "L0696"}}, {"type": "node", "id": 12101438812, "lat": 41.8899951, "lon": 1.2304361, "tags": {"bus": "yes", "highway": "bus_stop", "name": "Vilanova de l'Aguda", "public_transport": "platform", "route_ref": "L0696"}}, {"type": "node", "id": 12102684855, "lat": 41.7543075, "lon": 1.1591728, "tags": {"bench": "yes", "bus": "yes", "highway": "bus_stop", "name": "Oss\u00f3 de Si\u00f3", "public_transport": "platform", "shelter": "yes"}}, {"type": "node", "id": 12102687933, "lat": 41.7455443, "lon": 1.1716938, "tags": {"bus": "yes", "highway": "bus_stop", "name": "Bellver d'Oss\u00f3", "public_transport": "platform"}}, {"type": "node", "id": 12103225673, "lat": 41.7596874, "lon": 1.1320636, "tags": {"bench": "yes", "bus": "yes", "highway": "bus_stop", "name": "Montfalc\u00f3 d'Agramunt", "public_transport": "platform", "shelter": "yes"}}, {"type": "node", "id": 12547891118, "lat": 41.6594736, "lon": 1.0837226, "tags": {"bench": "yes", "bus": "yes", "departures_board": "timetable", "highway": "bus_stop", "name": "Anglesola", "public_transport": "platform", "ref": "ML 0215", "shelter": "yes"}}]}