{"version": 0.6, "generator": "Overpass API 0.7.62.5 1bd436f1", "osm3s": {"timestamp_osm_base": "2025-04-09T14:58:36Z", "copyright": "The data included in this document is from www.openstreetmap.org. The data is made available under ODbL."}, "elements": [{"type": "node", "id": 263912744, "lat": 47.5598155, "lon": 2.4477416, "tags": {"bus": "yes", "highway": "bus_stop", "name": "\u00c9glise", "public_transport": "stop_position"}}, {"type": "node", "id": 320673911, "lat": 47.4918084, "lon": 2.4380913, "tags": {"bus": "yes", "highway": "bus_stop", "name": "Parking du Pr\u00e9 qui Danse", "public_transport": "stop_position"}}, {"type": "node", "id": 1864355923, "lat": 47.7119265, "lon": 1.9476874, "tags": {"bench": "no", "bin": "no", "highway": "bus_stop", "local_ref": "5 (Ulys)", "name": "Fr\u00e9millon", "public_transport": "platform", "shelter": "yes", "tactile_paving": "no"}}, {"type": "node", "id": 1906515457, "lat": 47.5936447, "lon": 2.0225519}, {"type": "node", "id": 1906515458, "lat": 47.5936527, "lon": 2.0226279}, {"type": "node", "id": 1906515461, "lat": 47.5937627, "lon": 2.0224719}, {"type": "node", "id": 1906515462, "lat": 47.5937687, "lon": 2.0225249}, {"type": "node", "id": 1906515465, "lat": 47.5939707, "lon": 2.0224259}, {"type": "node", "id": 1906515466, "lat": 47.5939837, "lon": 2.0225539}, {"type": "node", "id": 2162745549, "lat": 47.6203036, "lon": 2.4924968, "tags": {"bus": "yes", "highway": "bus_stop", "name": "Place du Monument", "public_transport": "stop_position"}}, {"type": "node", "id": 2374724063, "lat": 47.6202456, "lon": 2.4925308, "tags": {"bus": "yes", "highway": "bus_stop", "name": "Place du Monument", "public_transport": "platform", "shelter": "yes"}}, {"type": "node", "id": 3292619058, "lat": 47.7886667, "lon": 2.3782974, "tags": {"highway": "bus_stop", "public_transport": "platform", "shelter": "yes", "source": "cadastre-dgi-fr source : Direction G\u00e9n\u00e9rale des Imp\u00f4ts - Cadastre. Mise \u00e0 jour : 2015"}}, {"type": "node", "id": 3703525024, "lat": 47.5938914, "lon": 2.0229393, "tags": {"bench": "no", "covered": "no", "highway": "bus_stop", "public_transport": "platform", "shelter": "no"}}, {"type": "node", "id": 3837773738, "lat": 47.713849, "lon": 2.5833429, "tags": {"bench": "yes", "covered": "yes", "highway": "bus_stop", "name": "Rue de l'\u00c9glise", "operator": "Ulys", "public_transport": "platform", "shelter": "yes"}}, {"type": "node", "id": 3837890467, "lat": 47.7115403, "lon": 2.5836025, "tags": {"highway": "bus_stop", "public_transport": "platform"}}, {"type": "node", "id": 5109095060, "lat": 47.8174924, "lon": 2.4053076, "tags": {"highway": "bus_stop", "public_transport": "platform"}}, {"type": "node", "id": 5178379123, "lat": 47.7634294, "lon": 2.386264, "tags": {"bus": "yes", "highway": "bus_stop", "name": "Arret Remy Ces Sully-sur-Loire", "public_transport": "platform"}}, {"type": "node", "id": 6790230047, "lat": 47.5341136, "lon": 2.0334578, "tags": {"bus": "yes", "highway": "bus_stop", "public_transport": "platform"}}, {"type": "node", "id": 7858461374, "lat": 47.67882, "lon": 2.1471209, "tags": {"bus": "yes", "highway": "bus_stop", "public_transport": "platform", "ref": "Mairie"}}, {"type": "node", "id": 9364161347, "lat": 47.7766684, "lon": 2.4648334, "tags": {"highway": "bus_stop"}}, {"type": "node", "id": 9364161348, "lat": 47.776344, "lon": 2.4649729, "tags": {"highway": "bus_stop"}}, {"type": "node", "id": 9423056984, "lat": 47.7692867, "lon": 2.4803491, "tags": {"bus": "yes", "highway": "bus_stop", "public_transport": "platform"}}, {"type": "node", "id": 9520237064, "lat": 47.4570838, "lon": 2.1765171, "tags": {"bus": "yes", "highway": "bus_stop", "public_transport": "platform"}}, {"type": "node", "id": 9574968702, "lat": 47.458335, "lon": 2.1776604, "tags": {"bus": "yes", "highway": "bus_stop", "public_transport": "platform"}}, {"type": "node", "id": 9677048032, "lat": 47.7744789, "lon": 2.3724284, "tags": {"bus": "yes", "highway": "bus_stop", "name": "Mairie", "public_transport": "platform"}}, {"type": "node", "id": 9980037352, "lat": 47.6073891, "lon": 2.1717633, "tags": {"bus": "yes", "highway": "bus_stop", "public_transport": "platform"}}, {"type": "node", "id": 10199076653, "lat": 47.7963864, "lon": 2.3820173, "tags": {"bus": "yes", "highway": "bus_stop", "name": "Place de la Plaine", "public_transport": "platform"}}, {"type": "node", "id": 10210805487, "lat": 47.7139555, "lon": 2.2121916, "tags": {"bus": "yes", "highway": "bus_stop", "public_transport": "platform"}}, {"type": "node", "id": 10548629849, "lat": 47.7607748, "lon": 2.3740264, "tags": {"bus": "yes", "highway": "bus_stop", "public_transport": "platform", "shelter": "yes"}}, {"type": "node", "id": 10793079482, "lat": 47.5340528, "lon": 2.033712, "tags": {"bus": "yes", "highway": "bus_stop", "public_transport": "platform", "shelter": "yes"}}, {"type": "node", "id": 10862094995, "lat": 47.593828, "lon": 2.0225887, "tags": {"entrance": "main"}}, {"type": "node", "id": 11028287116, "lat": 47.3489763, "lon": 2.193478, "tags": {"bus": "yes", "bus_routes": "190", "highway": "bus_stop", "name": "Parking rue de Vierzon", "network": "R\u00e9mi", "network:wikidata": "Q39075313", "public_transport": "platform", "shelter": "yes"}}, {"type": "node", "id": 11253938244, "lat": 47.5366152, "lon": 2.0384235, "tags": {"bus": "yes", "highway": "bus_stop", "public_transport": "platform"}}, {"type": "node", "id": 11372223075, "lat": 47.7945455, "lon": 2.4376222, "tags": {"bus": "yes", "highway": "bus_stop", "public_transport": "platform", "shelter": "yes"}}, {"type": "node", "id": 12365403455, "lat": 47.6993639, "lon": 2.0240027, "tags": {"bus": "yes", "highway": "bus_stop", "public_transport": "platform"}}, {"type": "node", "id": 12365403460, "lat": 47.6993695, "lon": 2.0233898, "tags": {"bus": "yes", "highway": "bus_stop", "public_transport": "platform"}}, {"type": "node", "id": 12565833935, "lat": 47.6920807, "lon": 2.6183984, "tags": {"bus": "yes", "highway": "bus_stop", "name": "Orl\u00e9ans", "public_transport": "platform", "ref": "Orl\u00e9ans", "shelter": "no"}}, {"type": "node", "id": 12565833936, "lat": 47.6959577, "lon": 2.6142396, "tags": {"bus": "yes", "highway": "bus_stop", "name": "Riaudine", "public_transport": "platform", "ref": "Riaudine", "shelter": "no"}}, {"type": "node", "id": 12565833937, "lat": 47.6959591, "lon": 2.6144475, "tags": {"bus": "yes", "highway": "bus_stop", "name": "Riaudine", "public_transport": "platform", "ref": "Riaudine", "shelter": "no"}}, {"type": "node", "id": 12601931147, "lat": 47.55987, "lon": 2.4477483, "tags": {"bus": "yes", "highway": "bus_stop", "name": "\u00c9glise", "public_transport": "platform", "shelter": "yes"}}, {"type": "node", "id": 12601931213, "lat": 47.4918738, "lon": 2.4381565, "tags": {"bench": "yes", "bin": "yes", "bus": "yes", "highway": "bus_stop", "lit": "no", "name": "Parking du Pr\u00e9 qui Danse", "name:R\u00e9mi": "Mail Guichard", "public_transport": "platform", "shelter": "yes"}}, {"type": "node", "id": 12602245518, "lat": 47.6203665, "lon": 2.4924691, "tags": {"bus": "yes", "highway": "bus_stop", "name": "Place du Monument", "public_transport": "platform", "shelter": "yes"}}, {"type": "node", "id": 12604584909, "lat": 47.5275101, "lon": 2.5268394, "tags": {"bench": "yes", "bus": "yes", "highway": "bus_stop", "lit": "yes", "name": "Gare", "public_transport": "platform", "shelter": "no"}}, {"type": "node", "id": 12604584936, "lat": 47.5326038, "lon": 2.5289729, "tags": {"bus": "yes", "highway": "bus_stop", "lit": "yes", "name": "Mairie", "public_transport": "platform", "shelter": "no"}}, {"type": "node", "id": 12612646383, "lat": 47.7645203, "lon": 2.3725493, "tags": {"bus": "yes", "highway": "bus_stop", "public_transport": "platform"}}, {"type": "node", "id": 12612646384, "lat": 47.7639371, "lon": 2.3744578, "tags": {"bus": "yes", "highway": "bus_stop", "public_transport": "platform"}}, {"type": "way", "id": 180207327, "nodes": [1906515461, 1906515462, 1906515457, 1906515458, 10862094995, 1906515466, 1906515465, 1906515461], "tags": {"building": "train_station", "name": "Lamotte-Beuvron", "network": "TER Centre \u2212 Val de Loire", "network:wikidata": "Q912775", "official_name": "Lamotte-Beuvron", "operator": "SNCF", "operator:wikidata": "Q13646", "public_transport": "station", "railway": "station", "source": "cadastre-dgi-fr source : Direction G\u00e9n\u00e9rale des Imp\u00f4ts - Cadastre. Mise \u00e0 jour : 2012", "train": "yes", "uic_ref": "8754314", "wikidata": "Q2428202", "wikipedia": "fr:Gare de Lamotte-Beuvron"}}]}