{"version": 0.6, "generator": "Overpass API 0.7.62.5 1bd436f1", "osm3s": {"timestamp_osm_base": "2025-04-09T14:07:45Z", "copyright": "The data included in this document is from www.openstreetmap.org. The data is made available under ODbL."}, "elements": [{"type": "node", "id": 2715713193, "lat": 13.5246059, "lon": 2.1071661, "tags": {"bench": "yes", "bin": "no", "bus": "yes", "highway": "bus_stop", "lit": "yes", "name": "Sotruni", "public_transport": "platform", "shelter": "no", "tactile_paving": "no"}}, {"type": "node", "id": 3823555058, "lat": 13.5374428, "lon": 2.0767914, "tags": {"bus": "yes", "highway": "bus_stop", "name": "CNOU", "public_transport": "platform"}}, {"type": "node", "id": 3823555059, "lat": 13.5426196, "lon": 2.0709137, "tags": {"bus": "yes", "highway": "bus_stop", "name": "CNOU", "public_transport": "platform"}}, {"type": "node", "id": 3850669157, "lat": 13.5314687, "lon": 2.1229401, "tags": {"bench": "no", "bin": "no", "bus": "yes", "description": "Arr\u00eat bus du transport estudiantin urabain de l'Universit\u00e9 Abdou Moumouni de Niamey.", "highway": "bus_stop", "lit": "yes", "name": "Arr\u00eat Eccam", "operator": "CNOU", "operator:type": "public", "public_transport": "platform", "shelter": "no"}}, {"type": "node", "id": 4398614170, "lat": 13.4985124, "lon": 2.1352271, "tags": {"name": "Gare Voyageurs de Niamey", "name:ar": "\u0642\u0637\u0627\u0631 \u0627\u0644\u0645\u0633\u0627\u0641\u0631\u0648\u0646 \u0646\u064a\u0627\u0645\u064a", "public_transport": "station", "railway": "station", "source": "survey", "start_date": "2014-04-07", "wheelchair": "yes"}}, {"type": "node", "id": 5268690422, "lat": 13.5268028, "lon": 2.1213899, "tags": {"bench": "no", "bin": "no", "bus": "yes", "highway": "bus_stop", "lit": "no", "name": "Arr\u00eat Taroum", "operator": "CNOU", "public_transport": "platform", "shelter": "no"}}, {"type": "node", "id": 5379372741, "lat": 13.5168853, "lon": 2.1072222, "tags": {"bench": "no", "bin": "no", "bus": "yes", "highway": "bus_stop", "lit": "yes", "name": "Sotruni Arr\u00eat AFD", "public_transport": "platform", "route_ref": "Avenue de Gounti Yena", "shelter": "no", "wheelchair": "no"}}, {"type": "node", "id": 5379372938, "lat": 13.5152918, "lon": 2.1006654, "tags": {"bench": "yes", "bin": "no", "bus": "yes", "highway": "bus_stop", "lit": "yes", "name": "Sotruni Arr\u00eat HNN", "public_transport": "platform", "shelter": "yes", "wheelchair": "no"}}, {"type": "node", "id": 5554203690, "lat": 13.490736, "lon": 2.1476964, "tags": {"bench": "no", "bin": "no", "bus": "yes", "highway": "bus_stop", "lit": "yes", "name": "Arret de bus \u00e9tudiants talladj\u00e9", "public_transport": "platform", "shelter": "no"}}, {"type": "node", "id": 6040563944, "lat": 13.5440848, "lon": 2.0687342, "tags": {"bus": "yes", "highway": "bus_stop", "name": "CNOU", "public_transport": "platform"}}, {"type": "node", "id": 6652890935, "lat": 13.4997416, "lon": 2.0986601, "tags": {"bench": "yes", "bin": "yes", "bus": "yes", "departures_board": "yes", "highway": "bus_stop", "lit": "yes", "name": "Terminal Bus UAM", "network": "Axes quartiers de Niamey", "operator": "CNOU", "public_transport": "platform", "shelter": "yes"}}, {"type": "node", "id": 7023660666, "lat": 13.4881746, "lon": 2.1554126, "tags": {"bench": "no", "bin": "no", "bus": "yes", "highway": "bus_stop", "lit": "yes", "name": "Arr\u00eat de bus \u00e9tudiants Talladj\u00e9", "public_transport": "platform", "shelter": "no"}}, {"type": "node", "id": 8992657943, "lat": 13.4970765, "lon": 2.1348608, "tags": {"bench": "no", "bin": "no", "bus": "yes", "highway": "bus_stop", "public_transport": "platform", "shelter": "no"}}, {"type": "node", "id": 9549437306, "lat": 13.4866722, "lon": 2.1577396, "tags": {"bench": "no", "bin": "no", "bus": "yes", "highway": "bus_stop", "public_transport": "platform", "shelter": "no"}}, {"type": "node", "id": 9549437307, "lat": 13.4886692, "lon": 2.1527307, "tags": {"bench": "no", "bin": "no", "bus": "yes", "highway": "bus_stop", "public_transport": "platform", "shelter": "no"}}, {"type": "node", "id": 9549437308, "lat": 13.489794, "lon": 2.1505902, "tags": {"bench": "no", "bin": "no", "bus": "yes", "highway": "bus_stop", "public_transport": "platform", "shelter": "no"}}, {"type": "node", "id": 9549437310, "lat": 13.4914326, "lon": 2.1458011, "tags": {"bench": "yes", "bin": "yes", "bus": "yes", "highway": "bus_stop", "public_transport": "platform", "shelter": "no"}}, {"type": "node", "id": 9549437311, "lat": 13.4919861, "lon": 2.143063, "tags": {"bench": "yes", "bin": "yes", "bus": "yes", "highway": "bus_stop", "public_transport": "platform", "shelter": "yes"}}, {"type": "node", "id": 9549437312, "lat": 13.4930743, "lon": 2.1409647, "tags": {"bench": "yes", "bin": "yes", "bus": "yes", "highway": "bus_stop", "public_transport": "platform", "shelter": "no"}}, {"type": "node", "id": 9549437313, "lat": 13.4956409, "lon": 2.1367054, "tags": {"bench": "yes", "bin": "yes", "bus": "yes", "highway": "bus_stop", "public_transport": "platform", "shelter": "yes"}}, {"type": "node", "id": 9549437314, "lat": 13.495878, "lon": 2.1370075, "tags": {"bench": "yes", "bin": "yes", "bus": "yes", "highway": "bus_stop", "public_transport": "platform", "shelter": "yes"}}, {"type": "node", "id": 9549437316, "lat": 13.5005843, "lon": 2.1323932, "tags": {"bench": "no", "bin": "no", "bus": "yes", "highway": "bus_stop", "public_transport": "platform", "shelter": "no"}}, {"type": "node", "id": 10031433577, "lat": 13.52274, "lon": 2.113895, "tags": {"bench": "no", "bin": "no", "bus": "yes", "highway": "bus_stop", "lit": "yes", "name:signed": "no", "public_transport": "platform", "shelter": "no"}}, {"type": "node", "id": 10790416903, "lat": 13.4903278, "lon": 2.1478635, "tags": {"bench": "no", "bin": "no", "bus": "yes", "highway": "bus_stop", "public_transport": "platform", "shelter": "no"}}, {"type": "node", "id": 11028255649, "lat": 13.5273296, "lon": 2.1323965, "tags": {"addr:city": "Niamey", "addr:postcode": "8000", "addr:street": "Boulevard Mali Bero", "amenity": "bus_station", "bus": "yes", "departures_board": "realtime", "highway": "bus_stop", "name": "Nizar Transport Voyageurs", "public_transport": "station", "shelter": "no", "source": "knowledge"}}, {"type": "node", "id": 11104483817, "lat": 13.5409128, "lon": 2.0864101, "tags": {"highway": "bus_stop", "name": "CNOU"}}, {"type": "node", "id": 11104918749, "lat": 13.5348056, "lon": 2.0923668, "tags": {"highway": "bus_stop", "name": "CNOU"}}, {"type": "node", "id": 11104930022, "lat": 13.5306888, "lon": 2.0816954, "tags": {"highway": "bus_stop", "name": "CNOU"}}, {"type": "node", "id": 11104935307, "lat": 13.5352784, "lon": 2.0865663, "tags": {"highway": "bus_stop", "name": "CNOU"}}, {"type": "node", "id": 11104937692, "lat": 13.5346489, "lon": 2.0965539, "tags": {"highway": "bus_stop", "name": "CNOU"}}, {"type": "node", "id": 11107474642, "lat": 13.5456758, "lon": 2.065025, "tags": {"highway": "bus_stop", "name": "ESTM"}}, {"type": "node", "id": 11112396802, "lat": 13.5410542, "lon": 2.0825207, "tags": {"highway": "bus_stop", "name": "CNOU"}}]}