{"version": 0.6, "generator": "Overpass API 0.7.62.5 1bd436f1", "osm3s": {"timestamp_osm_base": "2025-04-09T14:59:39Z", "copyright": "The data included in this document is from www.openstreetmap.org. The data is made available under ODbL."}, "elements": [{"type": "node", "id": 2422379184, "lat": 36.7443767, "lon": 6.4221383, "tags": {"addr:city": "\u0639\u064a\u0646 \u0642\u0634\u0631\u0629", "addr:city:ar": "\u0639\u064a\u0646 \u0642\u0634\u0631\u0629", "alt_name": "\u0639\u064a\u0646 \u0643\u0634\u0631\u0629", "alt_name:ar": "\u0639\u064a\u0646 \u0643\u0634\u0631\u0629", "name": "A\u00efn Kechra", "name:ar": "\u0639\u064a\u0646 \u0642\u0634\u0631\u0629", "name:en": "A\u00efn Kechra", "name:fr": "A\u00efn Kechra", "operator": "\u0627\u0644\u0634\u0631\u0643\u0629 \u0627\u0644\u0648\u0637\u0646\u064a\u0629 \u0644\u0644\u0646\u0642\u0644 \u0628\u0627\u0644\u0633\u0643\u0643 \u0627\u0644\u062d\u062f\u064a\u062f\u064a\u0629", "operator:ar": "\u0627\u0644\u0634\u0631\u0643\u0629 \u0627\u0644\u0648\u0637\u0646\u064a\u0629 \u0644\u0644\u0646\u0642\u0644 \u0628\u0627\u0644\u0633\u0643\u0643 \u0627\u0644\u062d\u062f\u064a\u062f\u064a\u0629", "operator:wikidata": "Q1275038", "operator:wikipedia": "ar:\u0627\u0644\u0634\u0631\u0643\u0629 \u0627\u0644\u0648\u0637\u0646\u064a\u0629 \u0644\u0644\u0646\u0642\u0644 \u0628\u0627\u0644\u0633\u0643\u0643 \u0627\u0644\u062d\u062f\u064a\u062f\u064a\u0629", "operator:wikipedia:ar": "\u0627\u0644\u0634\u0631\u0643\u0629 \u0627\u0644\u0648\u0637\u0646\u064a\u0629 \u0644\u0644\u0646\u0642\u0644 \u0628\u0627\u0644\u0633\u0643\u0643 \u0627\u0644\u062d\u062f\u064a\u062f\u064a\u0629", "public_transport": "station", "railway": "station", "wikidata": "Q117605982", "wikipedia": "fr:Gare de A\u00efn Kechra"}}, {"type": "node", "id": 2454069068, "lat": 36.7832278, "lon": 6.2563784, "tags": {"name": "El Milia", "name:ar": "\u0627\u0644\u0645\u064a\u0644\u064a\u0629", "name:de": "El Milia", "name:en": "El Milia", "name:fr": "El Milia", "public_transport": "station", "railway": "station", "train": "yes", "wikidata": "Q117552146", "wikipedia": "fr:Gare d'El Milia"}}, {"type": "node", "id": 2570312522, "lat": 36.824332, "lon": 6.6263306, "tags": {"name": "Tamalous", "name:ar": "\u062a\u0627\u0645\u0627\u0644\u0648\u0633", "name:fr": "Tamalous", "public_transport": "station", "railway": "station", "wikidata": "Q117606794", "wikipedia": "fr:Gare de Tamalous"}}, {"type": "node", "id": 4274574376, "lat": 36.7991973, "lon": 6.5122459, "tags": {"name": "Tahouna", "name:ar": "\u0637\u0627\u062d\u0648\u0646\u0629", "name:fr": "Tahouna", "public_transport": "station", "railway": "station", "train": "yes", "wikidata": "Q117606452", "wikipedia": "fr:Gare d'A\u00efn Rouibah"}}, {"type": "node", "id": 4290496895, "lat": 36.9465374, "lon": 6.6009798, "tags": {"bus": "yes", "highway": "bus_stop", "name": "\u0644\u063a\u062f\u064a\u0631\u0629", "name:ar": "\u0644\u063a\u062f\u064a\u0631\u0629", "name:fr": "Laghdira", "public_transport": "platform"}}, {"type": "node", "id": 4290498690, "lat": 36.9313346, "lon": 6.5853294, "tags": {"bus": "yes", "highway": "bus_stop", "name": "\u0643\u0631\u0643\u0631\u0629 \u0628\u0646 \u0632\u0648\u064a\u062a", "name:ar": "\u0643\u0631\u0643\u0631\u0629 \u0628\u0646 \u0632\u0648\u064a\u062a", "name:en": "Kerkera - ben zouit", "name:fr": "Kerkera - Ben Zouit", "public_transport": "platform"}}, {"type": "node", "id": 4424783790, "lat": 36.9553413, "lon": 6.6048487, "tags": {"bus": "yes", "highway": "bus_stop", "name": "\u0627\u0644\u0632\u0648\u0628\u064a\u0629", "name:ar": "\u0627\u0644\u0632\u0648\u0628\u064a\u0629", "name:en": "Zoubia", "name:fr": "Zoubia", "public_transport": "platform"}}, {"type": "node", "id": 4566037094, "lat": 36.9301318, "lon": 6.5826148, "tags": {"bus": "yes", "highway": "bus_stop", "name": "\u0645\u062d\u0637\u0629 \u062d\u0627\u0641\u0644\u0629 \u0633\u0643\u064a\u0643\u062f\u0629", "name:ar": "\u0645\u062d\u0637\u0629 \u062d\u0627\u0641\u0644\u0629 \u0633\u0643\u064a\u0643\u062f\u0629", "name:en": "Gare de bus", "name:fr": "Skikda", "public_transport": "platform"}}, {"type": "node", "id": 4566037590, "lat": 36.930515, "lon": 6.5826099, "tags": {"bus": "yes", "highway": "bus_stop", "name": "\u0645\u0648\u0642\u0641 \u062d\u0627\u0641\u0644\u0627\u062a \u0627\u0644\u0642\u0644", "name:ar": "\u0645\u0648\u0642\u0641 \u062d\u0627\u0641\u0644\u0627\u062a \u0627\u0644\u0642\u0644", "name:en": "Station collo", "name:fr": "Collo", "public_transport": "platform"}}, {"type": "node", "id": 5044177629, "lat": 36.7531056, "lon": 6.2681527, "tags": {"bus": "yes", "highway": "bus_stop", "name": "\u0645\u0646\u0642\u0648\u0634 - \u0627\u0644\u0645\u062d\u0637\u0629", "name:ar": "\u0645\u0646\u0642\u0648\u0634 - \u0627\u0644\u0645\u062d\u0637\u0629", "name:fr": "Menkouch - Gare routi\u00e8re", "public_transport": "platform"}}, {"type": "node", "id": 5044177630, "lat": 36.7522761, "lon": 6.2729881, "tags": {"bus": "yes", "highway": "bus_stop", "name": "\u0627\u0644\u0645\u0631\u064a\u062c\u0629 - \u0627\u0644\u0645\u0633\u062a\u0634\u0641\u0649", "name:ar": "\u0627\u0644\u0645\u0631\u064a\u062c\u0629 - \u0627\u0644\u0645\u0633\u062a\u0634\u0641\u0649", "name:fr": "El Meridja - l'H\u00f4pital", "public_transport": "platform"}}, {"type": "node", "id": 5044177631, "lat": 36.7523031, "lon": 6.2730544, "tags": {"bus": "yes", "highway": "bus_stop", "name": "\u0645\u0646\u0642\u0648\u0634 - \u0627\u0644\u0645\u062d\u0637\u0629", "name:ar": "\u0645\u0646\u0642\u0648\u0634 - \u0627\u0644\u0645\u062d\u0637\u0629", "name:fr": "Menkouch - Gare routi\u00e8re", "public_transport": "platform"}}, {"type": "node", "id": 5044186023, "lat": 36.7531277, "lon": 6.2680469, "tags": {"bus": "yes", "highway": "bus_stop", "name": "\u0627\u0644\u0645\u0631\u064a\u062c\u0629 - \u0627\u0644\u0645\u0633\u062a\u0634\u0641\u0649", "name:ar": "\u0627\u0644\u0645\u0631\u064a\u062c\u0629 - \u0627\u0644\u0645\u0633\u062a\u0634\u0641\u0649", "name:fr": "El Meridja - l'H\u00f4pital", "public_transport": "platform"}}, {"type": "node", "id": 5044186123, "lat": 36.7531909, "lon": 6.267777, "tags": {"bus": "yes", "highway": "bus_stop", "name": "\u0627\u0644\u0645\u0631\u064a\u062c\u0629 - \u0627\u0644\u0645\u0633\u062a\u0634\u0641\u0649", "name:ar": "\u0627\u0644\u0645\u0631\u064a\u062c\u0629 - \u0627\u0644\u0645\u0633\u062a\u0634\u0641\u0649", "name:fr": "El Meridja - l'H\u00f4pital", "public_transport": "platform"}}, {"type": "node", "id": 5090488225, "lat": 36.5715508, "lon": 6.3411691, "tags": {"bus": "yes", "highway": "bus_stop", "public_transport": "platform"}}, {"type": "node", "id": 5090537621, "lat": 36.5711745, "lon": 6.340692, "tags": {"bus": "yes", "highway": "bus_stop", "public_transport": "platform"}}, {"type": "node", "id": 5106003823, "lat": 36.5712463, "lon": 6.3379194, "tags": {"bus": "yes", "highway": "bus_stop", "public_transport": "platform"}}, {"type": "node", "id": 5207962625, "lat": 36.8097193, "lon": 6.5670953, "tags": {"bus": "yes", "highway": "bus_stop", "name": "\u0645\u0648\u0642\u0641 \u0627\u0644\u062d\u0627\u0641\u0644\u0627\u062a \u0628\u064a\u0646 \u0627\u0644\u0648\u064a\u062f\u0627\u0646", "name:fr": "Arr\u00eat de bus", "public_transport": "platform"}}, {"type": "node", "id": 5352369021, "lat": 37.0054236, "lon": 6.5699519, "tags": {"bus": "yes", "highway": "bus_stop", "public_transport": "platform"}}, {"type": "node", "id": 5804336153, "lat": 36.9464917, "lon": 6.6009098, "tags": {"highway": "bus_stop", "name": "\u0644\u063a\u062f\u064a\u0631\u0629", "name:ar": "\u0644\u063a\u062f\u064a\u0631\u0629", "name:fr": "Laghdira"}}, {"type": "node", "id": 6401828985, "lat": 36.9291259, "lon": 6.5837751, "tags": {"bus": "yes", "highway": "bus_stop", "public_transport": "platform"}}, {"type": "node", "id": 7170237485, "lat": 36.9027285, "lon": 6.553511, "tags": {"highway": "bus_stop"}}, {"type": "node", "id": 7170237585, "lat": 36.9062697, "lon": 6.5515335, "tags": {"highway": "bus_stop"}}, {"type": "node", "id": 8860167516, "lat": 36.9999501, "lon": 6.5512285, "tags": {"bus": "yes", "highway": "bus_stop", "name": "Dar_Amer", "public_transport": "platform"}}, {"type": "node", "id": 9397029330, "lat": 36.7312009, "lon": 6.6499569, "tags": {"public_transport": "station", "railway": "station", "train": "yes"}}, {"type": "node", "id": 9410211417, "lat": 36.9283089, "lon": 6.5692511, "tags": {"highway": "bus_stop"}}]}