{"version": 0.6, "generator": "Overpass API 0.7.62.5 1bd436f1", "osm3s": {"timestamp_osm_base": "2025-04-09T14:05:45Z", "copyright": "The data included in this document is from www.openstreetmap.org. The data is made available under ODbL."}, "elements": [{"type": "node", "id": 4178751914, "lat": 8.9834977, "lon": 1.1393517, "tags": {"bus": "yes", "highway": "bus_stop", "name": "DC10 - D\u00e9part 7 heures", "public_transport": "platform", "shelter": "yes"}}, {"type": "node", "id": 4923039422, "lat": 8.9758691, "lon": 1.1432667, "tags": {"bus": "yes", "highway": "bus_stop", "name": "Nagod\u00e9 Transport", "name:fr": "Nagod\u00e9 Transport", "public_transport": "platform"}}, {"type": "node", "id": 5563941127, "lat": 8.6069161, "lon": 1.0048623, "tags": {"highway": "bus_stop", "name": "15"}}, {"type": "node", "id": 5563961324, "lat": 8.6105457, "lon": 0.999507, "tags": {"highway": "bus_stop", "name": "20"}}, {"type": "node", "id": 5563997922, "lat": 8.6127176, "lon": 1.0064517, "tags": {"highway": "bus_stop", "name": "3"}}, {"type": "node", "id": 5563997923, "lat": 8.6122146, "lon": 1.0029345, "tags": {"highway": "bus_stop", "name": "6"}}, {"type": "node", "id": 5564006121, "lat": 8.611849, "lon": 1.0054511, "tags": {"highway": "bus_stop", "name": "2"}}, {"type": "node", "id": 5564006122, "lat": 8.6126069, "lon": 1.0065797, "tags": {"highway": "bus_stop", "name": "4"}}, {"type": "node", "id": 5564006321, "lat": 8.6119435, "lon": 1.0052281, "tags": {"highway": "bus_stop", "name": "2"}}, {"type": "node", "id": 5564007421, "lat": 8.6029222, "lon": 1.0061506, "tags": {"highway": "bus_stop", "name": "15"}}, {"type": "node", "id": 5564008122, "lat": 8.6052554, "lon": 1.002215, "tags": {"highway": "bus_stop", "name": "20"}}, {"type": "node", "id": 7070227842, "lat": 8.989685, "lon": 1.14293, "tags": {"bus": "yes", "highway": "bus_stop", "public_transport": "platform"}}]}