{"version": 0.6, "generator": "Overpass API 0.7.62.5 1bd436f1", "osm3s": {"timestamp_osm_base": "2025-04-09T14:49:30Z", "copyright": "The data included in this document is from www.openstreetmap.org. The data is made available under ODbL."}, "elements": [{"type": "node", "id": 272593629, "lat": 40.0342115, "lon": 4.1665771, "tags": {"bus": "yes", "highway": "bus_stop", "name": "Son Parc Beach Club", "public_transport": "platform"}}, {"type": "node", "id": 272593631, "lat": 40.0287953, "lon": 4.1641607, "tags": {"bus": "yes", "highway": "bus_stop", "name": "Son Parc Center", "public_transport": "platform"}}, {"type": "node", "id": 272594096, "lat": 40.0548236, "lon": 4.1295371, "tags": {"bus": "yes", "highway": "bus_stop", "name": "Fornells", "name:ca": "Fornells", "public_transport": "platform"}}, {"type": "node", "id": 440070954, "lat": 39.8395068, "lon": 4.2991036, "tags": {"bench": "yes", "bus": "yes", "covered": "yes", "highway": "bus_stop", "name": "Av. Cinquena", "network": "Transports p\u00fablics de Menorca", "operator": "TMSA", "passenger_information_display": "no", "public_transport": "platform", "ref": "9440", "shelter": "yes"}}, {"type": "node", "id": 440070957, "lat": 39.8351337, "lon": 4.2986408, "tags": {"bench": "yes", "bin": "yes", "bus": "yes", "check_date:bench": "2022-07-18", "covered": "yes", "highway": "bus_stop", "name": "S'Algar", "name:ca": "S'Algar", "network": "Transports p\u00fablics de Menorca", "operator": "TMSA", "passenger_information_display": "no", "public_transport": "platform", "ref": "9480", "shelter": "yes"}}, {"type": "node", "id": 530273287, "lat": 39.8574532, "lon": 4.2765968, "tags": {"highway": "bus_stop"}}, {"type": "node", "id": 530969757, "lat": 39.8151494, "lon": 4.270305, "tags": {"bench": "yes", "bus": "yes", "covered": "yes", "highway": "bus_stop", "name": "Son Remei (t.)", "network": "Transports p\u00fablics de Menorca", "operator": "TMSA", "passenger_information_display": "no", "public_transport": "platform", "ref": "9285", "shelter": "yes"}}, {"type": "node", "id": 627187147, "lat": 39.829258, "lon": 4.295138, "tags": {"bench": "yes", "bus": "yes", "covered": "yes", "highway": "bus_stop", "name": "Alcaufar", "name:ca": "Alcaufar", "network": "Transports p\u00fablics de Menorca", "operator": "TMSA", "passenger_information_display": "no", "public_transport": "platform", "ref": "9350", "shelter": "yes"}}, {"type": "node", "id": 805319964, "lat": 39.8512105, "lon": 4.2599593, "tags": {"bench": "no", "bin": "no", "bus": "yes", "check_date:bench": "2022-08-06", "covered": "no", "highway": "bus_stop", "name": "Av. de sa Pau, 39", "network": "Transports p\u00fablics de Menorca", "operator": "TMSA", "passenger_information_display": "no", "public_transport": "platform", "ref": "9080", "shelter": "no"}}, {"type": "node", "id": 805320031, "lat": 39.851312, "lon": 4.2597383, "tags": {"bench": "no", "bin": "no", "bus": "yes", "covered": "yes", "highway": "bus_stop", "name": "Av. de sa Pau, 30", "network": "Transports p\u00fablics de Menorca", "operator": "TMSA", "public_transport": "platform", "ref": "9020", "shelter": "yes"}}, {"type": "node", "id": 1441964242, "lat": 39.9448143, "lon": 4.0506531, "tags": {"bus": "yes", "highway": "bus_stop", "local_ref": "7005", "name": "Es Migjorn", "public_transport": "platform"}}, {"type": "node", "id": 1453995674, "lat": 39.8778823, "lon": 4.2892831, "tags": {"bench": "no", "bin": "no", "bus": "yes", "covered": "no", "highway": "bus_stop", "lit": "yes", "local_ref": "Parada bus", "name": "Esgl\u00e8sia des Castell", "network": "Transports p\u00fablics de Menorca", "operator": "TMSA", "passenger_information_display": "no", "public_transport": "platform", "ref": "8130", "shelter": "no", "tactile_paving": "no"}}, {"type": "node", "id": 1453995676, "lat": 39.8802295, "lon": 4.2852365, "tags": {"bench": "yes", "bin": "no", "bus": "yes", "covered": "yes", "highway": "bus_stop", "lit": "yes", "local_ref": "Parada bus", "name": "Fontanelles", "name:ca": "Fontanelles", "network": "Transports p\u00fablics de Menorca", "operator": "TMSA", "passenger_information_display": "no", "public_transport": "platform", "ref": "8120", "shelter": "yes", "tactile_paving": "no"}}, {"type": "node", "id": 1765875782, "lat": 39.8833587, "lon": 4.2794256, "tags": {"bench": "yes", "bus": "yes", "covered": "yes", "highway": "bus_stop", "name": "Son Vilar-2", "network": "Transports p\u00fablics de Menorca", "operator": "TMSA", "passenger_information_display": "no", "public_transport": "platform", "ref": "8140", "shelter": "yes"}}, {"type": "node", "id": 1768403600, "lat": 39.9023638, "lon": 4.0728433, "tags": {"bench": "no", "bus": "yes", "covered": "no", "highway": "bus_stop", "name": "Passeig del Prat", "name:ca": "Passeig del Prat", "network": "Transports p\u00fablics de Menorca", "operator": "TMSA", "passenger_information_display": "no", "public_transport": "platform", "ref": "3260", "shelter": "no"}}, {"type": "node", "id": 1768403603, "lat": 39.8995063, "lon": 4.0767129, "tags": {"bench": "yes", "bus": "yes", "covered": "yes", "highway": "bus_stop", "name": "Son Bou - Platja", "network": "Transports p\u00fablics de Menorca", "operator": "TMSA", "passenger_information_display": "no", "public_transport": "platform", "ref": "3275", "shelter": "yes"}}, {"type": "node", "id": 1944623226, "lat": 39.9111048, "lon": 4.286132, "tags": {"bench": "no", "bus": "yes", "highway": "bus_stop", "name": "Aturada Sa Mesquida", "public_transport": "platform", "shelter": "no", "tactile_paving": "no"}}, {"type": "node", "id": 2459241595, "lat": 39.9336141, "lon": 4.144075, "tags": {"bench": "yes", "bus": "yes", "covered": "yes", "highway": "bus_stop", "name": "Alaior - Poliesportiu", "network": "Transports p\u00fablics de Menorca", "operator": "TMSA", "passenger_information_display": "no", "public_transport": "platform", "ref": "3005", "shelter": "yes"}}, {"type": "node", "id": 2459241598, "lat": 39.8868407, "lon": 4.2582966, "tags": {"bench": "yes", "bin": "yes", "bus": "yes", "covered": "yes", "highway": "bus_stop", "lit": "yes", "name": "Estaci\u00f3 d'autobusos de Ma\u00f3", "name:ca": "Estaci\u00f3 d'autobusos de Ma\u00f3", "network": "Transports p\u00fablics de Menorca", "operator": "TMSA", "passenger_information_display": "no", "public_transport": "platform", "ref": "2005", "shelter": "yes", "tactile_paving": "no"}}, {"type": "node", "id": 3125568024, "lat": 39.9308118, "lon": 4.137605, "tags": {"bench": "yes", "bus": "yes", "covered": "yes", "highway": "bus_stop", "name": "Alaior - Centre", "network": "Transports p\u00fablics de Menorca", "operator": "TMSA", "passenger_information_display": "no", "public_transport": "platform", "ref": "3605", "shelter": "yes", "tram": "no"}}, {"type": "node", "id": 3125568033, "lat": 39.9311282, "lon": 4.1373102, "tags": {"bench": "yes", "bin": "no", "bus": "yes", "covered": "yes", "highway": "bus_stop", "name": "Alaior - Centre", "network": "Transports p\u00fablics de Menorca", "operator": "TMSA", "passenger_information_display": "no", "public_transport": "platform", "ref": "3605", "shelter": "yes"}}, {"type": "node", "id": 3531391830, "lat": 39.9157414, "lon": 4.0394616, "tags": {"bench": "yes", "bin": "yes", "bus": "yes", "highway": "bus_stop", "public_transport": "platform", "shelter": "yes", "tactile_paving": "no"}}, {"type": "node", "id": 3761359208, "lat": 39.9162999, "lon": 4.0373723, "tags": {"bench": "yes", "bin": "no", "bus": "yes", "covered": "no", "highway": "bus_stop", "lit": "yes", "name": "Santo Tomas Vistamar", "public_transport": "platform", "shelter": "no", "tactile_paving": "no"}}, {"type": "node", "id": 4107823170, "lat": 39.8842127, "lon": 4.2716537, "tags": {"bench": "no", "bin": "no", "bus": "yes", "covered": "no", "highway": "bus_stop", "name": "S\u00ednia des Muret (t)", "network": "Transports p\u00fablics de Menorca", "operator": "TMSA", "passenger_information_display": "no", "public_transport": "platform", "ref": "2081", "shelter": "no"}}, {"type": "node", "id": 4107825430, "lat": 39.8838685, "lon": 4.2726536, "tags": {"bench": "yes", "bin": "no", "bus": "yes", "covered": "yes", "highway": "bus_stop", "name": "Sinia Des Muret", "network": "Transports p\u00fablics de Menorca", "operator": "TMSA", "passenger_information_display": "no", "public_transport": "platform", "ref": "2150", "shelter": "yes"}}, {"type": "node", "id": 4293537352, "lat": 39.8484081, "lon": 4.2599885, "tags": {"bench": "yes", "bin": "yes", "bus": "yes", "check_date:bench": "2022-08-06", "covered": "yes", "highway": "bus_stop", "name": "Av. de sa Pau, 150", "network": "Transports p\u00fablics de Menorca", "operator": "TMSA", "public_transport": "platform", "ref": "9040", "shelter": "yes"}}, {"type": "node", "id": 4293537353, "lat": 39.8768528, "lon": 4.2594487, "tags": {"bench": "no", "bus": "yes", "covered": "yes", "highway": "bus_stop", "name": "Cases Ateneu", "network": "Transports p\u00fablics de Menorca", "operator": "TMSA", "passenger_information_display": "no", "public_transport": "platform", "ref": "2790", "shelter": "yes"}}, {"type": "node", "id": 4293537354, "lat": 39.8657539, "lon": 4.2586751, "tags": {"bench": "yes", "bin": "yes", "bus": "yes", "covered": "yes", "highway": "bus_stop", "name": "Hip\u00f2drom (a.)", "name:ca": "Hip\u00f2drom (a.)", "network": "Transports p\u00fablics de Menorca", "operator": "TMSA", "passenger_information_display": "no", "public_transport": "platform", "ref": "2140", "shelter": "yes", "tactile_paving": "no"}}, {"type": "node", "id": 4293537355, "lat": 39.8827967, "lon": 4.2527682, "tags": {"bench": "yes", "bus": "yes", "covered": "yes", "highway": "bus_stop", "name": "Hospital Mateu Orfila", "network": "Transports p\u00fablics de Menorca", "operator": "TMSA", "public_transport": "platform", "ref": "2605", "shelter": "yes"}}, {"type": "node", "id": 4293537356, "lat": 39.8868572, "lon": 4.2539948, "tags": {"bench": "no", "bin": "no", "bus": "yes", "covered": "no", "highway": "bus_stop", "name": "IES Joan Ramis", "name:ca": "IES Joan Ramis", "network": "Transports p\u00fablics de Menorca", "operator": "TMSA", "passenger_information_display": "no", "public_transport": "platform", "ref": "2010", "shelter": "no"}}, {"type": "node", "id": 4293537357, "lat": 39.8729221, "lon": 4.2590716, "tags": {"bench": "no", "bin": "no", "bus": "yes", "covered": "no", "highway": "bus_stop", "name": "Instituts - Bintalfa (a.)", "network": "Transports p\u00fablics de Menorca", "operator": "TMSA", "passenger_information_display": "no", "public_transport": "platform", "ref": "2130", "shelter": "no"}}, {"type": "node", "id": 4293537358, "lat": 39.8576545, "lon": 4.2582056, "tags": {"bench": "yes", "bin": "no", "bus": "yes", "covered": "yes", "highway": "bus_stop", "name": "Pol\u00edgon Sant Llu\u00eds (a.)", "name:ca": "Pol\u00edgon Sant Llu\u00eds (a.)", "network": "Transports p\u00fablics de Menorca", "operator": "TMSA", "passenger_information_display": "no", "public_transport": "platform", "ref": "9150", "shelter": "yes"}}, {"type": "node", "id": 4293722978, "lat": 39.8487187, "lon": 4.2601737, "tags": {"bench": "yes", "bin": "no", "bus": "yes", "check_date:bench": "2022-08-06", "covered": "yes", "highway": "bus_stop", "lit": "yes", "name": "Av. de sa Pau, 123", "network": "Transports p\u00fablics de Menorca", "operator": "TMSA", "passenger_information_display": "no", "public_transport": "platform", "ref": "9060", "shelter": "yes", "tactile_paving": "no"}}, {"type": "node", "id": 4293722979, "lat": 39.8660255, "lon": 4.2589141, "tags": {"bench": "yes", "bin": "no", "bus": "yes", "check_date:bench": "2022-08-02", "covered": "yes", "highway": "bus_stop", "lit": "yes", "name": "Hip\u00f2drom (t.)", "network": "Transports p\u00fablics de Menorca", "operator": "TMSA", "passenger_information_display": "no", "public_transport": "platform", "ref": "2155", "shelter": "yes", "tactile_paving": "no"}}, {"type": "node", "id": 4293722980, "lat": 39.8729128, "lon": 4.2593062, "tags": {"bench": "yes", "bin": "no", "bus": "yes", "check_date:bench": "2022-08-02", "covered": "yes", "highway": "bus_stop", "lit": "yes", "name": "Instituts - Bintalfa (t.)", "network": "Transports p\u00fablics de Menorca", "operator": "TMSA", "public_transport": "platform", "ref": "2160", "shelter": "yes", "tactile_paving": "no"}}, {"type": "node", "id": 4293722981, "lat": 39.8579079, "lon": 4.2584431, "tags": {"bench": "yes", "bin": "no", "bus": "yes", "check_date:bench": "2022-08-02", "covered": "yes", "highway": "bus_stop", "lit": "yes", "name": "Pol\u00edgon Sant Llu\u00eds (t.)", "network": "Transports p\u00fablics de Menorca", "operator": "TMSA", "passenger_information_display": "no", "public_transport": "platform", "ref": "9160", "shelter": "yes", "tactile_paving": "no"}}, {"type": "node", "id": 4293722982, "lat": 39.8788966, "lon": 4.2598782, "tags": {"bench": "yes", "bin": "no", "bus": "yes", "covered": "yes", "highway": "bus_stop", "name": "Ses Algues", "network": "Transports p\u00fablics de Menorca", "operator": "TMSA", "passenger_information_display": "no", "public_transport": "platform", "ref": "2780", "shelter": "yes"}}, {"type": "node", "id": 4294355956, "lat": 39.8706407, "lon": 4.2086356, "tags": {"bench": "yes", "bus": "yes", "covered": "yes", "highway": "bus_stop", "name": "St. Climent", "network": "Transports p\u00fablics de Menorca", "operator": "TMSA", "passenger_information_display": "no", "public_transport": "platform", "ref": "2210", "shelter": "yes"}}, {"type": "node", "id": 4294513432, "lat": 39.8509456, "lon": 4.1726934, "tags": {"bench": "no", "bin": "no", "bus": "yes", "covered": "no", "highway": "bus_stop", "name": "Canutells", "network": "Transports p\u00fablics de Menorca", "operator": "TMSA", "passenger_information_display": "no", "public_transport": "platform", "ref": "2310", "shelter": "no"}}, {"type": "node", "id": 4294650844, "lat": 39.8779276, "lon": 4.1347296, "tags": {"bench": "no", "bin": "no", "bus": "yes", "covered": "no", "highway": "bus_stop", "name": "Av. Central, 18 (Noche Noche)", "network": "Transports p\u00fablics de Menorca", "operator": "TMSA", "passenger_information_display": "no", "public_transport": "platform", "ref": "3315", "shelter": "no"}}, {"type": "node", "id": 4294650845, "lat": 39.8738567, "lon": 4.1352697, "tags": {"bench": "no", "bus": "yes", "covered": "no", "highway": "bus_stop", "name": "Av. Central, 54 (Sa Pa\u00efssa)", "network": "Transports p\u00fablics de Menorca", "operator": "TMSA", "passenger_information_display": "no", "public_transport": "platform", "ref": "3330", "shelter": "no"}}, {"type": "node", "id": 4294650846, "lat": 39.87616, "lon": 4.1842733, "tags": {"bench": "yes", "bin": "no", "bus": "yes", "covered": "yes", "highway": "bus_stop", "name": "Binix\u00edquer", "network": "Transports p\u00fablics de Menorca", "operator": "TMSA", "passenger_information_display": "no", "public_transport": "platform", "ref": "2450", "shelter": "yes"}}, {"type": "node", "id": 4294650847, "lat": 39.873916, "lon": 4.1367547, "tags": {"bench": "no", "bin": "no", "bus": "yes", "covered": "no", "highway": "bus_stop", "name": "C. de la Tramuntana, 69 (Bar Pons)", "network": "Transports p\u00fablics de Menorca", "operator": "TMSA", "passenger_information_display": "no", "public_transport": "platform", "ref": "3360", "shelter": "no"}}, {"type": "node", "id": 4294650848, "lat": 39.880916, "lon": 4.1373032, "tags": {"bench": "no", "bin": "no", "bus": "yes", "covered": "no", "highway": "bus_stop", "name": "C. dels Horts, 7 (Dip\u00f2sit Aigua)", "network": "Transports p\u00fablics de Menorca", "operator": "TMSA", "passenger_information_display": "no", "public_transport": "platform", "ref": "3375", "shelter": "no"}}, {"type": "node", "id": 4294650849, "lat": 39.8721544, "lon": 4.1330247, "tags": {"bench": "yes", "bin": "no", "bus": "yes", "covered": "yes", "highway": "bus_stop", "name": "Passeig Mar\u00edtim, 39 (Mirador Platja)", "name:ca": "Passeig Mar\u00edtim, 39 (Mirador Platja)", "network": "Transports p\u00fablics de Menorca", "operator": "TMSA", "passenger_information_display": "no", "public_transport": "platform", "ref": "3345", "shelter": "no"}}, {"type": "node", "id": 4294650850, "lat": 39.8793233, "lon": 4.1666812, "tags": {"bench": "yes", "bin": "no", "bus": "yes", "covered": "yes", "highway": "bus_stop", "name": "Son Vitamina", "network": "Transports p\u00fablics de Menorca", "operator": "TMSA", "passenger_information_display": "no", "public_transport": "platform", "ref": "3450", "shelter": "yes"}}, {"type": "node", "id": 4295147965, "lat": 39.8823117, "lon": 4.2603673, "tags": {"bench": "no", "bin": "no", "bus": "yes", "covered": "no", "highway": "bus_stop", "name": "Av. Francesc Femenies - CP Maria Llu\u00efsa Serra", "network": "Transports p\u00fablics de Menorca", "operator": "TMSA", "passenger_information_display": "no", "public_transport": "platform", "ref": "2095", "shelter": "no"}}, {"type": "node", "id": 4295147966, "lat": 39.8819379, "lon": 4.2651058, "tags": {"bench": "yes", "bin": "no", "bus": "yes", "covered": "no", "highway": "bus_stop", "name": "Cementiri de Ma\u00f3 (a.)", "name:ca": "Cementiri de Ma\u00f3 (a.)", "network": "Transports p\u00fablics de Menorca", "operator": "TMSA", "passenger_information_display": "no", "public_transport": "platform", "ref": "2613", "shelter": "no"}}, {"type": "node", "id": 4295147967, "lat": 39.8821645, "lon": 4.2650323, "tags": {"bench": "no", "bus": "yes", "covered": "no", "highway": "bus_stop", "name": "Cementiri de Ma\u00f3 (t.)", "network": "Transports p\u00fablics de Menorca", "operator": "TMSA", "passenger_information_display": "no", "public_transport": "platform", "ref": "2090", "shelter": "no"}}, {"type": "node", "id": 4295147968, "lat": 39.8830684, "lon": 4.2792084, "tags": {"bench": "no", "bin": "no", "bus": "yes", "covered": "no", "highway": "bus_stop", "name": "Son Vilar-1", "network": "Transports p\u00fablics de Menorca", "operator": "TMSA", "passenger_information_display": "no", "public_transport": "platform", "ref": "8110", "shelter": "no"}}, {"type": "node", "id": 4296955945, "lat": 39.8947204, "lon": 4.2630839, "tags": {"bench": "no", "bin": "no", "bus": "yes", "covered": "no", "highway": "bus_stop", "name": "Cos Nou", "name:ca": "Cos Nou", "network": "Transports p\u00fablics de Menorca", "operator": "Torres All\u00e9s Autocares S.L.U.", "passenger_information_display": "no", "public_transport": "platform", "ref": "2056", "shelter": "no"}}, {"type": "node", "id": 4296987812, "lat": 39.8740768, "lon": 4.2593734, "tags": {"bench": "no", "bin": "no", "bus": "yes", "covered": "no", "highway": "bus_stop", "name": "Instituts - Bintalfa (t.)", "network": "Transports p\u00fablics de Menorca", "operator": "TMSA", "passenger_information_display": "no", "public_transport": "platform", "ref": "2160", "shelter": "no"}}, {"type": "node", "id": 4297145667, "lat": 39.8653737, "lon": 4.2263509, "tags": {"bench": "no", "bin": "no", "bus": "yes", "check_date:bench": "2022-08-06", "covered": "yes", "highway": "bus_stop", "name": "Aeroport", "name:ca": "Aeroport", "network": "Transports p\u00fablics de Menorca", "operator": "Torres All\u00e9s Autocares S.L.U.", "passenger_information_display": "no", "public_transport": "platform", "ref": "2105", "shelter": "yes"}}, {"type": "node", "id": 4297145668, "lat": 39.8871896, "lon": 4.2443648, "tags": {"bench": "no", "bin": "no", "bus": "yes", "covered": "no", "highway": "bus_stop", "name": "C. Cap de Cavalleria (a.)", "network": "Transports p\u00fablics de Menorca", "operator": "Torres All\u00e9s Autocares S.L.U.", "passenger_information_display": "no", "public_transport": "platform", "ref": "2020", "shelter": "no"}}, {"type": "node", "id": 4297145669, "lat": 39.887149, "lon": 4.244916, "tags": {"bench": "no", "bin": "no", "bus": "yes", "check_date:bench": "2022-08-06", "covered": "no", "highway": "bus_stop", "name": "C. Cap de Cavalleria (t.)", "network": "Transports p\u00fablics de Menorca", "operator": "Torres All\u00e9s Autocares S.L.U.", "passenger_information_display": "no", "public_transport": "platform", "ref": "2025", "shelter": "no"}}, {"type": "node", "id": 4297145670, "lat": 39.8842607, "lon": 4.2369734, "tags": {"bench": "no", "bin": "no", "bus": "yes", "covered": "no", "highway": "bus_stop", "name": "C. Corniola, 24", "network": "Transports p\u00fablics de Menorca", "operator": "Torres All\u00e9s Autocares S.L.U.", "passenger_information_display": "no", "public_transport": "platform", "ref": "2021", "shelter": "no"}}, {"type": "node", "id": 4297145671, "lat": 39.881673, "lon": 4.2367457, "tags": {"bench": "no", "bin": "no", "bus": "yes", "covered": "no", "highway": "bus_stop", "name": "C. Corniola, 34", "network": "Transports p\u00fablics de Menorca", "operator": "Torres All\u00e9s Autocares S.L.U.", "public_transport": "platform", "ref": "2023", "shelter": "no"}}, {"type": "node", "id": 4297145672, "lat": 39.8839577, "lon": 4.2372288, "tags": {"bench": "no", "bin": "no", "bus": "yes", "covered": "no", "highway": "bus_stop", "name": "C. Corniola, 41", "network": "Transports p\u00fablics de Menorca", "operator": "Torres All\u00e9s Autocares S.L.U.", "passenger_information_display": "no", "public_transport": "platform", "ref": "2024", "shelter": "no"}}, {"type": "node", "id": 4297145673, "lat": 39.8820867, "lon": 4.2365017, "tags": {"bench": "no", "bin": "no", "bus": "yes", "covered": "no", "highway": "bus_stop", "name": "Corniola - Escorxador", "network": "Transports p\u00fablics de Menorca", "operator": "Torres All\u00e9s Autocares S.L.U.", "passenger_information_display": "no", "public_transport": "platform", "ref": "2022", "shelter": "no"}}, {"type": "node", "id": 4297145674, "lat": 39.8866158, "lon": 4.2497508, "tags": {"bench": "no", "bin": "no", "bus": "yes", "covered": "no", "highway": "bus_stop", "lit": "yes", "name": "Poliesportiu (a.)", "name:ca": "Poliesportiu (a.)", "network": "Transports p\u00fablics de Menorca", "operator": "Torres All\u00e9s Autocares S.L.U.", "passenger_information_display": "no", "public_transport": "platform", "ref": "2015", "shelter": "no", "tactile_paving": "no"}}, {"type": "node", "id": 4297145675, "lat": 39.8866111, "lon": 4.2494256, "tags": {"bench": "no", "bin": "no", "bus": "yes", "check_date:bench": "2023-02-08", "covered": "no", "highway": "bus_stop", "lit": "no", "name": "Poliesportiu (t.)", "network": "Transports p\u00fablics de Menorca", "operator": "Torres All\u00e9s Autocares S.L.U.", "passenger_information_display": "no", "public_transport": "platform", "ref": "2030", "shelter": "no", "tactile_paving": "no"}}, {"type": "node", "id": 4299149578, "lat": 39.814909, "lon": 4.2660713, "tags": {"bench": "yes", "bus": "yes", "covered": "yes", "highway": "bus_stop", "name": "C. Equinoccis", "network": "Transports p\u00fablics de Menorca", "operator": "TMSA", "passenger_information_display": "no", "public_transport": "platform", "ref": "9210", "shelter": "yes"}}, {"type": "node", "id": 4299149579, "lat": 39.8159041, "lon": 4.2763654, "tags": {"bench": "yes", "bus": "yes", "covered": "yes", "highway": "bus_stop", "name": "C. Mestral, 30", "network": "Transports p\u00fablics de Menorca", "operator": "TMSA", "passenger_information_display": "no", "public_transport": "platform", "ref": "9280", "shelter": "yes"}}, {"type": "node", "id": 4299149580, "lat": 39.816991, "lon": 4.281993, "tags": {"bench": "no", "bus": "yes", "covered": "no", "highway": "bus_stop", "name": "C. de Llevant", "network": "Transports p\u00fablics de Menorca", "operator": "TMSA", "passenger_information_display": "no", "public_transport": "platform", "ref": "9240", "shelter": "no"}}, {"type": "node", "id": 4299149581, "lat": 39.8141618, "lon": 4.2768551, "tags": {"bench": "no", "bus": "yes", "covered": "no", "highway": "bus_stop", "name": "C. de s'Illa", "network": "Transports p\u00fablics de Menorca", "operator": "TMSA", "passenger_information_display": "no", "public_transport": "platform", "ref": "9281", "shelter": "no"}}, {"type": "node", "id": 4299149583, "lat": 39.8149895, "lon": 4.2703927, "tags": {"bench": "no", "bus": "yes", "covered": "no", "highway": "bus_stop", "name": "Son Remei (a.)", "network": "Transports p\u00fablics de Menorca", "operator": "TMSA", "passenger_information_display": "no", "public_transport": "platform", "ref": "9220", "shelter": "no"}}, {"type": "node", "id": 4299149584, "lat": 39.8132571, "lon": 4.2781599, "tags": {"bus": "yes", "highway": "bus_stop", "name": "C. des Xaloc - Platja", "public_transport": "stop_position"}}, {"type": "node", "id": 4301016150, "lat": 39.8175001, "lon": 4.2412, "tags": {"bench": "no", "bin": "no", "bus": "yes", "covered": "no", "highway": "bus_stop", "name": "Binib\u00e8quer - Platja", "network": "Transports p\u00fablics de Menorca", "operator": "TMSA", "passenger_information_display": "no", "public_transport": "platform", "ref": "9515"}}, {"type": "node", "id": 4301016151, "lat": 39.8188028, "lon": 4.2359382, "tags": {"bench": "yes", "bus": "yes", "covered": "yes", "highway": "bus_stop", "name": "Passeig Mar\u00edtim", "name:ca": "Passeig Mar\u00edtim", "network": "Transports p\u00fablics de Menorca", "operator": "TMSA", "passenger_information_display": "no", "public_transport": "platform", "ref": "9560", "shelter": "yes"}}, {"type": "node", "id": 4301016152, "lat": 39.8221276, "lon": 4.2311691, "tags": {"bench": "no", "bin": "yes", "bus": "yes", "check_date:bench": "2022-08-06", "covered": "no", "highway": "bus_stop", "lit": "yes", "name": "Poblat Pescadors", "network": "Transports p\u00fablics de Menorca", "operator": "TMSA", "passenger_information_display": "no", "public_transport": "platform", "ref": "9580", "shelter": "no", "tactile_paving": "no"}}, {"type": "node", "id": 4301112647, "lat": 39.8846358, "lon": 4.251143, "tags": {"bench": "yes", "bin": "no", "bus": "yes", "check_date:bench": "2023-02-11", "covered": "yes", "highway": "bus_stop", "lit": "yes", "name": "Cam\u00ed Baix, Salle", "network": "Transports p\u00fablics de Menorca", "operator": "Torres All\u00e9s Autocares S.L.U.", "passenger_information_display": "no", "public_transport": "platform", "ref": "2730", "shelter": "yes", "tactile_paving": "no"}}, {"type": "node", "id": 4301112648, "lat": 39.8775701, "lon": 4.2360545, "tags": {"bench": "no", "bus": "yes", "covered": "no", "highway": "bus_stop", "name": "Cam\u00ed de na Ferranda", "name:ca": "Cam\u00ed de na Ferranda", "network": "Transports p\u00fablics de Menorca", "operator": "Torres All\u00e9s Autocares S.L.U.", "passenger_information_display": "no", "public_transport": "platform", "ref": "2705", "shelter": "no"}}, {"type": "node", "id": 4301112649, "lat": 39.8803407, "lon": 4.2494216, "tags": {"bench": "no", "bus": "yes", "covered": "no", "highway": "bus_stop", "name": "Cam\u00ed de Baix 26", "name:ca": "Cam\u00ed de Baix 26", "network": "Transports p\u00fablics de Menorca", "operator": "Torres All\u00e9s Autocares S.L.U.", "passenger_information_display": "no", "public_transport": "platform", "ref": "2725", "shelter": "no"}}, {"type": "node", "id": 4301112650, "lat": 39.8754808, "lon": 4.2470603, "tags": {"bench": "no", "bus": "yes", "covered": "no", "highway": "bus_stop", "name": "Es Campets", "network": "Transports p\u00fablics de Menorca", "operator": "Torres All\u00e9s Autocares S.L.U.", "passenger_information_display": "no", "public_transport": "platform", "ref": "2720", "shelter": "no"}}, {"type": "node", "id": 4301112651, "lat": 39.8732788, "lon": 4.2454429, "tags": {"bench": "no", "bus": "yes", "covered": "no", "highway": "bus_stop", "name": "Es Pla gran", "network": "Transports p\u00fablics de Menorca", "operator": "Torres All\u00e9s Autocares S.L.U.", "passenger_information_display": "no", "public_transport": "platform", "ref": "2715", "shelter": "no"}}, {"type": "node", "id": 4301112652, "lat": 39.8691515, "lon": 4.241156, "tags": {"bench": "yes", "bus": "yes", "covered": "yes", "highway": "bus_stop", "name": "Llucma\u00e7anes", "name:ca": "Llucma\u00e7anes", "network": "Transports p\u00fablics de Menorca", "operator": "Torres All\u00e9s Autocares S.L.U.", "passenger_information_display": "no", "public_transport": "platform", "ref": "2710", "shelter": "yes"}}, {"type": "node", "id": 4301112653, "lat": 39.8730534, "lon": 4.2380689, "tags": {"bench": "no", "bus": "yes", "covered": "no", "highway": "bus_stop", "name": "Sa Punta", "name:ca": "Sa Punta", "network": "Transports p\u00fablics de Menorca", "operator": "Torres All\u00e9s Autocares S.L.U.", "passenger_information_display": "no", "public_transport": "platform", "ref": "2707"}}, {"type": "node", "id": 4301209859, "lat": 39.9485329, "lon": 4.2672889, "tags": {"bench": "no", "bus": "yes", "covered": "no", "highway": "bus_stop", "name": "Es Grau", "name:ca": "Es Grau", "network": "Transports p\u00fablics de Menorca", "operator": "TMSA", "passenger_information_display": "no", "public_transport": "platform", "ref": "2550", "shelter": "no"}}, {"type": "node", "id": 4304896991, "lat": 39.8859506, "lon": 4.2724583, "tags": {"bench": "no", "bus": "yes", "covered": "no", "highway": "bus_stop", "name": "Av. Fort de L'Eau (t.)", "network": "Transports p\u00fablics de Menorca", "operator": "Torres All\u00e9s Autocares S.L.U.", "passenger_information_display": "no", "public_transport": "platform", "ref": "2080", "shelter": "no"}}, {"type": "node", "id": 4304896992, "lat": 39.8829586, "lon": 4.271243, "tags": {"bench": "no", "bus": "yes", "covered": "no", "highway": "bus_stop", "name": "Av. Francesc Femenias", "network": "Transports p\u00fablics de Menorca", "operator": "Torres All\u00e9s Autocares S.L.U.", "passenger_information_display": "no", "public_transport": "platform", "ref": "2085", "shelter": "no"}}, {"type": "node", "id": 4304896993, "lat": 39.8848003, "lon": 4.2698868, "tags": {"bench": "no", "bus": "yes", "covered": "no", "highway": "bus_stop", "name": "Cam\u00ed des Castell", "name:ca": "Cam\u00ed des Castell", "network": "Transports p\u00fablics de Menorca", "operator": "Torres All\u00e9s Autocares S.L.U.", "passenger_information_display": "no", "public_transport": "platform", "ref": "2632", "shelter": "no"}}, {"type": "node", "id": 4304896996, "lat": 39.8904486, "lon": 4.2536517, "tags": {"bench": "no", "bin": "no", "bus": "yes", "covered": "no", "highway": "bus_stop", "lit": "yes", "name": "Dalt Sant Joan (a.)", "network": "Transports p\u00fablics de Menorca", "operator": "Torres All\u00e9s Autocares S.L.U.", "passenger_information_display": "no", "public_transport": "platform", "ref": "2045", "shelter": "no", "tactile_paving": "no"}}, {"type": "node", "id": 4304896997, "lat": 39.8818254, "lon": 4.2694125, "tags": {"bench": "no", "bus": "yes", "covered": "no", "highway": "bus_stop", "name": "Francesc Femenies - CP Verge del Carme", "network": "Transports p\u00fablics de Menorca", "operator": "Torres All\u00e9s Autocares S.L.U.", "passenger_information_display": "no", "public_transport": "platform", "ref": "2614", "shelter": "no"}}, {"type": "node", "id": 4304896998, "lat": 39.8806803, "lon": 4.251865, "tags": {"bench": "no", "bus": "yes", "covered": "no", "highway": "bus_stop", "name": "Hospital - Entrada", "network": "Transports p\u00fablics de Menorca", "operator": "Torres All\u00e9s Autocares S.L.U.", "passenger_information_display": "no", "public_transport": "platform", "ref": "2607", "shelter": "no"}}, {"type": "node", "id": 4304896999, "lat": 39.8821031, "lon": 4.2604372, "tags": {"bench": "no", "bin": "no", "bus": "yes", "check_date:bench": "2022-08-02", "covered": "no", "highway": "bus_stop", "name": "Josep A. Clav\u00e9 (a.)", "network": "Transports p\u00fablics de Menorca", "operator": "Torres All\u00e9s Autocares S.L.U.", "passenger_information_display": "no", "public_transport": "platform", "ref": "2610", "shelter": "no", "tactile_paving": "no"}}, {"type": "node", "id": 4304897001, "lat": 39.8880759, "lon": 4.267012, "tags": {"bench": "no", "bus": "yes", "covered": "no", "highway": "bus_stop", "name": "Pl. del Pr\u00edncep", "network": "Transports p\u00fablics de Menorca", "operator": "Torres All\u00e9s Autocares S.L.U.", "passenger_information_display": "no", "public_transport": "platform", "ref": "2633", "shelter": "no"}}, {"type": "node", "id": 4306439650, "lat": 39.9054039, "lon": 4.0697177, "tags": {"bench": "no", "bus": "yes", "covered": "no", "highway": "bus_stop", "name": "C. de Bella Mirada, 65", "network": "Transports p\u00fablics de Menorca", "operator": "TMSA", "passenger_information_display": "no", "public_transport": "platform", "ref": "3245", "shelter": "no"}}, {"type": "node", "id": 4306439651, "lat": 39.9083218, "lon": 4.0670271, "tags": {"bench": "no", "bus": "yes", "covered": "no", "highway": "bus_stop", "name": "C. dels Dofins, 60", "network": "Transports p\u00fablics de Menorca", "operator": "TMSA", "passenger_information_display": "no", "public_transport": "stop_position", "ref": "3215", "shelter": "no"}}, {"type": "node", "id": 4306439652, "lat": 39.9003946, "lon": 4.0783278, "tags": {"bench": "yes", "bus": "yes", "covered": "yes", "highway": "bus_stop", "name": "Son Bou rotonda", "network": "Transports p\u00fablics de Menorca", "operator": "TMSA", "passenger_information_display": "no", "public_transport": "platform", "ref": "3205", "shelter": "yes"}}, {"type": "node", "id": 4306439653, "lat": 39.9078791, "lon": 4.0664104, "tags": {"bench": "no", "bus": "yes", "covered": "no", "highway": "bus_stop", "name": "Torre-Sol\u00ed", "network": "Transports P\u00fablics de Menorca", "operator": "TMSA", "passenger_information_display": "no", "public_transport": "stop_position", "ref": "3230", "shelter": "no"}}, {"type": "node", "id": 4307212697, "lat": 39.9851006, "lon": 4.0943631, "tags": {"addr:city": "es Mercadal", "bench": "yes", "bin": "yes", "bus": "yes", "covered": "yes", "highway": "bus_stop", "lit": "yes", "local_ref": "4005", "name": "Es Mercadal", "name:ca": "Es Mercadal", "network": "Transports p\u00fablics de Menorca", "operator": "TMSA", "passenger_information_display": "no", "public_transport": "platform", "ref": "4005", "shelter": "yes", "tactile_paving": "no"}}, {"type": "node", "id": 4405021994, "lat": 40.0380776, "lon": 4.0003768, "tags": {"bench": "no", "bin": "no", "highway": "bus_stop", "public_transport": "platform", "shelter": "no", "tactile_paving": "no"}}, {"type": "node", "id": 8284454097, "lat": 39.8656524, "lon": 4.2248892, "tags": {"bus": "yes", "highway": "bus_stop", "name": "G 3-4", "public_transport": "platform", "ref": "G 3-4"}}, {"type": "node", "id": 8284454098, "lat": 39.8652146, "lon": 4.2248029, "tags": {"bus": "yes", "highway": "bus_stop", "name": "G 7-8", "public_transport": "platform", "ref": "G 7-8"}}, {"type": "node", "id": 8284454101, "lat": 39.8645016, "lon": 4.2246571, "tags": {"bus": "yes", "highway": "bus_stop", "name": "G 10-11", "public_transport": "platform", "ref": "G 10-11"}}, {"type": "node", "id": 8284454103, "lat": 39.8640945, "lon": 4.2245758, "tags": {"bus": "yes", "highway": "bus_stop", "name": "G 14-15", "public_transport": "platform", "ref": "G 14-15"}}, {"type": "node", "id": 9466400424, "lat": 39.8886653, "lon": 4.2738416, "tags": {"bench": "no", "bus": "yes", "covered": "no", "highway": "bus_stop", "name": "Avinguda Port de Ma\u00f3", "name:ca": "Avinguda Port de Ma\u00f3", "network": "Transports p\u00fablics de Menorca", "operator": "Torres All\u00e9s Autocares S.L.U.", "passenger_information_display": "no", "public_transport": "platform", "ref": "2065", "shelter": "no"}}, {"type": "node", "id": 9466400426, "lat": 39.888674, "lon": 4.2689216, "tags": {"bench": "no", "bus": "yes", "covered": "no", "highway": "bus_stop", "name": "Pla\u00e7a Sant Roc", "name:ca": "Pla\u00e7a Sant Roc", "network": "Transports p\u00fablics de Menorca", "operator": "Torres All\u00e9s Autocares S.L.U.", "passenger_information_display": "no", "public_transport": "platform", "ref": "2635", "shelter": "no"}}, {"type": "node", "id": 9469171671, "lat": 39.8889228, "lon": 4.2713899, "tags": {"bench": "no", "bus": "yes", "covered": "no", "highway": "bus_stop", "name": "Carrer Barcelona", "name:ca": "Carrer Barcelona", "network": "Transports p\u00fablics de Menorca", "operator": "Torres All\u00e9s Autocares S.L.U.", "passenger_information_display": "no", "public_transport": "platform", "ref": "2060", "shelter": "no"}}, {"type": "node", "id": 11076628016, "lat": 40.0174136, "lon": 4.1634014, "tags": {"highway": "bus_stop", "name": "Carrer del Golf"}}, {"type": "node", "id": 11134139157, "lat": 40.0492788, "lon": 4.1103614, "tags": {"highway": "bus_stop", "name": "Carrer de Dalt", "website": "https://www.autosfornells.com"}}, {"type": "node", "id": 11134141069, "lat": 40.0451835, "lon": 4.1098213, "tags": {"highway": "bus_stop", "name": "Carrer de S\u2019Alcor", "website": "https://www.autosfornells.com"}}, {"type": "node", "id": 12145489809, "lat": 39.9855014, "lon": 4.0138058, "tags": {"bus": "yes", "highway": "bus_stop", "local_ref": "5005", "name": "Ferreries", "name:ca": "Ferreries", "public_transport": "stop_position"}}, {"type": "node", "id": 12145489810, "lat": 39.9448059, "lon": 4.0506317, "tags": {"bus": "yes", "highway": "bus_stop", "local_ref": "7005", "name": "Es Migjorn", "public_transport": "stop_position"}}, {"type": "node", "id": 12145489811, "lat": 39.9139354, "lon": 4.0446, "tags": {"bench": "yes", "bin": "yes", "bus": "yes", "highway": "bus_stop", "local_ref": "7230", "name": "C. Sant Tom\u00e0s, 24", "public_transport": "stop_position", "shelter": "yes"}}, {"type": "node", "id": 12416478019, "lat": 39.9160765, "lon": 4.1787996, "tags": {"bus": "yes", "departures_board": "yes", "highway": "bus_stop", "name": "L'Argentina", "operator": "TIB", "public_transport": "platform", "shelter": "yes"}}, {"type": "node", "id": 12416478024, "lat": 39.9158859, "lon": 4.1795936, "tags": {"bus": "yes", "departures_board": "yes", "highway": "bus_stop", "name": "L'Argentina", "operator": "TIB", "public_transport": "platform", "shelter": "yes"}}]}