{"version": 0.6, "generator": "Overpass API 0.7.62.5 1bd436f1", "osm3s": {"timestamp_osm_base": "2025-04-09T14:29:00Z", "copyright": "The data included in this document is from www.openstreetmap.org. The data is made available under ODbL."}, "elements": [{"type": "node", "id": 1424195868, "lat": 38.8780396, "lon": 1.401386, "tags": {"bench": "yes", "bus": "yes", "highway": "bus_stop", "name": "Grand Palladium Palace", "operator": "tib", "public_transport": "platform", "shelter": "no"}}, {"type": "node", "id": 1461715005, "lat": 38.6637915, "lon": 1.5826849, "tags": {"bench": "no", "bin": "yes", "bus": "yes", "highway": "bus_stop", "lit": "no", "name": "Far de Mola", "public_transport": "platform", "shelter": "no", "tactile_paving": "no"}}, {"type": "node", "id": 1461715051, "lat": 38.7225414, "lon": 1.4571276, "tags": {"bus": "yes", "highway": "bus_stop", "public_transport": "platform"}}, {"type": "node", "id": 1819755475, "lat": 38.9099569, "lon": 1.4261789, "tags": {"bus": "yes", "highway": "bus_stop", "name": "Discobus", "public_transport": "platform", "shelter": "no"}}, {"type": "node", "id": 1927857084, "lat": 38.84358, "lon": 1.3851891, "tags": {"bench": "yes", "bus": "yes", "highway": "bus_stop", "lit": "no", "public_transport": "platform", "shelter": "yes", "tactile_paving": "no"}}, {"type": "node", "id": 2318376661, "lat": 38.8823054, "lon": 1.4022888, "tags": {"bench": "yes", "bin": "yes", "bus": "yes", "highway": "bus_stop", "lit": "yes", "name": "H. Bahamas", "operator": "tib", "public_transport": "platform", "shelter": "yes", "tactile_paving": "no"}}, {"type": "node", "id": 2318382525, "lat": 38.8849783, "lon": 1.4040419, "tags": {"bench": "yes", "bin": "yes", "bus": "yes", "highway": "bus_stop", "lit": "yes", "name": "Ushuaia / Hard Rock", "old_name": "Don Toni", "operator": "tib", "public_transport": "platform", "shelter": "yes", "tactile_paving": "no"}}, {"type": "node", "id": 2411115668, "lat": 38.7214589, "lon": 1.4568527, "tags": {"bench": "yes", "bus": "yes", "highway": "bus_stop", "name": "Platja es Pujols", "name:ca": "Platja es Pujols", "public_transport": "platform", "shelter": "yes", "tactile_paving": "no"}}, {"type": "node", "id": 2808523612, "lat": 38.6685234, "lon": 1.5565426, "tags": {"bench": "yes", "bin": "yes", "bus": "yes", "departures_board": "timetable", "highway": "bus_stop", "lit": "yes", "name": "El Pilar", "name:ca": "El Pilar", "network": "Bus Formentera", "operator": "Autocares Paya", "public_transport": "platform", "shelter": "yes", "tactile_paving": "no"}}, {"type": "node", "id": 2941702683, "lat": 38.9086099, "lon": 1.4317097, "tags": {"bench": "yes", "bin": "yes", "bus": "yes", "highway": "bus_stop", "lit": "yes", "name": "Vara de Rey", "network": "Ibizabus", "public_transport": "platform", "shelter": "no", "tactile_paving": "no", "website": "https://eivissa.tib.org/es/web/cie/parades/-/parada/00163"}}, {"type": "node", "id": 3296275577, "lat": 38.9076952, "lon": 1.4268941, "tags": {"bus": "yes", "highway": "bus_stop", "public_transport": "stop_position"}}, {"type": "node", "id": 3296278337, "lat": 38.9078076, "lon": 1.4225825, "tags": {"bus": "yes", "highway": "bus_stop", "public_transport": "stop_position"}}, {"type": "node", "id": 3296282336, "lat": 38.9077926, "lon": 1.4225286, "tags": {"bus": "yes", "highway": "bus_stop", "name": "Carrer Pa\u00eds Valenci\u00e0", "name:ca": "Carrer Pa\u00eds Valenci\u00e0", "public_transport": "platform", "website": "https://eivissa.tib.org/es/web/cie/parades/-/parada/00283"}}, {"type": "node", "id": 3296282854, "lat": 38.9076465, "lon": 1.4269113, "tags": {"bench": "yes", "bin": "no", "bus": "yes", "highway": "bus_stop", "lit": "no", "name": "Consell Insular d'Eivissa", "name:ca": "Consell Insular d'Eivissa", "public_transport": "platform", "shelter": "yes", "tactile_paving": "no", "website": "https://eivissa.tib.org/es/web/cie/parades/-/parada/00162"}}, {"type": "node", "id": 3296289079, "lat": 38.9097503, "lon": 1.4250606, "tags": {"bench": "yes", "bus": "yes", "highway": "bus_stop", "lit": "yes", "name": "Isidor Macabich, 54", "public_transport": "platform", "shelter": "yes", "website": "https://eivissa.tib.org/es/web/cie/parades/-/parada/00406"}}, {"type": "node", "id": 3307368415, "lat": 38.9105756, "lon": 1.4299841, "tags": {"bus": "yes", "highway": "bus_stop", "name": "Isidor Macabich, 12", "public_transport": "platform", "ref": "6049", "shelter": "no", "website": "https://eivissa.tib.org/es/web/cie/parades/-/parada/00020"}}, {"type": "node", "id": 3307495740, "lat": 38.9104859, "lon": 1.428584, "tags": {"bus": "yes", "highway": "bus_stop", "public_transport": "platform"}}, {"type": "node", "id": 3307495741, "lat": 38.9103984, "lon": 1.4285929, "tags": {"bus": "yes", "highway": "bus_stop", "public_transport": "stop_position"}}, {"type": "node", "id": 3467969866, "lat": 38.8990133, "lon": 1.3971386, "tags": {"bus": "yes", "highway": "bus_stop", "public_transport": "stop_position", "shelter": "yes"}}, {"type": "node", "id": 3778041651, "lat": 38.7069413, "lon": 1.4304245, "tags": {"bench": "yes", "bin": "yes", "bus": "yes", "departures_board": "timetable", "highway": "bus_stop", "lit": "yes", "name": "Sant Francesc", "name:ca": "Sant Francesc", "network": "Bus Formentera", "operator": "Paya Autocarres", "public_transport": "platform", "shelter": "yes", "surface": "paving_stones", "tactile_paving": "no"}}, {"type": "node", "id": 3778100797, "lat": 38.7343954, "lon": 1.41508, "tags": {"bench": "yes", "bin": "yes", "bus": "yes", "departures_board": "timetable", "highway": "bus_stop", "lit": "yes", "name": "Port la Savina", "network": "Bus Formentera", "operator": "Paya Autocares", "public_transport": "platform", "shelter": "yes", "surface": "paving_stones", "tactile_paving": "no"}}, {"type": "node", "id": 4156756289, "lat": 38.9082409, "lon": 1.4521532, "tags": {"bus": "yes", "highway": "bus_stop", "name": "\u0418\u0431\u0438\u0446\u0430, \u0441\u0442\u043e\u044f\u043d\u043a\u0430 \u043f\u0430\u0440\u043e\u043c\u0430 Sicilia", "public_transport": "platform"}}, {"type": "node", "id": 4320322763, "lat": 38.6854662, "lon": 1.4677737, "tags": {"bench": "yes", "bin": "no", "bus": "yes", "highway": "bus_stop", "lit": "no", "name": "H. Formentera Playa", "public_transport": "platform", "shelter": "no", "tactile_paving": "no"}}, {"type": "node", "id": 4394710190, "lat": 38.9045969, "lon": 1.4118519, "tags": {"bench": "no", "bin": "no", "bus": "yes", "highway": "bus_stop", "name": "SEAT", "public_transport": "platform", "shelter": "no", "website": "https://eivissa.tib.org/es/web/cie/parades/-/parada/00459"}}, {"type": "node", "id": 4438476652, "lat": 38.962057, "lon": 1.3953321, "tags": {"bench": "yes", "bin": "yes", "bus": "yes", "highway": "bus_stop", "name": "Sant Rafel", "name:ca": "Sant Rafel", "public_transport": "platform", "ref": "29", "shelter": "yes", "website": "https://eivissa.tib.org/es/web/cie/parades/-/parada/00029"}}, {"type": "node", "id": 4438478664, "lat": 38.9616553, "lon": 1.395745, "tags": {"bus": "yes", "highway": "bus_stop", "name": "Sant Rafel", "name:ca": "Sant Rafel", "public_transport": "platform", "ref": "10", "website": "https://eivissa.tib.org/es/web/cie/parades/-/parada/00010"}}, {"type": "node", "id": 4439636549, "lat": 38.9919336, "lon": 1.4334495, "tags": {"bench": "yes", "bin": "no", "bus": "yes", "highway": "bus_stop", "lit": "no", "name": "Cas Barbe", "public_transport": "platform", "shelter": "yes", "tactile_paving": "no", "website": "https://eivissa.tib.org/es/web/cie/parades/-/parada/00608"}}, {"type": "node", "id": 4439637201, "lat": 38.9921336, "lon": 1.4335252, "tags": {"bench": "yes", "bin": "no", "bus": "yes", "highway": "bus_stop", "lit": "no", "name": "Cas Barbe", "public_transport": "platform", "shelter": "yes", "tactile_paving": "no", "website": "https://eivissa.tib.org/es/web/cie/parades/-/parada/00630"}}, {"type": "node", "id": 4443124701, "lat": 38.9984562, "lon": 1.4302157, "tags": {"bus": "yes", "highway": "bus_stop", "name": "Santa Gertrudis", "public_transport": "platform", "website": "https://eivissa.tib.org/es/web/cie/parades/-/parada/00607"}}, {"type": "node", "id": 4443735423, "lat": 38.9972204, "lon": 1.4306989, "tags": {"bus": "yes", "highway": "bus_stop", "name": "Santa Gertrudis", "public_transport": "platform", "website": "https://eivissa.tib.org/es/web/cie/parades/-/parada/00631"}}, {"type": "node", "id": 4444433089, "lat": 38.8983284, "lon": 1.3799934, "tags": {"bus": "yes", "highway": "bus_stop", "name": "Can Many\u00e0", "name:ca": "Can Many\u00e0", "public_transport": "platform", "website": "https://eivissa.tib.org/es/web/cie/parades/-/parada/00453"}}, {"type": "node", "id": 4444433189, "lat": 38.900182, "lon": 1.3892442, "tags": {"bus": "yes", "highway": "bus_stop", "name": "Can Bellotera", "name:ca": "Can Bellotera", "public_transport": "platform", "website": "https://eivissa.tib.org/es/web/cie/parades/-/parada/00454"}}, {"type": "node", "id": 4444433289, "lat": 38.9013996, "lon": 1.3952255, "tags": {"bench": "yes", "bin": "no", "bus": "yes", "highway": "bus_stop", "name": "Muebles Roma", "public_transport": "platform", "shelter": "yes", "website": "https://eivissa.tib.org/es/web/cie/parades/-/parada/00455"}}, {"type": "node", "id": 4444433389, "lat": 38.9054379, "lon": 1.4159099, "tags": {"bench": "yes", "bin": "yes", "bus": "yes", "highway": "bus_stop", "lit": "yes", "name": "Bar Astro", "public_transport": "platform", "shelter": "yes", "tactile_paving": "no", "website": "https://eivissa.tib.org/es/web/cie/parades/-/parada/00460"}}, {"type": "node", "id": 4916284721, "lat": 38.9131692, "lon": 1.43509, "tags": {"bus": "yes", "highway": "bus_stop", "name": "Costa", "name:ca": "Costa", "name:nl": "Costa bushalte", "operator": "Dipesa", "public_transport": "platform"}}, {"type": "node", "id": 5001489375, "lat": 38.9657794, "lon": 1.3748874, "tags": {"bus": "yes", "highway": "bus_stop", "name": "Can Bagot", "name:ca": "Can Bagot", "public_transport": "platform", "ref": "8", "website": "https://eivissa.tib.org/es/web/cie/parades/-/parada/00008"}}, {"type": "node", "id": 5001489376, "lat": 38.9643572, "lon": 1.3844532, "tags": {"bus": "yes", "highway": "bus_stop", "name": "Can Parentona", "public_transport": "platform", "ref": "9", "website": "https://eivissa.tib.org/es/web/cie/parades/-/parada/00009"}}, {"type": "node", "id": 5001489377, "lat": 38.9573577, "lon": 1.4027758, "tags": {"bus": "yes", "highway": "bus_stop", "name": "Privilege", "public_transport": "platform", "ref": "11", "website": "https://eivissa.tib.org/es/web/cie/parades/-/parada/00011"}}, {"type": "node", "id": 5001489378, "lat": 38.9503927, "lon": 1.4076863, "tags": {"bus": "yes", "highway": "bus_stop", "name": "Can Pep Xico", "public_transport": "platform", "ref": "12", "website": "https://eivissa.tib.org/es/web/cie/parades/-/parada/00012"}}, {"type": "node", "id": 5001489383, "lat": 38.9481799, "lon": 1.4086855, "tags": {"bus": "yes", "highway": "bus_stop", "name": "Amnesia", "public_transport": "platform", "ref": "13", "website": "https://eivissa.tib.org/es/web/cie/parades/-/parada/00013"}}, {"type": "node", "id": 5001489384, "lat": 38.9435466, "lon": 1.4113158, "tags": {"bus": "yes", "highway": "bus_stop", "name": "Porcelanosa", "public_transport": "platform", "ref": "14", "website": "https://eivissa.tib.org/es/web/cie/parades/-/parada/00014"}}, {"type": "node", "id": 5001489385, "lat": 38.9348303, "lon": 1.4165156, "tags": {"bus": "yes", "highway": "bus_stop", "name": "sa Coma", "name:ca": "sa Coma", "public_transport": "platform", "ref": "15", "website": "https://eivissa.tib.org/es/web/cie/parades/-/parada/00015"}}, {"type": "node", "id": 5001489386, "lat": 38.9271263, "lon": 1.4212488, "tags": {"bench": "yes", "bin": "no", "bus": "yes", "highway": "bus_stop", "lit": "yes", "name": "Can Negre", "name:ca": "Can Negre", "public_transport": "platform", "ref": "16", "shelter": "yes", "tactile_paving": "no", "website": "https://eivissa.tib.org/es/web/cie/parades/-/parada/00016"}}, {"type": "node", "id": 5001489387, "lat": 38.9208278, "lon": 1.4250397, "tags": {"bench": "yes", "bin": "yes", "bus": "yes", "highway": "bus_stop", "lit": "yes", "name": "IES sa Dona Blanca", "name:ca": "IES sa Dona Blanca", "public_transport": "platform", "ref": "17", "shelter": "yes", "tactile_paving": "no", "website": "https://eivissa.tib.org/es/web/cie/parades/-/parada/00017"}}, {"type": "node", "id": 5001489388, "lat": 38.9169262, "lon": 1.4273466, "tags": {"bus": "yes", "highway": "bus_stop", "name": "Recinto Ferial", "public_transport": "platform", "website": "https://eivissa.tib.org/es/web/cie/parades/-/parada/00018"}}, {"type": "node", "id": 5001539911, "lat": 38.9185273, "lon": 1.4267639}, {"type": "node", "id": 5001539912, "lat": 38.921643, "lon": 1.4248525, "tags": {"bus": "yes", "highway": "bus_stop", "name": "IES sa Dona Blanca", "name:ca": "IES sa Dona Blanca", "public_transport": "platform", "ref": "22", "website": "https://eivissa.tib.org/es/web/cie/parades/-/parada/00022"}}, {"type": "node", "id": 5001539913, "lat": 38.9277061, "lon": 1.4212351, "tags": {"bus": "yes", "highway": "bus_stop", "name": "Can Negre", "name:ca": "Can Negre", "public_transport": "platform", "ref": "23", "shelter": "yes", "website": "https://eivissa.tib.org/es/web/cie/parades/-/parada/00023"}}, {"type": "node", "id": 5001539914, "lat": 38.9349361, "lon": 1.4167776, "tags": {"bus": "yes", "highway": "bus_stop", "name": "sa Coma", "name:ca": "sa Coma", "public_transport": "platform", "ref": "24", "website": "https://eivissa.tib.org/es/web/cie/parades/-/parada/00023"}}, {"type": "node", "id": 5001539916, "lat": 38.9441142, "lon": 1.4113998, "tags": {"bus": "yes", "highway": "bus_stop", "name": "Porcelanosa", "public_transport": "platform", "ref": "25", "website": "https://eivissa.tib.org/es/web/cie/parades/-/parada/00025"}}, {"type": "node", "id": 5001539917, "lat": 38.9469809, "lon": 1.4097898, "tags": {"bus": "yes", "highway": "bus_stop", "name": "Amnesia", "public_transport": "platform", "ref": "26", "website": "https://eivissa.tib.org/es/web/cie/parades/-/parada/00026"}}, {"type": "node", "id": 5001539918, "lat": 38.9520795, "lon": 1.4073888, "tags": {"bus": "yes", "highway": "bus_stop", "name": "Bombers", "name:ca": "Bombers", "public_transport": "platform", "ref": "27", "website": "https://eivissa.tib.org/es/web/cie/parades/-/parada/00027"}}, {"type": "node", "id": 5001539919, "lat": 38.9575543, "lon": 1.4029369, "tags": {"bus": "yes", "highway": "bus_stop", "name": "Privilege", "public_transport": "platform", "ref": "28", "website": "https://eivissa.tib.org/es/web/cie/parades/-/parada/00028"}}, {"type": "node", "id": 5001539920, "lat": 38.9647033, "lon": 1.3842587}, {"type": "node", "id": 5001541022, "lat": 38.9660724, "lon": 1.374935, "tags": {"bus": "yes", "highway": "bus_stop", "name": "Can Bagot", "name:ca": "Can Bagot", "public_transport": "platform", "ref": "31", "website": "https://eivissa.tib.org/es/web/cie/parades/-/parada/00031"}}, {"type": "node", "id": 5002146560, "lat": 38.898222, "lon": 1.3798976, "tags": {"bench": "yes", "bin": "no", "bus": "yes", "highway": "bus_stop", "name": "Can Many\u00e0", "name:ca": "Can Many\u00e0", "public_transport": "platform", "shelter": "yes", "website": "https://eivissa.tib.org/es/web/cie/parades/-/parada/00153"}}, {"type": "node", "id": 5002146561, "lat": 38.9001274, "lon": 1.3893849, "tags": {"bus": "yes", "highway": "bus_stop", "name": "Can Bellotera", "name:ca": "Can Bellotera", "public_transport": "platform", "shelter": "yes", "website": "https://eivissa.tib.org/es/web/cie/parades/-/parada/00154"}}, {"type": "node", "id": 5002146562, "lat": 38.9013767, "lon": 1.395584, "tags": {"bus": "yes", "highway": "bus_stop", "name": "Muebles Roma", "public_transport": "platform", "website": "https://eivissa.tib.org/es/web/cie/parades/-/parada/00155"}}, {"type": "node", "id": 5002146563, "lat": 38.9026379, "lon": 1.4019467, "tags": {"bench": "yes", "bus": "yes", "highway": "bus_stop", "name": "Can Cend\u00f3n", "public_transport": "platform", "shelter": "yes", "website": "https://eivissa.tib.org/es/web/cie/parades/-/parada/00156"}}, {"type": "node", "id": 5002146564, "lat": 38.9034642, "lon": 1.4060127, "tags": {"bench": "yes", "bin": "no", "bus": "yes", "highway": "bus_stop", "lit": "no", "name": "es Tabaquet", "public_transport": "platform", "shelter": "yes", "tactile_paving": "no", "website": "https://eivissa.tib.org/es/web/cie/parades/-/parada/00157"}}, {"type": "node", "id": 5002146565, "lat": 38.904108, "lon": 1.4094107, "tags": {"bus": "yes", "highway": "bus_stop", "name": "Renault", "name:ca": "Renault", "public_transport": "platform", "website": "https://eivissa.tib.org/es/web/cie/parades/-/parada/00458"}}, {"type": "node", "id": 5002146566, "lat": 38.9066712, "lon": 1.4219568, "tags": {"bench": "yes", "bin": "yes", "bus": "yes", "highway": "bus_stop", "lit": "yes", "name": "ses Figueretes", "public_transport": "platform", "shelter": "yes", "website": "https://eivissa.tib.org/es/web/cie/parades/-/parada/00161"}}, {"type": "node", "id": 5002201713, "lat": 38.9055119, "lon": 1.4154886, "tags": {"bench": "yes", "bin": "yes", "bus": "yes", "highway": "bus_stop", "name": "Bar Astro", "public_transport": "platform", "shelter": "no", "website": "https://eivissa.tib.org/es/web/cie/parades/-/parada/00160"}}, {"type": "node", "id": 5002201714, "lat": 38.9047551, "lon": 1.4116253, "tags": {"bus": "yes", "highway": "bus_stop", "name": "SEAT", "public_transport": "platform", "shelter": "yes", "website": "https://eivissa.tib.org/es/web/cie/parades/-/parada/00159"}}, {"type": "node", "id": 5002201715, "lat": 38.9042314, "lon": 1.409224, "tags": {"bench": "no", "bin": "no", "bus": "yes", "highway": "bus_stop", "name": "Renault", "name:ca": "Renault", "public_transport": "platform", "shelter": "no", "tactile_paving": "no", "website": "https://eivissa.tib.org/es/web/cie/parades/-/parada/00158"}}, {"type": "node", "id": 5002201716, "lat": 38.9035595, "lon": 1.4059956, "tags": {"bench": "yes", "bin": "no", "bus": "yes", "highway": "bus_stop", "lit": "no", "name": "es Tabaquet", "public_transport": "platform", "shelter": "yes", "tactile_paving": "no", "website": "https://eivissa.tib.org/es/web/cie/parades/-/parada/00457"}}, {"type": "node", "id": 5002201717, "lat": 38.902769, "lon": 1.4019631, "tags": {"bench": "yes", "bin": "no", "bus": "yes", "highway": "bus_stop", "name": "Can Cend\u00f3n", "public_transport": "platform", "shelter": "yes", "website": "https://eivissa.tib.org/es/web/cie/parades/-/parada/00456"}}, {"type": "node", "id": 5002935301, "lat": 38.8941115, "lon": 1.39938, "tags": {"bench": "yes", "bin": "yes", "bus": "yes", "highway": "bus_stop", "lit": "no", "name": "encreuament platja d'en Bossa", "public_transport": "platform", "shelter": "yes", "tactile_paving": "no", "website": "https://eivissa.tib.org/es/web/cie/parades/-/parada/00165"}}, {"type": "node", "id": 5002935302, "lat": 38.891223, "lon": 1.3969604, "tags": {"bench": "yes", "bin": "yes", "bus": "yes", "highway": "bus_stop", "lit": "yes", "name": "Sant Jordi", "name:ca": "Sant Jordi", "public_transport": "platform", "shelter": "yes", "tactile_paving": "no", "website": "https://eivissa.tib.org/es/web/cie/parades/-/parada/00166"}}, {"type": "node", "id": 5002935303, "lat": 38.8854531, "lon": 1.3913452, "tags": {"bus": "yes", "highway": "bus_stop", "name": "ses Campanes", "public_transport": "platform", "website": "https://eivissa.tib.org/es/web/cie/parades/-/parada/00167"}}, {"type": "node", "id": 5002935304, "lat": 38.8837389, "lon": 1.3885182, "tags": {"bus": "yes", "highway": "bus_stop", "name": "Moto Luis", "name:ca": "Moto Luis", "public_transport": "platform", "website": "https://eivissa.tib.org/es/web/cie/parades/-/parada/00168"}}, {"type": "node", "id": 5002936128, "lat": 38.8833729, "lon": 1.3885166, "tags": {"bus": "yes", "highway": "bus_stop", "name": "Can Forn\u00eds", "name:ca": "Can Forn\u00eds", "public_transport": "platform", "website": "https://eivissa.tib.org/es/web/cie/parades/-/parada/00468"}}, {"type": "node", "id": 5002936129, "lat": 38.8852009, "lon": 1.3916285, "tags": {"bus": "yes", "highway": "bus_stop", "name": "Maripol Royal", "public_transport": "platform", "website": "https://eivissa.tib.org/es/web/cie/parades/-/parada/00467"}}, {"type": "node", "id": 5002936130, "lat": 38.890251, "lon": 1.3966289, "tags": {"bench": "yes", "bus": "yes", "highway": "bus_stop", "name": "St. Jordi, C/ dels Polis", "public_transport": "platform", "shelter": "yes", "website": "https://eivissa.tib.org/es/web/cie/parades/-/parada/00466"}}, {"type": "node", "id": 5002936134, "lat": 38.8940643, "lon": 1.3995724, "tags": {"bench": "yes", "bin": "yes", "bus": "yes", "highway": "bus_stop", "name": "encreuament platja d'en Bossa", "public_transport": "platform", "shelter": "yes", "tactile_paving": "no", "website": "https://eivissa.tib.org/es/web/cie/parades/-/parada/00465"}}, {"type": "node", "id": 5003139795, "lat": 38.9763051, "lon": 1.3819838, "tags": {"bus": "yes", "highway": "bus_stop", "name": "Can Agust\u00ed", "name:ca": "Can Agust\u00ed", "public_transport": "platform", "website": "https://eivissa.tib.org/es/web/cie/parades/-/parada/00540"}}, {"type": "node", "id": 5003139796, "lat": 38.9726645, "lon": 1.3870379, "tags": {"bus": "yes", "highway": "bus_stop", "name": "Can Muson", "public_transport": "platform", "website": "https://eivissa.tib.org/es/web/cie/parades/-/parada/00541"}}, {"type": "node", "id": 5003139797, "lat": 38.9635597, "lon": 1.3965202, "tags": {"bus": "yes", "highway": "bus_stop", "name": "Cuatre Cantons", "public_transport": "platform", "website": "https://eivissa.tib.org/es/web/cie/parades/-/parada/00542"}}, {"type": "node", "id": 5003139798, "lat": 38.9786827, "lon": 1.4149375, "tags": {"bus": "yes", "highway": "bus_stop", "name": "s'Hort Nou 1", "public_transport": "platform", "website": "https://eivissa.tib.org/es/web/cie/parades/-/parada/00542"}}, {"type": "node", "id": 5003139799, "lat": 38.9285886, "lon": 1.429771, "tags": {"bus": "yes", "highway": "bus_stop", "name": "Mar\u00ed Mayans", "public_transport": "platform", "website": "https://eivissa.tib.org/es/web/cie/parades/-/parada/00482"}}, {"type": "node", "id": 5003139800, "lat": 38.9269736, "lon": 1.4298032, "tags": {"bus": "yes", "highway": "bus_stop", "name": "Fuster\u00eda", "public_transport": "platform", "website": "https://eivissa.tib.org/es/web/cie/parades/-/parada/00481"}}, {"type": "node", "id": 5003139801, "lat": 38.9237141, "lon": 1.4296515, "tags": {"bus": "yes", "highway": "bus_stop", "name": "es Raspallar", "public_transport": "platform", "website": "https://eivissa.tib.org/es/web/cie/parades/-/parada/00180"}}, {"type": "node", "id": 5003139802, "lat": 38.9270171, "lon": 1.4299255, "tags": {"bus": "yes", "highway": "bus_stop", "name": "Fusteria", "public_transport": "platform", "website": "https://eivissa.tib.org/es/web/cie/parades/-/parada/00181"}}, {"type": "node", "id": 5003139803, "lat": 38.9285804, "lon": 1.4299212, "tags": {"bus": "yes", "highway": "bus_stop", "name": "Mar\u00ed Mayans", "public_transport": "platform", "website": "https://eivissa.tib.org/es/web/cie/parades/-/parada/00182"}}, {"type": "node", "id": 5003139804, "lat": 38.9788346, "lon": 1.4149612, "tags": {"bus": "yes", "highway": "bus_stop", "name": "s'Hort Nou 1", "public_transport": "platform", "website": "https://eivissa.tib.org/es/web/cie/parades/-/parada/00243"}}, {"type": "node", "id": 5003139805, "lat": 38.9635897, "lon": 1.3966054, "tags": {"bus": "yes", "highway": "bus_stop", "name": "Cuatro Cantons", "public_transport": "platform", "website": "https://eivissa.tib.org/es/web/cie/parades/-/parada/00242"}}, {"type": "node", "id": 5003139806, "lat": 38.9726512, "lon": 1.3871925, "tags": {"bus": "yes", "highway": "bus_stop", "name": "Can Muson", "public_transport": "platform", "website": "https://eivissa.tib.org/es/web/cie/parades/-/parada/00241"}}, {"type": "node", "id": 5003139807, "lat": 38.9762034, "lon": 1.3822715, "tags": {"bus": "yes", "highway": "bus_stop", "name": "Can Agust\u00ed", "name:ca": "Can Agust\u00ed", "public_transport": "platform", "website": "https://eivissa.tib.org/es/web/cie/parades/-/parada/00240"}}, {"type": "node", "id": 5003247154, "lat": 38.9613947, "lon": 1.39998, "tags": {"bus": "yes", "highway": "bus_stop", "name": "Sant Rafel 1", "name:ca": "Sant Rafel 1", "public_transport": "platform", "website": "https://eivissa.tib.org/es/web/cie/parades/-/parada/05090"}}, {"type": "node", "id": 5003247155, "lat": 38.9793494, "lon": 1.4153358, "tags": {"bus": "yes", "highway": "bus_stop", "name": "s'Hort Nou", "name:ca": "s'Hort Nou", "public_transport": "platform", "website": "https://eivissa.tib.org/es/web/cie/parades/-/parada/01197"}}, {"type": "node", "id": 5003247156, "lat": 38.9766854, "lon": 1.4360698, "tags": {"bus": "yes", "highway": "bus_stop", "name": "Can Bernat", "name:ca": "Can Bernat", "public_transport": "platform", "website": "https://eivissa.tib.org/es/web/cie/parades/-/parada/01029"}}, {"type": "node", "id": 5003247157, "lat": 38.9760611, "lon": 1.4421187, "tags": {"bus": "yes", "highway": "bus_stop", "name": "Ca na Marca", "name:ca": "Ca na Marca", "public_transport": "platform", "website": "https://eivissa.tib.org/es/web/cie/parades/-/parada/01008"}}, {"type": "node", "id": 5003247158, "lat": 38.9767002, "lon": 1.4540224, "tags": {"bus": "yes", "highway": "bus_stop", "name": "Can Aubarca", "public_transport": "platform", "website": "https://eivissa.tib.org/es/web/cie/parades/-/parada/01025"}}, {"type": "node", "id": 5003247159, "lat": 38.9768906, "lon": 1.4716821, "tags": {"bus": "yes", "highway": "bus_stop", "name": "Can Durban", "name:ca": "Can Durban", "public_transport": "platform", "website": "https://eivissa.tib.org/es/web/cie/parades/-/parada/01038"}}, {"type": "node", "id": 5003247160, "lat": 38.978907, "lon": 1.4772479, "tags": {"bus": "yes", "highway": "bus_stop", "name": "Pedra Blava", "name:ca": "Pedra Blava", "public_transport": "platform", "website": "https://eivissa.tib.org/es/web/cie/parades/-/parada/05010"}}, {"type": "node", "id": 5003247161, "lat": 38.9814088, "lon": 1.4832643, "tags": {"bus": "yes", "highway": "bus_stop", "name": "Can Na Vica", "public_transport": "platform", "website": "https://eivissa.tib.org/es/web/cie/parades/-/parada/01013"}}, {"type": "node", "id": 5003247162, "lat": 38.9844566, "lon": 1.4940421, "tags": {"bus": "yes", "highway": "bus_stop", "name": "Can Mosson", "name:ca": "Can Mosson", "public_transport": "platform", "website": "https://eivissa.tib.org/es/web/cie/parades/-/parada/05012"}}, {"type": "node", "id": 5003247163, "lat": 38.9847934, "lon": 1.5000853, "tags": {"bus": "yes", "highway": "bus_stop", "name": "Lava Park", "public_transport": "platform", "website": "https://eivissa.tib.org/es/web/cie/parades/-/parada/01087"}}, {"type": "node", "id": 5003247164, "lat": 38.983684, "lon": 1.5065387, "tags": {"bus": "yes", "highway": "bus_stop", "name": "Can Mar\u00e7\u00e0", "name:ca": "Can Mar\u00e7\u00e0", "public_transport": "platform", "shelter": "no", "website": "https://eivissa.tib.org/es/web/cie/parades/-/parada/01046"}}, {"type": "node", "id": 5003247165, "lat": 38.9842372, "lon": 1.5158281, "tags": {"bus": "yes", "highway": "bus_stop", "name": "Sa Torre", "name:ca": "Sa Torre", "public_transport": "platform", "website": "https://eivissa.tib.org/es/web/cie/parades/-/parada/01112"}}, {"type": "node", "id": 5003247171, "lat": 38.9840362, "lon": 1.5150369, "tags": {"bus": "yes", "highway": "bus_stop", "name": "Sa Torre", "name:ca": "Sa Torre", "public_transport": "platform", "website": "https://eivissa.tib.org/es/web/cie/parades/-/parada/01113"}}, {"type": "node", "id": 5003247172, "lat": 38.9838284, "lon": 1.5065267, "tags": {"bench": "no", "bin": "no", "bus": "yes", "highway": "bus_stop", "lit": "yes", "name": "Can Mar\u00e7\u00e0", "name:ca": "Can Mar\u00e7\u00e0", "public_transport": "platform", "shelter": "no", "tactile_paving": "no", "website": "https://eivissa.tib.org/es/web/cie/parades/-/parada/01047"}}, {"type": "node", "id": 5003247173, "lat": 38.9850473, "lon": 1.4996418, "tags": {"bus": "yes", "highway": "bus_stop", "name": "Lava Park", "public_transport": "platform", "website": "https://eivissa.tib.org/es/web/cie/parades/-/parada/0108"}}, {"type": "node", "id": 5003247174, "lat": 38.9842414, "lon": 1.4925667, "tags": {"bench": "no", "bin": "no", "bus": "yes", "highway": "bus_stop", "lit": "no", "name": "Can Mosson", "name:ca": "Can Mosson", "public_transport": "platform", "shelter": "no", "tactile_paving": "no", "website": "https://eivissa.tib.org/es/web/cie/parades/-/parada/05030"}}, {"type": "node", "id": 5003247175, "lat": 38.9815815, "lon": 1.4832584, "tags": {"bus": "yes", "highway": "bus_stop", "name": "Ca Na Vica", "public_transport": "platform", "website": "https://eivissa.tib.org/es/web/cie/parades/-/parada/01014"}}, {"type": "node", "id": 5003247176, "lat": 38.9790723, "lon": 1.4773667, "tags": {"bus": "yes", "highway": "bus_stop", "name": "Pedra Blava", "name:ca": "Pedra Blava", "public_transport": "platform", "website": "https://eivissa.tib.org/es/web/cie/parades/-/parada/05028"}}, {"type": "node", "id": 5003247177, "lat": 38.9771431, "lon": 1.4723822, "tags": {"bus": "yes", "highway": "bus_stop", "name": "Can Durban", "name:ca": "Can Durban", "public_transport": "platform", "website": "https://eivissa.tib.org/es/web/cie/parades/-/parada/01039"}}, {"type": "node", "id": 5003247178, "lat": 38.9768303, "lon": 1.453785, "tags": {"bus": "yes", "highway": "bus_stop", "name": "Can Aubarca", "public_transport": "platform", "website": "https://eivissa.tib.org/es/web/cie/parades/-/parada/01024"}}, {"type": "node", "id": 5003247206, "lat": 38.9761588, "lon": 1.4418802, "tags": {"bus": "yes", "highway": "bus_stop", "name": "Ca Na Marca", "public_transport": "platform", "website": "https://eivissa.tib.org/es/web/cie/parades/-/parada/01007"}}, {"type": "node", "id": 5003247207, "lat": 38.9768359, "lon": 1.4360269, "tags": {"bus": "yes", "highway": "bus_stop", "name": "Can Bernat", "name:ca": "Can Bernat", "public_transport": "platform", "website": "https://eivissa.tib.org/es/web/cie/parades/-/parada/01028"}}, {"type": "node", "id": 5003247208, "lat": 38.9793788, "lon": 1.4151677, "tags": {"bus": "yes", "highway": "bus_stop", "name": "s'Hort Nou", "name:ca": "s'Hort Nou", "public_transport": "platform", "website": "https://eivissa.tib.org/es/web/cie/parades/-/parada/01106"}}, {"type": "node", "id": 5003247209, "lat": 38.9614847, "lon": 1.3996254, "tags": {"bus": "yes", "highway": "bus_stop", "name": "Sant Rafel 1", "name:ca": "Sant Rafel 1", "public_transport": "platform", "website": "https://eivissa.tib.org/es/web/cie/parades/-/parada/05077"}}, {"type": "node", "id": 5003715691, "lat": 38.9800256, "lon": 1.4410346, "tags": {"bench": "yes", "bin": "no", "bus": "yes", "highway": "bus_stop", "lit": "no", "name": "Can Pau", "name:ca": "Can Pau", "public_transport": "platform", "shelter": "yes", "tactile_paving": "no", "website": "https://eivissa.tib.org/es/web/cie/parades/-/parada/00627"}}, {"type": "node", "id": 5003715692, "lat": 38.987031, "lon": 1.4370175, "tags": {"bench": "yes", "bin": "no", "bus": "yes", "highway": "bus_stop", "lit": "yes", "name": "Can Caus", "name:ca": "Can Caus", "public_transport": "platform", "shelter": "yes", "tactile_paving": "no", "website": "https://eivissa.tib.org/es/web/cie/parades/-/parada/00628"}}, {"type": "node", "id": 5003715693, "lat": 39.0133473, "lon": 1.4275555, "tags": {"bus": "yes", "highway": "bus_stop", "name": "Can Roig", "name:ca": "Can Roig", "public_transport": "platform", "website": "https://eivissa.tib.org/es/web/cie/parades/-/parada/00606"}}, {"type": "node", "id": 5003715694, "lat": 39.0214033, "lon": 1.4284621, "tags": {"bus": "yes", "highway": "bus_stop", "name": "Can Casa Llarga - Sta. Eul\u00e0ria", "public_transport": "platform", "website": "https://eivissa.tib.org/es/web/cie/parades/-/parada/00605"}}, {"type": "node", "id": 5003715695, "lat": 39.0262701, "lon": 1.4297489, "tags": {"bus": "yes", "highway": "bus_stop", "name": "Casa Reial", "public_transport": "platform", "website": "https://eivissa.tib.org/es/web/cie/parades/-/parada/00604"}}, {"type": "node", "id": 5003715696, "lat": 39.0319153, "lon": 1.4312604, "tags": {"bus": "yes", "highway": "bus_stop", "name": "Can Mariano sa Cova", "public_transport": "platform", "website": "https://eivissa.tib.org/es/web/cie/parades/-/parada/00603"}}, {"type": "node", "id": 5003715697, "lat": 39.0407841, "lon": 1.433639, "tags": {"bus": "yes", "highway": "bus_stop", "name": "Ca Na Xiscla Ibiza", "public_transport": "platform", "website": "https://eivissa.tib.org/es/web/cie/parades/-/parada/00602"}}, {"type": "node", "id": 5003715698, "lat": 39.0493631, "lon": 1.4359049, "tags": {"bus": "yes", "highway": "bus_stop", "name": "CP Balansat", "public_transport": "platform", "website": "https://eivissa.tib.org/es/web/cie/parades/-/parada/06006"}}, {"type": "node", "id": 5003715699, "lat": 39.0551763, "lon": 1.4374522, "tags": {"bus": "yes", "highway": "bus_stop", "name": "Sant Miquel", "name:ca": "Sant Miquel", "public_transport": "platform", "website": "https://eivissa.tib.org/es/web/cie/parades/-/parada/00601"}}, {"type": "node", "id": 5003715706, "lat": 39.0552537, "lon": 1.4373405, "tags": {"bus": "yes", "highway": "bus_stop", "name": "Sant Miquel", "name:ca": "Sant Miquel", "public_transport": "platform", "website": "https://eivissa.tib.org/es/web/cie/parades/-/parada/00246"}}, {"type": "node", "id": 5003715707, "lat": 39.0499332, "lon": 1.4358926, "tags": {"bus": "yes", "highway": "bus_stop", "name": "CP Balansat", "public_transport": "platform", "website": "https://eivissa.tib.org/es/web/cie/parades/-/parada/06007"}}, {"type": "node", "id": 5003715708, "lat": 39.0413837, "lon": 1.433616, "tags": {"bus": "yes", "highway": "bus_stop", "name": "Ca Na Xisca Ibiza", "public_transport": "platform", "website": "https://eivissa.tib.org/es/web/cie/parades/-/parada/06008"}}, {"type": "node", "id": 5003715709, "lat": 39.032406, "lon": 1.4312165, "tags": {"bus": "yes", "highway": "bus_stop", "name": "Can Mariano sa Cova", "public_transport": "platform", "website": "https://eivissa.tib.org/es/web/cie/parades/-/parada/00244"}}, {"type": "node", "id": 5003715710, "lat": 39.0281175, "lon": 1.430071, "tags": {"bus": "yes", "highway": "bus_stop", "name": "Casa Reial 2", "public_transport": "platform", "website": "https://eivissa.tib.org/es/web/cie/parades/-/parada/06009"}}, {"type": "node", "id": 5003715711, "lat": 39.0261472, "lon": 1.4295454, "tags": {"bus": "yes", "highway": "bus_stop", "name": "Casa Reial", "public_transport": "platform", "website": "https://eivissa.tib.org/es/web/cie/parades/-/parada/06005"}}, {"type": "node", "id": 5003715712, "lat": 39.0127233, "lon": 1.4274997, "tags": {"bus": "yes", "highway": "bus_stop", "name": "Can Roig", "name:ca": "Can Roig", "public_transport": "platform", "website": "https://eivissa.tib.org/es/web/cie/parades/-/parada/06003"}}, {"type": "node", "id": 5003715713, "lat": 38.986555, "lon": 1.4372876, "tags": {"bench": "yes", "bin": "no", "bus": "yes", "highway": "bus_stop", "lit": "yes", "name": "Can Caus", "name:ca": "Can Caus", "public_transport": "platform", "shelter": "yes", "tactile_paving": "no", "website": "https://eivissa.tib.org/es/web/cie/parades/-/parada/00610"}}, {"type": "node", "id": 5003715715, "lat": 38.9805222, "lon": 1.4406823, "tags": {"bench": "yes", "bin": "no", "bus": "yes", "highway": "bus_stop", "lit": "no", "name": "Can Pau", "name:ca": "Can Pau", "public_transport": "platform", "shelter": "yes", "tactile_paving": "no", "website": "https://eivissa.tib.org/es/web/cie/parades/-/parada/00611"}}, {"type": "node", "id": 5003715835, "lat": 38.9624913, "lon": 1.3976645, "tags": {"bus": "yes", "highway": "bus_stop", "name": "Sant Rafel, Av. S. R. Isidor Macabich 36", "public_transport": "platform", "website": "https://eivissa.tib.org/es/web/cie/parades/-/parada/06002"}}, {"type": "node", "id": 5007703996, "lat": 38.9159408, "lon": 1.4176967, "tags": {"bus": "yes", "highway": "bus_stop", "name": "Hospital Can Misses", "public_transport": "platform", "ref": "263", "website": "https://eivissa.tib.org/es/web/cie/parades/-/parada/00263"}}, {"type": "node", "id": 5007703997, "lat": 38.9180735, "lon": 1.4386913, "tags": {"bus": "yes", "highway": "bus_stop", "name": "Ronda Suministers Eivissa", "public_transport": "platform", "website": "https://eivissa.tib.org/es/web/cie/parades/-/parada/01104"}}, {"type": "node", "id": 5007703999, "lat": 38.9404831, "lon": 1.4444919}, {"type": "node", "id": 5007704000, "lat": 38.9465604, "lon": 1.4447634, "tags": {"bus": "yes", "highway": "bus_stop", "name": "Ca na Negreta", "name:ca": "Ca na Negreta", "public_transport": "platform", "ref": "1009", "website": "https://eivissa.tib.org/es/web/cie/parades/-/parada/01009"}}, {"type": "node", "id": 5007704002, "lat": 38.9621159, "lon": 1.4520254, "tags": {"bench": "yes", "bin": "no", "bus": "yes", "highway": "bus_stop", "lit": "no", "name": "Can Xiquet Pou", "name:ca": "Can Xiquet Pou", "public_transport": "platform", "ref": "5008", "shelter": "yes", "tactile_paving": "no", "website": "https://eivissa.tib.org/es/web/cie/parades/-/parada/05006"}}, {"type": "node", "id": 5007704003, "lat": 38.9711854, "lon": 1.459091}, {"type": "node", "id": 5007704004, "lat": 38.9743837, "lon": 1.4639379, "tags": {"bench": "no", "bin": "no", "bus": "yes", "highway": "bus_stop", "lit": "yes", "name": "Can Creu (Creuer St. Joan)", "name:ca": "Can Creu (Creuer St. Joan)", "public_transport": "platform", "ref": "1037", "shelter": "no", "tactile_paving": "no", "website": "https://eivissa.tib.org/es/web/cie/parades/-/parada/01037"}}, {"type": "node", "id": 5007704005, "lat": 38.9744608, "lon": 1.4636403, "tags": {"bench": "no", "bin": "no", "bus": "yes", "highway": "bus_stop", "lit": "yes", "name": "Can Creu", "name:ca": "Can Creu", "public_transport": "platform", "ref": "5026", "shelter": "no", "tactile_paving": "no", "website": "https://eivissa.tib.org/es/web/cie/parades/-/parada/05026"}}, {"type": "node", "id": 5007704007, "lat": 38.9618218, "lon": 1.4516335, "tags": {"bench": "yes", "bin": "no", "bus": "yes", "highway": "bus_stop", "lit": "no", "name": "Can Xiquet Pou", "name:ca": "Can Xiquet Pou", "public_transport": "platform", "ref": "5024", "shelter": "yes", "tactile_paving": "no", "website": "https://eivissa.tib.org/es/web/cie/parades/-/parada/05024"}}, {"type": "node", "id": 5007704008, "lat": 38.952672, "lon": 1.4449774, "tags": {"bus": "yes", "highway": "bus_stop", "name": "Can Castell\u00f3", "name:ca": "Can Castell\u00f3", "public_transport": "platform", "ref": "1031", "website": "https://eivissa.tib.org/es/web/cie/parades/-/parada/01031"}}, {"type": "node", "id": 5007704009, "lat": 38.9468811, "lon": 1.4445963, "tags": {"bus": "yes", "highway": "bus_stop", "name": "Ca na Negreta", "name:ca": "Ca na Negreta", "public_transport": "platform", "ref": "1010", "website": "https://eivissa.tib.org/es/web/cie/parades/-/parada/01010"}}, {"type": "node", "id": 5007704011, "lat": 38.9266417, "lon": 1.4412735, "tags": {"bus": "yes", "highway": "bus_stop", "name": "Creuer Jes\u00fas", "name:ca": "Creuer Jes\u00fas", "public_transport": "platform", "website": "https://eivissa.tib.org/es/web/cie/parades/-/parada/05020"}}, {"type": "node", "id": 5007704012, "lat": 38.9225567, "lon": 1.4403119, "tags": {"bus": "yes", "highway": "bus_stop", "name": "Fita", "name:ca": "Fita", "public_transport": "platform", "website": "https://eivissa.tib.org/es/web/cie/parades/-/parada/01082"}}, {"type": "node", "id": 5007704013, "lat": 38.9172083, "lon": 1.4359434, "tags": {"bench": "yes", "bin": "no", "bus": "yes", "highway": "bus_stop", "lit": "yes", "name": "Ronda Suminsitres Eivissa", "public_transport": "platform", "shelter": "yes", "tactile_paving": "no", "website": "https://eivissa.tib.org/es/web/cie/parades/-/parada/01105"}}, {"type": "node", "id": 5158773460, "lat": 38.9112371, "lon": 1.4345268, "tags": {"bench": "no", "bin": "no", "bus": "yes", "highway": "bus_stop", "lit": "no", "name": "Discobus", "name:en": "Discobus", "public_transport": "platform", "shelter": "no", "tactile_paving": "no"}}, {"type": "node", "id": 8120530383, "lat": 38.7380366, "lon": 1.4318267, "tags": {"bench": "no", "bin": "no", "bus": "yes", "departures_board": "timetable", "highway": "bus_stop", "lit": "no", "name": "Ses Salines", "name:ca": "Ses Salines", "network": "Bus Formentera", "operator": "Paya Autocarres", "public_transport": "platform", "shelter": "no", "surface": "asphalt", "tactile_paving": "no"}}, {"type": "node", "id": 8120530384, "lat": 38.7304869, "lon": 1.4441712, "tags": {"bench": "no", "bin": "no", "bus": "yes", "departures_board": "timetable", "highway": "bus_stop", "lit": "no", "name": "sa Roqueta", "name:ca": "sa Roqueta", "network": "Bus Formentera", "operator": "Paya Autocarres", "public_transport": "platform", "shelter": "no", "surface": "asphalt", "tactile_paving": "no"}}, {"type": "node", "id": 9124375838, "lat": 38.9284378, "lon": 1.4525409, "tags": {"bus": "yes", "highway": "bus_stop", "public_transport": "platform"}}, {"type": "node", "id": 9124375839, "lat": 38.9283381, "lon": 1.4527528, "tags": {"bus": "yes", "highway": "bus_stop", "public_transport": "platform"}}, {"type": "node", "id": 9212368973, "lat": 38.6685875, "lon": 1.5565811, "tags": {"bench": "no", "bin": "yes", "bus": "yes", "departures_board": "no", "highway": "bus_stop", "lit": "yes", "name": "El Pilar", "name:ca": "El Pilar", "network": "Bus Formentera", "operator": "Autocares Paya", "public_transport": "platform", "shelter": "no", "tactile_paving": "no"}}, {"type": "node", "id": 9774857709, "lat": 38.9569688, "lon": 1.4459193, "tags": {"bus": "yes", "highway": "bus_stop", "public_transport": "platform"}}, {"type": "node", "id": 9776000076, "lat": 38.954251, "lon": 1.4456181, "tags": {"bench": "yes", "bin": "no", "bus": "yes", "highway": "bus_stop", "lit": "no", "public_transport": "platform", "shelter": "yes", "tactile_paving": "no"}}, {"type": "node", "id": 9776089994, "lat": 38.957614, "lon": 1.4457203, "tags": {"bus": "yes", "highway": "bus_stop", "public_transport": "platform"}}, {"type": "node", "id": 9781122631, "lat": 38.9861965, "lon": 1.4788739, "tags": {"bench": "yes", "bus": "yes", "highway": "bus_stop", "lit": "no", "name": "Can Reiet", "public_transport": "platform", "ref": "5102", "shelter": "yes", "tactile_paving": "no"}}, {"type": "node", "id": 9781122693, "lat": 38.9774659, "lon": 1.4655716, "tags": {"bench": "yes", "bin": "no", "bus": "yes", "highway": "bus_stop", "lit": "no", "name": "Pont d'en Ll\u00e0tzer", "public_transport": "platform", "ref": "1099", "shelter": "yes", "tactile_paving": "no"}}, {"type": "node", "id": 9781122695, "lat": 38.9796891, "lon": 1.4675889, "tags": {"bench": "yes", "bus": "yes", "highway": "bus_stop", "name": "Pont d'en Llatzer", "public_transport": "platform", "ref": "1098", "shelter": "yes"}}, {"type": "node", "id": 9781122717, "lat": 38.9860457, "lon": 1.4783034, "tags": {"bench": "yes", "bin": "no", "bus": "yes", "highway": "bus_stop", "lit": "no", "name": "Can Reiet", "public_transport": "platform", "ref": "5134", "shelter": "yes", "tactile_paving": "no"}}, {"type": "node", "id": 9781122776, "lat": 38.9948341, "lon": 1.4873226, "tags": {"bus": "yes", "highway": "bus_stop", "name": "Can Mossonet", "public_transport": "platform", "ref": "1050"}}, {"type": "node", "id": 9781122777, "lat": 38.9957584, "lon": 1.4877543, "tags": {"bus": "yes", "highway": "bus_stop", "name": "Can Mossonet", "public_transport": "platform", "ref": "1051"}}, {"type": "node", "id": 9781122797, "lat": 39.0051271, "lon": 1.4880046, "tags": {"bus": "yes", "highway": "bus_stop", "name": "Cam\u00ed des Fil", "public_transport": "platform", "ref": "6015"}}, {"type": "node", "id": 9781122956, "lat": 39.0067144, "lon": 1.4881929, "tags": {"bus": "yes", "highway": "bus_stop", "name": "Cam\u00ed des Fil", "public_transport": "platform", "ref": "6014"}}, {"type": "node", "id": 9781122964, "lat": 39.0101424, "lon": 1.4877637, "tags": {"bus": "yes", "highway": "bus_stop", "name": "Can San\u00e7", "public_transport": "platform", "ref": "1059"}}, {"type": "node", "id": 9781122968, "lat": 39.0109789, "lon": 1.4879671, "tags": {"bus": "yes", "highway": "bus_stop", "name": "Can San\u00e7", "public_transport": "platform", "ref": "1058"}}, {"type": "node", "id": 9781122977, "lat": 39.018325, "lon": 1.4875081, "tags": {"bus": "yes", "highway": "bus_stop", "name": "Can Fluix\u00e0", "public_transport": "platform", "ref": "1040", "shelter": "yes"}}, {"type": "node", "id": 9781122978, "lat": 39.0184027, "lon": 1.4873229, "tags": {"bus": "yes", "highway": "bus_stop", "name": "Can Fluix\u00e0", "public_transport": "platform", "ref": "1041"}}, {"type": "node", "id": 9781122995, "lat": 39.0260208, "lon": 1.4871227, "tags": {"bus": "yes", "highway": "bus_stop", "name": "Es Pins", "public_transport": "platform", "ref": "1081"}}, {"type": "node", "id": 9781122996, "lat": 39.0263707, "lon": 1.4874516, "tags": {"bus": "yes", "highway": "bus_stop", "name": "Es Pins", "public_transport": "platform", "ref": "1080"}}, {"type": "node", "id": 9781123028, "lat": 39.0321379, "lon": 1.4899388, "tags": {"bench": "yes", "bin": "no", "bus": "yes", "highway": "bus_stop", "name": "Ca na Pepeta", "public_transport": "platform", "ref": "1011", "shelter": "yes"}}, {"type": "node", "id": 9781123029, "lat": 39.0334518, "lon": 1.4903091, "tags": {"bus": "yes", "highway": "bus_stop", "name": "Ca na Pepeta", "public_transport": "platform", "ref": "1012"}}, {"type": "node", "id": 9781123056, "lat": 39.0386803, "lon": 1.4919527, "tags": {"bus": "yes", "highway": "bus_stop", "name": "Can Savi", "public_transport": "platform", "ref": "1060"}}, {"type": "node", "id": 9781123057, "lat": 39.0394305, "lon": 1.4919129, "tags": {"bus": "yes", "highway": "bus_stop", "public_transport": "platform"}}, {"type": "node", "id": 9781123060, "lat": 39.0460429, "lon": 1.4913759, "tags": {"bus": "yes", "highway": "bus_stop", "name": "Taller Mar\u00ed", "public_transport": "platform", "ref": "1122"}}, {"type": "node", "id": 9781123065, "lat": 39.0508889, "lon": 1.4908046, "tags": {"bus": "yes", "highway": "bus_stop", "name": "Can Coroner", "public_transport": "platform", "ref": "1032"}}, {"type": "node", "id": 9781335129, "lat": 39.052578, "lon": 1.4917715, "tags": {"bus": "yes", "highway": "bus_stop", "name": "Can Coroner", "public_transport": "platform", "ref": "1033"}}, {"type": "node", "id": 9783651271, "lat": 38.9288166, "lon": 1.4425104}, {"type": "node", "id": 9786022930, "lat": 39.0213533, "lon": 1.4282727, "tags": {"bus": "yes", "highway": "bus_stop", "public_transport": "platform"}}, {"type": "node", "id": 9786761504, "lat": 38.9792749, "lon": 1.5181097, "tags": {"bus": "yes", "highway": "bus_stop", "name": "Bar sa Font", "public_transport": "platform"}}, {"type": "node", "id": 9786761505, "lat": 38.9792211, "lon": 1.5182898, "tags": {"bus": "yes", "highway": "bus_stop", "name": "Bar sa Font", "public_transport": "platform"}}, {"type": "node", "id": 9791277792, "lat": 38.9392281, "lon": 1.4142765, "tags": {"bus": "yes", "highway": "bus_stop", "public_transport": "platform"}}, {"type": "node", "id": 9791365640, "lat": 38.9711771, "lon": 1.4591021}, {"type": "node", "id": 9791365641, "lat": 38.9711546, "lon": 1.4590744}, {"type": "node", "id": 9791365642, "lat": 38.9711628, "lon": 1.4590633}, {"type": "node", "id": 9791365647, "lat": 38.9562057, "lon": 1.4463185}, {"type": "node", "id": 9791365648, "lat": 38.9562027, "lon": 1.4463306}, {"type": "node", "id": 9791365649, "lat": 38.9561803, "lon": 1.4463215}, {"type": "node", "id": 9791365650, "lat": 38.9561833, "lon": 1.4463094}, {"type": "node", "id": 9793323549, "lat": 38.9404831, "lon": 1.4444784}, {"type": "node", "id": 9793323551, "lat": 38.9404559, "lon": 1.4444918}, {"type": "node", "id": 9793323552, "lat": 38.9404559, "lon": 1.4444783}, {"type": "node", "id": 9793860362, "lat": 38.9288136, "lon": 1.4425214}, {"type": "node", "id": 9793860363, "lat": 38.9287922, "lon": 1.4425118}, {"type": "node", "id": 9793860364, "lat": 38.9287952, "lon": 1.4425008}, {"type": "node", "id": 9795841723, "lat": 38.9184997, "lon": 1.4267793}, {"type": "node", "id": 9795841724, "lat": 38.9184958, "lon": 1.4267679}, {"type": "node", "id": 9795841725, "lat": 38.9185235, "lon": 1.4267525}, {"type": "node", "id": 9973618930, "lat": 38.8991503, "lon": 1.3972307, "tags": {"bench": "no", "bus": "yes", "highway": "bus_stop", "name": "IES Algarb", "public_transport": "platform", "shelter": "yes"}}, {"type": "node", "id": 10733837823, "lat": 38.9647016, "lon": 1.3842956}, {"type": "node", "id": 10733837824, "lat": 38.9646881, "lon": 1.3842945}, {"type": "node", "id": 10733837825, "lat": 38.9646898, "lon": 1.3842577}, {"type": "node", "id": 11301649658, "lat": 38.9797599, "lon": 1.4674258, "tags": {"bench": "yes", "bus": "yes", "highway": "bus_stop", "name": "Can Reiet", "public_transport": "platform", "ref": "5134", "shelter": "yes"}}, {"type": "node", "id": 11591749319, "lat": 38.8877502, "lon": 1.4064059, "tags": {"bench": "yes", "bin": "yes", "bus": "yes", "highway": "bus_stop", "lit": "yes", "name": "Bora Bora - es Daus", "public_transport": "platform", "shelter": "yes", "tactile_paving": "no"}}, {"type": "node", "id": 11592309960, "lat": 38.8960573, "lon": 1.4123269, "tags": {"bench": "yes", "bin": "yes", "bus": "yes", "highway": "bus_stop", "lit": "yes", "name": "H. Mare Nostrum", "operator": "tib", "public_transport": "platform", "shelter": "yes", "tactile_paving": "no"}}, {"type": "node", "id": 11592309961, "lat": 38.8963893, "lon": 1.412631, "tags": {"bench": "yes", "bin": "yes", "bus": "yes", "highway": "bus_stop", "lit": "yes", "name": "H. Mare Nostrum", "operator": "tib", "public_transport": "platform", "shelter": "yes", "tactile_paving": "no"}}, {"type": "node", "id": 11598194314, "lat": 38.9630567, "lon": 1.4458625, "tags": {"bus": "yes", "highway": "bus_stop", "public_transport": "platform", "shelter": "yes"}}, {"type": "node", "id": 11598194315, "lat": 38.963077, "lon": 1.4460772, "tags": {"bus": "yes", "highway": "bus_stop", "public_transport": "platform", "shelter": "yes"}}, {"type": "node", "id": 11610296347, "lat": 38.908498, "lon": 1.421511, "tags": {"bench": "yes", "bin": "no", "bus": "yes", "highway": "bus_stop", "lit": "no", "name": "Policia Nacional", "operator": "TIB", "public_transport": "platform", "shelter": "no", "tactile_paving": "yes"}}, {"type": "node", "id": 11610296348, "lat": 38.8991765, "lon": 1.3975492, "tags": {"bench": "no", "bus": "yes", "highway": "bus_stop", "name": "IES Algarb", "public_transport": "platform", "shelter": "no"}}, {"type": "node", "id": 11610296349, "lat": 38.9003671, "lon": 1.4012642, "tags": {"bus": "yes", "highway": "bus_stop", "name": "Resid\u00e8ncia Can Raspalls", "public_transport": "platform", "shelter": "no"}}, {"type": "node", "id": 11610296350, "lat": 38.9000091, "lon": 1.401277, "tags": {"bus": "yes", "highway": "bus_stop", "name": "Resid\u00e8ncia Can Raspalls", "public_transport": "platform", "shelter": "no"}}, {"type": "node", "id": 11610296351, "lat": 38.8967869, "lon": 1.4016338, "tags": {"bench": "no", "bin": "no", "bus": "yes", "highway": "bus_stop", "lit": "no", "name": "Can Raspalls", "public_transport": "platform", "shelter": "no", "tactile_paving": "no"}}, {"type": "node", "id": 11610296352, "lat": 38.8968129, "lon": 1.4018067, "tags": {"bus": "yes", "highway": "bus_stop", "name": "Can Raspalls", "public_transport": "platform"}}, {"type": "node", "id": 11610296353, "lat": 38.8901323, "lon": 1.3965823, "tags": {"bus": "yes", "highway": "bus_stop", "name": "Sant Jordi", "public_transport": "platform", "shelter": "yes"}}, {"type": "node", "id": 11610296354, "lat": 38.9164394, "lon": 1.4382607, "tags": {"bus": "yes", "highway": "bus_stop", "name": "Comand\u00e0ncia de Marina", "public_transport": "platform"}}, {"type": "node", "id": 11610296355, "lat": 38.9113799, "lon": 1.4344978, "tags": {"bus": "yes", "highway": "bus_stop", "name": "Port", "public_transport": "platform"}}, {"type": "node", "id": 11610763258, "lat": 38.8824639, "lon": 1.4021395, "tags": {"bench": "no", "bin": "no", "bus": "yes", "highway": "bus_stop", "lit": "yes", "name": "H. Bahamas", "operator": "tib", "public_transport": "platform", "shelter": "no", "tactile_paving": "no"}}, {"type": "node", "id": 11610763259, "lat": 38.8850439, "lon": 1.4039001, "tags": {"bench": "yes", "bin": "yes", "bus": "yes", "highway": "bus_stop", "lit": "yes", "name": "Ushuaia / Hard Rock", "old_name": "Don Toni", "operator": "tib", "public_transport": "platform", "shelter": "yes", "tactile_paving": "no"}}, {"type": "node", "id": 11610763260, "lat": 38.8872441, "lon": 1.4063133, "tags": {"bench": "yes", "bin": "yes", "bus": "yes", "highway": "bus_stop", "lit": "yes", "name": "Bora Bora - es Daus", "operator": "tib", "public_transport": "platform", "shelter": "yes", "tactile_paving": "no"}}, {"type": "node", "id": 11610763261, "lat": 38.8981601, "lon": 1.416021, "tags": {"bench": "yes", "bin": "no", "bus": "yes", "highway": "bus_stop", "lit": "yes", "name": "H. Goleta", "operator": "tib", "public_transport": "platform", "shelter": "yes", "tactile_paving": "no"}}, {"type": "node", "id": 11610763262, "lat": 38.8980585, "lon": 1.415651, "tags": {"bench": "yes", "bin": "yes", "bus": "yes", "highway": "bus_stop", "lit": "yes", "name": "H. Goleta", "operator": "tib", "public_transport": "platform", "shelter": "yes", "tactile_paving": "no"}}, {"type": "node", "id": 11610763263, "lat": 38.900274, "lon": 1.4178808, "tags": {"bench": "no", "bin": "yes", "bus": "yes", "highway": "bus_stop", "lit": "yes", "name": "Malacosta", "operator": "tib", "public_transport": "platform", "shelter": "no", "tactile_paving": "no"}}, {"type": "node", "id": 11610763264, "lat": 38.9005415, "lon": 1.418216, "tags": {"bench": "yes", "bin": "no", "bus": "yes", "highway": "bus_stop", "lit": "yes", "name": "Malacosta", "operator": "tib", "public_transport": "platform", "shelter": "yes", "tactile_paving": "no"}}, {"type": "node", "id": 11610763265, "lat": 38.9034536, "lon": 1.4195969, "tags": {"bench": "yes", "bin": "no", "bus": "yes", "highway": "bus_stop", "lit": "yes", "name": "es Viver", "operator": "tib", "public_transport": "platform", "shelter": "yes", "tactile_paving": "no"}}, {"type": "node", "id": 11611005713, "lat": 38.9054944, "lon": 1.4197563, "tags": {"bench": "yes", "bus": "yes", "highway": "bus_stop", "lit": "yes", "name": "Mc Donald's", "operator": "tib", "public_transport": "platform", "shelter": "yes"}}, {"type": "node", "id": 11611005714, "lat": 38.903458, "lon": 1.409906, "tags": {"bus": "yes", "highway": "bus_stop", "name": "CEIP Cas Serres", "operator": "tib", "public_transport": "platform", "shelter": "yes"}}, {"type": "node", "id": 11611005715, "lat": 38.9015395, "lon": 1.4109928, "tags": {"bus": "yes", "highway": "bus_stop", "name": "Auditori Cas Serres", "operator": "tib", "public_transport": "platform", "shelter": "yes"}}, {"type": "node", "id": 11611005716, "lat": 38.9057502, "lon": 1.4233473, "tags": {"bench": "yes", "bin": "no", "bus": "yes", "highway": "bus_stop", "lit": "no", "name": "C. del Pa\u00eds Basc, 15", "operator": "tib", "public_transport": "platform", "shelter": "yes", "tactile_paving": "no"}}, {"type": "node", "id": 11616382520, "lat": 39.0391357, "lon": 1.3829389, "tags": {"bus": "yes", "departures_board": "yes", "highway": "bus_stop", "name": "Sant Mateu d'Albarca", "public_transport": "platform", "shelter": "no"}}, {"type": "node", "id": 11942351618, "lat": 38.8536161, "lon": 1.3884288, "tags": {"bus": "yes", "highway": "bus_stop", "public_transport": "platform"}}, {"type": "node", "id": 11945678517, "lat": 38.6685388, "lon": 1.5175831, "tags": {"bus": "yes", "highway": "bus_stop", "note": "L2 maryland", "public_transport": "platform"}}, {"type": "node", "id": 11945678518, "lat": 38.6714968, "lon": 1.5198489, "tags": {"bus": "yes", "highway": "bus_stop", "note": "L02", "public_transport": "platform"}}, {"type": "node", "id": 11945678519, "lat": 38.6726051, "lon": 1.5199227, "tags": {"bus": "yes", "highway": "bus_stop", "note": "L02", "public_transport": "platform"}}, {"type": "node", "id": 11945678520, "lat": 38.6780422, "lon": 1.5133841, "tags": {"bench": "no", "bin": "no", "bus": "yes", "highway": "bus_stop", "lit": "no", "note": "L02", "public_transport": "platform", "shelter": "no", "tactile_paving": "no"}}, {"type": "node", "id": 11945678521, "lat": 38.6877332, "lon": 1.4914007, "tags": {"bus": "yes", "highway": "bus_stop", "note": "L02", "public_transport": "platform"}}, {"type": "node", "id": 11945678522, "lat": 38.6943012, "lon": 1.4780701, "tags": {"bench": "no", "bin": "no", "bus": "yes", "highway": "bus_stop", "lit": "no", "note": "L02", "public_transport": "platform", "shelter": "no", "tactile_paving": "no"}}, {"type": "node", "id": 11945678523, "lat": 38.7060057, "lon": 1.4577249, "tags": {"bench": "yes", "bin": "yes", "bus": "yes", "highway": "bus_stop", "lit": "yes", "note": "L02", "public_transport": "platform", "shelter": "yes", "tactile_paving": "no"}}, {"type": "node", "id": 11945685729, "lat": 38.6872302, "lon": 1.4653075, "tags": {"bus": "yes", "highway": "bus_stop", "name": "Ca Mar\u00ed", "note": "L02", "public_transport": "platform"}}, {"type": "node", "id": 11945760133, "lat": 38.7287651, "lon": 1.4185506, "tags": {"bench": "no", "bin": "yes", "bus": "yes", "departures_board": "timetable", "highway": "bus_stop", "lit": "yes", "name": "Can Xicu Sort", "network": "Bus Formentera", "operator": "Paya Autocarres", "public_transport": "platform", "shelter": "no", "surface": "paving_stones", "tactile_paving": "no"}}, {"type": "node", "id": 11953460519, "lat": 38.6890216, "lon": 1.4629363, "tags": {"bus": "yes", "fixme": "nombre", "highway": "bus_stop", "note": "L02", "public_transport": "platform"}}, {"type": "node", "id": 12122423250, "lat": 38.9167265, "lon": 1.4354566, "tags": {"bench": "yes", "bin": "no", "bus": "yes", "highway": "bus_stop", "lit": "yes", "public_transport": "platform", "shelter": "no", "tactile_paving": "no"}}, {"type": "node", "id": 12179192407, "lat": 38.7224059, "lon": 1.4520366, "tags": {"bench": "yes", "bin": "yes", "bus": "yes", "departures_board": "timetable", "highway": "bus_stop", "lit": "yes", "name": "Platja des Pujols", "network": "Bus Formentera", "operator": "Paya Autocarres", "public_transport": "platform", "shelter": "yes", "surface": "paving_stones", "tactile_paving": "no"}}, {"type": "node", "id": 12179192408, "lat": 38.7209722, "lon": 1.4560114, "tags": {"bench": "yes", "bin": "yes", "bus": "yes", "departures_board": "timetable", "highway": "bus_stop", "lit": "yes", "name": "es Pujols", "name:ca": "es Pujols", "network": "Bus Formentera", "operator": "Paya Autocarres", "public_transport": "platform", "shelter": "yes", "surface": "tactile_paving", "tactile_paving": "no"}}, {"type": "node", "id": 12179192409, "lat": 38.7086123, "lon": 1.4557863, "tags": {"bench": "no", "bin": "no", "bus": "yes", "departures_board": "timetable", "highway": "bus_stop", "lit": "no", "name": "Vial Sant Ferran", "network": "Bus Fromentera", "operator": "Paya Autocarres", "public_transport": "platform", "shelter": "no", "surface": "concrete", "tactile_paving": "no"}}, {"type": "node", "id": 12179192410, "lat": 38.7079491, "lon": 1.4505092, "tags": {"bench": "no", "bin": "no", "bus": "yes", "departures_board": "timetable", "highway": "bus_stop", "lit": "no", "name": "Sa Ferreira", "network": "Bus Formentera", "operator": "Paya Autocarres", "public_transport": "platform", "shelter": "no", "surface": "ground", "tactile_paving": "no"}}, {"type": "node", "id": 12179192411, "lat": 38.7057658, "lon": 1.4344472, "tags": {"bench": "yes", "bin": "yes", "bus": "yes", "departures_board": "timetable", "highway": "bus_stop", "lit": "yes", "name": "Hospital", "network": "Bus Formantera", "operator": "Paya Autocarres", "public_transport": "platform", "shelter": "yes", "surface": "paving_stones", "tactile_paving": "no"}}, {"type": "node", "id": 12179192412, "lat": 38.7142738, "lon": 1.426931, "tags": {"bench": "no", "bin": "no", "bus": "yes", "departures_board": "timetable", "highway": "bus_stop", "lit": "no", "name": "Pol\u00edgon Industrial", "network": "Bus Formentera", "operator": "Paya Autocarres", "public_transport": "platform", "shelter": "no", "surface": "asphalt", "tactile_paving": "no"}}, {"type": "node", "id": 12346628885, "lat": 38.677816, "lon": 1.5137087, "tags": {"bench": "no", "highway": "bus_stop", "passenger_information_display": "no", "shelter": "no", "tactile_paving": "no"}}, {"type": "node", "id": 12346628887, "lat": 38.6792145, "lon": 1.5089987, "tags": {"bench": "no", "highway": "bus_stop", "passenger_information_display": "no", "shelter": "no", "tactile_paving": "no"}}, {"type": "node", "id": 12346845405, "lat": 38.6727266, "lon": 1.520089, "tags": {"bus": "yes", "highway": "bus_stop", "note": "L02", "public_transport": "platform"}}, {"type": "node", "id": 12498796078, "lat": 38.8683545, "lon": 1.3893286, "tags": {"bench": "no", "bin": "no", "bus": "yes", "highway": "bus_stop", "name": "Sant Francesc de s'Estany", "public_transport": "stop_area", "shelter": "no"}}, {"type": "node", "id": 12571278578, "lat": 38.7066269, "lon": 1.4566299, "tags": {"highway": "bus_stop", "name": "Sant Ferran", "note": "L2", "public_transport": "platform", "shelter": "yes"}}, {"type": "node", "id": 12630217862, "lat": 38.9105986, "lon": 1.4305996, "tags": {"bench": "yes", "bus": "yes", "departures_board": "timetable", "highway": "bus_stop", "name": "Paradas de autob\u00fas de San Antonio y Santa Eulalia", "public_transport": "platform", "ref": "Avinguda d'Isidor Macabich", "shelter": "yes", "wheelchair": "yes"}}, {"type": "way", "id": 1066268540, "nodes": [5007704003, 9791365640, 9791365641, 9791365642, 5007704003], "tags": {"bench": "yes", "bin": "no", "bus": "yes", "highway": "bus_stop", "lit": "no", "name": "Can Beia", "public_transport": "platform", "ref": "5007", "shelter": "yes", "shelter_type": "public_transport", "tactile_paving": "no", "website": "https://eivissa.tib.org/es/web/cie/parades/-/parada/05007"}}, {"type": "way", "id": 1066268542, "nodes": [9791365647, 9791365648, 9791365649, 9791365650, 9791365647], "tags": {"amenity": "shelter", "bench": "yes", "bin": "no", "building": "yes", "bus": "yes", "highway": "bus_stop", "lit": "no", "public_transport": "platform", "shelter": "yes", "shelter_type": "public_transport", "tactile_paving": "no"}}, {"type": "way", "id": 1066507959, "nodes": [9793323549, 5007703999, 9793323551, 9793323552, 9793323549], "tags": {"bench": "yes", "bin": "no", "bus": "yes", "highway": "bus_stop", "lit": "no", "name": "Can Titi", "name:ca": "Can Titi", "public_transport": "platform", "ref": "1062", "shelter": "yes", "tactile_paving": "no", "website": "https://eivissa.tib.org/es/web/cie/parades/-/parada/01062"}}, {"type": "way", "id": 1066580891, "nodes": [9783651271, 9793860362, 9793860363, 9793860364, 9783651271], "tags": {"bench": "yes", "bin": "no", "bus": "yes", "highway": "bus_stop", "lit": "yes", "name": "Sa Resid\u00e8ncia", "public_transport": "platform", "ref": "1069", "shelter": "yes", "tactile_paving": "no"}}, {"type": "way", "id": 1066826898, "nodes": [5001539911, 9795841723, 9795841724, 9795841725, 5001539911], "tags": {"bus": "yes", "highway": "bus_stop", "name": "Recinto Ferial", "public_transport": "platform", "ref": "21", "shelter": "yes", "website": "https://eivissa.tib.org/es/web/cie/parades/-/parada/00021"}}, {"type": "way", "id": 1154146160, "nodes": [5001539920, 10733837823, 10733837824, 10733837825, 5001539920], "tags": {"bus": "yes", "highway": "bus_stop", "name": "Can Parentona", "public_transport": "platform", "ref": "30", "website": "https://eivissa.tib.org/es/web/cie/parades/-/parada/00030"}}]}