{"version": 0.6, "generator": "Overpass API 0.7.62.5 1bd436f1", "osm3s": {"timestamp_osm_base": "2025-04-09T14:54:30Z", "copyright": "The data included in this document is from www.openstreetmap.org. The data is made available under ODbL."}, "elements": [{"type": "node", "id": 2572848345, "lat": 36.7776469, "lon": 5.8992119, "tags": {"bus": "yes", "highway": "bus_stop", "name": "\u0645\u062a\u0648\u0633\u0637\u0629 \u0628\u063a\u0648\u0644", "name:ar": "\u0645\u062a\u0648\u0633\u0637\u0629 \u0628\u063a\u0648\u0644", "public_transport": "platform"}}, {"type": "node", "id": 2572848346, "lat": 36.7814953, "lon": 5.8996295, "tags": {"bus": "yes", "highway": "bus_stop", "name": "\u0639\u064a\u0627\u062f\u0629 \u0645\u062a\u0639\u062f\u062f\u0629 \u0627\u0644\u062e\u062f\u0645\u0627\u062a", "name:ar": "\u0639\u064a\u0627\u062f\u0629 \u0645\u062a\u0639\u062f\u062f\u0629 \u0627\u0644\u062e\u062f\u0645\u0627\u062a", "public_transport": "platform"}}, {"type": "node", "id": 2572848347, "lat": 36.7831433, "lon": 5.9004625, "tags": {"bus": "yes", "highway": "bus_stop", "name": "\u0627\u0644\u0643\u0634\u0643", "name:ar": "\u0627\u0644\u0643\u0634\u0643", "name:fr": "Kiosque", "public_transport": "platform"}}, {"type": "node", "id": 2827994040, "lat": 36.8194183, "lon": 5.7672352, "tags": {"bus": "yes", "highway": "bus_stop", "public_transport": "platform"}}, {"type": "node", "id": 2829938179, "lat": 36.8177605, "lon": 5.7713364, "tags": {"bus": "yes", "highway": "bus_stop", "public_transport": "platform"}}, {"type": "node", "id": 2829938185, "lat": 36.8246292, "lon": 5.7672889, "tags": {"bus": "yes", "highway": "bus_stop", "public_transport": "platform"}}, {"type": "node", "id": 3294179586, "lat": 36.7902014, "lon": 5.9071675, "tags": {"bus": "yes", "highway": "bus_stop", "name": "\u062e\u0637 \u0627\u0644\u0645\u0633\u062a\u0634\u0641\u0649 -\u0627\u0644\u062a\u0643\u0648\u064a\u0646 \u0627\u0644\u0645\u0647\u0646\u064a", "name:ar": "\u062e\u0637 \u0627\u0644\u0645\u0633\u062a\u0634\u0641\u0649 -\u0627\u0644\u062a\u0643\u0648\u064a\u0646 \u0627\u0644\u0645\u0647\u0646\u064a", "name:fr": "H\u00f4pital - CFPA", "public_transport": "platform"}}, {"type": "node", "id": 3294179617, "lat": 36.7777824, "lon": 5.8991159, "tags": {"bus": "yes", "highway": "bus_stop", "name": "\u0645\u062a\u0648\u0633\u0637\u0629 \u0628\u063a\u0648\u0644", "name:arq": "\u0645\u062a\u0648\u0633\u0637\u0629 \u0628\u063a\u0648\u0644", "public_transport": "platform"}}, {"type": "node", "id": 3294179618, "lat": 36.7800207, "lon": 5.8993147, "tags": {"bus": "yes", "highway": "bus_stop", "name": "\u0627\u0644\u0645\u062d\u0643\u0645\u0629", "name:ar": "\u0627\u0644\u0645\u062d\u0643\u0645\u0629", "name:fr": "Tribunal", "public_transport": "platform"}}, {"type": "node", "id": 3294238600, "lat": 36.7743027, "lon": 5.8987997, "tags": {"bus": "yes", "highway": "bus_stop", "name": "\u0627\u0644\u062f\u0627\u0626\u0631\u0629", "name:ar": "\u0627\u0644\u062f\u0627\u0626\u0631\u0629", "public_transport": "platform"}}, {"type": "node", "id": 3294238601, "lat": 36.7740707, "lon": 5.8988748, "tags": {"bus": "yes", "highway": "bus_stop", "name": "\u0627\u0644\u062f\u0627\u0626\u0631\u0629", "name:ar": "\u0627\u0644\u062f\u0627\u0626\u0631\u0629", "public_transport": "platform"}}, {"type": "node", "id": 3294238603, "lat": 36.7725148, "lon": 5.8957349, "tags": {"bus": "yes", "highway": "bus_stop", "public_transport": "platform"}}, {"type": "node", "id": 3294238604, "lat": 36.7711249, "lon": 5.8963344, "tags": {"bus": "yes", "departures_board": "no", "highway": "bus_stop", "name": "\u0645\u0631\u0643\u0632 \u0627\u0644\u0628\u0631\u064a\u062f", "public_transport": "platform", "shelter": "no"}}, {"type": "node", "id": 3294238605, "lat": 36.7687256, "lon": 5.8978947, "tags": {"bus": "yes", "highway": "bus_stop", "name": "\u0645\u0648\u0642\u0641 \u0645\u0643\u062a\u0628 \u0627\u0644\u0628\u0631\u064a\u062f", "public_transport": "platform"}}, {"type": "node", "id": 3294238606, "lat": 36.7630852, "lon": 5.8997587, "tags": {"bus": "yes", "highway": "bus_stop", "public_transport": "platform"}}, {"type": "node", "id": 3294252099, "lat": 36.719057, "lon": 5.8978098, "tags": {"bus": "yes", "highway": "bus_stop", "public_transport": "platform"}}, {"type": "node", "id": 3294252100, "lat": 36.7187525, "lon": 5.8977915, "tags": {"bus": "yes", "highway": "bus_stop", "public_transport": "platform"}}, {"type": "node", "id": 3406871065, "lat": 36.7867184, "lon": 5.9032862, "tags": {"bus": "yes", "highway": "bus_stop", "name": "\u0627\u0644\u0645\u062a\u0642\u0646", "name:ar": "\u0627\u0644\u0645\u062a\u0642\u0646", "public_transport": "platform"}}, {"type": "node", "id": 3406871066, "lat": 36.7864509, "lon": 5.9031655, "tags": {"bus": "yes", "highway": "bus_stop", "name": "\u0627\u0644\u0645\u062a\u0642\u0646", "name:ar": "\u0627\u0644\u0645\u062a\u0642\u0646", "public_transport": "platform"}}, {"type": "node", "id": 3406871068, "lat": 36.8128779, "lon": 5.9097497, "tags": {"bus": "yes", "highway": "bus_stop", "public_transport": "platform", "surface": "asphalt"}}, {"type": "node", "id": 3406871069, "lat": 36.812129, "lon": 5.88122, "tags": {"bus": "yes", "highway": "bus_stop", "public_transport": "platform"}}, {"type": "node", "id": 3406871070, "lat": 36.8123752, "lon": 5.8824169, "tags": {"bus": "yes", "highway": "bus_stop", "public_transport": "platform"}}, {"type": "node", "id": 3406871071, "lat": 36.8074265, "lon": 5.8353346, "tags": {"bus": "yes", "highway": "bus_stop", "public_transport": "platform"}}, {"type": "node", "id": 3501594443, "lat": 36.7730229, "lon": 5.8992411, "tags": {"bus": "yes", "highway": "bus_stop", "name": "\u0645\u062d\u0637\u0629 \u0627\u0644\u062d\u0627\u0641\u0644\u0627\u062a \u0627\u0644\u0637\u0627\u0647\u064a\u0631-\u0628\u0627\u0632\u0648\u0644", "name:ar": "\u0645\u062d\u0637\u0629 \u0627\u0644\u062d\u0627\u0641\u0644\u0627\u062a \u0627\u0644\u0637\u0627\u0647\u064a\u0631-\u0628\u0627\u0632\u0648\u0644", "name:fr": "Arr\u00eat De Bus Bazoul-Taher", "public_transport": "platform"}}, {"type": "node", "id": 3714008182, "lat": 36.8093831, "lon": 5.7754197, "tags": {"addr:city": "\u062c\u064a\u062c\u0644", "loc_name": "\u062c\u064a\u062c\u0644", "name": "\u062c\u064a\u062c\u0644", "name:ar": "\u062c\u064a\u062c\u0644", "name:de": "Jijel", "name:en": "Jijel", "name:fr": "Jijel", "operator": "\u0627\u0644\u0634\u0631\u0643\u0629 \u0627\u0644\u0648\u0637\u0646\u064a\u0629 \u0644\u0644\u0646\u0642\u0644 \u0628\u0627\u0644\u0633\u0643\u0643 \u0627\u0644\u062d\u062f\u064a\u062f\u064a\u0629", "public_transport": "station", "railway": "station", "train": "yes", "wikidata": "Q117546584", "wikipedia": "fr:Gare de Jijel"}}, {"type": "node", "id": 4267164818, "lat": 36.8214427, "lon": 5.7692814, "tags": {"bus": "yes", "highway": "bus_stop", "public_transport": "platform"}}, {"type": "node", "id": 4297787007, "lat": 36.7404842, "lon": 5.8663591, "tags": {"bus": "yes", "highway": "bus_stop", "name": "Daheroussaf-Taher", "public_transport": "platform"}}, {"type": "node", "id": 4360326271, "lat": 36.4989929, "lon": 6.0997582, "tags": {"bus": "yes", "highway": "bus_stop", "name": "ARR\u00caT DE BUS", "public_transport": "platform"}}, {"type": "node", "id": 4505409189, "lat": 36.7713917, "lon": 5.8983269, "tags": {"bus": "yes", "highway": "bus_stop", "public_transport": "platform"}}, {"type": "node", "id": 4505409289, "lat": 36.7723829, "lon": 5.8977101, "tags": {"bus": "yes", "highway": "bus_stop", "public_transport": "platform"}}, {"type": "node", "id": 4513279594, "lat": 36.7503434, "lon": 5.9003665, "tags": {"bus": "yes", "highway": "bus_stop", "name": "\u0646\u0642\u0644 \u0627\u0644\u062d\u0636\u0631\u064a", "name:ar": "\u0646\u0642\u0644 \u0627\u0644\u062d\u0636\u0631\u064a", "name:fr": "Transport urbain", "public_transport": "platform"}}, {"type": "node", "id": 4525483997, "lat": 36.7762115, "lon": 5.8995071, "tags": {"bus": "yes", "highway": "bus_stop", "name": "\u0628\u0648\u0645\u0627\u0631\u0634\u064a", "name:ar": "\u0628\u0648\u0645\u0627\u0631\u0634\u064a", "public_transport": "platform"}}, {"type": "node", "id": 4586264889, "lat": 36.8104027, "lon": 5.8818362, "tags": {"bus": "yes", "highway": "bus_stop", "name": "\u0627\u0644\u0637\u0627\u0647\u064a\u0631-\u062a\u0627\u0633\u0648\u0633\u062a", "name:ar": "\u0627\u0644\u0637\u0627\u0647\u064a\u0631-\u062a\u0627\u0633\u0648\u0633\u062a", "name:fr": "Taher - Tassoust", "public_transport": "platform"}}, {"type": "node", "id": 4587126096, "lat": 36.7773526, "lon": 5.8852587, "tags": {"bus": "yes", "highway": "bus_stop", "public_transport": "platform"}}, {"type": "node", "id": 4587126592, "lat": 36.793701, "lon": 5.882672, "tags": {"bus": "yes", "highway": "bus_stop", "public_transport": "platform"}}, {"type": "node", "id": 4587186989, "lat": 36.8012978, "lon": 5.8439246, "tags": {"bus": "yes", "highway": "bus_stop", "name": "\u0627\u0644\u0637\u0627\u0647\u064a\u0631-\u062a\u0627\u0633\u0648\u0633\u062a", "name:ar": "\u0627\u0644\u0637\u0627\u0647\u064a\u0631-\u062a\u0627\u0633\u0648\u0633\u062a", "name:fr": "Tahir-Tassoust", "public_transport": "platform"}}, {"type": "node", "id": 4587187189, "lat": 36.7928981, "lon": 5.8822312, "tags": {"bus": "yes", "highway": "bus_stop", "public_transport": "platform"}}, {"type": "node", "id": 4587187190, "lat": 36.7776875, "lon": 5.8851846, "tags": {"bus": "yes", "highway": "bus_stop", "public_transport": "platform"}}, {"type": "node", "id": 4673665990, "lat": 36.6929949, "lon": 5.9063656, "tags": {"bus": "yes", "highway": "bus_stop", "name": "\u0645\u0631\u0634 \u0633\u0639\u062f\u0629", "name:ar": "\u0645\u0631\u0634 \u0633\u0639\u062f\u0629", "public_transport": "platform"}}, {"type": "node", "id": 4673666889, "lat": 36.7276638, "lon": 5.8959541, "tags": {"bus": "yes", "highway": "bus_stop", "name": "\u0627\u0644\u0632\u0627\u0648\u064a\u0629", "name:ar": "\u0627\u0644\u0632\u0627\u0648\u064a\u0629", "public_transport": "platform"}}, {"type": "node", "id": 4674611790, "lat": 36.7605085, "lon": 5.8074178, "tags": {"bus": "yes", "highway": "bus_stop", "name": "\u0645\u062d\u0637\u0629 \u0627\u0644\u0634\u0645\u0627\u0634\u0645\u0629", "name:ar": "\u0645\u062d\u0637\u0629 \u0627\u0644\u0634\u0645\u0627\u0634\u0645\u0629", "name:fr": "Chemachema", "public_transport": "platform"}}, {"type": "node", "id": 4674611791, "lat": 36.7714532, "lon": 5.812567, "tags": {"bus": "yes", "highway": "bus_stop", "name": "\u0645\u062d\u0637\u0629 \u0642\u0627\u0648\u0633", "name:ar": "\u0645\u062d\u0637\u0629 \u0642\u0627\u0648\u0633", "name:fr": "Kaous", "public_transport": "platform"}}, {"type": "node", "id": 4674618789, "lat": 36.7715494, "lon": 5.8077133, "tags": {"bus": "yes", "highway": "bus_stop", "name": "\u0645\u062d\u0637\u0629 \u0642\u0627\u0648\u0633", "name:ar": "\u0645\u062d\u0637\u0629 \u0642\u0627\u0648\u0633", "name:fr": "Qawes jijel", "public_transport": "platform"}}, {"type": "node", "id": 4814471723, "lat": 36.7880889, "lon": 5.905193, "tags": {"bus": "yes", "highway": "bus_stop", "public_transport": "platform"}}, {"type": "node", "id": 5009229026, "lat": 36.7982522, "lon": 5.7460169, "tags": {"bus": "yes", "highway": "bus_stop", "name": "station de bus tab zrara", "public_transport": "platform"}}, {"type": "node", "id": 5225453742, "lat": 36.7880601, "lon": 5.9053627, "tags": {"bus": "yes", "highway": "bus_stop", "public_transport": "platform"}}, {"type": "node", "id": 5288135121, "lat": 36.8129161, "lon": 5.7695745, "tags": {"bus": "yes", "highway": "bus_stop", "name": "\u062d\u064a \u0645\u0648\u0633\u0649", "name:ar": "\u062d\u064a \u0645\u0648\u0633\u0649", "name:fr": "Cit\u00e9 Moussa", "public_transport": "platform"}}, {"type": "node", "id": 5422514638, "lat": 36.4764944, "lon": 5.9812662, "tags": {"bus": "yes", "highway": "bus_stop", "public_transport": "platform"}}, {"type": "node", "id": 5422525151, "lat": 36.4815487, "lon": 5.9958857, "tags": {"bus": "yes", "highway": "bus_stop", "public_transport": "platform"}}, {"type": "node", "id": 5422525152, "lat": 36.4823, "lon": 5.9973721, "tags": {"bus": "yes", "highway": "bus_stop", "public_transport": "platform"}}, {"type": "node", "id": 5422525153, "lat": 36.4822374, "lon": 5.9985754, "tags": {"bus": "yes", "highway": "bus_stop", "public_transport": "platform"}}, {"type": "node", "id": 5663720660, "lat": 36.5514826, "lon": 6.1260405, "tags": {"bus": "yes", "highway": "bus_stop", "name": "Beinen-Mila", "public_transport": "platform"}}, {"type": "node", "id": 5663757192, "lat": 36.5506928, "lon": 6.1262958, "tags": {"bus": "yes", "highway": "bus_stop", "name": "\u0628\u0627\u064a\u0646\u0627\u0646-\u0628\u0627\u0631\u062f\u0648", "name:ar": "\u0628\u0627\u064a\u0646\u0627\u0646-\u0628\u0627\u0631\u062f\u0648", "name:fr": "Beinen-Berdou", "public_transport": "platform"}}, {"type": "node", "id": 5663769005, "lat": 36.5517467, "lon": 6.1270424, "tags": {"bus": "yes", "highway": "bus_stop", "name": "\u0628\u0627\u064a\u0646\u0627\u0646-\u062f\u0627\u0631 \u0627\u0644\u062d\u0645\u0631\u0627\u0621", "name:ar": "\u0628\u0627\u064a\u0646\u0627\u0646-\u062f\u0627\u0631 \u0627\u0644\u062d\u0645\u0631\u0627\u0621", "name:fr": "Beinen-Dar Elhamra", "public_transport": "platform"}}, {"type": "node", "id": 5663806236, "lat": 36.5524204, "lon": 6.1275776, "tags": {"bus": "yes", "highway": "bus_stop", "name": "\u0628\u0627\u064a\u0646\u0627\u0646-\u0627\u0644\u0648\u0627\u062f\u064a\u0629", "name:ar": "\u0628\u0627\u064a\u0646\u0627\u0646-\u0627\u0644\u0648\u0627\u062f\u064a\u0629", "name:fr": "Beinen-El Ouadia", "public_transport": "platform"}}, {"type": "node", "id": 5826073856, "lat": 36.77146, "lon": 5.8076648, "tags": {"highway": "bus_stop", "name": "Qawess \u0642\u0648\u0633 \u062c\u064a\u062c\u0644", "name:ar": "Qawess \u0642\u0648\u0633 \u062c\u064a\u062c\u0644", "name:fr": "Kaous"}}, {"type": "node", "id": 6074756585, "lat": 36.7724859, "lon": 5.6158444, "tags": {"highway": "bus_stop", "name": "\u062d\u064a \u0639\u0644\u064a \u0628\u0627\u0644\u0631\u062d\u0627\u0644", "name:ar": "\u062d\u064a \u0639\u0644\u064a \u0628\u0627\u0644\u0631\u062d\u0627\u0644", "name:fr": "Lasas"}}, {"type": "node", "id": 6355906488, "lat": 36.7904193, "lon": 5.7855934, "tags": {"highway": "bus_stop", "name": "\u0627\u0644\u0637\u0647\u0648\u0631\u0627\u062a", "name:ar": "\u0627\u0644\u0637\u0647\u0648\u0631\u0627\u062a", "name:en": "Thorate", "name:fr": "Dhahraouat"}}, {"type": "node", "id": 6355906686, "lat": 36.7969238, "lon": 5.782399, "tags": {"highway": "bus_stop", "name": "\u0627\u0644\u0632\u0628\u064a\u0631\u064a\u0629", "name:ar": "\u0627\u0644\u0632\u0628\u064a\u0631\u064a\u0629", "name:en": "Zberya", "name:fr": "Zoubiria"}}, {"type": "node", "id": 9196160641, "lat": 36.7834018, "lon": 5.9006706, "tags": {"bus": "yes", "highway": "bus_stop", "name": "\u0627\u0644\u0643\u0634\u0643", "name:ar": "\u0627\u0644\u0643\u0634\u0643", "name:fr": "Kiosque", "public_transport": "platform"}}, {"type": "node", "id": 12131930424, "lat": 36.7746173, "lon": 5.596926, "tags": {"bus": "yes", "highway": "bus_stop", "public_transport": "platform"}}, {"type": "node", "id": 12389979897, "lat": 36.8180303, "lon": 5.7716517, "tags": {"bus": "yes", "highway": "bus_stop", "public_transport": "platform"}}, {"type": "node", "id": 12424927506, "lat": 36.8128687, "lon": 5.9084684, "tags": {"bus": "yes", "highway": "bus_stop", "public_transport": "platform"}}, {"type": "node", "id": 12424927507, "lat": 36.8126616, "lon": 5.9084233, "tags": {"bus": "yes", "highway": "bus_stop", "public_transport": "platform"}}, {"type": "node", "id": 12424935789, "lat": 36.7772657, "lon": 5.899202, "tags": {"bus": "yes", "highway": "bus_stop", "name": "\u0639\u0646\u0627\u0646", "public_transport": "platform"}}, {"type": "node", "id": 12444949579, "lat": 36.600604, "lon": 6.1746165, "tags": {"bus": "yes", "highway": "bus_stop", "public_transport": "platform"}}]}