{"version": 0.6, "generator": "Overpass API 0.7.62.5 1bd436f1", "osm3s": {"timestamp_osm_base": "2025-04-09T14:24:59Z", "copyright": "The data included in this document is from www.openstreetmap.org. The data is made available under ODbL."}, "elements": [{"type": "node", "id": 4130647491, "lat": 30.5855306, "lon": 2.8787602, "tags": {"bus": "yes", "highway": "bus_stop", "name": "\u062d\u0627\u0641\u0644\u0627\u062a \u063a\u0631\u062f\u0627\u064a\u0629 \u0648 \u0648\u0631\u0642\u0644\u0629 \u0648 \u0627\u0644\u062c\u0632\u0627\u0626\u0631", "name:ar": "\u062d\u0627\u0641\u0644\u0627\u062a \u063a\u0631\u062f\u0627\u064a\u0629 \u0648 \u0648\u0631\u0642\u0644\u0629 \u0648 \u0627\u0644\u062c\u0632\u0627\u0626\u0631", "name:fr": "Bus de Ghardaia ... Ouargla ... Alger", "public_transport": "platform"}}, {"type": "node", "id": 4137873289, "lat": 30.5856696, "lon": 2.8793202, "tags": {"bus": "yes", "highway": "bus_stop", "name": "\u0633\u064a\u0627\u0631\u0627\u062a \u0627\u0644\u0623\u062c\u0631\u0629 \u0645\u0627 \u0628\u064a\u0646 \u0627\u0644\u0648\u0644\u0627\u064a\u0627\u062a", "name:ar": "\u0633\u064a\u0627\u0631\u0627\u062a \u0627\u0644\u0623\u062c\u0631\u0629 \u0645\u0627 \u0628\u064a\u0646 \u0627\u0644\u0648\u0644\u0627\u064a\u0627\u062a", "name:fr": "Taxi service", "public_transport": "platform"}}, {"type": "node", "id": 6218261385, "lat": 30.5811698, "lon": 2.8811169, "tags": {"bus": "yes", "highway": "bus_stop", "public_transport": "platform"}}, {"type": "node", "id": 6218261585, "lat": 30.5813763, "lon": 2.8808848, "tags": {"bus": "yes", "highway": "bus_stop", "public_transport": "platform"}}, {"type": "node", "id": 6218261586, "lat": 30.5836843, "lon": 2.8827668, "tags": {"bus": "yes", "highway": "bus_stop", "public_transport": "platform"}}, {"type": "node", "id": 6218261685, "lat": 30.584882, "lon": 2.8810203, "tags": {"bus": "yes", "highway": "bus_stop", "public_transport": "platform"}}, {"type": "node", "id": 6218261686, "lat": 30.5823886, "lon": 2.8793333, "tags": {"bus": "yes", "highway": "bus_stop", "public_transport": "platform"}}]}