{"version": 0.6, "generator": "Overpass API 0.7.62.5 1bd436f1", "osm3s": {"timestamp_osm_base": "2025-04-09T14:15:45Z", "copyright": "The data included in this document is from www.openstreetmap.org. The data is made available under ODbL."}, "elements": [{"type": "node", "id": 2177057049, "lat": 7.4477614, "lon": 4.0259213, "tags": {"bus": "yes", "highway": "bus_stop", "name": "Idi-osan Bus Stop", "public_transport": "platform"}}, {"type": "node", "id": 2594871660, "lat": 7.4317693, "lon": 3.9150486, "tags": {"name": "Bodija Train Station", "railway": "station"}}, {"type": "node", "id": 2627679669, "lat": 7.4091435, "lon": 3.9108536, "tags": {"highway": "bus_stop"}}, {"type": "node", "id": 2627679672, "lat": 7.4188783, "lon": 3.9104808, "tags": {"highway": "bus_stop", "local_ref": "Favos"}}, {"type": "node", "id": 2627679675, "lat": 7.4235329, "lon": 3.9096761, "tags": {"highway": "bus_stop", "name": "Osuntokun Stop"}}, {"type": "node", "id": 2627679679, "lat": 7.4175274, "lon": 3.9109531, "tags": {"highway": "bus_stop"}}, {"type": "node", "id": 2627679684, "lat": 7.416631, "lon": 3.9108405, "tags": {"highway": "bus_stop", "name": "Awolowo Stop"}}, {"type": "node", "id": 2627679686, "lat": 7.4390258, "lon": 3.9076782, "tags": {"highway": "bus_stop"}}, {"type": "node", "id": 2627679690, "lat": 7.4269267, "lon": 3.9096734, "tags": {"highway": "bus_stop"}}, {"type": "node", "id": 2627679691, "lat": 7.4128539, "lon": 3.9117924, "tags": {"highway": "bus_stop", "name": "Customs"}}, {"type": "node", "id": 2627679692, "lat": 7.433597, "lon": 3.9117362, "tags": {"highway": "bus_stop", "name": "Bodija Market Stop"}}, {"type": "node", "id": 2627679693, "lat": 7.4226897, "lon": 3.9098719, "tags": {"highway": "bus_stop", "name": "Aare Stop"}}, {"type": "node", "id": 2627679694, "lat": 7.4127554, "lon": 3.9114599, "tags": {"highway": "bus_stop"}}, {"type": "node", "id": 2627679695, "lat": 7.4303048, "lon": 3.9123693, "tags": {"highway": "bus_stop"}}, {"type": "node", "id": 2627679699, "lat": 7.4393766, "lon": 3.9076833, "tags": {"highway": "bus_stop"}}, {"type": "node", "id": 2627679701, "lat": 7.4093513, "lon": 3.9106769, "tags": {"highway": "bus_stop", "name": "Secretariat Stop"}}, {"type": "node", "id": 2627679703, "lat": 7.4337992, "lon": 3.9119588, "tags": {"highway": "bus_stop", "name": "Bodija Market Stop"}}, {"type": "node", "id": 2627679704, "lat": 7.4079014, "lon": 3.9103628, "tags": {"bench": "no", "bin": "yes", "highway": "bus_stop", "shelter": "no"}}, {"type": "node", "id": 3241232861, "lat": 7.3851049, "lon": 3.9866514, "tags": {"fixme": "empty tag", "highway": "bus_stop"}}, {"type": "node", "id": 3523744293, "lat": 7.3648462, "lon": 3.9330219, "tags": {"highway": "bus_stop"}}, {"type": "node", "id": 3723712166, "lat": 7.4324913, "lon": 3.9418069, "tags": {"highway": "bus_stop", "name": "Baptist Bus Stop", "shelter": "yes"}}, {"type": "node", "id": 5630430884, "lat": 7.450002, "lon": 4.0316714, "tags": {"direction": "SE", "highway": "bus_stop", "local_ref": "Lalupon Road", "name": "Eleshingodogbo Bus-stop", "public_transport": "platform"}}, {"type": "node", "id": 6538838861, "lat": 7.4508159, "lon": 4.0338993, "tags": {"bus": "yes", "departures_board": "no", "highway": "bus_stop", "name": "Adewumi Bus Stop", "public_transport": "platform"}}]}