{"version": 0.6, "generator": "Overpass API 0.7.62.5 1bd436f1", "osm3s": {"timestamp_osm_base": "2025-04-09T14:41:26Z", "copyright": "The data included in this document is from www.openstreetmap.org. The data is made available under ODbL."}, "elements": [{"type": "node", "id": 439855731, "lat": 35.7025107, "lon": 4.5462427, "tags": {"bus": "yes", "highway": "bus_stop", "name": "\u0633\u0627\u062d\u0629 \u0627\u0644\u0634\u0647\u062f\u0627\u0621", "name:ar": "\u0633\u0627\u062d\u0629 \u0627\u0644\u0634\u0647\u062f\u0627\u0621", "name:fr": "Place des Martyrs", "public_transport": "stop_position"}}, {"type": "node", "id": 2622068529, "lat": 35.6976166, "lon": 4.5617903, "tags": {"bus": "yes", "highway": "bus_stop", "public_transport": "stop_position"}}, {"type": "node", "id": 2622613695, "lat": 35.690659, "lon": 4.7695814, "tags": {"bus": "yes", "highway": "bus_stop", "public_transport": "platform"}}, {"type": "node", "id": 3847601856, "lat": 35.6819872, "lon": 4.7355963, "tags": {"name": "Ouled Derradj", "name:ar": "\u0623\u0648\u0644\u0627\u062f \u062f\u0631\u0627\u062c", "name:en": "Ouled Derradj", "name:fr": "Ouled Derradj", "operator": "SNTF", "public_transport": "station", "railway": "station", "train": "yes", "wikidata": "Q118186119", "wikipedia": "fr:Gare d'Ouled Derradj"}}, {"type": "node", "id": 4823880975, "lat": 35.7010837, "lon": 4.5512448, "tags": {"bus": "yes", "highway": "bus_stop", "name": "\u062c\u0639\u0627\u0641\u0631\u0629", "name:ar": "\u062c\u0639\u0627\u0641\u0631\u0629", "name:en": "Djaafra", "name:fr": "Djaafra", "public_transport": "stop_position"}}, {"type": "node", "id": 4829003110, "lat": 35.70424, "lon": 4.5413678, "tags": {"bus": "yes", "highway": "bus_stop", "public_transport": "stop_position"}}, {"type": "node", "id": 4829003117, "lat": 35.7041887, "lon": 4.5390106, "tags": {"bus": "yes", "highway": "bus_stop", "public_transport": "stop_position"}}, {"type": "node", "id": 4829009421, "lat": 35.7041017, "lon": 4.5347554, "tags": {"bus": "yes", "highway": "bus_stop", "public_transport": "stop_position"}}, {"type": "node", "id": 4829009422, "lat": 35.7040668, "lon": 4.5349192, "tags": {"bus": "yes", "highway": "bus_stop", "public_transport": "stop_position"}}, {"type": "node", "id": 4829009429, "lat": 35.7140506, "lon": 4.5297594, "tags": {"bus": "yes", "highway": "bus_stop", "public_transport": "stop_position"}}, {"type": "node", "id": 4829009441, "lat": 35.7110526, "lon": 4.533928, "tags": {"bus": "yes", "highway": "bus_stop", "public_transport": "stop_position"}}, {"type": "node", "id": 4829009445, "lat": 35.7075051, "lon": 4.5388663, "tags": {"bus": "yes", "highway": "bus_stop", "name": "\u0628\u0646 \u0637\u0628\u064a", "name:ar": "\u0628\u0646 \u0637\u0628\u064a", "name:fr": "Ben Tabi", "public_transport": "stop_position"}}, {"type": "node", "id": 4829009449, "lat": 35.7059567, "lon": 4.5410508, "tags": {"bus": "yes", "highway": "bus_stop", "name": "\u0627\u062a\u0635\u0627\u0644\u0627\u062a \u0627\u0644\u062c\u0632\u0627\u0626\u0631", "name:ar": "\u0627\u062a\u0635\u0627\u0644\u0627\u062a \u0627\u0644\u062c\u0632\u0627\u0626\u0631", "name:en": "Alg\u00e9rie T\u00e9l\u00e9com", "name:fr": "Alg\u00e9rie T\u00e9l\u00e9com", "public_transport": "stop_position"}}, {"type": "node", "id": 4829009453, "lat": 35.7049164, "lon": 4.542529, "tags": {"bus": "yes", "highway": "bus_stop", "name": "\u0627\u0644\u0633\u0648\u0642 \u0627\u0644\u0645\u063a\u0637\u0627\u0629", "name:ar": "\u0627\u0644\u0633\u0648\u0642 \u0627\u0644\u0645\u063a\u0637\u0627\u0629", "name:fr": "March\u00e9 couvert", "public_transport": "stop_position"}}, {"type": "node", "id": 4829009457, "lat": 35.7025236, "lon": 4.5461863, "tags": {"bus": "yes", "highway": "bus_stop", "name": "\u0633\u0627\u062d\u0629 \u0627\u0644\u0634\u0647\u062f\u0627\u0621", "name:ar": "\u0633\u0627\u062d\u0629 \u0627\u0644\u0634\u0647\u062f\u0627\u0621", "name:fr": "Place des Martyrs", "public_transport": "stop_position"}}, {"type": "node", "id": 4829009471, "lat": 35.6977325, "lon": 4.5618038, "tags": {"bus": "yes", "highway": "bus_stop", "public_transport": "stop_position"}}, {"type": "node", "id": 4829009475, "lat": 35.6987268, "lon": 4.5576062, "tags": {"bus": "yes", "highway": "bus_stop", "public_transport": "stop_position"}}, {"type": "node", "id": 4829009479, "lat": 35.6994034, "lon": 4.5548358, "tags": {"bus": "yes", "highway": "bus_stop", "public_transport": "stop_position"}}, {"type": "node", "id": 4829009483, "lat": 35.699514, "lon": 4.5543429, "tags": {"bus": "yes", "highway": "bus_stop", "public_transport": "stop_position"}}, {"type": "node", "id": 4829009487, "lat": 35.700807, "lon": 4.5512527, "tags": {"bus": "yes", "highway": "bus_stop", "name": "\u062c\u0639\u0627\u0641\u0631\u0629", "name:ar": "\u062c\u0639\u0627\u0641\u0631\u0629", "name:en": "Djaafra", "name:fr": "Djaafra", "public_transport": "stop_position"}}, {"type": "node", "id": 4841941168, "lat": 35.7080461, "lon": 4.538109, "tags": {"bus": "yes", "highway": "bus_stop", "name": "\u0628\u0646 \u0637\u0628\u064a", "name:ar": "\u0628\u0646 \u0637\u0628\u064a", "name:fr": "Ben Tabi", "public_transport": "stop_position"}}, {"type": "node", "id": 4876031158, "lat": 35.7201104, "lon": 4.5384227, "tags": {"bus": "yes", "highway": "bus_stop", "name": "\u062d\u064a \u0633\u0648\u0646\u0644\u063a\u0627\u0632", "name:ar": "\u062d\u064a \u0633\u0648\u0646\u0644\u063a\u0627\u0632", "name:fr": "Cit\u00e9 Sonalgaz", "public_transport": "platform"}}, {"type": "node", "id": 4876085986, "lat": 35.725233, "lon": 4.5364777, "tags": {"bus": "yes", "highway": "bus_stop", "name": "\u0645\u0648\u0642\u0641 \u062d\u0631\u064a\u0632\u064a", "name:ar": "\u0645\u0648\u0642\u0641 \u062d\u0631\u064a\u0632\u064a", "name:fr": "Harizi", "network": "5+1+6", "public_transport": "platform"}}, {"type": "node", "id": 4876085987, "lat": 35.7232048, "lon": 4.5348295, "tags": {"bus": "yes", "highway": "bus_stop", "name": "\u0645\u0648\u0642\u0641 \u0645\u0644\u064a\u0627\u0646\u064a", "name:ar": "\u0645\u0648\u0642\u0641 \u0645\u0644\u064a\u0627\u0646\u064a", "name:fr": "Meliani", "network": "5 + 6 + 1", "public_transport": "platform"}}, {"type": "node", "id": 4876085988, "lat": 35.7210297, "lon": 4.5330749, "tags": {"bus": "yes", "highway": "bus_stop", "name": "\u0627\u0644\u0645\u0631\u0643\u0628 \u0627\u0644\u0631\u064a\u0627\u0636\u064a", "name:ar": "\u0627\u0644\u0645\u0631\u0643\u0628 \u0627\u0644\u0631\u064a\u0627\u0636\u064a", "name:fr": "Complexe sportif", "network": "6+ 5+ 1", "public_transport": "platform"}}, {"type": "node", "id": 4876085989, "lat": 35.7207511, "lon": 4.5329439, "tags": {"bus": "yes", "highway": "bus_stop", "name": "\u0627\u0644\u0645\u0631\u0643\u0628 \u0627\u0644\u0631\u064a\u0627\u0636\u064a", "name:ar": "\u0627\u0644\u0645\u0631\u0643\u0628 \u0627\u0644\u0631\u064a\u0627\u0636\u064a", "name:fr": "Complexe sportif", "public_transport": "platform", "ref": "1;5;6"}}, {"type": "node", "id": 4879002313, "lat": 35.7173046, "lon": 4.5248098, "tags": {"bus": "yes", "highway": "bus_stop", "public_transport": "platform"}}, {"type": "node", "id": 4879002314, "lat": 35.7178243, "lon": 4.5245576, "tags": {"bus": "yes", "highway": "bus_stop", "public_transport": "platform"}}, {"type": "node", "id": 4879002315, "lat": 35.7198214, "lon": 4.5213225, "tags": {"bus": "yes", "highway": "bus_stop", "public_transport": "platform"}}, {"type": "node", "id": 4879002316, "lat": 35.7206863, "lon": 4.5204625, "tags": {"bus": "yes", "highway": "bus_stop", "public_transport": "platform"}}, {"type": "node", "id": 4879002317, "lat": 35.7264791, "lon": 4.5145462, "tags": {"bus": "yes", "highway": "bus_stop", "public_transport": "platform"}}, {"type": "node", "id": 4879002318, "lat": 35.7263538, "lon": 4.5143834, "tags": {"bus": "yes", "highway": "bus_stop", "public_transport": "platform"}}, {"type": "node", "id": 4879002521, "lat": 35.7311576, "lon": 4.5080599, "tags": {"bus": "yes", "highway": "bus_stop", "public_transport": "platform"}}, {"type": "node", "id": 4879002522, "lat": 35.7312869, "lon": 4.5082059, "tags": {"bus": "yes", "highway": "bus_stop", "public_transport": "platform"}}, {"type": "node", "id": 4879045328, "lat": 35.7201259, "lon": 4.5386334, "tags": {"bus": "yes", "highway": "bus_stop", "name": "\u062d\u064a \u0633\u0648\u0646\u0644\u063a\u0627\u0632", "name:ar": "\u062d\u064a \u0633\u0648\u0646\u0644\u063a\u0627\u0632", "name:fr": "Cit\u00e9 Sonalgaz", "public_transport": "platform"}}, {"type": "node", "id": 4879045333, "lat": 35.7183402, "lon": 4.5360457, "tags": {"bus": "yes", "highway": "bus_stop", "public_transport": "platform"}}, {"type": "node", "id": 4879045334, "lat": 35.7183525, "lon": 4.5362847, "tags": {"bus": "yes", "highway": "bus_stop", "public_transport": "platform"}}, {"type": "node", "id": 4879045343, "lat": 35.7151523, "lon": 4.5421428, "tags": {"bus": "yes", "highway": "bus_stop", "public_transport": "platform"}}, {"type": "node", "id": 4879066197, "lat": 35.7064548, "lon": 4.5375187, "tags": {"bus": "yes", "highway": "bus_stop", "public_transport": "platform"}}, {"type": "node", "id": 4879066198, "lat": 35.7064141, "lon": 4.5373198, "tags": {"bus": "yes", "highway": "bus_stop", "public_transport": "platform"}}, {"type": "node", "id": 4879080570, "lat": 35.7187227, "lon": 4.5458589, "tags": {"bus": "yes", "highway": "bus_stop", "name": "\u0643\u0627\u0644\u064a\u062a\u0648\u0633/300 \u0645\u0633\u0643\u0646", "name:ar": "\u0643\u0627\u0644\u064a\u062a\u0648\u0633/300 \u0645\u0633\u0643\u0646", "name:fr": "300 Logts", "network": "3", "public_transport": "platform"}}, {"type": "node", "id": 4879080571, "lat": 35.7185704, "lon": 4.5460558, "tags": {"bus": "yes", "highway": "bus_stop", "name": "\u0643\u0627\u0644\u064a\u062a\u0648\u0633/300 \u0645\u0633\u0643\u0646", "name:ar": "\u0643\u0627\u0644\u064a\u062a\u0648\u0633/300 \u0645\u0633\u0643\u0646", "name:fr": "300 Logts", "public_transport": "platform"}}, {"type": "node", "id": 4879164590, "lat": 35.7218527, "lon": 4.5405632, "tags": {"bus": "yes", "highway": "bus_stop", "name": "\u0627\u0644\u0645\u0647\u0631\u064a", "name:ar": "\u0627\u0644\u0645\u0647\u0631\u064a", "name:fr": "Mehri", "public_transport": "platform"}}, {"type": "node", "id": 4879164591, "lat": 35.7220844, "lon": 4.5405557, "tags": {"bus": "yes", "highway": "bus_stop", "name": "\u0627\u0644\u0645\u0647\u0631\u064a", "name:ar": "\u0627\u0644\u0645\u0647\u0631\u064a", "name:fr": "Mehri", "public_transport": "platform"}}, {"type": "node", "id": 4879164617, "lat": 35.7229371, "lon": 4.5347797, "tags": {"bus": "yes", "highway": "bus_stop", "name": "\u0645\u0648\u0642\u0641 \u0645\u0644\u064a\u0627\u0646\u064a", "name:ar": "\u0645\u0648\u0642\u0641 \u0645\u0644\u064a\u0627\u0646\u064a", "name:fr": "Meliani", "network": "5+ 6 + 1", "public_transport": "platform"}}, {"type": "node", "id": 4879164618, "lat": 35.7250471, "lon": 4.5365137, "tags": {"bus": "yes", "highway": "bus_stop", "name": "\u0645\u0648\u0642\u0641 \u062d\u0631\u064a\u0632\u064a", "name:ar": "\u0645\u0648\u0642\u0641 \u062d\u0631\u064a\u0632\u064a", "name:fr": "Harizi", "network": "5+6+1", "public_transport": "platform"}}, {"type": "node", "id": 4879164732, "lat": 35.7295175, "lon": 4.5465579, "tags": {"bus": "yes", "highway": "bus_stop", "public_transport": "platform"}}, {"type": "node", "id": 4879164736, "lat": 35.7197355, "lon": 4.5497715, "tags": {"bus": "yes", "highway": "bus_stop", "name": "\u062d\u064a 32 \u0645\u0633\u0643\u0646", "name:ar": "\u062d\u064a 32 \u0645\u0633\u0643\u0646", "name:fr": "Cit\u00e9 32 logts", "network": "6 + 11+ 17 +8", "public_transport": "platform"}}, {"type": "node", "id": 4879164737, "lat": 35.7200266, "lon": 4.5495993, "tags": {"bus": "yes", "highway": "bus_stop", "name": "\u062d\u064a 32\u0645\u0633\u0643\u0646", "name:ar": "\u062d\u064a 32\u0645\u0633\u0643\u0646", "name:fr": "Cit\u00e9 32 logts", "network": "8+6+11+17", "public_transport": "platform"}}, {"type": "node", "id": 4880019942, "lat": 35.7139848, "lon": 4.529844, "tags": {"bus": "yes", "highway": "bus_stop", "public_transport": "stop_position"}}, {"type": "node", "id": 5683511157, "lat": 35.7017474, "lon": 4.5489242, "tags": {"bus": "yes", "highway": "bus_stop", "name": "\u0627\u0644\u0643\u062f\u064a\u0629", "name:ar": "\u0627\u0644\u0643\u062f\u064a\u0629", "name:fr": "Al Kadia", "public_transport": "stop_position"}}, {"type": "node", "id": 5972002802, "lat": 35.7018271, "lon": 4.5489695, "tags": {"bus": "yes", "highway": "bus_stop", "name": "\u0627\u0644\u0643\u062f\u064a\u0629", "name:ar": "\u0627\u0644\u0643\u062f\u064a\u0629", "name:fr": "Al Kadia", "public_transport": "stop_position"}}, {"type": "node", "id": 8501740492, "lat": 35.7107159, "lon": 4.5343803, "tags": {"bus": "yes", "highway": "bus_stop", "public_transport": "stop_position"}}, {"type": "node", "id": 9334752794, "lat": 35.7066742, "lon": 4.5196476, "tags": {"name": "M'Sila", "name:ar": "\u0627\u0644\u0645\u0633\u064a\u0644\u0629", "name:en": "M'Sila", "name:fr": "M'Sila", "public_transport": "station", "railway": "station", "train": "yes"}}]}