{"version": 0.6, "generator": "Overpass API 0.7.62.5 1bd436f1", "osm3s": {"timestamp_osm_base": "2025-04-09T14:45:30Z", "copyright": "The data included in this document is from www.openstreetmap.org. The data is made available under ODbL."}, "elements": [{"type": "node", "id": 418101357, "lat": 36.6445119, "lon": 4.7495393, "tags": {"bus": "yes", "highway": "bus_stop", "name": "Usine Remila", "name:ar": "\u0645\u0635\u0646\u0639 \u0631\u0645\u064a\u0644\u0629", "public_transport": "stop_position"}}, {"type": "node", "id": 946555151, "lat": 36.4082883, "lon": 4.8924987, "tags": {"bus": "yes", "highway": "bus_stop", "public_transport": "platform"}}, {"type": "node", "id": 1368552313, "lat": 36.6203514, "lon": 4.6626979, "tags": {"bus": "yes", "highway": "bus_stop", "name": "Tighilt", "name:ar": "\u062b\u064a\u063a\u064a\u0644\u062a", "name:fr": "Tighilt", "public_transport": "platform"}}, {"type": "node", "id": 1368552320, "lat": 36.6074686, "lon": 4.6789779, "tags": {"bus": "yes", "highway": "bus_stop", "public_transport": "platform"}}, {"type": "node", "id": 1368552369, "lat": 36.6123642, "lon": 4.6702356, "tags": {"bus": "yes", "highway": "bus_stop", "name": "Polyclinique Leflaye", "name:ar": "\u0645\u0631\u0643\u0632 \u0627\u0644\u0635\u062d\u0629 \u0627\u0644\u062c\u0648\u0627\u0631\u064a\u0629 \u0644\u0641\u0644\u0627\u064a", "name:fr": "Polyclinique Leflaye", "public_transport": "platform"}}, {"type": "node", "id": 1368552404, "lat": 36.6114033, "lon": 4.6732489, "tags": {"bus": "yes", "highway": "bus_stop", "public_transport": "platform"}}, {"type": "node", "id": 1368552430, "lat": 36.6159302, "lon": 4.6659926, "tags": {"bus": "yes", "highway": "bus_stop", "public_transport": "platform"}}, {"type": "node", "id": 1368552897, "lat": 36.612354, "lon": 4.6843723, "tags": {"bus": "yes", "highway": "bus_stop", "name": "Sedduq Seddouk", "name:ar": "\u0633\u062f\u0648\u0642", "name:en": "Seddouk", "name:fr": "Seddouk", "name:kab": "Sedduq", "network": "DZ:transport", "public_transport": "platform"}}, {"type": "node", "id": 1368554907, "lat": 36.6132301, "lon": 4.6619774, "tags": {"bus": "yes", "highway": "bus_stop", "name": "Maxen", "name:ar": "\u0645\u0627\u0643\u0633\u0646", "name:ber": "\u2d4e\u2d30\u2d3f\u2d59\u2d3b\u2d4f", "name:en": "Maxen", "name:fr": "Maxen", "network": "DZ:transport", "public_transport": "platform"}}, {"type": "node", "id": 1368555563, "lat": 36.6066947, "lon": 4.6468459, "tags": {"bus": "yes", "highway": "bus_stop", "name": "Mezgoug", "name:ar": "\u0645\u0632\u0642\u0648\u0642", "name:ber": "\u2d4e\u2d3b\u2d63\u2d33\u2d53\u2d33", "name:en": "Mezgoug", "name:fr": "Mezgoug", "name:kab": "Mezgug", "name:kab-Arab": "\u0645\u0632\u06a4\u0648\u06a4", "network": "DZ:transport", "public_transport": "platform", "shelter": "yes"}}, {"type": "node", "id": 2073781820, "lat": 36.6032971, "lon": 4.63363, "tags": {"bench": "yes", "bin": "no", "bus": "yes", "highway": "bus_stop", "lit": "yes", "name": "Tablakt n Telwaqadi", "name:ar": "\u062b\u0627\u0628\u0644\u0627\u0643\u062b \u0646 \u062a\u064a\u0644\u064a\u0648\u0627\u0642\u0627\u0636\u064a", "network": "DZ:transport", "public_transport": "platform", "shelter": "yes"}}, {"type": "node", "id": 2073784179, "lat": 36.6054879, "lon": 4.6389267, "tags": {"addr:city": "Souk-Oufella", "addr:postcode": "06042", "addr:street": "CW 173", "bench": "yes", "bus": "yes", "highway": "bus_stop", "name": "Souk Oufella", "name:ar": "\u0633\u0648\u0642 \u0623\u0648\u0641\u0644\u0627", "name:en": "Souk Oufella", "name:fr": "Souk Oufella", "name:kab": "Ssuk Ufella", "network": "DZ:transport", "public_transport": "platform", "shelter": "yes"}}, {"type": "node", "id": 2073786002, "lat": 36.6025895, "lon": 4.6306615, "tags": {"bench": "yes", "bin": "no", "bus": "yes", "highway": "bus_stop", "lit": "yes", "name": "La poste", "name:ar": "\u0627\u0644\u0628\u0631\u064a\u062f", "name:en": "The post office", "name:fr": "La Poste", "network": "DZ:transport", "public_transport": "platform", "shelter": "yes"}}, {"type": "node", "id": 2073787860, "lat": 36.6007513, "lon": 4.6290227, "tags": {"addr:postcode": "06042", "addr:street": "CW173", "bench": "yes", "bus": "yes", "highway": "bus_stop", "name": "Ayaten", "name:ar": "\u0625\u0639\u064a\u0627\u0636\u0646", "network": "DZ:transport", "public_transport": "platform", "shelter": "yes"}}, {"type": "node", "id": 2073792113, "lat": 36.598839, "lon": 4.6202452, "tags": {"bench": "no", "bin": "no", "bus": "yes", "highway": "bus_stop", "lit": "yes", "name": "Lota", "name:ar": "\u0644\u0648\u0638\u0627", "network": "DZ:transport", "public_transport": "platform", "shelter": "no"}}, {"type": "node", "id": 2074364122, "lat": 36.5941536, "lon": 4.6212781, "tags": {"bench": "no", "bin": "no", "bus": "yes", "highway": "bus_stop", "lit": "yes", "name": "Azru", "name:ar": "\u0622\u0632\u0631\u0648", "network": "DZ:transport", "public_transport": "platform", "shelter": "no"}}, {"type": "node", "id": 2074364652, "lat": 36.5935577, "lon": 4.6205447, "tags": {"bench": "yes", "bin": "no", "bus": "yes", "highway": "bus_stop", "lit": "yes", "name": "Maison de jeunes", "name:ar": "\u062f\u0627\u0631 \u0627\u0644\u0634\u0628\u0627\u0628", "network": "DZ:transport", "public_transport": "platform", "shelter": "yes"}}, {"type": "node", "id": 2424076717, "lat": 36.597402, "lon": 4.6205124, "tags": {"bench": "no", "bin": "no", "bus": "yes", "highway": "bus_stop", "lit": "yes", "name": "Larb\u00e2a", "name:ar": "\u0644\u0627\u0631\u0628\u0639\u0627", "network": "DZ:transport", "public_transport": "platform", "shelter": "no"}}, {"type": "node", "id": 2424076897, "lat": 36.599868, "lon": 4.6232673, "tags": {"bench": "no", "bus": "yes", "highway": "bus_stop", "name": "El Hemmam", "name:ar": "\u0627\u0644\u062d\u0645\u0627\u0645", "network": "DZ:transport", "public_transport": "platform", "shelter": "no"}}, {"type": "node", "id": 2465615346, "lat": 36.5973295, "lon": 4.644319, "tags": {"bus": "yes", "highway": "bus_stop", "name": "Zountar", "name:ar": "\u0632\u0648\u0646\u0637\u0627\u0631", "name:de": "Zountar", "name:en": "Zountar", "name:fr": "Zountar", "name:kab": "Zuntar", "public_transport": "platform"}}, {"type": "node", "id": 2468070446, "lat": 36.612202, "lon": 4.6865399, "tags": {"alt_name:ar": "\u062b\u0627\u0642\u0631\u064a\u062a\u0633", "bus": "yes", "highway": "bus_stop", "name": "Takrietz", "name:ar": "\u062a\u0642\u0631\u064a\u062a", "name:en": "Takrietz", "name:fr": "Takrietz", "name:kab": "Taqe\u1e5byet", "network": "DZ:transport", "public_transport": "stop_position"}}, {"type": "node", "id": 2470528733, "lat": 36.6096022, "lon": 4.6562828, "tags": {"bus": "yes", "highway": "bus_stop", "name": "Tibane", "name:ar": "\u0637\u064a\u0628\u0627\u0646", "network": "DZ:transport", "public_transport": "platform"}}, {"type": "node", "id": 2474577211, "lat": 36.6149039, "lon": 4.6975683, "tags": {"bus": "yes", "highway": "bus_stop", "name": "Arr\u00eat de bus h\u00f4pital", "public_transport": "platform"}}, {"type": "node", "id": 2492439957, "lat": 36.6232769, "lon": 4.6775357, "tags": {"bus": "yes", "highway": "bus_stop", "name": "Tinebdar centre", "name:ar": "\u062b\u064a\u0646\u0628\u0630\u0627\u0631 \u0627\u0644\u0645\u0631\u0643\u0632", "name:ber": "\u2d5d\u2d49\u2d4f\u2d3b\u2d32\u2d38\u2d30\u2d54", "name:fr": "Tinebdar", "network": "DZ:transport", "public_transport": "stop_position"}}, {"type": "node", "id": 2498459365, "lat": 36.5932921, "lon": 4.614812, "tags": {"bench": "no", "bin": "no", "bus": "yes", "highway": "bus_stop", "name": "Terminus Chemini (Lyc\u00e9e)", "name:ar": "\u062b\u0627\u0644\u0627 \u0639\u0644\u064a", "network": "DZ:transport", "public_transport": "platform", "shelter": "yes"}}, {"type": "node", "id": 2653513465, "lat": 36.6233691, "lon": 4.6655651, "tags": {"bus": "yes", "highway": "bus_stop", "network": "DZ:transport", "public_transport": "stop_position"}}, {"type": "node", "id": 2657795141, "lat": 36.6115677, "lon": 4.6610249, "tags": {"bus": "yes", "highway": "bus_stop", "network": "DZ:transport", "public_transport": "platform"}}, {"type": "node", "id": 2657795176, "lat": 36.6145633, "lon": 4.6635292, "tags": {"bus": "yes", "highway": "bus_stop", "network": "DZ:transport", "public_transport": "platform"}}, {"type": "node", "id": 2684967000, "lat": 36.6128781, "lon": 4.691601, "tags": {"bus": "yes", "highway": "bus_stop", "name": "Sidi A\u00efch - Tibane", "name:ar": "\u0633\u064a\u062f\u064a \u0639\u064a\u0634 - \u0637\u064a\u0628\u0627\u0646", "name:fr": "Sidi A\u00efch - Tibane", "public_transport": "platform"}}, {"type": "node", "id": 2687505502, "lat": 36.5375351, "lon": 4.6085111, "tags": {"bus": "yes", "highway": "bus_stop", "public_transport": "platform"}}, {"type": "node", "id": 2690373561, "lat": 36.6093529, "lon": 4.6922744, "tags": {"name": "Sidi A\u00efch", "name:ar": "\u0633\u064a\u062f\u064a \u0639\u064a\u0634", "name:fr": "Sidi A\u00efch", "network": "SNTF", "operator": "SNTF", "operator:fr": "SNTF", "public_transport": "station", "railway": "station", "train": "yes", "wikidata": "Q118496037", "wikipedia": "fr:Gare de Sidi A\u00efch"}}, {"type": "node", "id": 2704836224, "lat": 36.6025406, "lon": 4.6305859, "tags": {"bench": "yes", "bin": "no", "bus": "yes", "highway": "bus_stop", "lit": "yes", "name": "La Poste", "name:ar": "\u0627\u0644\u0628\u0631\u064a\u062f", "name:en": "The post office", "name:fr": "La Poste", "network": "DZ:transport", "public_transport": "platform", "shelter": "yes"}}, {"type": "node", "id": 2918523241, "lat": 36.5786445, "lon": 4.649818, "tags": {"bus": "yes", "highway": "bus_stop", "name": "Takrietz Terminus", "name:ar": "\u062b\u0627\u0642\u0631\u064a\u062a\u0633", "name:fr": "Takrietz Terminus", "network": "DZ:transport", "public_transport": "stop_position"}}, {"type": "node", "id": 2918523242, "lat": 36.5790985, "lon": 4.6509254, "tags": {"bus": "yes", "highway": "bus_stop", "name": "Takrietz", "network": "DZ:transport", "public_transport": "stop_position"}}, {"type": "node", "id": 3010216746, "lat": 36.7370233, "lon": 5.0473581, "tags": {"bus": "yes", "highway": "bus_stop", "name:ar": "\u062d\u064a 600 \u0645\u0633\u0643\u0646", "name:fr": "600 logements", "public_transport": "platform"}}, {"type": "node", "id": 3094313995, "lat": 36.5984082, "lon": 4.6201253, "tags": {"bus": "yes", "highway": "bus_stop", "name": "Arr\u00eat bus Lodha", "public_transport": "platform"}}, {"type": "node", "id": 3266108937, "lat": 36.5378302, "lon": 4.6090137, "tags": {"bus": "yes", "highway": "bus_stop", "name": "Trois chemins", "public_transport": "platform"}}, {"type": "node", "id": 3266201495, "lat": 36.5376463, "lon": 4.6085152, "tags": {"bus": "yes", "highway": "bus_stop", "name": "Trois chemins", "public_transport": "platform"}}, {"type": "node", "id": 3266205571, "lat": 36.5359514, "lon": 4.6066244, "tags": {"bus": "yes", "highway": "bus_stop", "name": "Ighzer Amokran-Sidi Aich-Bejaia", "public_transport": "platform"}}, {"type": "node", "id": 3266210734, "lat": 36.5453454, "lon": 4.6170432, "tags": {"bench": "yes", "bus": "yes", "highway": "bus_stop", "name": "La CAPS", "name:fr": "La CAPS", "public_transport": "platform", "shelter": "yes"}}, {"type": "node", "id": 3266218674, "lat": 36.5426525, "lon": 4.6145635, "tags": {"bench": "yes", "bus": "yes", "highway": "bus_stop", "name": "Takrietz - Sidi A\u00efch - B\u00e9ja\u00efa - Jijel", "public_transport": "platform", "shelter": "yes"}}, {"type": "node", "id": 3267291635, "lat": 36.5933602, "lon": 4.6145509, "tags": {"bench": "no", "bin": "no", "bus": "yes", "highway": "bus_stop", "name": "Semaoune", "name:ar": "\u0633\u0645\u0639\u0648\u0646", "name:fr": "Semaoune", "public_transport": "platform", "shelter": "no"}}, {"type": "node", "id": 3504757685, "lat": 36.6115076, "lon": 4.6503199, "tags": {"bus": "yes", "highway": "bus_stop", "name": "Takalitust", "name:ar": "\u062b\u0643\u0627\u0644\u064a\u062a\u0648\u0633\u062b", "network": "DZ:transport", "public_transport": "stop_position"}}, {"type": "node", "id": 3738087194, "lat": 36.3918686, "lon": 4.8602602, "tags": {"bus": "yes", "highway": "bus_stop", "public_transport": "platform"}}, {"type": "node", "id": 3738087195, "lat": 36.3919665, "lon": 4.8578051, "tags": {"bus": "yes", "highway": "bus_stop", "public_transport": "platform"}}, {"type": "node", "id": 3979505837, "lat": 36.6121854, "lon": 4.7151233, "tags": {"bus": "yes", "highway": "bus_stop", "name": "Sidi Ayad", "name:ar": "\u0633\u064a\u0630\u064a \u0639\u064a\u0627\u0630", "name:fr": "Sidi Ayad", "public_transport": "platform"}}, {"type": "node", "id": 3995737685, "lat": 36.6118959, "lon": 4.6869772, "tags": {"bus": "yes", "highway": "bus_stop", "name": "Terminus Chemini - Sidi A\u00efch", "network": "DZ:transport", "public_transport": "platform", "shelter": "no"}}, {"type": "node", "id": 3997434994, "lat": 36.611539, "lon": 4.6591983, "tags": {"bus": "yes", "highway": "bus_stop", "name": "At Chetla", "name:ar": "\u0622\u062b \u0634\u062b\u0644\u0649", "name:en": "Ath Chetla", "name:fr": "Ath Chetla", "network": "DZ:transport", "public_transport": "platform"}}, {"type": "node", "id": 3999160077, "lat": 36.6079502, "lon": 4.6659264, "tags": {"bus": "yes", "highway": "bus_stop", "name": "Ouzayed (Terminus)", "name:ar": "\u0623\u0648\u0632\u0627\u064a\u0630 \u0627\u0644\u0646\u0647\u0627\u064a\u0629", "name:kab": "Uzayed (Terminus)", "public_transport": "stop_position"}}, {"type": "node", "id": 3999160078, "lat": 36.6092253, "lon": 4.6679933, "tags": {"bus": "yes", "highway": "bus_stop", "name": "Ajegu nel hutt", "name:ar": "\u0622\u062c\u0642\u0648 \u0646\u0644 \u0647\u062a", "name:kab": "Ajegu nel hutt", "public_transport": "platform"}}, {"type": "node", "id": 3999160079, "lat": 36.6103971, "lon": 4.6693591, "tags": {"bus": "yes", "highway": "bus_stop", "public_transport": "platform"}}, {"type": "node", "id": 3999160082, "lat": 36.6119242, "lon": 4.671064, "tags": {"bus": "yes", "highway": "bus_stop", "public_transport": "platform"}}, {"type": "node", "id": 3999160088, "lat": 36.6086311, "lon": 4.6756229, "tags": {"bus": "yes", "highway": "bus_stop", "public_transport": "platform"}}, {"type": "node", "id": 4001509383, "lat": 36.6482033, "lon": 4.7719637, "tags": {"bus": "yes", "highway": "bus_stop", "name": "Village agricole", "name:ar": "\u0627\u0644\u0642\u0631\u064a\u0629 \u0627\u0644\u0627\u0634\u062a\u0631\u0627\u0643\u064a\u0629 \u0627\u0644\u0635\u0648\u0645\u0627\u0645", "public_transport": "stop_position"}}, {"type": "node", "id": 4001509384, "lat": 36.6482984, "lon": 4.7718973, "tags": {"bus": "yes", "highway": "bus_stop", "name": "Village agricole", "public_transport": "platform"}}, {"type": "node", "id": 4001509385, "lat": 36.6445539, "lon": 4.7494025, "tags": {"bus": "yes", "highway": "bus_stop", "name": "Usine Remila", "name:ar": "\u0645\u0635\u0646\u0639 \u0631\u0645\u064a\u0644\u0629", "public_transport": "platform"}}, {"type": "node", "id": 4001676857, "lat": 36.5821752, "lon": 4.6570203, "tags": {"bus": "yes", "highway": "bus_stop", "name": "Embranchement", "network": "DZ:transport", "public_transport": "stop_position"}}, {"type": "node", "id": 4038505006, "lat": 36.6134592, "lon": 4.6560599, "tags": {"bus": "yes", "highway": "bus_stop", "network": "DZ:transport", "public_transport": "stop_position"}}, {"type": "node", "id": 4038505008, "lat": 36.6143899, "lon": 4.6587393, "tags": {"bus": "yes", "highway": "bus_stop", "network": "DZ:transport", "public_transport": "stop_position"}}, {"type": "node", "id": 4038505015, "lat": 36.6202606, "lon": 4.6625652, "tags": {"bus": "yes", "highway": "bus_stop", "name": "Tighilt", "name:ar": "\u062b\u064a\u063a\u064a\u0644\u062a", "name:fr": "Tighilt", "network": "DZ:transport", "public_transport": "platform"}}, {"type": "node", "id": 4038505017, "lat": 36.6247937, "lon": 4.6683953, "tags": {"bus": "yes", "highway": "bus_stop", "network": "DZ:transport", "public_transport": "stop_position"}}, {"type": "node", "id": 4038505022, "lat": 36.6218361, "lon": 4.678382, "tags": {"bus": "yes", "highway": "bus_stop", "network": "DZ:transport", "public_transport": "stop_position"}}, {"type": "node", "id": 4040264033, "lat": 36.6032574, "lon": 4.639434, "tags": {"bus": "yes", "highway": "bus_stop", "loc_name": "Xarbac", "name": "Kherveche", "name:ar": "\u062e\u0631\u0628\u0627\u0634", "name:ber": "\u2d45\u2d30\u2d54\u2d32\u2d30\u2d5b", "name:en": "Kherveche", "name:fr": "Kherbache", "name:kab": "Xarbac", "public_transport": "platform"}}, {"type": "node", "id": 4040351495, "lat": 36.6133008, "lon": 4.6666809, "tags": {"bus": "yes", "highway": "bus_stop", "name": "Ath Oubela\u00efd", "name:ar": "\u0622\u062b \u0623\u0648\u0628\u0644\u0639\u064a\u0630", "name:fr": "Ath Oubela\u00efd", "public_transport": "platform"}}, {"type": "node", "id": 4041849183, "lat": 36.6099052, "lon": 4.6688273, "tags": {"bus": "yes", "highway": "bus_stop", "public_transport": "platform"}}, {"type": "node", "id": 4053732289, "lat": 36.6700377, "lon": 4.8555973, "tags": {"name": "El Kseur - Amizour", "name:ar": "\u0627\u0644\u0642\u0635\u0631 - \u0623\u0645\u064a\u0632\u0648\u0631", "name:fr": "El Kseur - Amizour", "operator": "SNTF", "operator:ar": "\u0627\u0644\u0634\u0631\u0643\u0629 \u0627\u0644\u0648\u0637\u0646\u064a\u0629 \u0644\u0644\u0646\u0642\u0644 \u0628\u0627\u0644\u0633\u0643\u0643 \u0627\u0644\u062d\u062f\u064a\u062f\u064a\u0629", "operator:wikidata": "Q1275038", "operator:wikipedia": "ar:\u0627\u0644\u0634\u0631\u0643\u0629 \u0627\u0644\u0648\u0637\u0646\u064a\u0629 \u0644\u0644\u0646\u0642\u0644 \u0628\u0627\u0644\u0633\u0643\u0643 \u0627\u0644\u062d\u062f\u064a\u062f\u064a\u0629", "public_transport": "station", "railway": "station", "train": "yes", "wikidata": "Q118496153", "wikipedia": "fr:Gare d'El Kseur-Oued Amizour"}}, {"type": "node", "id": 4061333706, "lat": 36.5399581, "lon": 4.6113283, "tags": {"bus": "yes", "highway": "bus_stop", "name": "Ighzer Amokran - Bejaia", "public_transport": "platform"}}, {"type": "node", "id": 4061333707, "lat": 36.5413705, "lon": 4.6133044, "tags": {"bus": "yes", "highway": "bus_stop", "name": "ighzer-Akbou-Tazmalt-Alger", "public_transport": "platform"}}, {"type": "node", "id": 4061905623, "lat": 36.5411229, "lon": 4.6122396, "tags": {"bus": "yes", "highway": "bus_stop", "name": "Bourafaa - Tigrine - Sidi Younes - Adouare", "public_transport": "platform"}}, {"type": "node", "id": 4062404710, "lat": 36.550663, "lon": 4.6008097, "tags": {"bench": "no", "bus": "yes", "highway": "bus_stop", "operator": "Bourafaa", "public_transport": "platform", "shelter": "no"}}, {"type": "node", "id": 4063579551, "lat": 36.5361137, "lon": 4.6065512, "tags": {"bus": "yes", "highway": "bus_stop", "name": "Hellouane-Akbou-Alger", "public_transport": "platform"}}, {"type": "node", "id": 4068400090, "lat": 36.7259174, "lon": 5.0570843, "tags": {"bus": "yes", "highway": "bus_stop", "name": "B\u00efr Slam", "name:ar": "\u0628\u0626\u0631 \u0633\u0644\u0627\u0645", "name:ber": "\u2d31\u2d49\u2d54 \u2d59\u2d4d\u2d3b\u2d4e", "name:kab": "B\u00efr Slam", "place": "suburb", "postal_code": "06000"}}, {"type": "node", "id": 4078635938, "lat": 36.5323757, "lon": 4.6106073, "tags": {"addr:city": "\u0623\u0648\u0632\u0644\u0627\u0642\u0646", "addr:city:ar": "\u0623\u0648\u0632\u0644\u0627\u0642\u0646", "addr:place": "\u0625\u063a\u0632\u0627\u0631 \u0623\u0645\u0642\u0631\u0627\u0646", "addr:place:ar": "\u0625\u063a\u0632\u0627\u0631 \u0623\u0645\u0642\u0631\u0627\u0646", "alt_name:ar": "\u0627\u063a\u0632\u0631\u0627\u0645\u0642\u0631\u0627\u0646", "name": "Ighzer Amokrane", "name:ar": "\u0625\u063a\u0632\u0627\u0631 \u0623\u0645\u0642\u0631\u0627\u0646", "name:en": "Ighzar Amoqrane", "name:fr": "Ighzer Amokrane", "name:kab": "I\u03b3\u1e93a\u1e5b Amuq\u1e5ban", "name:kab-Arab": "\u0625\u063a\u0632\u0627\u0631 \u0623\u0645\u0642\u0631\u0627\u0646", "name:kab-Tfng": "\u2d49\u2d56\u2d65\u2d30\u2d55 \u2d30\u2d4e\u2d53\u2d47\u2d55\u2d30\u2d4f", "network": "SNTF", "official_name": "\u0623\u0648\u0632\u0644\u0627\u0642\u0646", "official_name:ar": "\u0623\u0648\u0632\u0644\u0627\u0642\u0646", "operator": "\u0627\u0644\u0634\u0631\u0643\u0629 \u0627\u0644\u0648\u0637\u0646\u064a\u0629 \u0644\u0644\u0646\u0642\u0644 \u0628\u0627\u0644\u0633\u0643\u0643 \u0627\u0644\u062d\u062f\u064a\u062f\u064a\u0629", "operator:ar": "\u0627\u0644\u0634\u0631\u0643\u0629 \u0627\u0644\u0648\u0637\u0646\u064a\u0629 \u0644\u0644\u0646\u0642\u0644 \u0628\u0627\u0644\u0633\u0643\u0643 \u0627\u0644\u062d\u062f\u064a\u062f\u064a\u0629", "operator:wikidata": "Q1275038", "operator:wikipedia": "ar:\u0627\u0644\u0634\u0631\u0643\u0629 \u0627\u0644\u0648\u0637\u0646\u064a\u0629 \u0644\u0644\u0646\u0642\u0644 \u0628\u0627\u0644\u0633\u0643\u0643 \u0627\u0644\u062d\u062f\u064a\u062f\u064a\u0629", "public_transport": "station", "railway": "station", "train": "yes", "wikidata": "Q118469744", "wikipedia": "fr:Gare d'Ighzer Amokrane"}}, {"type": "node", "id": 4080228865, "lat": 36.656597, "lon": 4.8212956, "tags": {"amenity": "bus_station", "bus": "yes", "highway": "bus_stop", "public_transport": "platform"}}, {"type": "node", "id": 4080589971, "lat": 36.5406771, "lon": 4.6122393, "tags": {"addr:city": "\u0623\u0648\u0632\u0644\u0627\u0642\u0646", "addr:city:ar": "\u0623\u0648\u0632\u0644\u0627\u0642\u0646", "bus": "yes", "destination": "\u0623\u0642\u0628\u0648", "highway": "bus_stop", "public_transport": "platform", "to": "\u0623\u0642\u0628\u0648"}}, {"type": "node", "id": 4127874395, "lat": 36.6904457, "lon": 4.8524318, "tags": {"bus": "yes", "highway": "bus_stop", "public_transport": "platform"}}, {"type": "node", "id": 4226023009, "lat": 36.7295213, "lon": 5.0563527, "tags": {"bus": "yes", "highway": "bus_stop", "name": "B\u00efr Slam", "name:ar": "\u0628\u0626\u0631 \u0633\u0644\u0627\u0645", "name:fr": "B\u00efr Slam", "public_transport": "platform"}}, {"type": "node", "id": 4271987090, "lat": 36.5399608, "lon": 5.0253082, "tags": {"bus": "yes", "highway": "bus_stop", "name": "Kendira", "name:ar": "\u0643\u0646\u062f\u064a\u0631\u0629", "public_transport": "platform"}}, {"type": "node", "id": 4289658285, "lat": 36.6302797, "lon": 4.7818474, "tags": {"bench": "yes", "bus": "yes", "covered": "yes", "highway": "bus_stop", "name": "Vers El Hed/ Ighil Amar", "public_transport": "platform", "shelter": "yes"}}, {"type": "node", "id": 4289658286, "lat": 36.6298732, "lon": 4.7819632, "tags": {"bench": "yes", "bus": "yes", "covered": "yes", "highway": "bus_stop", "name": "B\u00e9ja\u00efa - El Kseur - Sidi Aich", "public_transport": "platform", "shelter": "yes"}}, {"type": "node", "id": 4337921342, "lat": 36.3893029, "lon": 4.8507617, "tags": {"bus": "yes", "highway": "bus_stop", "name": "Taddert", "name:ar": "\u062b\u0627\u062f\u0631\u062b", "public_transport": "platform"}}, {"type": "node", "id": 4363429492, "lat": 36.7334744, "lon": 5.0505598, "tags": {"bus": "yes", "highway": "bus_stop", "name": "Ighil Ouazzoug", "name:fr": "Ighil Ouazzoug", "public_transport": "platform"}}, {"type": "node", "id": 4463541399, "lat": 36.6160625, "lon": 4.7738384, "tags": {"bench": "yes", "bus": "yes", "covered": "yes", "highway": "bus_stop", "name": "Arr\u00eat Vers Bejaia/El Kseur/Sidi Aich", "public_transport": "platform", "shelter": "yes"}}, {"type": "node", "id": 4464101244, "lat": 36.6159396, "lon": 4.7737526, "tags": {"bench": "yes", "bus": "yes", "covered": "yes", "highway": "bus_stop", "name": "Arr\u00eat Vers Ighil Amar", "public_transport": "platform", "shelter": "yes"}}, {"type": "node", "id": 4508009889, "lat": 36.6114951, "lon": 4.692714, "tags": {"bus": "yes", "highway": "bus_stop", "name": "Arr\u00eat de bus vers Alger", "name:ar": "\u0627\u0644\u062c\u0632\u0627\u0626\u0631", "name:fr": "Arr\u00eat de bus vers Alger", "operator": "Bus BEJAIA ALGER", "public_transport": "platform"}}, {"type": "node", "id": 4537767377, "lat": 36.5690144, "lon": 4.6418504, "tags": {"bench": "yes", "bus": "yes", "highway": "bus_stop", "public_transport": "platform", "shelter": "yes"}}, {"type": "node", "id": 4591232497, "lat": 36.6054498, "lon": 4.6387986, "tags": {"bench": "yes", "bus": "yes", "highway": "bus_stop", "loc_name": "Ssuq Ufella", "name": "Souk Oufella", "name:ar": "\u0633\u0648\u0642 \u0623\u0648\u0641\u0644\u0627", "name:ber": "\u2d59\u2d53\u2d47 \u2d53\u2d3c\u2d3b\u2d4d\u2d4d\u2d30", "name:en": "Souk Oufella", "public_transport": "platform", "shelter": "yes", "wheelchair": "no"}}, {"type": "node", "id": 4591232498, "lat": 36.6054663, "lon": 4.6389723, "tags": {"bench": "yes", "bus": "yes", "highway": "bus_stop", "name": "Souk Oufella", "name:ar": "\u0633\u0648\u0642 \u0623\u0648\u0641\u0644\u0627", "name:en": "Souk Oufella", "name:fr": "Souk Oufella", "public_transport": "platform", "shelter": "yes", "wheelchair": "limited"}}, {"type": "node", "id": 4591232499, "lat": 36.6033788, "lon": 4.6340515, "tags": {"bench": "no", "bin": "no", "bus": "yes", "check_date:shelter": "2023-02-28", "highway": "bus_stop", "lit": "yes", "name": "Tiliouacadi", "public_transport": "platform", "shelter": "yes"}}, {"type": "node", "id": 4591232500, "lat": 36.6032444, "lon": 4.6336312, "tags": {"bench": "yes", "bin": "no", "bus": "yes", "highway": "bus_stop", "lit": "yes", "loc_name": "Tablakt n Telwaqa\u1e0di", "name": "Tiliouacadi", "name:ar": "\u062b\u0627\u0628\u0644\u0627\u0643\u062b \u0646 \u062a\u064a\u0644\u064a\u0648\u0627\u0642\u0627\u0636\u064a", "name:ber": "\u2d5d\u2d30\u2d52\u2d4d\u2d30\u2d3d\u2d5d \u2d4f \u2d5c\u2d4d\u2d61\u2d30\u2d47\u2d30\u2d39\u2d49", "name:en": "Tiliouacadi", "name:fr": "Tiliouacadi", "name:kab": "Tablakt n Telwaqa\u1e0di", "public_transport": "platform", "shelter": "yes"}}, {"type": "node", "id": 4591232501, "lat": 36.6025562, "lon": 4.6304964, "tags": {"bench": "no", "bin": "no", "bus": "yes", "highway": "bus_stop", "lit": "yes", "name": "La poste", "name:ar": "\u0627\u0644\u0628\u0631\u064a\u062f", "name:en": "The post office", "name:fr": "La Poste", "network": "DZ:transport", "public_transport": "platform", "shelter": "yes"}}, {"type": "node", "id": 4591232502, "lat": 36.600797, "lon": 4.6290784, "tags": {"bus": "yes", "highway": "bus_stop", "name": "Ayaten", "name:ar": "\u0625\u0639\u064a\u0627\u0636\u0646", "name:en": "Ayaten", "name:fr": "Ayaten", "name:kab": "I\u025baya\u1e0den", "public_transport": "platform", "shelter": "yes"}}, {"type": "node", "id": 4591232503, "lat": 36.6007019, "lon": 4.6289998, "tags": {"bus": "yes", "highway": "bus_stop", "name": "Ayaten", "name:ar": "\u0625\u0639\u064a\u0627\u0636\u0646", "name:en": "Ayaten", "name:fr": "Ayaten", "name:kab": "I\u025baya\u1e0den", "public_transport": "platform", "shelter": "yes"}}, {"type": "node", "id": 4591232504, "lat": 36.5988675, "lon": 4.6202156, "tags": {"bench": "no", "bin": "no", "bus": "yes", "highway": "bus_stop", "lit": "yes", "name": "Lodha", "public_transport": "platform", "shelter": "no"}}, {"type": "node", "id": 4591232505, "lat": 36.5984473, "lon": 4.6201861, "tags": {"bus": "yes", "highway": "bus_stop", "public_transport": "platform", "shelter": "yes"}}, {"type": "node", "id": 4591232506, "lat": 36.5941764, "lon": 4.6212972, "tags": {"bench": "no", "bin": "no", "bus": "yes", "highway": "bus_stop", "lit": "yes", "name": "Azrou", "name:ar": "\u0622\u0632\u0631\u0648", "name:fr": "Azrou", "name:kab": "Azru", "public_transport": "platform", "shelter": "yes"}}, {"type": "node", "id": 4591232507, "lat": 36.5935062, "lon": 4.6205322, "tags": {"bench": "no", "bin": "yes", "bus": "yes", "highway": "bus_stop", "name": "Maison de jeunes", "name:ar": "\u062f\u0627\u0631 \u0627\u0644\u0634\u0628\u0627\u0628", "name:fr": "Maison de jeunes", "public_transport": "platform", "shelter": "yes"}}, {"type": "node", "id": 4591232508, "lat": 36.5931853, "lon": 4.6150516, "tags": {"bench": "no", "bin": "no", "bus": "yes", "highway": "bus_stop", "lit": "yes", "name": "Thala Ali lyc\u00e9e", "name:ar": "\u062b\u0627\u0644\u0627 \u0639\u0644\u064a \u0627\u0644\u062b\u0627\u0646\u0648\u064a\u0629", "name:fr": "Thala Ali lyc\u00e9e", "public_transport": "platform", "shelter": "yes"}}, {"type": "node", "id": 4591232509, "lat": 36.5933094, "lon": 4.6151063, "tags": {"bench": "no", "bin": "no", "bus": "yes", "highway": "bus_stop", "name": "Thala Ali Lyc\u00e9e", "name:ar": "\u062b\u0627\u0644\u0627 \u0639\u0644\u064a \u0627\u0644\u062b\u0627\u0646\u0648\u064a\u0629", "public_transport": "platform", "shelter": "no"}}, {"type": "node", "id": 4592742153, "lat": 36.6113647, "lon": 4.6732762, "tags": {"bus": "yes", "highway": "bus_stop", "public_transport": "platform", "shelter": "yes"}}, {"type": "node", "id": 4592742155, "lat": 36.6098904, "lon": 4.668888, "tags": {"bench": "yes", "bus": "yes", "highway": "bus_stop", "name": "El Qahwa", "name:ar": "\u0627\u0644\u0642\u0647\u0648\u0629", "public_transport": "platform", "shelter": "yes"}}, {"type": "node", "id": 4592742156, "lat": 36.607984, "lon": 4.6661154, "tags": {"bench": "yes", "bus": "yes", "highway": "bus_stop", "name": "Ouzayed", "name:ar": "\u0623\u0648\u0632\u0627\u064a\u0630", "name:ber": "\u2d53\u2d63\u2d30\u2d62\u2d3b\u2d38", "name:kab": "Uzayed", "public_transport": "platform", "shelter": "yes"}}, {"type": "node", "id": 4592742157, "lat": 36.6091925, "lon": 4.6680306, "tags": {"bench": "yes", "bus": "yes", "highway": "bus_stop", "name": "Ajgu n L\u1e25ut", "name:ar": "\u0622\u062c\u0642\u0648 \u0646\u0644 \u0647\u062a", "name:kab": "Ajgu n L\u1e25ut", "public_transport": "platform", "shelter": "yes"}}, {"type": "node", "id": 4592781631, "lat": 36.6131872, "lon": 4.6619976, "tags": {"bus": "yes", "highway": "bus_stop", "name": "\u0645\u0627\u0643\u0633\u0646", "name:ar": "\u0645\u0627\u0643\u0633\u0646", "name:en": "Maxen", "name:fr": "Maxen", "network": "DZ:transport", "public_transport": "platform", "shelter": "yes"}}, {"type": "node", "id": 4602851891, "lat": 36.6004202, "lon": 4.9813871, "tags": {"bus": "yes", "highway": "bus_stop", "public_transport": "platform"}}, {"type": "node", "id": 4756173388, "lat": 36.5505987, "lon": 4.6253126, "tags": {"bus": "yes", "highway": "bus_stop", "public_transport": "platform"}}, {"type": "node", "id": 4756173389, "lat": 36.5567884, "lon": 4.6296644, "tags": {"bus": "yes", "highway": "bus_stop", "public_transport": "platform"}}, {"type": "node", "id": 4756173390, "lat": 36.5785969, "lon": 4.6498352, "tags": {"bus": "yes", "highway": "bus_stop", "public_transport": "platform"}}, {"type": "node", "id": 4756178315, "lat": 36.5622093, "lon": 4.631544, "tags": {"alt_name": "\u0628\u064f\u0648\u062b\u064e\u0627\u0642\u064f\u0648\u062b\u0652", "alt_name:ar": "\u0628\u064f\u0648\u062b\u064e\u0627\u0642\u064f\u0648\u062b\u0652", "bus": "yes", "highway": "bus_stop", "name": "Bouthagouth", "name:ar": "\u0641\u0648\u062b\u0627\u0642\u0648\u062b", "name:fr": "Bouthagouth", "name:kab-Arab": "\u0628\u064f\u0648\u062b\u064e\u0627\u06a4\u064f\u0648\u062b\u0652", "public_transport": "platform"}}, {"type": "node", "id": 4756178316, "lat": 36.5653389, "lon": 4.6337078, "tags": {"bus": "yes", "highway": "bus_stop", "public_transport": "platform"}}, {"type": "node", "id": 4758219087, "lat": 36.5452398, "lon": 4.6171707, "tags": {"bench": "yes", "bus": "yes", "highway": "bus_stop", "name": "La CAPS", "public_transport": "platform", "shelter": "yes"}}, {"type": "node", "id": 4764257123, "lat": 36.3689406, "lon": 4.7328063, "tags": {"bus": "yes", "highway": "bus_stop", "name": "\u0627\u0644\u0645\u0627\u064a\u0646 - \u0628\u0631\u062c \u0628\u0648\u0639\u0631\u064a\u0631\u064a\u062c", "name:ar": "\u0627\u0644\u0645\u0627\u064a\u0646 - \u0628\u0631\u062c \u0628\u0648\u0639\u0631\u064a\u0631\u064a\u062c", "name:fr": "El Main - BBA", "operator": "El Main - BBA", "public_transport": "platform"}}, {"type": "node", "id": 4764681239, "lat": 36.3690086, "lon": 4.7328772, "tags": {"bus": "yes", "highway": "bus_stop", "name": "\u0627\u0644\u0645\u0627\u064a\u0646 - \u0628\u0631\u062c \u0628\u0648\u0639\u0631\u064a\u0631\u064a\u062c", "name:ar": "\u0627\u0644\u0645\u0627\u064a\u0646 - \u0628\u0631\u062c \u0628\u0648\u0639\u0631\u064a\u0631\u064a\u062c", "name:fr": "El Main - BBA", "public_transport": "platform"}}, {"type": "node", "id": 4764681626, "lat": 36.3691449, "lon": 4.73288, "tags": {"bus": "yes", "highway": "bus_stop", "name:fr": "El Main - Akbou", "public_transport": "platform"}}, {"type": "node", "id": 4788317805, "lat": 36.6203449, "lon": 4.7697195, "tags": {"bus": "yes", "highway": "bus_stop", "name": "Akabiou", "name:ar": "\u0623\u0642\u0627\u0628\u064a\u0648", "public_transport": "platform"}}, {"type": "node", "id": 4815012274, "lat": 36.5331469, "lon": 4.6030488, "tags": {"bus": "yes", "highway": "bus_stop", "public_transport": "platform"}}, {"type": "node", "id": 4815012966, "lat": 36.5123563, "lon": 4.5872706, "tags": {"bus": "yes", "highway": "bus_stop", "name": "Helouane", "name:ar": "\u0647\u0644\u0648\u0627\u0646", "name:ber": "\u2d41\u2d3b\u2d4d\u2d61\u2d30\u2d4f", "name:en": "Helouane", "name:fr": "Helouane", "public_transport": "platform"}}, {"type": "node", "id": 4816543425, "lat": 36.6676937, "lon": 4.6910918, "tags": {"bus": "yes", "highway": "bus_stop", "name": "Assam", "name:ar": "\u0639\u0635\u0627\u0645", "name:ber": "\u2d56\u2d30\u2d5a\u2d30\u2d4e", "name:en": "Assam", "name:kab": "\u0190e\u1e63am", "public_transport": "platform"}}, {"type": "node", "id": 5009953965, "lat": 36.522321, "lon": 4.5982366, "tags": {"bus": "yes", "highway": "bus_stop", "name": "CEM", "public_transport": "platform"}}, {"type": "node", "id": 5009953966, "lat": 36.5140191, "lon": 4.5904213, "tags": {"bus": "yes", "highway": "bus_stop", "public_transport": "platform"}}, {"type": "node", "id": 5009971322, "lat": 36.57889, "lon": 4.6502441, "tags": {"bus": "yes", "highway": "bus_stop", "public_transport": "platform"}}, {"type": "node", "id": 5051503674, "lat": 36.6543864, "lon": 4.81446, "tags": {"bus": "yes", "highway": "bus_stop", "public_transport": "platform"}}, {"type": "node", "id": 5051503676, "lat": 36.694497, "lon": 4.9375156, "tags": {"bus": "yes", "highway": "bus_stop", "public_transport": "platform"}}, {"type": "node", "id": 5051503989, "lat": 36.6868313, "lon": 4.9183782, "tags": {"bus": "yes", "highway": "bus_stop", "public_transport": "platform"}}, {"type": "node", "id": 5051503990, "lat": 36.6906171, "lon": 4.9299789, "tags": {"bus": "yes", "highway": "bus_stop", "public_transport": "platform"}}, {"type": "node", "id": 5051503993, "lat": 36.70988, "lon": 5.009485, "tags": {"bus": "yes", "highway": "bus_stop", "public_transport": "platform"}}, {"type": "node", "id": 5051503994, "lat": 36.7244354, "lon": 5.0584777, "tags": {"bus": "yes", "highway": "bus_stop", "name": "B\u00efr Slam", "name:ar": "\u0628\u0626\u0631 \u0633\u0644\u0627\u0645", "name:fr": "B\u00efr Slam", "public_transport": "platform"}}, {"type": "node", "id": 5051504041, "lat": 36.6761804, "lon": 4.8479186, "tags": {"bus": "yes", "highway": "bus_stop", "public_transport": "platform"}}, {"type": "node", "id": 5117866096, "lat": 36.6321943, "lon": 4.6923839, "tags": {"bus": "yes", "highway": "bus_stop", "public_transport": "platform"}}, {"type": "node", "id": 5125153323, "lat": 36.5847251, "lon": 4.6611447, "tags": {"bus": "yes", "highway": "bus_stop", "public_transport": "platform"}}, {"type": "node", "id": 5125163381, "lat": 36.5848237, "lon": 4.6610386, "tags": {"bus": "yes", "highway": "bus_stop", "public_transport": "platform"}}, {"type": "node", "id": 5491424562, "lat": 36.6476815, "lon": 4.9062942, "tags": {"bus": "yes", "highway": "bus_stop", "public_transport": "platform"}}, {"type": "node", "id": 5491424563, "lat": 36.6394736, "lon": 4.9040656, "tags": {"bus": "yes", "highway": "bus_stop", "public_transport": "platform"}}, {"type": "node", "id": 5491443081, "lat": 36.6827266, "lon": 4.9541231, "tags": {"bus": "yes", "highway": "bus_stop", "name": "Merdj Ouamane (2)", "public_transport": "platform"}}, {"type": "node", "id": 5491443082, "lat": 36.6822834, "lon": 4.9493647, "tags": {"bus": "yes", "highway": "bus_stop", "name": "Merdj Ouamane", "public_transport": "platform"}}, {"type": "node", "id": 5491443083, "lat": 36.6801086, "lon": 4.9416266, "tags": {"bus": "yes", "highway": "bus_stop", "name": "Taslent", "public_transport": "platform"}}, {"type": "node", "id": 5491456889, "lat": 36.7068076, "lon": 5.0421049, "tags": {"bus": "yes", "highway": "bus_stop", "name": "Ighil Ouberouak", "name:ar": "\u0625\u063a\u064a\u0644 \u0623\u0648\u0628\u0627\u0648\u0631\u0627\u0642", "name:ber": "\u2d49\u2d56\u2d49\u2d4d \u2d53\u2d32\u2d30\u2d54\u2d61\u2d30\u2d47", "name:kab": "I\u03b3il Ubarwaq", "public_transport": "platform"}}, {"type": "node", "id": 5760634623, "lat": 36.674253, "lon": 4.9268468, "tags": {"bus": "yes", "highway": "bus_stop", "public_transport": "platform"}}, {"type": "node", "id": 5760635744, "lat": 36.711618, "lon": 5.0517364, "tags": {"bus": "yes", "highway": "bus_stop", "name": "Arr\u00eat de bus communal", "public_transport": "platform"}}, {"type": "node", "id": 5760636768, "lat": 36.6984119, "lon": 5.0246239, "tags": {"bus": "yes", "highway": "bus_stop", "public_transport": "platform"}}, {"type": "node", "id": 5760637295, "lat": 36.6918886, "lon": 4.9694873, "tags": {"bus": "yes", "highway": "bus_stop", "public_transport": "platform"}}, {"type": "node", "id": 5760641022, "lat": 36.6672432, "lon": 4.9156522, "tags": {"bus": "yes", "highway": "bus_stop", "public_transport": "platform"}}, {"type": "node", "id": 5760643242, "lat": 36.5999478, "lon": 4.9218961, "tags": {"bus": "yes", "highway": "bus_stop", "public_transport": "platform"}}, {"type": "node", "id": 5760644257, "lat": 36.5861931, "lon": 4.9287137, "tags": {"bus": "yes", "highway": "bus_stop", "public_transport": "platform"}}, {"type": "node", "id": 5760644831, "lat": 36.5847899, "lon": 4.9316292, "tags": {"bus": "yes", "highway": "bus_stop", "public_transport": "platform"}}, {"type": "node", "id": 5760646304, "lat": 36.5751965, "lon": 4.9600195, "tags": {"bus": "yes", "highway": "bus_stop", "public_transport": "platform"}}, {"type": "node", "id": 5760646905, "lat": 36.580521, "lon": 4.9389107, "tags": {"bus": "yes", "highway": "bus_stop", "public_transport": "platform"}}, {"type": "node", "id": 5760647025, "lat": 36.575086, "lon": 4.962906, "tags": {"bus": "yes", "highway": "bus_stop", "name": "Bus inter wilaya", "public_transport": "platform"}}, {"type": "node", "id": 5760736451, "lat": 36.574492, "lon": 4.9670391, "tags": {"bus": "yes", "highway": "bus_stop", "public_transport": "platform"}}, {"type": "node", "id": 5760740995, "lat": 36.5325706, "lon": 4.9610564, "tags": {"bus": "yes", "highway": "bus_stop", "public_transport": "platform"}}, {"type": "node", "id": 5769850996, "lat": 36.7245044, "lon": 5.0580601, "tags": {"bus": "yes", "highway": "bus_stop", "name": "B\u00efr Slam", "name:ar": "\u0628\u0626\u0631 \u0633\u0644\u0627\u0645", "name:fr": "B\u00efr Slam", "public_transport": "platform"}}, {"type": "node", "id": 6810242646, "lat": 36.5279342, "lon": 4.5985227, "tags": {"highway": "bus_stop", "name": "Arr\u00eat de bus Akbou"}}, {"type": "node", "id": 7475095194, "lat": 36.6317082, "lon": 4.6242764, "tags": {"bus": "yes", "highway": "bus_stop", "name": "\u0623\u0643\u0641\u0627\u062f\u0648", "name:ar": "\u0623\u0643\u0641\u0627\u062f\u0648", "name:en": "Aqadoum", "name:fr": "Aqadoum", "public_transport": "platform"}}, {"type": "node", "id": 8026389263, "lat": 36.6644702, "lon": 4.9121906, "tags": {"bus": "yes", "highway": "bus_stop", "name": "Vers B\u00e9ja\u00efa", "public_transport": "platform"}}, {"type": "node", "id": 8026389264, "lat": 36.6643368, "lon": 4.9118821, "tags": {"bus": "yes", "highway": "bus_stop", "name": "Vers Amizour", "public_transport": "platform"}}, {"type": "node", "id": 8221135111, "lat": 36.610948, "lon": 4.6886348, "tags": {"bus": "yes", "highway": "bus_stop", "name": "Terminus de bus Sidi Ayad - Sidi A\u00efch", "public_transport": "platform"}}, {"type": "node", "id": 8235586015, "lat": 36.6233184, "lon": 4.6820407, "tags": {"bus": "yes", "highway": "bus_stop", "name": "Arr\u00eat de bus Tighezratine", "public_transport": "platform", "shelter": "yes"}}, {"type": "node", "id": 8579657847, "lat": 36.6125411, "lon": 4.6949583, "tags": {"bus": "yes", "departures_board": "no", "highway": "bus_stop", "name": "Terminus Chemini", "network": "DZ:transport", "public_transport": "platform", "shelter": "yes"}}, {"type": "node", "id": 8579670173, "lat": 36.6109142, "lon": 4.6883467, "tags": {"bus": "yes", "highway": "bus_stop", "name": "Terminus Akbou - Sidi Aich", "public_transport": "platform"}}, {"type": "node", "id": 8579677171, "lat": 36.610969, "lon": 4.688848, "tags": {"bus": "yes", "highway": "bus_stop", "name": "Terminus Seddouk - Sidi A\u00efch", "public_transport": "platform"}}, {"type": "node", "id": 8648196165, "lat": 36.6124934, "lon": 4.6953139, "tags": {"bus": "yes", "departures_board": "no", "highway": "bus_stop", "name": "Terminus Akfadou", "network": "DZ:transport", "public_transport": "platform", "shelter": "yes"}}, {"type": "node", "id": 8898648968, "lat": 36.6125517, "lon": 4.6947658, "tags": {"bus": "yes", "departures_board": "no", "highway": "bus_stop", "name": "Terminus Tibane", "network": "DZ:transport", "public_transport": "platform", "shelter": "yes"}}, {"type": "node", "id": 8898648969, "lat": 36.6125452, "lon": 4.6945057, "tags": {"bus": "yes", "departures_board": "no", "highway": "bus_stop", "name": "Terminus Leflaye", "network": "DZ:transport", "public_transport": "platform", "shelter": "yes"}}, {"type": "node", "id": 9239228323, "lat": 36.6490137, "lon": 4.6406185, "tags": {"bus": "yes", "highway": "bus_stop", "public_transport": "platform", "shelter": "no"}}, {"type": "node", "id": 9239228324, "lat": 36.6473744, "lon": 4.638351, "tags": {"bus": "yes", "highway": "bus_stop", "public_transport": "platform", "shelter": "yes"}}, {"type": "node", "id": 9562075266, "lat": 36.6125467, "lon": 4.694368, "tags": {"bus": "yes", "highway": "bus_stop", "name": "Terminus Tinebdar", "public_transport": "platform", "shelter": "yes"}}, {"type": "node", "id": 9562075267, "lat": 36.6124825, "lon": 4.6955077, "tags": {"bus": "yes", "highway": "bus_stop", "name": "Terminus Ikedjan", "public_transport": "platform", "shelter": "yes"}}, {"type": "node", "id": 9562075269, "lat": 36.6126214, "lon": 4.6938008, "tags": {"bus": "yes", "highway": "bus_stop", "name": "Sidi A\u00efch - El Kseur", "public_transport": "platform", "shelter": "yes"}}, {"type": "node", "id": 9562075271, "lat": 36.612614, "lon": 4.6942233, "tags": {"bus": "yes", "highway": "bus_stop", "name": "Sidi A\u00efch - B\u00e9ja\u00efa", "public_transport": "platform", "shelter": "yes"}}, {"type": "node", "id": 9776888039, "lat": 36.6272596, "lon": 4.6849664, "tags": {"bus": "yes", "highway": "bus_stop", "name": "Arr\u00eat de bus de Chebirdou", "public_transport": "platform", "shelter": "yes"}}, {"type": "node", "id": 9863632645, "lat": 36.5931244, "lon": 4.6182871, "tags": {"bench": "yes", "bin": "no", "bus": "yes", "highway": "bus_stop", "lit": "yes", "name": "Ima\u00e2liouene", "name:fr": "Ima\u00e2liouene", "network": "DZ:transport", "public_transport": "platform", "shelter": "yes"}}, {"type": "node", "id": 9952819256, "lat": 36.7204702, "lon": 4.9658858, "tags": {"bus": "yes", "highway": "bus_stop", "name": "Le passage", "public_transport": "platform", "shelter": "no"}}, {"type": "node", "id": 10653279502, "lat": 36.6791044, "lon": 4.8919548, "tags": {"bus": "yes", "highway": "bus_stop", "name": "Arret de BUS Imakhlaf/ Tidekanine", "operator": "Public", "public_transport": "platform", "ref": "RAMPO"}}, {"type": "node", "id": 11932743254, "lat": 36.6232276, "lon": 4.6820464, "tags": {"bus": "yes", "highway": "bus_stop", "name": "Arr\u00eat de bus Tighezratine", "public_transport": "platform", "shelter": "yes"}}, {"type": "node", "id": 11932743255, "lat": 36.6229145, "lon": 4.6801658, "tags": {"bus": "yes", "highway": "bus_stop", "name": "Arr\u00eat de bus La Cit\u00e9", "public_transport": "platform"}}, {"type": "node", "id": 11932743256, "lat": 36.6228878, "lon": 4.6797794, "tags": {"bus": "yes", "highway": "bus_stop", "name": "Arr\u00eat de bus La Cit\u00e9", "public_transport": "platform"}}]}