{"version": 0.6, "generator": "Overpass API 0.7.62.5 1bd436f1", "osm3s": {"timestamp_osm_base": "2025-04-09T14:38:15Z", "copyright": "The data included in this document is from www.openstreetmap.org. The data is made available under ODbL."}, "elements": [{"type": "node", "id": 1481434622, "lat": 39.8259952, "lon": 2.8478003, "tags": {"bench": "no", "bin": "no", "bus": "yes", "departures_board": "timetable", "highway": "bus_stop", "name": "Escorca 1 (Escorca)", "name:ca": "Escorca 1 (Escorca)", "network": "Transports p\u00fablics de Mallorca", "operator": "Consorci de Transports de Mallorca", "public_transport": "platform", "ref": "19006", "shelter": "no", "surface": "asphalt", "tactile_paving": "no"}}, {"type": "node", "id": 3071548402, "lat": 39.798556, "lon": 2.7004656, "tags": {"bench": "yes", "bin": "yes", "bus": "yes", "departures_board": "timetable", "highway": "bus_stop", "lit": "yes", "name": "Port de S\u00f3ller (Port de S\u00f3ller)", "name:ca": "Port de S\u00f3ller", "network": "Transports p\u00fablics de Mallorca", "operator": "Consorci de Transports de Mallorca", "public_transport": "platform", "ref": "61027", "shelter": "yes", "surface": "paving_stones", "tactile_paving": "yes"}}, {"type": "node", "id": 3105933238, "lat": 39.8501025, "lon": 2.7999453, "tags": {"bench": "no", "bus": "yes", "highway": "bus_stop", "name": "sa Calobra", "network": "Transports p\u00fablics de Mallorca", "operator": "Consorci de Transports de Mallorca", "passenger_information_display": "no", "public_transport": "platform", "ref": "19008", "route_ref": "355", "shelter": "no"}}, {"type": "node", "id": 4845822580, "lat": 39.8258255, "lon": 2.8477614, "tags": {"bench": "no", "bin": "no", "bus": "yes", "departures_board": "timetable", "highway": "bus_stop", "lit": "no", "name": "Escorca 2 (Escorca)", "name:ca": "Escorca 2 (Escorca)", "network": "Transports p\u00fablics de Mallorca", "operator": "Consorci de Transports de Mallorca", "public_transport": "platform", "ref": "19007", "shelter": "no", "surface": "asphalt", "tactile_paving": "no"}}]}