{"version": 0.6, "generator": "Overpass API 0.7.62.5 1bd436f1", "osm3s": {"timestamp_osm_base": "2025-04-09T14:53:30Z", "copyright": "The data included in this document is from www.openstreetmap.org. The data is made available under ODbL."}, "elements": [{"type": "node", "id": 428584611, "lat": 43.699009, "lon": 3.6737368, "tags": {"highway": "bus_stop"}}, {"type": "node", "id": 444366495, "lat": 43.6912698, "lon": 3.1690801, "tags": {"name": "Le Bousquet d'Orb", "network": "TER Occitanie", "network:wikidata": "Q37941081", "operator": "SNCF", "operator:wikidata": "Q13646", "public_transport": "station", "railway": "station", "source": "cadastre-dgi-fr source : Direction G\u00e9n\u00e9rale des Imp\u00f4ts - Cadastre. Mise \u00e0 jour : 2009", "train": "yes", "uic_ref": "8778158", "wikidata": "Q3098175", "wikipedia": "fr:Gare du Bousquet-d'Orb"}}, {"type": "node", "id": 705074459, "lat": 43.6012463, "lon": 3.4858166, "tags": {"bus": "yes", "highway": "bus_stop", "name": "Canet Cave Coop\u00e9rative", "operator": "H\u00e9rault Transport", "public_transport": "platform", "shelter": "no"}}, {"type": "node", "id": 705074460, "lat": 43.6043298, "lon": 3.4857204, "tags": {"bench": "yes", "bus": "yes", "highway": "bus_stop", "name": "Canet - Les Condamines", "network": "H\u00e9rault Transport", "network:wikidata": "Q3145008", "operator": "H\u00e9rault Transport", "public_transport": "platform", "shelter": "yes"}}, {"type": "node", "id": 705074461, "lat": 43.6003326, "lon": 3.4907988, "tags": {"bench": "yes", "bus": "yes", "highway": "bus_stop", "name": "Canet - Grand Place", "network": "H\u00e9rault Transport", "network:wikidata": "Q3145008", "operator": "H\u00e9rault Transport", "public_transport": "platform", "shelter": "yes"}}, {"type": "node", "id": 706832199, "lat": 43.6003236, "lon": 3.4910579, "tags": {"bench": "yes", "bus": "yes", "highway": "bus_stop", "name": "Canet - Grand Place", "network": "H\u00e9rault Transport", "network:wikidata": "Q3145008", "operator": "H\u00e9rault Transport", "public_transport": "platform", "shelter": "no", "source": "cadastre-dgi-fr source : Direction G\u00e9n\u00e9rale des Imp\u00f4ts - Cadastre;mise \u00e0 jour : 2010"}}, {"type": "node", "id": 719821922, "lat": 43.6074875, "lon": 3.4851877, "tags": {"bench": "yes", "bus": "yes", "highway": "bus_stop", "name": "Canet - Bois d'Andrieu", "network": "H\u00e9rault Transport", "network:wikidata": "Q3145008", "operator": "H\u00e9rault Transport", "public_transport": "platform", "shelter": "yes"}}, {"type": "node", "id": 719822238, "lat": 43.6073889, "lon": 3.4850371, "tags": {"bench": "no", "bus": "yes", "highway": "bus_stop", "name": "Canet - Bois d'Andrieu", "network": "H\u00e9rault Transport", "network:wikidata": "Q3145008", "operator": "H\u00e9rault Transport", "public_transport": "platform", "shelter": "no"}}, {"type": "node", "id": 833455463, "lat": 43.6446191, "lon": 3.4562768, "tags": {"bench": "yes", "bin": "yes", "bus": "yes", "highway": "bus_stop", "lit": "yes", "name": "Ceyras - Centre", "public_transport": "platform", "shelter": "yes", "tactile_paving": "yes", "wheelchair": "yes"}}, {"type": "node", "id": 833478696, "lat": 43.7110704, "lon": 3.5526087, "tags": {"bench": "yes", "bus": "yes", "highway": "bus_stop", "name": "Grotte de Clamouse", "network": "H\u00e9rault Transport", "network:wikidata": "Q3145008", "network:wikipedia": "fr:H\u00e9rault Transport", "operator": "H\u00e9rault Transport", "public_transport": "platform", "shelter": "no"}}, {"type": "node", "id": 836790686, "lat": 43.6945008, "lon": 3.1649219, "tags": {"bench": "yes", "bus": "yes", "highway": "bus_stop", "name": "Mairie", "network": "H\u00e9rault Transport", "network:wikidata": "Q3145008", "operator": "H\u00e9rault Transport", "public_transport": "platform", "shelter": "yes", "tactile_paving": "no"}}, {"type": "node", "id": 960134942, "lat": 43.5577757, "lon": 3.5276204, "tags": {"bench": "yes", "bus": "yes", "highway": "bus_stop", "name": "Plaissan - Centre Poste", "network": "H\u00e9rault Transport", "network:wikidata": "Q3145008", "public_transport": "platform", "shelter": "yes"}}, {"type": "node", "id": 1045990721, "lat": 43.6545238, "lon": 3.7903822, "tags": {"bench": "yes", "bus": "yes", "highway": "bus_stop", "name": "Les Terrasses (Grabels)", "network": "TaM", "network:wikidata": "Q3537922", "operator": "Transports de l'agglom\u00e9ration de Montpellier", "public_transport": "platform", "shelter": "yes", "towards": "Grabels La Valsi\u00e8re"}}, {"type": "node", "id": 1045990728, "lat": 43.6503881, "lon": 3.7916087, "tags": {"bench": "no", "bus": "yes", "highway": "bus_stop", "name": "Source (Grabels)", "network": "TaM", "network:wikidata": "Q3537922", "operator": "Transports de l'agglom\u00e9ration de Montpellier", "public_transport": "platform", "shelter": "no", "towards": "Grabels Le Pradas"}}, {"type": "node", "id": 1045990750, "lat": 43.6505578, "lon": 3.7910317, "tags": {"bench": "yes", "bus": "yes", "highway": "bus_stop", "name": "Source (Grabels)", "network": "TaM", "network:wikidata": "Q3537922", "operator": "Transports de l'agglom\u00e9ration de Montpellier", "public_transport": "platform", "shelter": "yes", "towards": "Grabels La Valsi\u00e8re"}}, {"type": "node", "id": 1045990781, "lat": 43.6541436, "lon": 3.7903176, "tags": {"bench": "no", "bus": "yes", "highway": "bus_stop", "name": "Les Terrasses (Grabels)", "network": "TaM", "network:wikidata": "Q3537922", "operator": "Transports de l'agglom\u00e9ration de Montpellier", "public_transport": "platform", "shelter": "no", "towards": "Grabels Le Pradas"}}, {"type": "node", "id": 1108914870, "lat": 43.569015, "lon": 3.4532475, "tags": {"bench": "no", "bus": "yes", "highway": "bus_stop", "name": "Aspiran - Avenue de la Gare", "network": "H\u00e9rault Transport", "network:wikidata": "Q3145008", "operator": "H\u00e9rault Transport", "public_transport": "platform", "shelter": "no"}}, {"type": "node", "id": 1108915000, "lat": 43.5691377, "lon": 3.4635648, "tags": {"bench": "no", "bus": "yes", "highway": "bus_stop", "name": "Aspiran - Gare RD128", "network": "H\u00e9rault Transport", "network:wikidata": "Q3145008", "operator": "H\u00e9rault Transport", "public_transport": "platform", "shelter": "no"}}, {"type": "node", "id": 1109026984, "lat": 43.5639133, "lon": 3.4488471, "tags": {"highway": "bus_stop", "name": "Aspiran Lotissement Condamine", "operator": "H\u00e9rault Transport", "shelter": "no"}}, {"type": "node", "id": 1118784583, "lat": 43.5532981, "lon": 3.4879489, "tags": {"bench": "no", "bus": "yes", "highway": "bus_stop", "name": "B\u00e9larga - Centre", "network": "H\u00e9rault Transport", "network:wikidata": "Q3145008", "operator": "H\u00e9rault Transport", "public_transport": "platform", "shelter": "no", "tactile_paving": "yes"}}, {"type": "node", "id": 1118784627, "lat": 43.5533104, "lon": 3.4877892, "tags": {"bench": "yes", "bus": "yes", "highway": "bus_stop", "name": "B\u00e9larga - Centre", "network": "H\u00e9rault Transport", "network:wikidata": "Q3145008", "operator": "H\u00e9rault Transport", "public_transport": "platform", "shelter": "yes", "tactile_paving": "yes"}}, {"type": "node", "id": 1194041603, "lat": 43.6104923, "lon": 3.8056155, "tags": {"bench": "no", "bin": "no", "bus": "yes", "check_date:shelter": "2023-01-13", "highway": "bus_stop", "name": "Valat de la Fosse", "network": "TaM", "network:wikidata": "Q3537922", "operator": "Transports de l'agglom\u00e9ration de Montpellier", "public_transport": "platform", "shelter": "no", "tactile_paving": "no", "towards": "Juvignac Martinet"}}, {"type": "node", "id": 1194041611, "lat": 43.6097442, "lon": 3.807927, "tags": {"bench": "no", "bin": "no", "bus": "yes", "check_date:shelter": "2023-01-13", "highway": "bus_stop", "lit": "no", "name": "Marjories", "network": "TaM", "network:wikidata": "Q3537922", "operator": "Transports de l'agglom\u00e9ration de Montpellier", "public_transport": "platform", "shelter": "no", "tactile_paving": "no", "towards": "Juvignac Martinet"}}, {"type": "node", "id": 1194045627, "lat": 43.612827, "lon": 3.809217, "tags": {"bench": "yes", "bin": "no", "bus": "yes", "highway": "bus_stop", "lit": "yes", "name": "Route de Saint-Georges", "network": "TaM", "network:wikidata": "Q3537922", "public_transport": "platform", "shelter": "yes", "tactile_paving": "no", "towards": "Juvignac Martinet"}}, {"type": "node", "id": 1194046548, "lat": 43.6127819, "lon": 3.8086979, "tags": {"bench": "yes", "bin": "no", "bus": "yes", "highway": "bus_stop", "lit": "yes", "name": "Route de Saint-Georges", "network": "TaM", "network:wikidata": "Q3537922", "operator": "Transports de l'agglom\u00e9ration de Montpellier", "public_transport": "platform", "shelter": "yes", "tactile_paving": "no", "towards": "Mosson ; Cournonsec"}}, {"type": "node", "id": 1194059508, "lat": 43.621873, "lon": 3.8001034, "tags": {"bench": "no", "bin": "no", "bus": "yes", "highway": "bus_stop", "name": "Les Thermes", "network": "TaM", "network:wikidata": "Q3537922", "old_name": "Amelys", "operator": "Transports de l'agglom\u00e9ration de Montpellier", "public_transport": "platform", "shelter": "no", "tactile_paving": "yes", "towards": "Juvignac Martinet"}}, {"type": "node", "id": 1194072076, "lat": 43.6274408, "lon": 3.7991936, "tags": {"bus": "yes", "highway": "bus_stop", "name": "Calade", "network": "TaM", "network:wikidata": "Q3537922", "operator": "Transports de l'agglom\u00e9ration de Montpellier", "public_transport": "platform", "shelter": "yes", "towards": "Mosson"}}, {"type": "node", "id": 1194072090, "lat": 43.6277389, "lon": 3.7996049, "tags": {"bus": "yes", "highway": "bus_stop", "name": "Calade", "network": "TaM", "network:wikidata": "Q3537922", "operator": "Transports de l'agglom\u00e9ration de Montpellier", "public_transport": "platform", "shelter": "no", "towards": "Juvignac Martinet"}}, {"type": "node", "id": 1194079401, "lat": 43.6320025, "lon": 3.7996374, "tags": {"bus": "yes", "highway": "bus_stop", "name": "Hauts de Fontcaude", "network": "TaM", "network:wikidata": "Q3537922", "operator": "Transports de l'agglom\u00e9ration de Montpellier", "public_transport": "platform", "shelter": "no", "towards": "Juvignac Martinet"}}, {"type": "node", "id": 1194079407, "lat": 43.6321296, "lon": 3.7995346, "tags": {"bus": "yes", "highway": "bus_stop", "name": "Hauts de Fontcaude", "network": "TaM", "network:wikidata": "Q3537922", "operator": "Transports de l'agglom\u00e9ration de Montpellier", "public_transport": "platform", "shelter": "no", "towards": "Mosson"}}, {"type": "node", "id": 1194079411, "lat": 43.6320766, "lon": 3.8018669, "tags": {"bench": "no", "bus": "yes", "highway": "bus_stop", "name": "Fontcaude", "network": "TaM", "network:wikidata": "Q3537922", "operator": "Transports de l'agglom\u00e9ration de Montpellier", "public_transport": "platform", "shelter": "no", "source": "http://data.montpellier3m.fr/dataset/offre-de-transport-tam-en-gtfs", "towards": "Juvignac Martinet"}}, {"type": "node", "id": 1194079413, "lat": 43.6323983, "lon": 3.8019833, "tags": {"bench": "no", "bin": "yes", "bus": "yes", "highway": "bus_stop", "name": "Fontcaude", "network": "TaM", "network:wikidata": "Q3537922", "operator": "Transports de l'agglom\u00e9ration de Montpellier", "public_transport": "platform", "shelter": "no", "towards": "Mosson"}}, {"type": "node", "id": 1194079421, "lat": 43.6252345, "lon": 3.7992765, "tags": {"bus": "yes", "highway": "bus_stop", "name": "Village", "network": "TaM", "network:wikidata": "Q3537922", "operator": "Transports de l'agglom\u00e9ration de Montpellier", "public_transport": "platform", "towards": "Juvignac Martinet"}}, {"type": "node", "id": 1194079423, "lat": 43.6238651, "lon": 3.8001415, "tags": {"bus": "yes", "highway": "bus_stop", "name": "Village", "network": "TaM", "network:wikidata": "Q3537922", "operator": "Transports de l'agglom\u00e9ration de Montpellier", "public_transport": "platform", "shelter": "yes", "towards": "Mosson"}}, {"type": "node", "id": 1194079434, "lat": 43.6305024, "lon": 3.7982165, "tags": {"bus": "yes", "highway": "bus_stop", "name": "M\u00e9lanie", "network": "TaM", "network:wikidata": "Q3537922", "operator": "Transports de l'agglom\u00e9ration de Montpellier", "public_transport": "platform", "shelter": "no", "towards": "Juvignac Martinet"}}, {"type": "node", "id": 1194079440, "lat": 43.6301191, "lon": 3.7983035, "tags": {"bus": "yes", "highway": "bus_stop", "name": "M\u00e9lanie", "network": "TaM", "network:wikidata": "Q3537922", "operator": "Transports de l'agglom\u00e9ration de Montpellier", "public_transport": "platform", "shelter": "no", "towards": "Mosson"}}, {"type": "node", "id": 1194147458, "lat": 43.6072382, "lon": 3.7846921, "tags": {"bench": "yes", "bus": "yes", "highway": "bus_stop", "name": "Stade (Saint-Georges-d'Orques)", "network": "TaM", "network:wikidata": "Q3537922", "public_transport": "platform", "shelter": "yes", "towards": "Cournonsec Hauts des Clavoux"}}, {"type": "node", "id": 1242513018, "lat": 43.6184967, "lon": 3.2489566, "tags": {"bench": "yes", "bus": "yes", "highway": "bus_stop", "name": "Mas Bousquet", "public_transport": "platform", "shelter": "yes"}}, {"type": "node", "id": 1242513032, "lat": 43.6114039, "lon": 3.3219356, "tags": {"bench": "yes", "bus": "yes", "highway": "bus_stop", "name": "Salasc - Embranchement D 908", "public_transport": "platform", "shelter": "yes", "short_name": "Salasc - Emb. D 908"}}, {"type": "node", "id": 1242513033, "lat": 43.608165, "lon": 3.350553, "tags": {"bench": "yes", "bus": "yes", "highway": "bus_stop", "name": "Mour\u00e8ze - Embranchement D 908", "public_transport": "platform", "shelter": "yes", "short_name": "Mour\u00e8ze - Emb. D 908"}}, {"type": "node", "id": 1242513035, "lat": 43.6284581, "lon": 3.2255393, "tags": {"bench": "no", "bus": "yes", "highway": "bus_stop", "name": "Embranchement D 908", "public_transport": "platform", "shelter": "no", "short_name": "Emb. D 98"}}, {"type": "node", "id": 1242513038, "lat": 43.628633, "lon": 3.2256468, "tags": {"bench": "no", "bus": "yes", "highway": "bus_stop", "name": "Embranchement D 908", "public_transport": "platform", "shelter": "no", "short_name": "Emb. D 908"}}, {"type": "node", "id": 1242513041, "lat": 43.6111193, "lon": 3.2966844, "tags": {"bench": "no", "bus": "yes", "highway": "bus_stop", "name": "Valmascle - Embranchement D 908", "public_transport": "platform", "shelter": "no", "short_name": "Valmascle - Emb. D 908", "tactile_paving": "yes"}}, {"type": "node", "id": 1364643759, "lat": 43.6475942, "lon": 3.5581283, "tags": {"bench": "yes", "bus": "yes", "highway": "bus_stop", "name": "Le P\u00e9lican", "public_transport": "platform", "shelter": "yes", "towards": "Montpellier gare routi\u00e8re"}}, {"type": "node", "id": 1364643760, "lat": 43.6473007, "lon": 3.5586513, "tags": {"bench": "no", "bus": "yes", "highway": "bus_stop", "name": "Le P\u00e9lican", "public_transport": "platform", "shelter": "no", "towards": "Clermont l'H\u00e9rault"}}, {"type": "node", "id": 1364651523, "lat": 43.6523724, "lon": 3.5534795, "tags": {"bench": "yes", "bin": "yes", "bus": "yes", "highway": "bus_stop", "lit": "yes", "name": "Esplanade", "public_transport": "platform", "shelter": "yes", "tactile_paving": "no", "towards": "Montpellier gare routi\u00e8re", "wheelchair": "yes"}}, {"type": "node", "id": 1364651524, "lat": 43.6521831, "lon": 3.5537937, "tags": {"bench": "yes", "bus": "yes", "highway": "bus_stop", "name": "Esplanade", "public_transport": "platform", "shelter": "yes", "towards": "Montpellier gare routi\u00e8re"}}, {"type": "node", "id": 1384589215, "lat": 43.6061332, "lon": 3.7362548, "tags": {"bus": "yes", "highway": "bus_stop", "name": "Fontaine Romaine", "network": "TaM", "network:wikidata": "Q3537922", "operator": "Transports de l'agglom\u00e9ration de Montpellier", "public_transport": "platform", "shelter": "yes", "tactile_paving": "no"}}, {"type": "node", "id": 1388553676, "lat": 43.6075358, "lon": 3.7415112, "tags": {"bench": "no", "bus": "yes", "highway": "bus_stop", "name": "Bellevue", "network": "TaM", "network:wikidata": "Q3537922", "operator": "Transports de l'agglom\u00e9ration de Montpellier", "public_transport": "platform", "shelter": "no"}}, {"type": "node", "id": 1388553685, "lat": 43.6060871, "lon": 3.7432969, "tags": {"bench": "yes", "bus": "yes", "highway": "bus_stop", "name": "Les Clauzes", "network": "TaM", "network:wikidata": "Q3537922", "operator": "Transports de l'agglom\u00e9ration de Montpellier", "public_transport": "platform", "shelter": "yes"}}, {"type": "node", "id": 1404857651, "lat": 43.6085431, "lon": 3.7379264, "tags": {"bench": "yes", "bus": "yes", "highway": "bus_stop", "name": "Mas de Garenc", "network": "TaM", "network:wikidata": "Q3537922", "operator": "Transports de l'agglom\u00e9ration de Montpellier", "public_transport": "platform", "shelter": "yes"}}, {"type": "node", "id": 1407368704, "lat": 43.7427188, "lon": 3.7026112, "tags": {"bench": "yes", "bus": "yes", "highway": "bus_stop", "mapillary": "151948926938351", "name": "Plan de l'\u00c9glise", "public_transport": "platform", "route_ref": "608", "shelter": "yes", "wheelchair": "no"}}, {"type": "node", "id": 1434320780, "lat": 43.7022201, "lon": 3.5518709, "tags": {"bench": "yes", "bin": "yes", "bus": "yes", "highway": "bus_stop", "local_ref": "H\u00e9rault Transport", "name": "Argileum", "network": "H\u00e9rault Transport", "network:wikidata": "Q3145008", "passenger_information_display": "no", "public_transport": "platform", "route_ref": "308", "shelter": "yes", "tactile_paving": "no"}}, {"type": "node", "id": 1434423404, "lat": 43.7045706, "lon": 3.5544771, "tags": {"bench": "yes", "bus": "yes", "highway": "bus_stop", "name": "Route d'Aniane", "network": "H\u00e9rault Transport", "network:wikidata": "Q3145008", "operator": "H\u00e9rault Transport", "public_transport": "platform", "shelter": "yes", "tactile_paving": "no"}}, {"type": "node", "id": 1457585620, "lat": 43.7450208, "lon": 3.7075568, "tags": {"bench": "no", "bus": "yes", "highway": "bus_stop", "mapillary": "316424256506360", "name": "Triol", "public_transport": "platform", "route_ref": "608", "shelter": "no", "tactile_paving": "yes", "wheelchair": "yes"}}, {"type": "node", "id": 1457675313, "lat": 43.7509427, "lon": 3.7216829, "tags": {"bench": "yes", "highway": "bus_stop", "mapillary": "757724368269577", "name": "Peyres-Canes", "public_transport": "platform", "route_ref": "608", "shelter": "yes", "tactile_paving": "yes", "wheelchair": "yes"}}, {"type": "node", "id": 1457675965, "lat": 43.7514265, "lon": 3.7270891, "tags": {"bench": "yes", "highway": "bus_stop", "mapillary": "2810139739298608", "name": "Mairie", "public_transport": "platform", "route_ref": "608", "shelter": "yes", "wheelchair": "no"}}, {"type": "node", "id": 1486490161, "lat": 43.5396324, "lon": 3.4579913, "tags": {"bench": "no", "bus": "yes", "highway": "bus_stop", "name": "Gendarmerie", "network": "H\u00e9rault Transport", "network:wikidata": "Q3145008", "operator": "H\u00e9rault Transport", "public_transport": "platform", "shelter": "no"}}, {"type": "node", "id": 1486490238, "lat": 43.5670312, "lon": 3.4496919, "tags": {"bench": "yes", "bus": "yes", "highway": "bus_stop", "name": "Jeu de Ballon", "network": "H\u00e9rault Transport", "network:wikidata": "Q3145008", "public_transport": "platform", "shelter": "yes"}}, {"type": "node", "id": 1486490466, "lat": 43.539343, "lon": 3.4576961, "tags": {"bench": "yes", "bus": "yes", "highway": "bus_stop", "name": "Gendarmerie", "network": "H\u00e9rault Transport", "network:wikidata": "Q3145008", "operator": "H\u00e9rault Transport", "public_transport": "platform", "shelter": "no"}}, {"type": "node", "id": 1707537394, "lat": 43.7522393, "lon": 3.3576002, "tags": {"bench": "no", "highway": "bus_stop", "name": "Fozi\u00e8res - Place du Pont", "operator": "H\u00e9rault Transport", "shelter": "no"}}, {"type": "node", "id": 1707537423, "lat": 43.7428667, "lon": 3.3303601, "tags": {"bench": "no", "highway": "bus_stop", "name": "Soumont - Route de Millau", "operator": "H\u00e9rault Transport", "shelter": "no"}}, {"type": "node", "id": 1707537433, "lat": 43.7277336, "lon": 3.3551133, "tags": {"bench": "yes", "bus": "yes", "highway": "bus_stop", "name": "Soumont - Saint-Martin", "operator": "H\u00e9rault Transport", "public_transport": "platform", "shelter": "yes"}}, {"type": "node", "id": 1727205223, "lat": 43.7658108, "lon": 3.30791, "tags": {"highway": "bus_stop", "name": "Les Mouli\u00e8res", "operator": "H\u00e9rault Transport", "shelter": "yes"}}, {"type": "node", "id": 1737519344, "lat": 43.7926722, "lon": 3.7334729, "tags": {"bench": "yes", "highway": "bus_stop", "mapillary": "335588097984602", "name": "Pharmacie", "public_transport": "platform", "route_ref": "608", "shelter": "yes", "tactile_paving": "yes", "wheelchair": "yes"}}, {"type": "node", "id": 1739742238, "lat": 43.6845824, "lon": 3.5844803, "tags": {"bench": "yes", "bin": "yes", "bus": "yes", "highway": "bus_stop", "name": "Aniane - Centre", "network": "H\u00e9rault Transport", "network:wikidata": "Q3145008", "public_transport": "platform", "shelter": "yes"}}, {"type": "node", "id": 1759682145, "lat": 43.6184595, "lon": 3.3568517, "tags": {"bench": "no", "highway": "bus_stop", "name": "Mour\u00e8ze Centre", "operator": "H\u00e9rault Transport", "shelter": "no"}}, {"type": "node", "id": 1764151641, "lat": 43.7889037, "lon": 3.731367, "tags": {"bench": "yes", "highway": "bus_stop", "name": "Parking des Aires", "public_transport": "platform", "route_ref": "608", "shelter": "yes", "tactile_paving": "yes", "wheelchair": "yes"}}, {"type": "node", "id": 1768216615, "lat": 43.6369767, "lon": 3.324034, "tags": {"highway": "bus_stop", "public_transport": "platform", "shelter": "yes"}}, {"type": "node", "id": 1807252167, "lat": 43.6172515, "lon": 3.4508727, "tags": {"bench": "yes", "bus": "yes", "highway": "bus_stop", "name": "Tanes Basses", "network": "H\u00e9rault Transport", "network:wikidata": "Q3145008", "operator": "H\u00e9rault Transport", "public_transport": "platform", "shelter": "yes"}}, {"type": "node", "id": 1945739269, "lat": 43.5809392, "lon": 3.5620546, "tags": {"bench": "yes", "bus": "yes", "highway": "bus_stop", "name": "Vend\u00e9mian - Centre", "network": "H\u00e9rault Transport", "network:wikidata": "Q3145008", "public_transport": "platform", "shelter": "yes"}}, {"type": "node", "id": 1945765742, "lat": 43.5815715, "lon": 3.55975, "tags": {"highway": "bus_stop", "line": "331", "name": "Coop\u00e9rative", "public_transport": "platform", "shelter": "yes"}}, {"type": "node", "id": 1945793186, "lat": 43.5861403, "lon": 3.5589609, "tags": {"bench": "no", "bus": "yes", "highway": "bus_stop", "name": "Vend\u00e9mian - Les Mattes", "network": "H\u00e9rault Transport", "network:wikidata": "Q3145008", "public_transport": "platform", "shelter": "no"}}, {"type": "node", "id": 1945816016, "lat": 43.5781502, "lon": 3.5601063, "tags": {"bench": "yes", "bus": "yes", "highway": "bus_stop", "name": "Vend\u00e9mian - Le Terral", "network": "H\u00e9rault Transport", "network:wikidata": "Q3145008", "public_transport": "platform", "shelter": "no", "source": "GPS"}}, {"type": "node", "id": 1945828780, "lat": 43.5807932, "lon": 3.5620654, "tags": {"bench": "no", "bus": "yes", "highway": "bus_stop", "name": "Vend\u00e9mian - Centre", "network": "H\u00e9rault Transport", "network:wikidata": "Q3145008", "public_transport": "platform", "shelter": "no"}}, {"type": "node", "id": 1977858477, "lat": 43.991806, "lon": 3.6097777, "tags": {"bench": "yes", "bus": "yes", "highway": "bus_stop", "name": "Communaut\u00e9 de Communes", "public_transport": "platform", "route_ref": "608", "shelter": "yes"}}, {"type": "node", "id": 1977858478, "lat": 43.9919334, "lon": 3.6096865, "tags": {"bus": "yes", "highway": "bus_stop", "name": "Communaut\u00e9 de Communes", "public_transport": "platform", "route_ref": "608", "shelter": "no"}}, {"type": "node", "id": 1979212717, "lat": 43.7438367, "lon": 3.7048535, "tags": {"bench": "no", "bus": "yes", "highway": "bus_stop", "mapillary": "304836691135708", "name": "Avenue du Castellas", "public_transport": "platform", "route_ref": "608", "shelter": "no", "wheelchair": "no"}}, {"type": "node", "id": 1979212718, "lat": 43.7757167, "lon": 3.7211642, "tags": {"bench": "no", "highway": "bus_stop", "mapillary": "577047763262484", "name": "Mas de Bouis", "public_transport": "platform", "route_ref": "608", "shelter": "no", "wheelchair": "no"}}, {"type": "node", "id": 1979212719, "lat": 43.7757798, "lon": 3.7214123, "tags": {"bench": "yes", "highway": "bus_stop", "mapillary": "1265428580579446", "name": "Mas de Bouis", "public_transport": "platform", "route_ref": "608", "shelter": "yes", "wheelchair": "no"}}, {"type": "node", "id": 1984152129, "lat": 43.7576894, "lon": 3.7505735, "tags": {"bench": "no", "bus": "yes", "highway": "bus_stop", "mapillary": "108539771302959", "name": "Embranchement de Viols", "public_transport": "platform", "route_ref": "608", "shelter": "no", "wheelchair": "no"}}, {"type": "node", "id": 1984152132, "lat": 43.7577903, "lon": 3.7504384, "tags": {"bench": "no", "bus": "yes", "highway": "bus_stop", "mapillary": "108539771302959", "name": "Embranchement de Viols", "public_transport": "platform", "route_ref": "608", "shelter": "no", "wheelchair": "no"}}, {"type": "node", "id": 2039957552, "lat": 43.7109245, "lon": 3.552489, "tags": {"bench": "no", "bus": "yes", "highway": "bus_stop", "name": "Grotte de Clamouse", "network": "H\u00e9rault Transport", "network:wikidata": "Q3145008", "network:wikipedia": "fr:H\u00e9rault Transport", "operator": "H\u00e9rault Transport", "public_transport": "platform", "shelter": "no"}}, {"type": "node", "id": 2080402490, "lat": 43.6543917, "lon": 3.3029528, "tags": {"bench": "yes", "highway": "bus_stop", "name": "Octon Centre", "operator": "H\u00e9rault Transport", "shelter": "yes"}}, {"type": "node", "id": 2110844970, "lat": 43.6267757, "lon": 3.4361681, "tags": {"bench": "no", "bus": "yes", "highway": "bus_stop", "local_ref": "3", "name": "Gare Routi\u00e8re de Clermont-l'H\u00e9rault", "public_transport": "platform", "shelter": "no"}}, {"type": "node", "id": 2184404994, "lat": 43.6955109, "lon": 3.5068587, "tags": {"bench": "yes", "bus": "yes", "highway": "bus_stop", "name": "Montpeyroux - Coop\u00e9rative", "network": "H\u00e9rault Transport", "network:wikidata": "Q3145008", "operator": "H\u00e9rault Transport", "public_transport": "platform", "shelter": "yes", "wheelchair": "yes"}}, {"type": "node", "id": 2379475324, "lat": 43.6881502, "lon": 3.5848685, "tags": {"bench": "no", "bus": "yes", "highway": "bus_stop", "name": "Cimeti\u00e8re", "network": "H\u00e9rault Transport", "network:wikidata": "Q3145008", "public_transport": "platform", "shelter": "no"}}, {"type": "node", "id": 2379532907, "lat": 43.6664843, "lon": 3.4379391, "tags": {"bench": "no", "bus": "yes", "highway": "bus_stop", "name": "Rabieux", "passenger_information_display": "yes", "pole": "yes", "public_transport": "platform", "shelter": "no"}}, {"type": "node", "id": 2486690000, "lat": 43.6732118, "lon": 3.5229017, "tags": {"bench": "yes", "highway": "bus_stop", "name": "Lagamas - Mairie", "operator": "H\u00e9rault Transport", "public_transport": "station", "shelter": "yes"}}, {"type": "node", "id": 2595377004, "lat": 43.622268, "lon": 3.4746056, "tags": {"bench": "no", "bus": "yes", "highway": "bus_stop", "name": "Brignac - Centre", "network": "H\u00e9rault Transport", "network:wikidata": "Q3145008", "operator": "H\u00e9rault Transport", "public_transport": "platform", "shelter": "no", "tactile_paving": "yes"}}, {"type": "node", "id": 2595530059, "lat": 43.6241512, "lon": 3.4684888, "tags": {"bench": "yes", "bus": "yes", "highway": "bus_stop", "name": "Route de Clermont", "network": "H\u00e9rault Transport", "network:wikidata": "Q3145008", "operator": "H\u00e9rault Transport", "public_transport": "platform", "shelter": "yes", "tactile_paving": "no"}}, {"type": "node", "id": 2602061179, "lat": 43.8289867, "lon": 3.6179589, "tags": {"bench": "yes", "bus": "yes", "highway": "bus_stop", "name": "Saint-Jean de Bu\u00e8ges - Centre", "network": "H\u00e9rault Transport", "network:wikidata": "Q3145008", "public_transport": "platform", "shelter": "yes"}}, {"type": "node", "id": 2605234265, "lat": 43.5922107, "lon": 3.527951, "tags": {"bench": "no", "bus": "yes", "highway": "bus_stop", "name": "Le Pouget - Croix Mission", "network": "H\u00e9rault Transport", "network:wikidata": "Q3145008", "public_transport": "platform", "shelter": "no", "tactile_paving": "no"}}, {"type": "node", "id": 2605234266, "lat": 43.5959025, "lon": 3.5130911, "tags": {"bench": "no", "bus": "yes", "highway": "bus_stop", "name": "Le Pouget - Les Ch\u00eanes", "network": "H\u00e9rault Transport", "network:wikidata": "Q3145008", "operator": "H\u00e9rault Transport", "public_transport": "platform", "shelter": "no", "tactile_paving": "yes"}}, {"type": "node", "id": 2605234267, "lat": 43.595966, "lon": 3.5132977, "tags": {"bench": "no", "bus": "yes", "highway": "bus_stop", "name": "Le Pouget - Les Ch\u00eanes", "network": "H\u00e9rault Transport", "network:wikidata": "Q3145008", "operator": "H\u00e9rault Transport", "public_transport": "platform", "shelter": "no", "tactile_paving": "no"}}, {"type": "node", "id": 2605234268, "lat": 43.5930887, "lon": 3.5313755, "tags": {"bench": "no", "bus": "yes", "highway": "bus_stop", "name": "Le Pouget - Saint-Amans", "network": "H\u00e9rault Transport", "network:wikidata": "Q3145008", "public_transport": "platform", "shelter": "no", "tactile_paving": "no"}}, {"type": "node", "id": 2605234270, "lat": 43.592281, "lon": 3.5251969, "tags": {"bench": "no", "bus": "yes", "highway": "bus_stop", "name": "Le Pouget - \u00c9glise", "network": "H\u00e9rault Transport", "network:wikidata": "Q3145008", "public_transport": "platform", "shelter": "no", "tactile_paving": "no"}}, {"type": "node", "id": 2605463932, "lat": 43.6062892, "lon": 3.6036657, "tags": {"bench": "yes", "bus": "yes", "highway": "bus_stop", "name": "Mas d'Encoste", "network": "H\u00e9rault Transport", "network:wikidata": "Q3145008", "public_transport": "platform", "shelter": "yes", "tactile_paving": "no"}}, {"type": "node", "id": 2605463933, "lat": 43.6064222, "lon": 3.6038121, "tags": {"bench": "no", "bus": "yes", "highway": "bus_stop", "name": "Mas d'Encoste", "network": "H\u00e9rault Transport", "network:wikidata": "Q3145008", "public_transport": "platform", "shelter": "no", "tactile_paving": "no"}}, {"type": "node", "id": 2609878062, "lat": 43.6986508, "lon": 3.5434151, "tags": {"bench": "yes", "bus": "yes", "highway": "bus_stop", "name": "Les Fontenilles", "network": "H\u00e9rault Transport", "network:wikidata": "Q3145008", "public_transport": "platform", "shelter": "yes", "tactile_paving": "yes"}}, {"type": "node", "id": 2688953520, "lat": 43.5770817, "lon": 3.3638963, "tags": {"bench": "yes", "bus": "yes", "highway": "bus_stop", "name": "Cabri\u00e8res - Centre", "network": "H\u00e9rault Transport", "network:wikidata": "Q3145008", "public_transport": "platform", "shelter": "yes", "tactile_paving": "no"}}, {"type": "node", "id": 3042159354, "lat": 43.6854129, "lon": 3.7471926, "tags": {"bench": "no", "bus": "yes", "highway": "bus_stop", "name": "Oliviers", "network": "H\u00e9rault Transport", "network:wikidata": "Q3145008", "public_transport": "platform", "shelter": "no"}}, {"type": "node", "id": 3070313610, "lat": 43.6955478, "lon": 3.5067103, "tags": {"bench": "no", "bus": "yes", "highway": "bus_stop", "name": "Montpeyroux - Coop\u00e9rative", "network": "H\u00e9rault Transport", "network:wikidata": "Q3145008", "public_transport": "platform;stop_position", "shelter": "no", "source": "survey", "wheelchair": "yes"}}, {"type": "node", "id": 3070376784, "lat": 43.6922697, "lon": 3.5023443, "tags": {"bench": "no", "bus": "yes", "departures_board": "timetable", "highway": "bus_stop", "name": "Montpeyroux - Muscadels", "network": "H\u00e9rault Transport", "network:wikidata": "Q3145008", "public_transport": "platform", "shelter": "no"}}, {"type": "node", "id": 3134132384, "lat": 43.6500174, "lon": 3.504848, "tags": {"bench": "yes", "bus": "yes", "highway": "bus_stop", "name": "Route de Montpellier", "public_transport": "platform", "shelter": "yes"}}, {"type": "node", "id": 3142053364, "lat": 43.6254194, "lon": 3.6422274, "tags": {"bench": "no", "bus": "yes", "covered": "no", "highway": "bus_stop", "name": "Mas Alhen D 619", "public_transport": "platform", "shelter": "no", "tactile_paving": "yes"}}, {"type": "node", "id": 3142055341, "lat": 43.6644312, "lon": 3.6453929, "tags": {"bench": "yes", "highway": "bus_stop", "shelter": "yes"}}, {"type": "node", "id": 3247836432, "lat": 43.565995, "lon": 3.2455472, "tags": {"bench": "yes", "bin": "yes", "highway": "bus_stop", "lit": "yes", "name": "Fos - Mairie", "public_transport": "platform", "shelter": "yes", "tactile_paving": "no"}}, {"type": "node", "id": 3248628961, "lat": 43.6944287, "lon": 3.471726, "tags": {"bench": "no", "highway": "bus_stop", "name": "Place de la Fontaine", "shelter": "no", "tactile_paving": "no"}}, {"type": "node", "id": 3248628962, "lat": 43.6945402, "lon": 3.4718866, "tags": {"bench": "no", "highway": "bus_stop", "name": "Place de la Fontaine", "shelter": "no", "tactile_paving": "no"}}, {"type": "node", "id": 3392648955, "lat": 43.6641899, "lon": 3.7111922, "tags": {"bench": "yes", "bus": "yes", "highway": "bus_stop", "name": "La Coste", "network": "H\u00e9rault Transport", "network:wikidata": "Q3145008", "public_transport": "platform", "shelter": "yes"}}, {"type": "node", "id": 3392669144, "lat": 43.6693563, "lon": 3.7157524, "tags": {"bench": "no", "bin": "no", "bus": "yes", "check_date:shelter": "2023-02-10", "highway": "bus_stop", "lit": "yes", "name": "Lotissement Ravel", "network": "H\u00e9rault Transport", "network:wikidata": "Q3145008", "public_transport": "platform", "shelter": "no", "tactile_paving": "no"}}, {"type": "node", "id": 3392669145, "lat": 43.6692862, "lon": 3.715897, "tags": {"bench": "yes", "bin": "no", "bus": "yes", "highway": "bus_stop", "lit": "no", "name": "Lotissement Ravel", "network": "H\u00e9rault Transport", "network:wikidata": "Q3145008", "public_transport": "platform", "shelter": "yes", "tactile_paving": "yes"}}, {"type": "node", "id": 3457787959, "lat": 43.6443963, "lon": 3.4560862, "tags": {"bench": "yes", "bin": "yes", "bus": "yes", "highway": "bus_stop", "lit": "yes", "name": "Ceyras - Centre", "public_transport": "platform", "shelter": "yes", "tactile_paving": "yes", "wheelchair": "yes"}}, {"type": "node", "id": 3457787960, "lat": 43.6474727, "lon": 3.4578833, "tags": {"bench": "no", "bus": "yes", "highway": "bus_stop", "name": "Ceyras - Route de Saint-F\u00e9lix", "network": "H\u00e9rault Transport", "network:wikidata": "Q3145008", "operator": "H\u00e9rault Transport", "public_transport": "platform", "shelter": "no"}}, {"type": "node", "id": 3457787961, "lat": 43.6478955, "lon": 3.4577222, "tags": {"bench": "no", "bus": "yes", "highway": "bus_stop", "name": "Ceyras - Route de Saint-F\u00e9lix", "network": "H\u00e9rault Transport", "network:wikidata": "Q3145008", "operator": "H\u00e9rault Transport", "public_transport": "platform", "shelter": "no"}}, {"type": "node", "id": 3679327970, "lat": 43.6185466, "lon": 3.2485169, "tags": {"bench": "yes", "bus": "yes", "highway": "bus_stop", "name": "Mas Bousquet", "public_transport": "platform", "shelter": "yes"}}, {"type": "node", "id": 3702927836, "lat": 43.6501003, "lon": 3.5049276, "tags": {"bench": "no", "bus": "yes", "highway": "bus_stop", "name": "Route de Montpellier", "public_transport": "platform", "shelter": "no"}}, {"type": "node", "id": 3702927838, "lat": 43.6487061, "lon": 3.4968855, "tags": {"bench": "yes", "bus": "yes", "highway": "bus_stop", "name": "Lotissement Lavergne", "network": "H\u00e9rault Transport", "network:wikidata": "Q3145008", "operator": "H\u00e9rault Transport", "public_transport": "platform", "shelter": "yes"}}, {"type": "node", "id": 3702927839, "lat": 43.6486765, "lon": 3.4962527, "tags": {"bus": "yes", "highway": "bus_stop", "name": "Lotissement Lavergne", "public_transport": "platform", "shelter": "no"}}, {"type": "node", "id": 3731560692, "lat": 43.6998607, "lon": 3.167351, "tags": {"bench": "yes", "bus": "yes", "highway": "bus_stop", "name": "Pont d'Orb", "network": "H\u00e9rault Transport", "network:wikidata": "Q3145008", "operator": "H\u00e9rault Transport", "public_transport": "platform", "shelter": "yes"}}, {"type": "node", "id": 3731560693, "lat": 43.6919022, "lon": 3.1666014, "tags": {"bench": "yes", "bus": "yes", "highway": "bus_stop", "name": "La Poste", "network": "H\u00e9rault Transport", "network:wikidata": "Q3145008", "operator": "H\u00e9rault Transport", "public_transport": "platform", "shelter": "yes"}}, {"type": "node", "id": 3731576216, "lat": 43.6891268, "lon": 3.1701781, "tags": {"bench": "yes", "bus": "yes", "highway": "bus_stop", "name": "Cit\u00e9 HLM", "network": "H\u00e9rault Transport", "network:wikidata": "Q3145008", "operator": "H\u00e9rault Transport", "public_transport": "platform", "shelter": "yes"}}, {"type": "node", "id": 3731576217, "lat": 43.6863249, "lon": 3.1705505, "tags": {"bench": "yes", "bus": "yes", "highway": "bus_stop", "name": "Le Maroc", "network": "H\u00e9rault Transport", "network:wikidata": "Q3145008", "operator": "H\u00e9rault Transport", "public_transport": "platform", "shelter": "yes"}}, {"type": "node", "id": 3731576218, "lat": 43.6835534, "lon": 3.1697914, "tags": {"bench": "yes", "bus": "yes", "highway": "bus_stop", "name": "La Mine", "network": "H\u00e9rault Transport", "network:wikidata": "Q3145008", "operator": "H\u00e9rault Transport", "public_transport": "platform", "shelter": "yes"}}, {"type": "node", "id": 3782309114, "lat": 43.9027974, "lon": 3.5162145, "tags": {"bench": "no", "bus": "yes", "covered": "no", "highway": "bus_stop", "name": "Belv\u00e9d\u00e8re", "network": "liO30", "operator": "Edgard", "public_transport": "platform", "shelter": "no"}}, {"type": "node", "id": 3783500961, "lat": 43.8719578, "lon": 3.6034507, "tags": {"bench": "yes", "highway": "bus_stop", "network": "H\u00e9rault Transport", "operator": "H\u00e9rault Transport", "shelter": "yes"}}, {"type": "node", "id": 3808217427, "lat": 43.7882049, "lon": 3.7324945, "tags": {"bench": "no", "highway": "bus_stop", "mapillary": "3918249111544838", "name": "Route de Viols", "public_transport": "platform", "route_ref": "608", "shelter": "no", "wheelchair": "no"}}, {"type": "node", "id": 3808235097, "lat": 43.7860116, "lon": 3.7298259, "tags": {"bench": "no", "bin": "no", "highway": "bus_stop", "mapillary": "473360740670072", "name": "Les Garrigues", "public_transport": "platform", "route_ref": "608", "shelter": "no", "tactile_paving": "yes", "wheelchair": "yes"}}, {"type": "node", "id": 3810430426, "lat": 43.7954068, "lon": 3.7336431, "tags": {"bench": "yes", "bus": "yes", "highway": "bus_stop", "mapillary": "323412705837043", "name": "Les Ch\u00eanes Blancs", "public_transport": "platform", "route_ref": "608", "shelter": "yes", "tactile_paving": "yes", "wheelchair": "yes"}}, {"type": "node", "id": 3831838757, "lat": 43.615527, "lon": 3.8082658, "tags": {"bench": "yes", "bus": "yes", "highway": "bus_stop", "name": "Lavandes", "public_transport": "platform", "shelter": "yes"}}, {"type": "node", "id": 3867755784, "lat": 43.613721, "lon": 3.7986919, "tags": {"highway": "bus_stop", "shelter": "yes"}}, {"type": "node", "id": 3869147964, "lat": 43.6143245, "lon": 3.8009905, "tags": {"bench": "no", "bin": "yes", "bus": "yes", "check_date:shelter": "2023-01-12", "highway": "bus_stop", "name": "Le Labournas", "network": "TaM", "network:wikidata": "Q3537922", "operator": "Transports de l'agglom\u00e9ration de Montpellier", "public_transport": "platform", "shelter": "no", "tactile_paving": "yes"}}, {"type": "node", "id": 3869147965, "lat": 43.614517, "lon": 3.8006788, "tags": {"bench": "no", "bin": "no", "bus": "yes", "check_date:shelter": "2023-01-12", "highway": "bus_stop", "name": "Le Labournas", "network": "TaM", "network:wikidata": "Q3537922", "operator": "Transports de l'agglom\u00e9ration de Montpellier", "public_transport": "platform", "shelter": "no", "tactile_paving": "yes"}}, {"type": "node", "id": 3906164514, "lat": 43.7789552, "lon": 3.4164534, "tags": {"highway": "bus_stop"}}, {"type": "node", "id": 3906164751, "lat": 43.7930941, "lon": 3.4256459, "tags": {"bench": "no", "highway": "bus_stop", "shelter": "no"}}, {"type": "node", "id": 3906164760, "lat": 43.7932962, "lon": 3.4257596, "tags": {"bench": "yes", "highway": "bus_stop", "shelter": "yes"}}, {"type": "node", "id": 3969380862, "lat": 43.7446937, "lon": 3.7088683, "tags": {"highway": "bus_stop", "name": "Les Moles", "shelter": "yes"}}, {"type": "node", "id": 4004798169, "lat": 43.7438674, "lon": 3.7047836, "tags": {"bench": "yes", "bus": "yes", "highway": "bus_stop", "mapillary": "304836691135708", "name": "Avenue du Castellas", "public_transport": "platform", "route_ref": "608", "shelter": "no", "wheelchair": "no"}}, {"type": "node", "id": 4004798176, "lat": 43.7450516, "lon": 3.7073355, "tags": {"bench": "no", "bus": "yes", "highway": "bus_stop", "mapillary": "838854873424934", "name": "Triol", "public_transport": "platform", "route_ref": "608", "shelter": "no", "tactile_paving": "yes", "wheelchair": "yes"}}, {"type": "node", "id": 4009714461, "lat": 43.5646416, "lon": 3.5084467, "tags": {"bench": "yes", "bus": "yes", "highway": "bus_stop", "name": "Puilacher - Route de Plaissan", "network": "H\u00e9rault Transport", "network:wikidata": "Q3145008", "public_transport": "platform", "shelter": "yes"}}, {"type": "node", "id": 4018779247, "lat": 43.844782, "lon": 3.2710616, "tags": {"bench": "no", "highway": "bus_stop", "name": "Les Rives", "shelter": "no"}}, {"type": "node", "id": 4018779253, "lat": 43.8357093, "lon": 3.3007925, "tags": {"highway": "bus_stop", "name": "Saint-F\u00e9lix-de-l'H\u00e9ras"}}, {"type": "node", "id": 4022270834, "lat": 43.5671787, "lon": 3.5071765, "tags": {"bench": "yes", "bus": "yes", "highway": "bus_stop", "name": "Puilacher - Mairie", "network": "H\u00e9rault Transport", "network:wikidata": "Q3145008", "public_transport": "platform", "shelter": "yes"}}, {"type": "node", "id": 4121383829, "lat": 43.6036705, "lon": 3.438047, "tags": {"bench": "no", "bus": "yes", "highway": "bus_stop", "name": "N\u00e9bian - Coop\u00e9rative", "network": "H\u00e9rault Transport", "network:wikidata": "Q3145008", "public_transport": "platform", "shelter": "no"}}, {"type": "node", "id": 4223400122, "lat": 43.5352335, "lon": 3.4277592, "tags": {"bench": "yes", "bus": "yes", "covered": "yes", "description": "Transport \u00e0 la demande", "highway": "bus_stop", "name": "Clairette", "public_transport": "platform", "shelter": "yes", "website": "https://www.capbus.fr/"}}, {"type": "node", "id": 4223400123, "lat": 43.5352499, "lon": 3.4276576, "tags": {"bench": "no", "bus": "yes", "covered": "no", "description": "Transport \u00e0 la demande", "highway": "bus_stop", "name": "Clairette", "public_transport": "platform", "shelter": "no", "website": "https://www.capbus.fr/"}}, {"type": "node", "id": 4254608141, "lat": 43.6126387, "lon": 3.7760467, "tags": {"bench": "yes", "bus": "yes", "highway": "bus_stop", "name": "Bel Horizon", "network": "TaM", "network:wikidata": "Q3537922", "operator": "Transports de l'agglom\u00e9ration de Montpellier", "public_transport": "platform", "shelter": "yes"}}, {"type": "node", "id": 4254608142, "lat": 43.6126003, "lon": 3.7761902, "tags": {"bench": "yes", "bin": "yes", "bus": "yes", "highway": "bus_stop", "name": "Bel Horizon", "network": "TaM", "network:wikidata": "Q3537922", "operator": "Transports de l'agglom\u00e9ration de Montpellier", "public_transport": "platform", "shelter": "yes"}}, {"type": "node", "id": 4254608143, "lat": 43.6083366, "lon": 3.7634175, "tags": {"bench": "no", "bus": "yes", "highway": "bus_stop", "name": "Chemin des Pins", "network": "TaM", "network:wikidata": "Q3537922", "operator": "Transports de l'agglom\u00e9ration de Montpellier", "public_transport": "platform", "shelter": "no"}}, {"type": "node", "id": 4254608144, "lat": 43.6029081, "lon": 3.7392461, "tags": {"bus": "yes", "highway": "bus_stop", "name": "Clos des Pins", "network": "TaM", "network:wikidata": "Q3537922", "operator": "Transports de l'agglom\u00e9ration de Montpellier", "public_transport": "platform"}}, {"type": "node", "id": 4254608148, "lat": 43.614565, "lon": 3.7760362, "tags": {"bench": "no", "bus": "yes", "highway": "bus_stop", "name": "Le R\u00e9servoir", "public_transport": "stop_position", "shelter": "no"}}, {"type": "node", "id": 4296609605, "lat": 43.7079799, "lon": 3.5581712, "tags": {"bench": "yes", "bus": "yes", "highway": "bus_stop", "name": "Pont du Diable", "network": "H\u00e9rault Transport", "network:wikidata": "Q3145008", "operator": "H\u00e9rault Transport", "public_transport": "platform", "shelter": "no"}}, {"type": "node", "id": 4361147089, "lat": 43.8883, "lon": 3.6241907, "tags": {"highway": "bus_stop", "name": "Mairie", "network": "H\u00e9rault Transport", "note": "Scolaire uniquement", "operator": "H\u00e9rault Transport", "shelter": "yes"}}, {"type": "node", "id": 4367557224, "lat": 43.6544419, "lon": 3.7263059, "tags": {"bench": "yes", "bus": "yes", "highway": "bus_stop", "name": "Bois de Ch\u00eanes", "network": "H\u00e9rault Transport", "network:wikidata": "Q3145008", "public_transport": "platform", "shelter": "yes"}}, {"type": "node", "id": 4375213897, "lat": 43.6100135, "lon": 3.4025165, "tags": {"bench": "yes", "bus": "yes", "highway": "bus_stop", "name": "Villeneuvette - Embranchement D 908", "network": "H\u00e9rault Transport", "network:wikidata": "Q3145008", "operator": "H\u00e9rault Transport", "public_transport": "platform", "shelter": "yes", "short_name": "Villeneuvette - Emb. D 908"}}, {"type": "node", "id": 4375213907, "lat": 43.6256215, "lon": 3.4221141, "tags": {"bench": "no", "bin": "no", "bus": "yes", "highway": "bus_stop", "name": "Route de B\u00e9darieux", "network": "H\u00e9rault Transport", "network:wikidata": "Q3145008", "operator": "H\u00e9rault Transport", "public_transport": "platform", "shelter": "no", "tactile_paving": "no"}}, {"type": "node", "id": 4375213908, "lat": 43.624738, "lon": 3.4202762, "tags": {"bench": "no", "bin": "no", "bus": "yes", "departures_board": "timetable", "highway": "bus_stop", "name": "Route de B\u00e9darieux", "network": "H\u00e9rault Transport", "network:wikidata": "Q3145008", "operator": "H\u00e9rault Transport", "public_transport": "platform", "shelter": "no", "tactile_paving": "no"}}, {"type": "node", "id": 4375213909, "lat": 43.6240138, "lon": 3.4169969, "tags": {"bench": "no", "bin": "no", "bus": "yes", "departures_board": "timetable", "highway": "bus_stop", "name": "B\u00e9zerac", "network": "H\u00e9rault Transport", "network:wikidata": "Q3145008", "operator": "H\u00e9rault Transport", "public_transport": "platform", "shelter": "no", "tactile_paving": "no"}}, {"type": "node", "id": 4375213910, "lat": 43.6239157, "lon": 3.4170952, "tags": {"bench": "no", "bin": "no", "bus": "yes", "departures_board": "timetable", "highway": "bus_stop", "name": "B\u00e9zerac", "network": "H\u00e9rault Transport", "network:wikidata": "Q3145008", "operator": "H\u00e9rault Transport", "public_transport": "platform", "shelter": "no", "tactile_paving": "no"}}, {"type": "node", "id": 4466482089, "lat": 43.6472127, "lon": 3.7027935, "tags": {"bench": "yes", "bus": "yes", "highway": "bus_stop", "name": "Montarnaud - Lou Pradas", "network": "H\u00e9rault Transport", "network:wikidata": "Q3145008", "old_name": "Abribus ligne 117", "public_transport": "platform", "shelter": "yes"}}, {"type": "node", "id": 4466482091, "lat": 43.6468394, "lon": 3.6983133, "tags": {"bench": "no", "bus": "yes", "highway": "bus_stop", "name": "Montarnaud - Lotissement Pascal", "network": "H\u00e9rault Transport", "network:wikidata": "Q3145008", "public_transport": "platform", "shelter": "no"}}, {"type": "node", "id": 4535750186, "lat": 43.7333097, "lon": 3.3151281, "tags": {"bench": "no", "covered": "no", "highway": "bus_stop", "name": "Parc Municipal", "network": "H\u00e9rault Transport", "operator": "H\u00e9rault Transport"}}, {"type": "node", "id": 4535750187, "lat": 43.73286, "lon": 3.3194208, "tags": {"bench": "yes", "bin": "yes", "bus": "yes", "highway": "bus_stop", "name": "Gare Routi\u00e8re", "passenger_information_display": "yes", "public_transport": "platform", "shelter": "yes"}}, {"type": "node", "id": 4535754490, "lat": 43.7296429, "lon": 3.3243999, "tags": {"bench": "yes", "bin": "yes", "bus": "yes", "highway": "bus_stop", "name": "Grand Soleil", "passenger_information_display": "yes", "public_transport": "platform", "shelter": "yes"}}, {"type": "node", "id": 4535754492, "lat": 43.7381024, "lon": 3.3250188, "tags": {"bench": "no", "bus": "yes", "highway": "bus_stop", "name": "R\u00e9publique", "network": "H\u00e9rault Transport", "network:wikidata": "Q3145008", "operator": "H\u00e9rault Transport", "public_transport": "platform", "shelter": "no"}}, {"type": "node", "id": 4535754493, "lat": 43.7365196, "lon": 3.3254554, "tags": {"bench": "yes", "bus": "yes", "highway": "bus_stop", "name": "Fumel", "public_transport": "platform", "shelter": "yes"}}, {"type": "node", "id": 4535871216, "lat": 43.6658465, "lon": 3.4381492, "tags": {"bench": "yes", "bus": "yes", "highway": "bus_stop", "name": "Rabieux", "public_transport": "platform", "shelter": "yes"}}, {"type": "node", "id": 4642383024, "lat": 43.6821841, "lon": 3.4103377, "tags": {"bus": "yes", "highway": "bus_stop", "network": "H\u00e9rault Transport", "network:wikidata": "Q3145008", "operator": "H\u00e9rault Transport", "public_transport": "platform", "shelter": "no"}}, {"type": "node", "id": 4642383025, "lat": 43.6848244, "lon": 3.4117376, "tags": {"highway": "bus_stop", "network": "H\u00e9rault Transport", "operator": "H\u00e9rault Transport", "shelter": "no"}}, {"type": "node", "id": 4642383026, "lat": 43.6971523, "lon": 3.4050603, "tags": {"highway": "bus_stop", "network": "H\u00e9rault Transport", "operator": "H\u00e9rault Transport", "shelter": "no"}}, {"type": "node", "id": 4690329707, "lat": 43.6335449, "lon": 3.440649, "tags": {"bench": "yes", "bin": "yes", "bus": "yes", "check_date:shelter": "2025-03-26", "departures_board": "timetable", "highway": "bus_stop", "lit": "no", "name": "Rond-Point de l'Europe", "public_transport": "platform", "shelter": "yes", "tactile_paving": "no"}}, {"type": "node", "id": 5699311822, "lat": 43.5953211, "lon": 3.5208312, "tags": {"bench": "no", "bus": "yes", "highway": "bus_stop", "name": "Les Glycines", "network": "H\u00e9rault Transport", "network:wikidata": "Q3145008", "public_transport": "platform", "shelter": "no"}}, {"type": "node", "id": 5718107009, "lat": 43.6623437, "lon": 3.4599335, "tags": {"bench": "no", "bus": "yes", "highway": "bus_stop", "name": "Saint-F\u00e9lix-de-Lodez - Centre", "passenger_information_display": "yes", "public_transport": "platform", "ref": "3412076", "shelter": "no"}}, {"type": "node", "id": 5718107010, "lat": 43.6619728, "lon": 3.4606264, "tags": {"bench": "yes", "bus": "yes", "highway": "bus_stop", "name": "Saint-F\u00e9lix-de-Lodez - Centre", "public_transport": "platform", "shelter": "yes"}}, {"type": "node", "id": 6150476941, "lat": 43.7661421, "lon": 3.3396473, "tags": {"bench": "yes", "highway": "bus_stop", "name": "Soub\u00e8s - Cimeti\u00e8re", "shelter": "yes"}}, {"type": "node", "id": 6394597404, "lat": 43.7517338, "lon": 3.726342, "tags": {"bench": "no", "highway": "bus_stop", "mapillary": "257173766164180", "name": "Mairie", "public_transport": "platform", "route_ref": "608", "shelter": "no", "wheelchair": "no"}}, {"type": "node", "id": 6394619106, "lat": 43.7510509, "lon": 3.7215529, "tags": {"bench": "no", "highway": "bus_stop", "mapillary": "784111595417870", "name": "Peyres-Canes", "public_transport": "platform", "route_ref": "608", "shelter": "no", "tactile_paving": "yes", "wheelchair": "yes"}}, {"type": "node", "id": 6415987889, "lat": 43.7827976, "lon": 3.7269333, "tags": {"bench": "no", "bus": "yes", "highway": "bus_stop", "mapillary": "267500841744766", "name": "Bois de Massargues", "public_transport": "platform", "route_ref": "608", "shelter": "no", "wheelchair": "no"}}, {"type": "node", "id": 6416962322, "lat": 43.9923581, "lon": 3.6287244, "tags": {"bench": "no", "bus": "yes", "highway": "bus_stop", "name": "Tessan", "public_transport": "platform", "route_ref": "608", "shelter": "no", "wheelchair": "no"}}, {"type": "node", "id": 6416962324, "lat": 43.992493, "lon": 3.6286691, "tags": {"bench": "no", "bus": "yes", "highway": "bus_stop", "name": "Tessan", "public_transport": "platform", "route_ref": "608", "shelter": "no", "wheelchair": "no"}}, {"type": "node", "id": 6416994940, "lat": 43.9858017, "lon": 3.6036015, "tags": {"bench": "no", "bus": "yes", "highway": "bus_stop", "name": "La Prairie", "public_transport": "platform", "route_ref": "608", "shelter": "no", "wheelchair": "no"}}, {"type": "node", "id": 6416994942, "lat": 43.9859503, "lon": 3.6037248, "tags": {"bench": "yes", "bus": "yes", "highway": "bus_stop", "name": "La Prairie", "public_transport": "platform", "route_ref": "608", "shelter": "yes", "wheelchair": "no"}}, {"type": "node", "id": 6423677834, "lat": 43.7830943, "lon": 3.7270555, "tags": {"bench": "no", "bin": "no", "highway": "bus_stop", "mapillary": "328530345290891", "name": "Bois de Massargues", "public_transport": "platform", "route_ref": "608", "shelter": "no", "wheelchair": "no"}}, {"type": "node", "id": 6488340714, "lat": 43.6492905, "lon": 3.6993649, "tags": {"bench": "no", "bus": "yes", "highway": "bus_stop", "name": "Montarnaud - Centre", "network": "H\u00e9rault Transport", "network:wikidata": "Q3145008", "public_transport": "platform", "shelter": "no"}}, {"type": "node", "id": 6622335961, "lat": 43.6437575, "lon": 3.7367025, "tags": {"bench": "no", "bus": "yes", "highway": "bus_stop", "name": "\u00c9coparc Bel Air", "network": "H\u00e9rault Transport", "network:wikidata": "Q3145008", "public_transport": "platform", "shelter": "no"}}, {"type": "node", "id": 6780442921, "lat": 43.6219343, "lon": 3.7999807, "tags": {"bench": "no", "bin": "no", "bus": "yes", "highway": "bus_stop", "name": "Les Thermes", "network": "TaM", "network:wikidata": "Q3537922", "operator": "Transports de l'agglom\u00e9ration de Montpellier", "public_transport": "platform", "shelter": "no", "source": "http://data.montpellier3m.fr/dataset/offre-de-transport-tam-en-gtfs", "tactile_paving": "yes"}}, {"type": "node", "id": 6780442925, "lat": 43.6196072, "lon": 3.8040861, "tags": {"bench": "no", "bin": "no", "bus": "yes", "highway": "bus_stop", "lit": "no", "name": "Saturne", "network": "TaM", "network:wikidata": "Q3537922", "operator": "Transports de l'agglom\u00e9ration de Montpellier", "public_transport": "platform", "ref": "5864", "shelter": "no", "source": "http://data.montpellier3m.fr/dataset/offre-de-transport-tam-en-gtfs", "tactile_paving": "yes"}}, {"type": "node", "id": 6780442926, "lat": 43.6195698, "lon": 3.8039602, "tags": {"bench": "no", "bin": "no", "bus": "yes", "highway": "bus_stop", "lit": "no", "name": "Saturne", "network": "TaM", "network:wikidata": "Q3537922", "operator": "Transports de l'agglom\u00e9ration de Montpellier", "public_transport": "platform", "ref": "25237", "shelter": "no", "source": "http://data.montpellier3m.fr/dataset/offre-de-transport-tam-en-gtfs", "tactile_paving": "yes"}}, {"type": "node", "id": 6780442979, "lat": 43.6138299, "lon": 3.8104349, "tags": {"bench": "no", "bin": "no", "bus": "yes", "check_date:shelter": "2021-11-13", "highway": "bus_stop", "lit": "no", "name": "All\u00e9e de l'Europe", "network": "TaM", "network:wikidata": "Q3537922", "operator": "Transports de l'agglom\u00e9ration de Montpellier", "public_transport": "platform", "ref": "25228", "shelter": "no", "tactile_paving": "yes"}}, {"type": "node", "id": 6780442980, "lat": 43.6139695, "lon": 3.810337, "tags": {"bench": "no", "bin": "no", "bus": "yes", "check_date:shelter": "2021-11-13", "highway": "bus_stop", "lit": "no", "name": "All\u00e9e de l'Europe", "network": "TaM", "network:wikidata": "Q3537922", "operator": "Transports de l'agglom\u00e9ration de Montpellier", "public_transport": "platform", "ref": "5304", "shelter": "no", "tactile_paving": "yes"}}, {"type": "node", "id": 6780485199, "lat": 43.6138622, "lon": 3.8068445, "tags": {"bench": "no", "bus": "yes", "check_date:shelter": "2021-11-13", "highway": "bus_stop", "name": "H\u00f4tel de Ville", "network": "TaM", "network:wikidata": "Q3537922", "operator": "Transports de l'agglom\u00e9ration de Montpellier", "public_transport": "platform", "ref": "25129", "shelter": "no"}}, {"type": "node", "id": 6780485225, "lat": 43.6167093, "lon": 3.7971752, "tags": {"bench": "no", "bin": "no", "bus": "yes", "highway": "bus_stop", "name": "La Bergerie", "network": "TaM", "network:wikidata": "Q3537922", "operator": "Transports de l'agglom\u00e9ration de Montpellier", "public_transport": "platform", "ref": "25233", "shelter": "no", "source": "http://data.montpellier3m.fr/dataset/offre-de-transport-tam-en-gtfs", "tactile_paving": "yes"}}, {"type": "node", "id": 6780485226, "lat": 43.6168146, "lon": 3.7971472, "tags": {"bench": "no", "bin": "no", "bus": "yes", "highway": "bus_stop", "name": "La Bergerie", "network": "TaM", "network:wikidata": "Q3537922", "operator": "Transports de l'agglom\u00e9ration de Montpellier", "public_transport": "platform", "ref": "25133", "shelter": "no", "source": "http://data.montpellier3m.fr/dataset/offre-de-transport-tam-en-gtfs", "tactile_paving": "yes"}}, {"type": "node", "id": 6780485229, "lat": 43.618608, "lon": 3.7914865, "tags": {"bench": "yes", "bin": "no", "bus": "yes", "highway": "bus_stop", "name": "Terres du Sud", "network": "TaM", "network:wikidata": "Q3537922", "operator": "Transports de l'agglom\u00e9ration de Montpellier", "public_transport": "platform", "ref": "25231", "shelter": "yes", "source": "http://data.montpellier3m.fr/dataset/offre-de-transport-tam-en-gtfs"}}, {"type": "node", "id": 6780485230, "lat": 43.619605, "lon": 3.7910006, "tags": {"bench": "no", "bin": "no", "bus": "yes", "fixme": "position exacte \u00e0 d\u00e9terminer", "highway": "bus_stop", "name": "Terres du Sud", "network": "TaM", "network:wikidata": "Q3537922", "operator": "Transports de l'agglom\u00e9ration de Montpellier", "public_transport": "platform", "ref": "25225", "shelter": "no", "source": "http://data.montpellier3m.fr/dataset/offre-de-transport-tam-en-gtfs"}}, {"type": "node", "id": 6780485233, "lat": 43.6208689, "lon": 3.7878502, "tags": {"bench": "no", "bus": "yes", "highway": "bus_stop", "name": "Courpouyran", "network": "TaM", "network:wikidata": "Q3537922", "operator": "Transports de l'agglom\u00e9ration de Montpellier", "public_transport": "platform", "ref": "25223", "shelter": "no", "source": "http://data.montpellier3m.fr/dataset/offre-de-transport-tam-en-gtfs"}}, {"type": "node", "id": 6780485234, "lat": 43.6207394, "lon": 3.7878907, "tags": {"bench": "yes", "bus": "yes", "highway": "bus_stop", "name": "Courpouyran", "network": "TaM", "network:wikidata": "Q3537922", "operator": "Transports de l'agglom\u00e9ration de Montpellier", "public_transport": "platform", "ref": "25123", "shelter": "yes", "source": "http://data.montpellier3m.fr/dataset/offre-de-transport-tam-en-gtfs"}}, {"type": "node", "id": 6782854260, "lat": 43.6088197, "lon": 3.7958769, "tags": {"bus": "yes", "highway": "bus_stop", "name": "La Regnague", "network": "TaM", "network:wikidata": "Q3537922", "operator": "Transports de l'agglom\u00e9ration de Montpellier", "public_transport": "platform", "shelter": "yes"}}, {"type": "node", "id": 6782854261, "lat": 43.6089995, "lon": 3.7972365, "tags": {"bench": "no", "bus": "yes", "highway": "bus_stop", "name": "La Regnague", "network": "TaM", "network:wikidata": "Q3537922", "public_transport": "platform", "shelter": "no", "source": "http://data.montpellier3m.fr/dataset/offre-de-transport-tam-en-gtfs"}}, {"type": "node", "id": 6782854263, "lat": 43.6090258, "lon": 3.7886514, "tags": {"bench": "yes", "bus": "yes", "highway": "bus_stop", "name": "Gare", "network": "TaM", "network:wikidata": "Q3537922", "public_transport": "platform", "ref": "40101", "shelter": "yes"}}, {"type": "node", "id": 6782854265, "lat": 43.6105809, "lon": 3.7842791, "tags": {"bench": "yes", "bin": "yes", "bus": "yes", "highway": "bus_stop", "lit": "yes", "name": "Le Saint-Georges", "network": "TaM", "network:wikidata": "Q3537922", "public_transport": "platform", "ref": "5740", "shelter": "yes", "tactile_paving": "yes"}}, {"type": "node", "id": 6782854267, "lat": 43.6097085, "lon": 3.7828878, "tags": {"bench": "yes", "bin": "yes", "bus": "yes", "highway": "bus_stop", "name": "Les Jardins", "network": "TaM", "network:wikidata": "Q3537922", "public_transport": "platform", "ref": "40111", "shelter": "no"}}, {"type": "node", "id": 6782854269, "lat": 43.6074451, "lon": 3.7853117, "tags": {"bench": "no", "bus": "yes", "highway": "bus_stop", "name": "Stade (Saint-Georges-d'Orques)", "network": "TaM", "network:wikidata": "Q3537922", "operator": "Transports de l'agglom\u00e9ration de Montpellier", "public_transport": "platform", "shelter": "no"}}, {"type": "node", "id": 6782854271, "lat": 43.6129588, "lon": 3.7862082, "tags": {"bench": "no", "bus": "yes", "highway": "bus_stop", "name": "Les Alicantes", "network": "TaM", "network:wikidata": "Q3537922", "operator": "Transports de l'agglom\u00e9ration de Montpellier", "public_transport": "platform", "ref": "42180", "shelter": "no"}}, {"type": "node", "id": 6782854272, "lat": 43.6130264, "lon": 3.786007, "tags": {"bench": "no", "bus": "yes", "highway": "bus_stop", "name": "Les Alicantes", "network": "TaM", "network:wikidata": "Q3537922", "public_transport": "platform", "ref": "42280", "shelter": "no"}}, {"type": "node", "id": 6782854275, "lat": 43.6147717, "lon": 3.7765001, "tags": {"bench": "no", "bus": "yes", "highway": "bus_stop", "name": "Le R\u00e9servoir", "network": "TaM", "network:wikidata": "Q3537922", "public_transport": "platform", "shelter": "no", "source": "http://data.montpellier3m.fr/dataset/offre-de-transport-tam-en-gtfs"}}, {"type": "node", "id": 6782854276, "lat": 43.6148266, "lon": 3.7763017, "tags": {"bench": "no", "bus": "yes", "highway": "bus_stop", "name": "Le R\u00e9servoir", "network": "TaM", "network:wikidata": "Q3537922", "operator": "Transports de l'agglom\u00e9ration de Montpellier", "public_transport": "platform", "shelter": "no", "source": "http://data.montpellier3m.fr/dataset/offre-de-transport-tam-en-gtfs"}}, {"type": "node", "id": 6782854277, "lat": 43.6252456, "lon": 3.7693037, "tags": {"bench": "no", "bus": "yes", "highway": "bus_stop", "name": "Avenue Justin Bec", "network": "TaM", "network:wikidata": "Q3537922", "public_transport": "platform", "ref": "40207", "shelter": "no"}}, {"type": "node", "id": 6782854278, "lat": 43.6259889, "lon": 3.7684275, "tags": {"bus": "yes", "highway": "bus_stop", "name": "Avenue Justin Bec", "network": "TaM", "network:wikidata": "Q3537922", "operator": "Transports de l'agglom\u00e9ration de Montpellier", "public_transport": "platform", "ref": "40107"}}, {"type": "node", "id": 6782854280, "lat": 43.6292985, "lon": 3.7691677, "tags": {"bench": "yes", "bus": "yes", "highway": "bus_stop", "name": "Zone Artisanale", "network": "TaM", "network:wikidata": "Q3537922", "public_transport": "platform", "ref": "40108", "shelter": "yes"}}, {"type": "node", "id": 6785115951, "lat": 43.6035505, "lon": 3.7396216, "tags": {"bus": "yes", "highway": "bus_stop", "name": "Clos des Pins", "network": "TaM", "network:wikidata": "Q3537922", "operator": "Transports de l'agglom\u00e9ration de Montpellier", "public_transport": "platform"}}, {"type": "node", "id": 6785115953, "lat": 43.6062444, "lon": 3.7363534, "tags": {"bus": "yes", "highway": "bus_stop", "name": "Fontaine Romaine", "network": "TaM", "network:wikidata": "Q3537922", "operator": "Transports de l'agglom\u00e9ration de Montpellier", "public_transport": "platform", "shelter": "yes", "tactile_paving": "no"}}, {"type": "node", "id": 6785115956, "lat": 43.6084992, "lon": 3.7380304, "tags": {"bench": "no", "bus": "yes", "highway": "bus_stop", "name": "Mas de Garenc", "network": "TaM", "network:wikidata": "Q3537922", "operator": "Transports de l'agglom\u00e9ration de Montpellier", "public_transport": "platform", "shelter": "no"}}, {"type": "node", "id": 6785115958, "lat": 43.6077067, "lon": 3.741211, "tags": {"bench": "yes", "bus": "yes", "highway": "bus_stop", "name": "Bellevue", "network": "TaM", "network:wikidata": "Q3537922", "operator": "Transports de l'agglom\u00e9ration de Montpellier", "public_transport": "platform", "shelter": "yes"}}, {"type": "node", "id": 6785115961, "lat": 43.6060652, "lon": 3.7431648, "tags": {"bench": "yes", "bus": "yes", "highway": "bus_stop", "name": "Les Clauzes", "network": "TaM", "network:wikidata": "Q3537922", "operator": "Transports de l'agglom\u00e9ration de Montpellier", "public_transport": "platform", "shelter": "yes"}}, {"type": "node", "id": 6785115964, "lat": 43.6083749, "lon": 3.7630742, "tags": {"bench": "no", "bus": "yes", "highway": "bus_stop", "name": "Chemin des Pins", "network": "TaM", "network:wikidata": "Q3537922", "operator": "Transports de l'agglom\u00e9ration de Montpellier", "public_transport": "platform", "shelter": "no"}}, {"type": "node", "id": 6789294958, "lat": 43.6496554, "lon": 3.7934697, "tags": {"bench": "yes", "bus": "yes", "highway": "bus_stop", "name": "Pierre Doumergue", "network": "TaM", "network:wikidata": "Q3537922", "operator": "Transports de l'agglom\u00e9ration de Montpellier", "public_transport": "platform", "shelter": "yes"}}, {"type": "node", "id": 6789294960, "lat": 43.6494652, "lon": 3.7944008, "tags": {"bench": "no", "bus": "yes", "highway": "bus_stop", "name": "Pierre Doumergue", "network": "TaM", "network:wikidata": "Q3537922", "operator": "Transports de l'agglom\u00e9ration de Montpellier", "public_transport": "platform", "shelter": "no"}}, {"type": "node", "id": 7195639023, "lat": 43.6008276, "lon": 3.7346524, "tags": {"bench": "yes", "bin": "yes", "bus": "yes", "highway": "bus_stop", "name": "La Rouvi\u00e8re Longue", "network": "TaM", "network:wikidata": "Q3537922", "public_transport": "platform", "shelter": "yes"}}, {"type": "node", "id": 7297829161, "lat": 43.9659726, "lon": 3.4388035, "tags": {"bench": "yes", "bus": "yes", "highway": "bus_stop", "name": "Alzon - Place", "public_transport": "platform", "shelter": "no"}}, {"type": "node", "id": 7297887297, "lat": 43.9528968, "lon": 3.4202051, "tags": {"bench": "no", "bus": "yes", "highway": "bus_stop", "name": "Village", "public_transport": "platform", "shelter": "no"}}, {"type": "node", "id": 7297901796, "lat": 43.9808978, "lon": 3.4849712, "tags": {"bench": "no", "bus": "yes", "highway": "bus_stop", "name": "La Brugui\u00e8re", "public_transport": "platform", "shelter": "no"}}, {"type": "node", "id": 7603167230, "lat": 43.6248391, "lon": 3.6442949, "tags": {"bench": "no", "bus": "yes", "covered": "no", "highway": "bus_stop", "name": "Mas Alhen D 619", "public_transport": "platform", "shelter": "no", "tactile_paving": "yes"}}, {"type": "node", "id": 7605346706, "lat": 43.8446478, "lon": 3.2706186, "tags": {"bench": "yes", "highway": "bus_stop", "name": "Les Rives", "shelter": "yes"}}, {"type": "node", "id": 7607262003, "lat": 43.9726173, "lon": 3.5987306, "tags": {"bench": "yes", "bus": "yes", "highway": "bus_stop", "name": "Le Temple", "public_transport": "platform", "shelter": "yes"}}, {"type": "node", "id": 7699847802, "lat": 43.7080615, "lon": 3.1944943, "tags": {"bus": "yes", "highway": "bus_stop", "public_transport": "platform"}}, {"type": "node", "id": 7699847803, "lat": 43.7072591, "lon": 3.191932, "tags": {"bus": "yes", "highway": "bus_stop", "name": "Le Bou\u00efs", "public_transport": "platform"}}, {"type": "node", "id": 7798400262, "lat": 43.6275332, "lon": 3.6866701, "tags": {"bench": "no", "bus": "yes", "highway": "bus_stop", "name": "Bois d'Arnaud", "public_transport": "platform", "shelter": "no"}}, {"type": "node", "id": 7798400263, "lat": 43.6273856, "lon": 3.6866976, "tags": {"bench": "yes", "bus": "yes", "highway": "bus_stop", "name": "Bois d'Arnaud", "public_transport": "platform", "shelter": "yes"}}, {"type": "node", "id": 8306871956, "lat": 43.9898024, "lon": 3.6023542, "tags": {"bus": "yes", "description": "R\u00e9server aux scolaires", "highway": "bus_stop", "name": "Coll\u00e8ge et Lyc\u00e9e Andr\u00e9 Chamson", "public_transport": "platform", "shelter": "yes"}}, {"type": "node", "id": 8328405278, "lat": 43.9737623, "lon": 3.5812921, "tags": {"bench": "no", "bus": "yes", "highway": "bus_stop", "name": "Rond-Point Tourette", "public_transport": "platform", "shelter": "yes"}}, {"type": "node", "id": 8331101434, "lat": 43.9793911, "lon": 3.5806949, "tags": {"bus": "yes", "highway": "bus_stop", "name": "Pompette", "public_transport": "platform", "shelter": "yes"}}, {"type": "node", "id": 8350076164, "lat": 43.9756981, "lon": 3.5803323, "tags": {"bus": "yes", "highway": "bus_stop", "name": "Maison de Repos", "public_transport": "platform", "shelter": "no"}}, {"type": "node", "id": 8350076165, "lat": 43.9757158, "lon": 3.5804332, "tags": {"bus": "yes", "highway": "bus_stop", "name": "Maison de Repos", "public_transport": "platform", "shelter": "no"}}, {"type": "node", "id": 8350076169, "lat": 43.9736758, "lon": 3.5811115, "tags": {"bus": "yes", "highway": "bus_stop", "name": "Rond-Point Tourette", "public_transport": "platform", "shelter": "no"}}, {"type": "node", "id": 8350076204, "lat": 43.9753804, "lon": 3.5746723, "tags": {"bus": "yes", "highway": "bus_stop", "name": "Le Haut", "public_transport": "platform"}}, {"type": "node", "id": 8350076206, "lat": 43.9765658, "lon": 3.5755856, "tags": {"bench": "yes", "bus": "yes", "highway": "bus_stop", "name": "Moli\u00e8res - Les Lavandes", "public_transport": "platform", "shelter": "yes"}}, {"type": "node", "id": 8350166121, "lat": 43.9736911, "lon": 3.5876057, "tags": {"bus": "yes", "highway": "bus_stop", "name": "La Plaine", "public_transport": "platform", "shelter": "no"}}, {"type": "node", "id": 8350166122, "lat": 43.973589, "lon": 3.5873956, "tags": {"bus": "yes", "highway": "bus_stop", "name": "La Plaine", "public_transport": "platform", "shelter": "no"}}, {"type": "node", "id": 8350166124, "lat": 43.9728055, "lon": 3.5933035, "tags": {"bus": "yes", "highway": "bus_stop", "name": "Petit Cavaillac", "public_transport": "platform", "shelter": "yes"}}, {"type": "node", "id": 8354860459, "lat": 43.9980158, "lon": 3.5859182, "tags": {"bench": "yes", "bus": "yes", "highway": "bus_stop", "name": "Cimeti\u00e8re", "public_transport": "platform", "shelter": "yes"}}, {"type": "node", "id": 8354860461, "lat": 43.9980451, "lon": 3.5858652, "tags": {"bus": "yes", "highway": "bus_stop", "name": "Cimeti\u00e8re", "public_transport": "platform", "shelter": "no"}}, {"type": "node", "id": 8354977511, "lat": 44.0093193, "lon": 3.5908633, "tags": {"bus": "yes", "highway": "bus_stop", "name": "La Monna", "public_transport": "platform"}}, {"type": "node", "id": 8354977512, "lat": 44.0093711, "lon": 3.5907987, "tags": {"bus": "yes", "highway": "bus_stop", "name": "La Monna", "public_transport": "platform"}}, {"type": "node", "id": 8354977514, "lat": 44.0010929, "lon": 3.5862292, "tags": {"bench": "yes", "bin": "yes", "bus": "yes", "highway": "bus_stop", "name": "Mairie", "public_transport": "platform", "shelter": "yes"}}, {"type": "node", "id": 8355004485, "lat": 43.9895871, "lon": 3.5811968, "tags": {"bus": "yes", "highway": "bus_stop", "name": "Les Plans", "public_transport": "platform", "shelter": "no"}}, {"type": "node", "id": 8355004486, "lat": 43.9898975, "lon": 3.5812617, "tags": {"bus": "yes", "highway": "bus_stop", "name": "Les Plans", "public_transport": "platform", "shelter": "no"}}, {"type": "node", "id": 8355004489, "lat": 43.9815749, "lon": 3.582934, "tags": {"bus": "yes", "highway": "bus_stop", "name": "Pont d'Andon", "public_transport": "platform", "shelter": "no"}}, {"type": "node", "id": 8355004490, "lat": 43.9817827, "lon": 3.5829668, "tags": {"bus": "yes", "highway": "bus_stop", "name": "Pont d'Andon", "public_transport": "platform"}}, {"type": "node", "id": 8355089320, "lat": 43.9960106, "lon": 3.585132, "tags": {"bench": "yes", "bus": "yes", "highway": "bus_stop", "name": "Les Terrasses", "public_transport": "platform", "shelter": "yes"}}, {"type": "node", "id": 8355089323, "lat": 43.9957823, "lon": 3.5852906, "tags": {"bus": "yes", "highway": "bus_stop", "name": "Les Terrasses", "public_transport": "platform"}}, {"type": "node", "id": 8355186919, "lat": 43.989109, "lon": 3.5726697, "tags": {"bus": "yes", "highway": "bus_stop", "name": "Place Abribus", "public_transport": "platform"}}, {"type": "node", "id": 8355440285, "lat": 43.9969974, "lon": 3.5648622, "tags": {"bus": "yes", "highway": "bus_stop", "name": "Le Pied M\u00e9jan", "public_transport": "platform"}}, {"type": "node", "id": 8355440287, "lat": 44.000802, "lon": 3.5558672, "tags": {"bus": "yes", "highway": "bus_stop", "name": "Village Abribus", "public_transport": "platform"}}, {"type": "node", "id": 8355440290, "lat": 44.0028186, "lon": 3.5655494, "tags": {"bus": "yes", "highway": "bus_stop", "name": "Serres", "public_transport": "platform"}}, {"type": "node", "id": 8372770236, "lat": 43.9887849, "lon": 3.6476867, "tags": {"bench": "yes", "bus": "yes", "highway": "bus_stop", "name": "Bouliech Abribus", "public_transport": "platform", "shelter": "yes"}}, {"type": "node", "id": 8375949047, "lat": 43.9787582, "lon": 3.6335135, "tags": {"bus": "yes", "highway": "bus_stop", "name": "Combe Carrefour", "public_transport": "platform"}}, {"type": "node", "id": 8375957380, "lat": 43.9763235, "lon": 3.6231924, "tags": {"bus": "yes", "highway": "bus_stop", "name": "Campis Village", "public_transport": "platform"}}, {"type": "node", "id": 8375988324, "lat": 43.9733692, "lon": 3.6571649, "tags": {"bus": "yes", "highway": "bus_stop", "name": "Le Haut Parking", "public_transport": "platform"}}, {"type": "node", "id": 8376307053, "lat": 43.9540236, "lon": 3.645094, "tags": {"bench": "yes", "bus": "yes", "highway": "bus_stop", "name": "Village", "public_transport": "platform", "shelter": "yes"}}, {"type": "node", "id": 8376353983, "lat": 43.9897987, "lon": 3.6152981, "tags": {"bus": "yes", "highway": "bus_stop", "name": "Les Arennes", "public_transport": "platform"}}, {"type": "node", "id": 8554703248, "lat": 43.6513078, "lon": 3.6971251, "tags": {"bench": "yes", "bus": "yes", "highway": "bus_stop", "name": "Montarnaud - Chemin de Beauvezet", "network": "H\u00e9rault Transport", "network:wikidata": "Q3145008", "public_transport": "platform", "shelter": "yes"}}, {"type": "node", "id": 8795863711, "lat": 43.9040645, "lon": 3.2651671, "tags": {"bench": "yes", "bin": "yes", "bus": "yes", "highway": "bus_stop", "lit": "no", "name": "Couvertoirade - Les Infruts", "public_transport": "platform", "ref": "3413352", "shelter": "yes", "tactile_paving": "no"}}, {"type": "node", "id": 8795863713, "lat": 43.864121, "lon": 3.3172195, "tags": {"bench": "yes", "bin": "yes", "bus": "yes", "covered": "yes", "highway": "bus_stop", "name": "Caylar - Le Relais", "public_transport": "platform", "ref": "S07665", "shelter": "yes", "tactile_paving": "no"}}, {"type": "node", "id": 8795863714, "lat": 43.7378581, "lon": 3.3248928, "tags": {"bench": "yes", "bus": "yes", "highway": "bus_stop", "name": "R\u00e9publique", "passenger_information_display": "yes", "pole": "yes", "public_transport": "platform", "ref": "3411321", "shelter": "no"}}, {"type": "node", "id": 8795863715, "lat": 43.7298061, "lon": 3.3244265, "tags": {"bench": "no", "bus": "yes", "highway": "bus_stop", "name": "Grand Soleil", "passenger_information_display": "yes", "public_transport": "platform", "ref": "3412067", "shelter": "no"}}, {"type": "node", "id": 8795863716, "lat": 43.6924652, "lon": 3.3436054, "tags": {"bench": "yes", "bus": "yes", "highway": "bus_stop", "name": "Bosc - Cartels Gare", "passenger_information_display": "yes", "public_transport": "platform", "ref": "S07452", "shelter": "yes"}}, {"type": "node", "id": 8795904917, "lat": 43.6850793, "lon": 3.3568858, "tags": {"bench": "yes", "bus": "yes", "highway": "bus_stop", "name": "Bosc - Hameau de Cartels", "passenger_information_display": "yes", "public_transport": "platform", "ref": "3407441", "shelter": "yes"}}, {"type": "node", "id": 8795904918, "lat": 43.6856687, "lon": 3.3566684, "tags": {"bench": "yes", "bus": "yes", "highway": "bus_stop", "name": "Bosc - Hameau de Cartels", "passenger_information_display": "yes", "public_transport": "platform", "ref": "3412069", "shelter": "yes"}}, {"type": "node", "id": 8795904920, "lat": 43.6804582, "lon": 3.3787807, "tags": {"bench": "no", "bus": "yes", "highway": "bus_stop", "name": "Bosc - Saint-Frechoux", "passenger_information_display": "yes", "pole": "yes", "public_transport": "platform", "ref": "S12070", "shelter": "no"}}, {"type": "node", "id": 8795904924, "lat": 43.680859, "lon": 3.3779352, "tags": {"bench": "yes", "bus": "yes", "highway": "bus_stop", "name": "Bosc - Saint-Frechoux", "passenger_information_display": "yes", "public_transport": "platform", "ref": "3412070", "shelter": "yes"}}, {"type": "node", "id": 8795904925, "lat": 43.6771421, "lon": 3.4086169, "tags": {"bench": "yes", "bin": "yes", "bus": "yes", "highway": "bus_stop", "name": "Bosc - Salelles Gare D9", "passenger_information_display": "yes", "public_transport": "platform", "ref": "S12071", "shelter": "yes"}}, {"type": "node", "id": 8795904926, "lat": 43.6768494, "lon": 3.408193, "tags": {"bench": "no", "bus": "yes", "highway": "bus_stop", "name": "Bosc - Salelles Gare D9", "passenger_information_display": "yes", "public_transport": "platform", "ref": "3412071", "shelter": "no"}}, {"type": "node", "id": 8795904931, "lat": 43.6505976, "lon": 3.509067, "tags": {"bench": "yes", "bin": "yes", "bus": "yes", "highway": "bus_stop", "name": "Saint-Andr\u00e9 de Sangonis - Coop\u00e9rative", "passenger_information_display": "yes", "pole": "yes", "public_transport": "platform", "shelter": "yes", "wheelchair": "designated"}}, {"type": "node", "id": 8795904934, "lat": 43.650582, "lon": 3.5085393, "tags": {"bench": "no", "bin": "yes", "bus": "yes", "highway": "bus_stop", "name": "Saint-Andr\u00e9 de Sangonis - Coop\u00e9rative", "passenger_information_display": "yes", "pole": "yes", "public_transport": "platform", "shelter": "no", "tactile_paving": "no", "wheelchair": "designated"}}, {"type": "node", "id": 8809396728, "lat": 43.6284297, "lon": 3.6911689, "tags": {"bench": "yes", "bin": "no", "bus": "yes", "highway": "bus_stop", "lit": "no", "name": "PEM", "network": "H\u00e9rault Transport", "network:wikidata": "Q3145008", "network:wikipedia": "fr:H\u00e9rault Transport", "passenger_information_display": "yes", "public_transport": "platform", "ref": "3413395", "shelter": "no", "tactile_paving": "yes"}}, {"type": "node", "id": 8809396729, "lat": 43.6282698, "lon": 3.6921939, "tags": {"bench": "yes", "bus": "yes", "highway": "bus_stop", "name": "PEM", "network": "H\u00e9rault Transport", "network:wikidata": "Q3145008", "network:wikipedia": "fr:H\u00e9rault Transport", "passenger_information_display": "yes", "public_transport": "platform", "ref": "3413394", "shelter": "yes"}}, {"type": "node", "id": 8809396733, "lat": 43.6265079, "lon": 3.6776769, "tags": {"bench": "no", "bus": "yes", "highway": "bus_stop", "name": "Saint-Paul-et-Valmalle - Centre", "passenger_information_display": "yes", "public_transport": "platform", "ref": "3412085", "shelter": "no"}}, {"type": "node", "id": 8809396734, "lat": 43.6262263, "lon": 3.6767705, "tags": {"bench": "yes", "bin": "yes", "bus": "yes", "highway": "bus_stop", "name": "Saint-Paul-et-Valmalle - Centre", "passenger_information_display": "yes", "public_transport": "platform", "ref": "S12085", "shelter": "yes"}}, {"type": "node", "id": 8809396736, "lat": 43.6256946, "lon": 3.6727316, "tags": {"bench": "no", "bus": "yes", "highway": "bus_stop", "name": "Saint-Paul-et-Valmalle - C\u00e9vennes", "passenger_information_display": "yes", "public_transport": "platform", "ref": "3413888", "shelter": "no"}}, {"type": "node", "id": 8809396737, "lat": 43.6256231, "lon": 3.6726722, "tags": {"bench": "no", "bus": "yes", "highway": "bus_stop", "name": "Saint-Paul-et-Valmalle - C\u00e9vennes", "passenger_information_display": "yes", "public_transport": "platform", "ref": "S13888", "shelter": "no"}}, {"type": "node", "id": 8809396738, "lat": 43.621759, "lon": 3.6219529, "tags": {"bench": "no", "bus": "yes", "highway": "bus_stop", "name": "Aumelas - La Taillade D 619", "passenger_information_display": "yes", "public_transport": "platform", "ref": "3407174", "shelter": "yes"}}, {"type": "node", "id": 8809396740, "lat": 43.6324993, "lon": 3.5866924, "tags": {"bench": "no", "bus": "yes", "highway": "bus_stop", "name": "Gignac - Mas de Ratte", "passenger_information_display": "yes", "public_transport": "platform", "ref": "3412081", "shelter": "no"}}, {"type": "node", "id": 8809396741, "lat": 43.7255274, "lon": 3.3223369, "tags": {"bench": "no", "bus": "yes", "highway": "bus_stop", "name": "Avenue du G\u00e9n\u00e9ral de Gaulle", "passenger_information_display": "yes", "pole": "yes", "public_transport": "platform", "shelter": "no"}}, {"type": "node", "id": 8809396742, "lat": 43.7255991, "lon": 3.3220224, "tags": {"bench": "no", "bin": "no", "bus": "yes", "highway": "bus_stop", "name": "Avenue du G\u00e9n\u00e9ral de Gaulle", "passenger_information_display": "yes", "pole": "yes", "public_transport": "platform", "shelter": "no"}}, {"type": "node", "id": 8809396755, "lat": 43.903957, "lon": 3.2650007, "tags": {"bench": "no", "bin": "no", "bus": "yes", "highway": "bus_stop", "lit": "no", "name": "Couvertoirade - Les Infruts", "public_transport": "platform", "shelter": "no", "tactile_paving": "no"}}, {"type": "node", "id": 8963380199, "lat": 43.6284386, "lon": 3.4369045, "tags": {"bench": "no", "bin": "no", "bus": "yes", "departures_board": "timetable", "highway": "bus_stop", "name": "H\u00f4pital", "passenger_information_display": "yes", "pole": "yes", "public_transport": "platform", "shelter": "no", "tactile_paving": "no"}}, {"type": "node", "id": 8963380200, "lat": 43.6335049, "lon": 3.4403538, "tags": {"bench": "no", "bin": "no", "bus": "yes", "check_date:shelter": "2025-03-26", "departures_board": "timetable", "highway": "bus_stop", "lit": "no", "name": "Rond-Point de l'Europe", "pole": "yes", "public_transport": "platform", "shelter": "no", "tactile_paving": "no"}}, {"type": "node", "id": 8963380201, "lat": 43.6328351, "lon": 3.5865435, "tags": {"bench": "no", "bus": "yes", "highway": "bus_stop", "name": "Gignac - Mas de Ratte", "passenger_information_display": "yes", "public_transport": "platform", "shelter": "no"}}, {"type": "node", "id": 8963380202, "lat": 43.6218482, "lon": 3.6206523, "tags": {"bench": "no", "bus": "yes", "highway": "bus_stop", "name": "Aumelas - La Taillade D 619", "passenger_information_display": "yes", "public_transport": "platform", "shelter": "no"}}, {"type": "node", "id": 9000977891, "lat": 43.6204893, "lon": 3.3154782, "tags": {"bench": "no", "bin": "no", "highway": "bus_stop", "name": "Rue des Fontaines", "shelter": "no", "tactile_paving": "no"}}, {"type": "node", "id": 9135154286, "lat": 43.5580606, "lon": 3.5244385, "tags": {"bench": "yes", "bus": "yes", "highway": "bus_stop", "name": "Plaissan - Route de Clermont", "network": "H\u00e9rault Transport", "network:wikidata": "Q3145008", "public_transport": "platform", "shelter": "yes"}}, {"type": "node", "id": 9135154292, "lat": 43.5539018, "lon": 3.5232646, "tags": {"bench": "yes", "bus": "yes", "highway": "bus_stop", "name": "Route de B\u00e9larga", "network": "liO", "public_transport": "platform", "shelter": "yes"}}, {"type": "node", "id": 9163103616, "lat": 43.6855206, "lon": 3.7472169, "tags": {"bench": "yes", "bus": "yes", "highway": "bus_stop", "name": "Oliviers", "network": "H\u00e9rault Transport", "network:wikidata": "Q3145008", "public_transport": "platform", "shelter": "yes"}}, {"type": "node", "id": 9216867285, "lat": 43.6763822, "lon": 3.7662016, "tags": {"bench": "yes", "bus": "yes", "highway": "bus_stop", "name": "Combaillaux - Village", "network": "H\u00e9rault Transport", "network:wikidata": "Q3145008", "public_transport": "platform", "route_ref": "616", "shelter": "yes", "wheelchair": "yes"}}, {"type": "node", "id": 9415796983, "lat": 43.862001, "lon": 3.3200789, "tags": {"bench": "yes", "bin": "yes", "bus": "yes", "highway": "bus_stop", "name": "Poste", "passenger_information_display": "yes", "public_transport": "platform", "ref": "S07666", "shelter": "separate"}}, {"type": "node", "id": 9498289005, "lat": 43.6601543, "lon": 3.7247309, "tags": {"bench": "yes", "bus": "yes", "highway": "bus_stop", "name": "Rouvi\u00e8re", "network": "H\u00e9rault Transport", "network:wikidata": "Q3145008", "public_transport": "platform", "shelter": "yes"}}, {"type": "node", "id": 9498289006, "lat": 43.6600115, "lon": 3.7248616, "tags": {"bench": "yes", "bus": "yes", "highway": "bus_stop", "name": "Rouvi\u00e8re", "network": "H\u00e9rault Transport", "network:wikidata": "Q3145008", "public_transport": "platform", "shelter": "yes"}}, {"type": "node", "id": 9498521255, "lat": 43.6642027, "lon": 3.7115363, "tags": {"bench": "no", "bus": "yes", "highway": "bus_stop", "name": "La Coste", "network": "H\u00e9rault Transport", "network:wikidata": "Q3145008", "public_transport": "platform", "shelter": "no"}}, {"type": "node", "id": 9544844067, "lat": 43.5747597, "lon": 3.3636202, "tags": {"bench": "no", "bus": "yes", "highway": "bus_stop", "name": "Cabri\u00e8res - Coop\u00e9rative", "network": "H\u00e9rault Transport", "network:wikidata": "Q3145008", "public_transport": "platform", "shelter": "no"}}, {"type": "node", "id": 9544844068, "lat": 43.5744585, "lon": 3.3634606, "tags": {"bench": "yes", "bus": "yes", "highway": "bus_stop", "name": "Cabri\u00e8res - Coop\u00e9rative", "network": "H\u00e9rault Transport", "network:wikidata": "Q3145008", "public_transport": "platform", "shelter": "yes"}}, {"type": "node", "id": 9616198653, "lat": 43.8876443, "lon": 3.5709646, "tags": {"bench": "yes", "bus": "yes", "highway": "bus_stop", "name": "Rogues - Abribus Village", "public_transport": "platform", "shelter": "yes"}}, {"type": "node", "id": 9922715074, "lat": 43.704379, "lon": 3.5607332, "tags": {"bench": "yes", "bus": "yes", "departures_board": "yes", "highway": "bus_stop", "name": "Aniane - Grand Site", "public_transport": "platform", "shelter": "yes"}}, {"type": "node", "id": 9952463596, "lat": 43.6404842, "lon": 3.4125851, "tags": {"bench": "yes", "bin": "no", "bus": "yes", "highway": "bus_stop", "name": "Hameau Les Bories", "network": "H\u00e9rault Transport", "network:wikidata": "Q3145008", "public_transport": "platform", "roof": "yes", "tactile_paving": "no"}}, {"type": "node", "id": 9952463603, "lat": 43.6406095, "lon": 3.4124877, "tags": {"bench": "no", "bin": "no", "bus": "yes", "highway": "bus_stop", "name": "Hameau Les Bories", "network": "H\u00e9rault Transport", "network:wikidata": "Q3145008", "public_transport": "platform", "roof": "no", "tactile_paving": "no"}}, {"type": "node", "id": 9959313883, "lat": 43.6204585, "lon": 3.4366931, "tags": {"bench": "no", "bin": "no", "bus": "yes", "departures_board": "timetable", "highway": "bus_stop", "lit": "no", "name": "Centre Commercial", "network": "H\u00e9rault Transport", "network:wikidata": "Q3145008", "operator": "H\u00e9rault Transport", "public_transport": "platform", "shelter": "no"}}, {"type": "node", "id": 9959313886, "lat": 43.6207291, "lon": 3.4365012, "tags": {"bench": "no", "bin": "no", "bus": "yes", "departures_board": "timetable", "highway": "bus_stop", "lit": "no", "name": "Centre Commercial", "network": "H\u00e9rault Transport", "network:wikidata": "Q3145008", "operator": "H\u00e9rault Transport", "public_transport": "platform", "shelter": "no"}}, {"type": "node", "id": 9964152579, "lat": 43.6283728, "lon": 3.4206084, "tags": {"bench": "yes", "bin": "no", "bus": "yes", "highway": "bus_stop", "public_transport": "platform", "shelter": "yes", "tactile_paving": "no"}}, {"type": "node", "id": 10059634686, "lat": 43.6656458, "lon": 3.7227085, "tags": {"bench": "no", "bus": "yes", "highway": "bus_stop", "name": "Le Peras", "network": "H\u00e9rault Transport", "network:wikidata": "Q3145008", "public_transport": "platform", "shelter": "no"}}, {"type": "node", "id": 10059634707, "lat": 43.6658451, "lon": 3.7216888, "tags": {"bench": "no", "bin": "no", "bus": "yes", "highway": "bus_stop", "lit": "no", "name": "Le Peras", "network": "H\u00e9rault Transport", "network:wikidata": "Q3145008", "public_transport": "platform", "shelter": "no", "tactile_paving": "no"}}, {"type": "node", "id": 10106401899, "lat": 43.9717475, "lon": 3.5303379, "tags": {"bench": "no", "bus": "yes", "highway": "bus_stop", "name": "Bez-Esparon - Village", "public_transport": "platform", "shelter": "no"}}, {"type": "node", "id": 10106401900, "lat": 43.9719982, "lon": 3.529851, "tags": {"bench": "no", "bus": "yes", "highway": "bus_stop", "name": "Bez-Esparon - Village", "public_transport": "platform", "shelter": "no"}}, {"type": "node", "id": 10106401907, "lat": 43.967461, "lon": 3.5205788, "tags": {"bench": "yes", "bus": "yes", "highway": "bus_stop", "name": "Arre - Abribus", "public_transport": "platform", "shelter": "yes"}}, {"type": "node", "id": 10106401909, "lat": 43.9675156, "lon": 3.5202694, "tags": {"bench": "yes", "bus": "yes", "highway": "bus_stop", "name": "Arre - Abribus", "public_transport": "platform", "shelter": "no"}}, {"type": "node", "id": 10106401912, "lat": 43.9913042, "lon": 3.5036498, "tags": {"bench": "yes", "bus": "yes", "highway": "bus_stop", "name": "Salle des F\u00eates", "public_transport": "platform", "shelter": "yes"}}, {"type": "node", "id": 10106412422, "lat": 43.9660622, "lon": 3.4388394, "tags": {"bench": "no", "bus": "yes", "highway": "bus_stop", "name": "Alzon - Place", "public_transport": "platform", "shelter": "no"}}, {"type": "node", "id": 10106571209, "lat": 43.9714851, "lon": 3.5278165, "tags": {"bench": "no", "bus": "yes", "highway": "bus_stop", "name": "\u00c9cole", "public_transport": "platform", "shelter": "no"}}, {"type": "node", "id": 10106571212, "lat": 43.9712329, "lon": 3.5276517, "tags": {"bench": "no", "bus": "yes", "highway": "bus_stop", "name": "\u00c9cole", "public_transport": "platform", "shelter": "no"}}, {"type": "node", "id": 10119567563, "lat": 43.8994637, "lon": 3.4597686, "tags": {"bus": "yes", "highway": "bus_stop", "name": "Vissec - Place", "public_transport": "platform"}}, {"type": "node", "id": 10119567573, "lat": 43.911892, "lon": 3.5124976, "tags": {"bus": "yes", "highway": "bus_stop", "name": "Blandas - Village", "public_transport": "platform"}}, {"type": "node", "id": 10120749557, "lat": 43.9718606, "lon": 3.6001726, "tags": {"bus": "yes", "highway": "bus_stop", "name": "Ch\u00e2teau de Montcalm", "public_transport": "platform"}}, {"type": "node", "id": 10120749601, "lat": 43.9264608, "lon": 3.5922736, "tags": {"bus": "yes", "highway": "bus_stop", "name": "Place de l'H\u00f4pital", "public_transport": "platform"}}, {"type": "node", "id": 10120749606, "lat": 43.9260767, "lon": 3.5893551, "tags": {"bus": "yes", "highway": "bus_stop", "name": "Maison de Repos", "public_transport": "platform"}}, {"type": "node", "id": 10120785378, "lat": 43.9260827, "lon": 3.5917213, "tags": {"bench": "yes", "bus": "yes", "highway": "bus_stop", "name": "Bascule", "public_transport": "platform", "shelter": "yes"}}, {"type": "node", "id": 10152151544, "lat": 43.9902824, "lon": 3.5914282, "tags": {"bus": "yes", "highway": "bus_stop", "name": "Pin de Sucre", "public_transport": "platform"}}, {"type": "node", "id": 10152151546, "lat": 43.9902415, "lon": 3.5915091, "tags": {"bus": "yes", "highway": "bus_stop", "name": "Pin de Sucre", "public_transport": "platform"}}, {"type": "node", "id": 10152151548, "lat": 43.9936854, "lon": 3.5920071, "tags": {"bus": "yes", "highway": "bus_stop", "name": "Les 4 Chemins", "public_transport": "platform"}}, {"type": "node", "id": 10152151549, "lat": 43.9938049, "lon": 3.5919181, "tags": {"bus": "yes", "highway": "bus_stop", "name": "Les 4 Chemins", "public_transport": "platform"}}, {"type": "node", "id": 10152151596, "lat": 44.0006797, "lon": 3.6020689, "tags": {"bus": "yes", "highway": "bus_stop", "name": "Gaujac", "public_transport": "platform"}}, {"type": "node", "id": 10152151599, "lat": 44.0100589, "lon": 3.6070788, "tags": {"bus": "yes", "highway": "bus_stop", "name": "Les Faysses", "public_transport": "platform"}}, {"type": "node", "id": 10152151600, "lat": 44.0133112, "lon": 3.615646, "tags": {"bus": "yes", "highway": "bus_stop", "name": "Mas Fadat", "public_transport": "platform"}}, {"type": "node", "id": 10152151603, "lat": 44.0157342, "lon": 3.6185383, "tags": {"bus": "yes", "highway": "bus_stop", "name": "Serre le Haut", "public_transport": "platform"}}, {"type": "node", "id": 10152211518, "lat": 44.0177216, "lon": 3.6230041, "tags": {"bus": "yes", "highway": "bus_stop", "name": "La Peyre", "public_transport": "platform"}}, {"type": "node", "id": 10152394383, "lat": 43.9980979, "lon": 3.629642, "tags": {"bus": "yes", "highway": "bus_stop", "name": "Paillerols", "public_transport": "platform"}}, {"type": "node", "id": 10780240693, "lat": 43.8606688, "lon": 3.6880334, "tags": {"bench": "no", "bus": "yes", "highway": "bus_stop", "name": "Croix", "network": "H\u00e9rault Transport", "network:wikidata": "Q3145008", "public_transport": "platform", "shelter": "no"}}, {"type": "node", "id": 10895986627, "lat": 43.5689476, "lon": 3.465324, "tags": {"bench": "no", "bus": "yes", "highway": "bus_stop", "name": "Aspiran - Gare RD128", "public_transport": "platform", "shelter": "no"}}, {"type": "node", "id": 10895987255, "lat": 43.6174714, "lon": 3.4505728, "tags": {"bench": "yes", "bus": "yes", "highway": "bus_stop", "name": "Tanes Basses", "network": "H\u00e9rault Transport", "network:wikidata": "Q3145008", "operator": "H\u00e9rault Transport", "public_transport": "platform", "shelter": "yes"}}, {"type": "node", "id": 10902176641, "lat": 43.6880386, "lon": 3.5847541, "tags": {"bus": "yes", "highway": "bus_stop", "name": "Cimeti\u00e8re", "network": "H\u00e9rault Transport", "network:wikidata": "Q3145008", "public_transport": "platform", "shelter": "yes"}}, {"type": "node", "id": 10912956454, "lat": 43.5743118, "lon": 3.4001318, "tags": {"bench": "no", "bus": "yes", "highway": "bus_stop", "name": "P\u00e9ret - Centre", "network": "H\u00e9rault Transport", "network:wikidata": "Q3145008", "public_transport": "platform", "shelter": "no", "tactile_paving": "yes"}}, {"type": "node", "id": 11028445236, "lat": 43.6268962, "lon": 3.4361459, "tags": {"bench": "yes", "bus": "yes", "highway": "bus_stop", "local_ref": "1", "name": "Gare Routi\u00e8re de Clermont-l'H\u00e9rault", "public_transport": "platform", "shelter": "yes"}}, {"type": "node", "id": 11028445238, "lat": 43.6268333, "lon": 3.4361635, "tags": {"bench": "no", "bus": "yes", "highway": "bus_stop", "local_ref": "2", "name": "Gare Routi\u00e8re de Clermont-l'H\u00e9rault", "public_transport": "platform", "shelter": "no"}}, {"type": "node", "id": 11028445239, "lat": 43.6267103, "lon": 3.4361656, "tags": {"bench": "no", "bus": "yes", "highway": "bus_stop", "local_ref": "4", "name": "Gare Routi\u00e8re de Clermont-l'H\u00e9rault", "public_transport": "platform", "shelter": "no"}}, {"type": "node", "id": 11030411849, "lat": 43.6109196, "lon": 3.2973158, "tags": {"bench": "yes", "bus": "yes", "highway": "bus_stop", "name": "Valmascle - Embranchement D 908", "public_transport": "platform", "shelter": "yes", "short_name": "Valmascle - Emb. D 908"}}, {"type": "node", "id": 11030411851, "lat": 43.6112504, "lon": 3.3218097, "tags": {"bus": "yes", "highway": "bus_stop", "name": "Salasc - Embranchement D 908", "public_transport": "platform", "short_name": "Salasc - Emb. D 908"}}, {"type": "node", "id": 11030411855, "lat": 43.6080826, "lon": 3.3501104, "tags": {"bench": "no", "bus": "yes", "highway": "bus_stop", "name": "Mour\u00e8ze - Embranchement D 908", "public_transport": "platform", "shelter": "no", "short_name": "Mour\u00e8ze - Emb. D 908"}}, {"type": "node", "id": 11030411857, "lat": 43.6099558, "lon": 3.4022463, "tags": {"bench": "no", "bus": "yes", "highway": "bus_stop", "name": "Villeneuvette - Embranchement D 908", "public_transport": "platform", "shelter": "no", "short_name": "Villeneuvette - Emb. D 908"}}, {"type": "node", "id": 11030411868, "lat": 43.6502135, "lon": 3.5015955, "tags": {"bench": "yes", "bus": "yes", "highway": "bus_stop", "name": "M\u00e9morial", "public_transport": "platform", "shelter": "yes", "tactile_paving": "yes"}}, {"type": "node", "id": 11030411870, "lat": 43.6502872, "lon": 3.5015096, "tags": {"bench": "no", "bus": "yes", "highway": "bus_stop", "name": "M\u00e9morial", "public_transport": "platform", "shelter": "no"}}, {"type": "node", "id": 11047945429, "lat": 43.6262203, "lon": 3.6753314, "tags": {"bench": "no", "bus": "yes", "highway": "bus_stop", "name": "Saint-Paul-et-Valmalle - Mairie", "public_transport": "platform", "shelter": "no"}}, {"type": "node", "id": 11093570130, "lat": 43.61377, "lon": 3.8065359, "tags": {"bench": "yes", "bin": "yes", "bus": "yes", "highway": "bus_stop", "name": "H\u00f4tel de Ville", "network": "TaM", "network:wikidata": "Q3537922", "public_transport": "platform", "ref": "25229", "shelter": "yes"}}, {"type": "node", "id": 11093570131, "lat": 43.6104925, "lon": 3.8054733, "tags": {"bench": "no", "bus": "yes", "highway": "bus_stop", "name": "Valat de la Fosse", "network": "TaM", "network:wikidata": "Q3537922", "public_transport": "platform", "shelter": "no"}}, {"type": "node", "id": 11093570132, "lat": 43.6095765, "lon": 3.8068794, "tags": {"bench": "no", "bus": "yes", "highway": "bus_stop", "name": "Majories", "public_transport": "platform", "shelter": "no"}}, {"type": "node", "id": 11093783380, "lat": 43.614472, "lon": 3.7804831, "tags": {"bench": "yes", "bin": "yes", "bus": "yes", "highway": "bus_stop", "name": "Dame d'Orcas", "network": "TaM", "network:wikidata": "Q3537922", "public_transport": "platform", "shelter": "yes"}}, {"type": "node", "id": 11163161786, "lat": 43.8499919, "lon": 3.6631335, "tags": {"bench": "yes", "bus": "yes", "highway": "bus_stop", "name": "Saint-Andr\u00e9 de Bu\u00e8ges", "network": "H\u00e9rault Transport", "network:wikidata": "Q3145008", "public_transport": "platform", "shelter": "yes"}}, {"type": "node", "id": 11163161787, "lat": 43.8501163, "lon": 3.6631843, "tags": {"bus": "yes", "highway": "bus_stop", "name": "Saint-Andr\u00e9 de Bu\u00e8ges", "network": "H\u00e9rault Transport", "network:wikidata": "Q3145008", "public_transport": "platform"}}, {"type": "node", "id": 11163161790, "lat": 43.8112256, "lon": 3.5921678, "tags": {"bench": "no", "bus": "yes", "highway": "bus_stop", "name": "Le M\u00e9janel", "network": "h\u00e9rault transport", "not:network:wikidata": "Q3145008", "public_transport": "platform", "shelter": "no"}}, {"type": "node", "id": 11163161795, "lat": 43.8046093, "lon": 3.6475037, "tags": {"bench": "no", "bus": "yes", "highway": "bus_stop", "name": "Causse-de-la-Selle - Mairie", "network": "H\u00e9rault Transport", "network:wikidata": "Q3145008", "public_transport": "platform", "shelter": "no"}}, {"type": "node", "id": 11163165318, "lat": 43.8095919, "lon": 3.6450748, "tags": {"bus": "yes", "highway": "bus_stop", "name": "Hameau de Bertrand", "network": "H\u00e9rault Transport", "network:wikidata": "Q3145008", "public_transport": "platform"}}, {"type": "node", "id": 11163165319, "lat": 43.8096452, "lon": 3.6451549, "tags": {"bus": "yes", "highway": "bus_stop", "name": "Hameau de Bertrand", "network": "H\u00e9rault Transport", "network:wikidata": "Q3145008", "public_transport": "platform"}}, {"type": "node", "id": 11262497391, "lat": 43.503533, "lon": 3.2420815, "tags": {"bench": "no", "bus": "yes", "highway": "bus_stop", "name": "Avenue du Pont", "network": "H\u00e9rault Transport", "network:wikidata": "Q3145008", "public_transport": "platform", "shelter": "no"}}, {"type": "node", "id": 11262497393, "lat": 43.5039788, "lon": 3.2425063, "tags": {"bench": "yes", "bus": "yes", "highway": "bus_stop", "name": "Avenue du Pont", "network": "H\u00e9rault Transport", "network:wikidata": "Q3145008", "public_transport": "platform", "shelter": "yes"}}, {"type": "node", "id": 11279619426, "lat": 43.5045026, "lon": 3.3107106, "tags": {"bench": "no", "bus": "yes", "highway": "bus_stop", "name": "Roujan - Mairie", "network": "H\u00e9rault Transport", "network:wikidata": "Q3145008", "operator": "herault transport", "public_transport": "platform", "shelter": "no"}}, {"type": "node", "id": 11279619428, "lat": 43.5042478, "lon": 3.3112946, "tags": {"bench": "no", "bus": "yes", "highway": "bus_stop", "name": "Roujan - Mairie", "network": "H\u00e9rault Transport", "network:wikidata": "Q3145008", "operator": "herault transport", "public_transport": "platform", "shelter": "no"}}, {"type": "node", "id": 11279619430, "lat": 43.5029426, "lon": 3.3143251, "tags": {"bench": "no", "bus": "yes", "highway": "bus_stop", "name": "Roujan - Avenue de P\u00e9zenas", "network": "H\u00e9rault Transport", "network:wikidata": "Q3145008", "operator": "herault transport", "public_transport": "platform", "shelter": "no"}}, {"type": "node", "id": 11279619433, "lat": 43.5029458, "lon": 3.314562, "tags": {"bench": "no", "bus": "yes", "highway": "bus_stop", "name": "Roujan - Avenue de P\u00e9zenas", "network": "H\u00e9rault Transport", "network:wikidata": "Q3145008", "operator": "herault transport", "public_transport": "platform", "shelter": "no"}}, {"type": "node", "id": 11279619459, "lat": 43.5122563, "lon": 3.2730437, "tags": {"bench": "yes", "bus": "yes", "highway": "bus_stop", "name": "Gabian - Centre", "network": "H\u00e9rault Transport", "network:wikidata": "Q3145008", "operator": "herault transport", "public_transport": "platform", "shelter": "yes"}}, {"type": "node", "id": 11279619465, "lat": 43.5120562, "lon": 3.2734583, "tags": {"bench": "no", "bus": "yes", "highway": "bus_stop", "name": "Gabian - Centre", "network": "H\u00e9rault Transport", "network:wikidata": "Q3145008", "operator": "herault transport", "public_transport": "platform", "shelter": "no"}}, {"type": "node", "id": 11396499941, "lat": 43.798577, "lon": 3.3247262, "tags": {"bench": "no", "bus": "yes", "highway": "bus_stop", "name": "P\u00e9gairolles-de-l'Escalette - \u00c9changeur A75", "public_transport": "platform", "shelter": "no"}}, {"type": "node", "id": 11405550954, "lat": 43.6062667, "lon": 3.4361201, "tags": {"bench": "no", "bus": "yes", "highway": "bus_stop", "name": "N\u00e9bian - Embranchement RD 609", "network": "h\u00e9rault transport", "not:network:wikidata": "Q3145008", "public_transport": "platform", "shelter": "no"}}, {"type": "node", "id": 11405550956, "lat": 43.6065095, "lon": 3.4359977, "tags": {"bench": "no", "bus": "yes", "highway": "bus_stop", "name": "N\u00e9bian - Embranchement RD 609", "network": "h\u00e9rault transport", "not:network:wikidata": "Q3145008", "public_transport": "platform", "shelter": "no"}}, {"type": "node", "id": 11405569573, "lat": 43.5692154, "lon": 3.4581052, "tags": {"bench": "no", "bus": "yes", "highway": "bus_stop", "name": "Aspiran - Les Pins", "network": "h\u00e9rault transport", "not:network:wikidata": "Q3145008", "public_transport": "platform", "shelter": "no"}}, {"type": "node", "id": 11405569647, "lat": 43.569293, "lon": 3.4579393, "tags": {"bench": "no", "bus": "yes", "highway": "bus_stop", "name": "Aspiran - Les Pins", "network": "h\u00e9rault transport", "not:network:wikidata": "Q3145008", "public_transport": "platform", "shelter": "no"}}, {"type": "node", "id": 11405569649, "lat": 43.5433598, "lon": 3.4624885, "tags": {"bench": "yes", "bus": "yes", "highway": "bus_stop", "name": "Saint-Martin RD 609", "network": "h\u00e9rault transport", "not:network:wikidata": "Q3145008", "public_transport": "platform", "shelter": "yes"}}, {"type": "node", "id": 11405569651, "lat": 43.5434082, "lon": 3.462403, "tags": {"bench": "no", "bus": "yes", "highway": "bus_stop", "name": "Saint-Martin RD 609", "network": "h\u00e9rault transport", "not:network:wikidata": "Q3145008", "public_transport": "platform", "shelter": "no"}}, {"type": "node", "id": 11405569666, "lat": 43.5325044, "lon": 3.4536839, "tags": {"bench": "no", "bus": "yes", "highway": "bus_stop", "name": "ZA Barthe", "network": "h\u00e9rault transport", "not:network:wikidata": "Q3145008", "public_transport": "platform", "shelter": "no"}}, {"type": "node", "id": 11405569667, "lat": 43.5326409, "lon": 3.4539304, "tags": {"bench": "no", "bus": "yes", "highway": "bus_stop", "name": "ZA Barthe", "network": "h\u00e9rault transport", "not:network:wikidata": "Q3145008", "public_transport": "platform", "shelter": "no"}}, {"type": "node", "id": 11406010999, "lat": 43.5744907, "lon": 3.4909424, "tags": {"bench": "no", "bus": "yes", "highway": "bus_stop", "name": "Place de l'\u00c9glise", "network": "H\u00e9rault Transport", "network:wikidata": "Q3145008", "public_transport": "platform", "shelter": "no"}}, {"type": "node", "id": 11406011000, "lat": 43.5744535, "lon": 3.4907743, "tags": {"bench": "no", "bus": "yes", "highway": "bus_stop", "name": "Place de l'\u00c9glise", "network": "H\u00e9rault Transport", "network:wikidata": "Q3145008", "public_transport": "platform", "shelter": "no"}}, {"type": "node", "id": 11422638528, "lat": 43.6166193, "lon": 3.5121482, "tags": {"bench": "yes", "bin": "yes", "bus": "yes", "highway": "bus_stop", "name": "Rue des Lauzes", "network": "H\u00e9rault Transport", "network:wikidata": "Q3145008", "public_transport": "platform", "shelter": "yes"}}, {"type": "node", "id": 11422638530, "lat": 43.6165597, "lon": 3.5120499, "tags": {"bench": "no", "bus": "yes", "highway": "bus_stop", "name": "Rue des Lauzes", "network": "H\u00e9rault Transport", "network:wikidata": "Q3145008", "public_transport": "platform", "shelter": "no"}}, {"type": "node", "id": 11422638542, "lat": 43.593203, "lon": 3.5310938, "tags": {"bus": "yes", "highway": "bus_stop", "name": "Le Pouget - Saint-Amans", "network": "H\u00e9rault Transport", "network:wikidata": "Q3145008", "public_transport": "platform"}}, {"type": "node", "id": 11422638548, "lat": 43.6168851, "lon": 3.5463969, "tags": {"bench": "yes", "bin": "yes", "bus": "yes", "highway": "bus_stop", "name": "Saint-Bauzille-de-la-Sylve - Jeu de Ballon", "network": "H\u00e9rault Transport", "network:wikidata": "Q3145008", "public_transport": "platform", "shelter": "no"}}, {"type": "node", "id": 11422638555, "lat": 43.6184744, "lon": 3.5412259, "tags": {"bench": "yes", "bus": "yes", "highway": "bus_stop", "name": "Popian - Coop\u00e9rative", "network": "H\u00e9rault Transport", "network:wikidata": "Q3145008", "public_transport": "platform", "shelter": "yes"}}, {"type": "node", "id": 11422638556, "lat": 43.6185119, "lon": 3.5412988, "tags": {"bench": "no", "bus": "yes", "highway": "bus_stop", "name": "Popian - Coop\u00e9rative", "network": "H\u00e9rault Transport", "network:wikidata": "Q3145008", "public_transport": "platform", "shelter": "no"}}, {"type": "node", "id": 11422638567, "lat": 43.6199592, "lon": 3.5361251, "tags": {"bench": "no", "bus": "yes", "highway": "bus_stop", "name": "Popian - Mairie", "network": "H\u00e9rault Transport", "network:wikidata": "Q3145008", "public_transport": "platform", "shelter": "no"}}, {"type": "node", "id": 11422675270, "lat": 43.6201158, "lon": 3.5354388, "tags": {"bench": "yes", "bin": "yes", "bus": "yes", "highway": "bus_stop", "name": "Popian - Mairie", "network": "H\u00e9rault Transport", "network:wikidata": "Q3145008", "public_transport": "platform", "shelter": "yes"}}, {"type": "node", "id": 11446855353, "lat": 43.6058327, "lon": 3.4333038, "tags": {"bench": "yes", "bus": "yes", "highway": "bus_stop", "name": "N\u00e9bian - Centre", "network": "H\u00e9rault Transport", "network:wikidata": "Q3145008", "public_transport": "platform", "shelter": "yes"}}, {"type": "node", "id": 11446855355, "lat": 43.59438, "lon": 3.4300002, "tags": {"bench": "no", "bus": "yes", "highway": "bus_stop", "name": "N\u00e9bian - Taille Fer", "network": "H\u00e9rault Transport", "network:wikidata": "Q3145008", "public_transport": "platform", "shelter": "no"}}, {"type": "node", "id": 11446855357, "lat": 43.5939836, "lon": 3.4299757, "tags": {"bench": "no", "bus": "yes", "highway": "bus_stop", "name": "N\u00e9bian - Taille Fer", "network": "H\u00e9rault Transport", "network:wikidata": "Q3145008", "public_transport": "platform", "shelter": "no"}}, {"type": "node", "id": 11446855359, "lat": 43.5860494, "lon": 3.4173851, "tags": {"bench": "yes", "bin": "yes", "bus": "yes", "highway": "bus_stop", "name": "Lieuran-Cabri\u00e8res - Centre Bourg", "network": "H\u00e9rault Transport", "network:wikidata": "Q3145008", "public_transport": "platform", "shelter": "yes", "tactile_paving": "yes"}}, {"type": "node", "id": 11446855363, "lat": 43.5738831, "lon": 3.3999089, "tags": {"bench": "no", "bus": "yes", "highway": "bus_stop", "name": "P\u00e9ret - Centre", "network": "H\u00e9rault Transport", "network:wikidata": "Q3145008", "public_transport": "platform", "shelter": "yes", "tactile_paving": "yes"}}, {"type": "node", "id": 11446895872, "lat": 43.5726173, "lon": 3.398305, "tags": {"bench": "no", "bin": "no", "bus": "yes", "highway": "bus_stop", "lit": "yes", "name": "P\u00e9ret - Coop\u00e9rative", "network": "H\u00e9rault Transport", "network:wikidata": "Q3145008", "public_transport": "platform", "shelter": "yes", "tactile_paving": "yes"}}, {"type": "node", "id": 11446895875, "lat": 43.5723468, "lon": 3.3982068, "tags": {"bench": "no", "bin": "no", "bus": "yes", "highway": "bus_stop", "lit": "yes", "name": "P\u00e9ret - Coop\u00e9rative", "network": "H\u00e9rault Transport", "network:wikidata": "Q3145008", "public_transport": "platform", "shelter": "no", "tactile_paving": "yes"}}, {"type": "node", "id": 11446895886, "lat": 43.5392492, "lon": 3.3787563, "tags": {"bench": "yes", "bus": "yes", "highway": "bus_stop", "name": "Font\u00e8s - Boulevard Jules Ferry", "network": "H\u00e9rault Transport", "network:wikidata": "Q3145008", "public_transport": "platform", "shelter": "yes"}}, {"type": "node", "id": 11446895888, "lat": 43.5392574, "lon": 3.3789792, "tags": {"bench": "no", "bus": "yes", "highway": "bus_stop", "name": "Font\u00e8s - Boulevard Jules Ferry", "network": "H\u00e9rault Transport", "network:wikidata": "Q3145008", "public_transport": "platform", "shelter": "no"}}, {"type": "node", "id": 11469894824, "lat": 43.6266024, "lon": 3.4368386, "tags": {"bench": "no", "bus": "yes", "highway": "bus_stop", "name": "Annexe Gare Routi\u00e8re", "network": "H\u00e9rault Transport", "network:wikidata": "Q3145008", "public_transport": "platform", "shelter": "no"}}, {"type": "node", "id": 11470128148, "lat": 43.6220205, "lon": 3.4747017, "tags": {"bench": "no", "bus": "yes", "highway": "bus_stop", "name": "Brignac - Centre", "network": "H\u00e9rault Transport", "network:wikidata": "Q3145008", "operator": "H\u00e9rault Transport", "public_transport": "platform", "shelter": "no", "tactile_paving": "yes"}}, {"type": "node", "id": 11470388934, "lat": 43.5860838, "lon": 3.5591373, "tags": {"bench": "yes", "bus": "yes", "highway": "bus_stop", "name": "Vend\u00e9mian - Les Mattes", "network": "H\u00e9rault Transport", "network:wikidata": "Q3145008", "public_transport": "platform", "shelter": "yes"}}, {"type": "node", "id": 11470388956, "lat": 43.5779461, "lon": 3.560159, "tags": {"bench": "yes", "bus": "yes", "highway": "bus_stop", "name": "Vend\u00e9mian - Le Terral", "network": "H\u00e9rault Transport", "network:wikidata": "Q3145008", "public_transport": "platform", "shelter": "yes"}}, {"type": "node", "id": 11470388963, "lat": 43.5578653, "lon": 3.5275921, "tags": {"bench": "no", "bus": "yes", "highway": "bus_stop", "name": "Plaissan - Centre Poste", "network": "H\u00e9rault Transport", "network:wikidata": "Q3145008", "public_transport": "platform", "shelter": "no"}}, {"type": "node", "id": 11470388968, "lat": 43.5579811, "lon": 3.5243959, "tags": {"bench": "no", "bus": "yes", "highway": "bus_stop", "name": "Plaissan - Route de Clermont", "network": "H\u00e9rault Transport", "network:wikidata": "Q3145008", "public_transport": "platform", "shelter": "no"}}, {"type": "node", "id": 11497533236, "lat": 43.6636073, "lon": 3.4640953, "tags": {"bench": "yes", "bus": "yes", "highway": "bus_stop", "name": "Lotissement Burguet", "network": "H\u00e9rault Transport", "network:wikidata": "Q3145008", "public_transport": "platform", "shelter": "yes"}}, {"type": "node", "id": 11497533237, "lat": 43.6635609, "lon": 3.4642885, "tags": {"bench": "no", "bus": "yes", "highway": "bus_stop", "name": "Lotissement Burguet", "network": "H\u00e9rault Transport", "network:wikidata": "Q3145008", "public_transport": "platform", "shelter": "no"}}, {"type": "node", "id": 11497582402, "lat": 43.674954, "lon": 3.4749028, "tags": {"bench": "no", "bus": "yes", "highway": "bus_stop", "name": "Grand Rue", "network": "H\u00e9rault Transport", "network:wikidata": "Q3145008", "public_transport": "platform", "shelter": "no"}}, {"type": "node", "id": 11497582404, "lat": 43.6749988, "lon": 3.4750259, "tags": {"bench": "no", "bus": "yes", "highway": "bus_stop", "name": "Grand Rue", "network": "H\u00e9rault Transport", "network:wikidata": "Q3145008", "public_transport": "platform", "shelter": "no"}}, {"type": "node", "id": 11497582434, "lat": 43.692026, "lon": 3.5018261, "tags": {"bench": "yes", "bus": "yes", "departures_board": "timetable", "highway": "bus_stop", "name": "Montpeyroux - Muscadels", "network": "H\u00e9rault Transport", "network:wikidata": "Q3145008", "public_transport": "platform", "shelter": "yes"}}, {"type": "node", "id": 11497668008, "lat": 43.6986332, "lon": 3.543643, "tags": {"bench": "no", "bus": "yes", "highway": "bus_stop", "name": "Les Fontenilles", "network": "H\u00e9rault Transport", "network:wikidata": "Q3145008", "public_transport": "platform", "shelter": "no", "tactile_paving": "yes"}}, {"type": "node", "id": 11497668014, "lat": 43.7022086, "lon": 3.5520474, "tags": {"bench": "no", "bin": "no", "bus": "yes", "highway": "bus_stop", "local_ref": "H\u00e9rault Transport", "name": "Argileum", "network": "H\u00e9rault Transport", "network:wikidata": "Q3145008", "passenger_information_display": "no", "public_transport": "platform", "route_ref": "308", "shelter": "no", "tactile_paving": "no"}}, {"type": "node", "id": 11497668021, "lat": 43.7074149, "lon": 3.5589165, "tags": {"bench": "yes", "bus": "yes", "highway": "bus_stop", "name": "Pont du Diable", "network": "H\u00e9rault Transport", "network:wikidata": "Q3145008", "operator": "H\u00e9rault Transport", "public_transport": "platform", "shelter": "no"}}, {"type": "node", "id": 11497668026, "lat": 43.7314391, "lon": 3.5533315, "tags": {"bench": "no", "bus": "yes", "highway": "bus_stop", "name": "Saint-Guilhem-le-D\u00e9sert - Centre", "network": "H\u00e9rault Transport", "network:wikidata": "Q3145008", "operator": "H\u00e9rault Transport", "public_transport": "platform", "shelter": "no"}}, {"type": "node", "id": 11497668033, "lat": 43.6846047, "lon": 3.5846755, "tags": {"bench": "no", "bus": "yes", "highway": "bus_stop", "name": "Aniane - Centre", "network": "H\u00e9rault Transport", "network:wikidata": "Q3145008", "public_transport": "platform", "shelter": "no"}}, {"type": "node", "id": 11497668035, "lat": 43.6825041, "lon": 3.5813554, "tags": {"bench": "no", "bus": "yes", "highway": "bus_stop", "name": "Aniane - Distillerie", "network": "H\u00e9rault Transport", "network:wikidata": "Q3145008", "public_transport": "platform", "shelter": "no"}}, {"type": "node", "id": 11497668036, "lat": 43.6824459, "lon": 3.581425, "tags": {"bench": "no", "bus": "yes", "highway": "bus_stop", "name": "Aniane - Distillerie", "network": "H\u00e9rault Transport", "network:wikidata": "Q3145008", "public_transport": "platform", "shelter": "no"}}, {"type": "node", "id": 11536685018, "lat": 43.5309726, "lon": 3.3300765, "tags": {"bench": "no", "bus": "yes", "highway": "bus_stop", "name": "La Matte", "network": "H\u00e9rault Transport", "network:wikidata": "Q3145008", "public_transport": "platform", "shelter": "no"}}, {"type": "node", "id": 11536685019, "lat": 43.5329434, "lon": 3.3298346, "tags": {"bench": "no", "bus": "yes", "highway": "bus_stop", "name": "La Marelle", "network": "H\u00e9rault Transport", "network:wikidata": "Q3145008", "public_transport": "platform", "shelter": "no"}}, {"type": "node", "id": 11536685021, "lat": 43.5377892, "lon": 3.3327221, "tags": {"bench": "no", "bus": "yes", "highway": "bus_stop", "name": "La Source", "network": "H\u00e9rault Transport", "network:wikidata": "Q3145008", "public_transport": "platform", "shelter": "no"}}, {"type": "node", "id": 11536685022, "lat": 43.5378072, "lon": 3.3324644, "tags": {"bench": "yes", "bus": "yes", "highway": "bus_stop", "name": "La Source", "network": "H\u00e9rault Transport", "network:wikidata": "Q3145008", "public_transport": "platform", "shelter": "yes"}}, {"type": "node", "id": 11581885134, "lat": 43.5422324, "lon": 3.4626611, "tags": {"bench": "no", "bus": "yes", "highway": "bus_stop", "name": "Saint-Martin RD 30", "network": "H\u00e9rault Transport", "network:wikidata": "Q3145008", "public_transport": "platform", "shelter": "no"}}, {"type": "node", "id": 11581885136, "lat": 43.5422044, "lon": 3.4625034, "tags": {"bench": "no", "bus": "yes", "highway": "bus_stop", "name": "Saint-Martin RD 30", "network": "H\u00e9rault Transport", "network:wikidata": "Q3145008", "public_transport": "platform", "shelter": "no"}}, {"type": "node", "id": 11581885137, "lat": 43.5402232, "lon": 3.4671215, "tags": {"bench": "no", "bus": "yes", "highway": "bus_stop", "name": "Route Campagnan", "network": "H\u00e9rault Transport", "network:wikidata": "Q3145008", "public_transport": "platform", "shelter": "no"}}, {"type": "node", "id": 11581885139, "lat": 43.5400363, "lon": 3.4673721, "tags": {"bench": "no", "bus": "yes", "highway": "bus_stop", "name": "Route Campagnan", "network": "H\u00e9rault Transport", "network:wikidata": "Q3145008", "public_transport": "platform", "shelter": "no"}}, {"type": "node", "id": 11610554599, "lat": 43.602899, "lon": 3.5997905, "tags": {"bench": "yes", "bus": "yes", "highway": "bus_stop", "name": "Mas Arnaud", "network": "H\u00e9rault Transport", "network:wikidata": "Q3145008", "public_transport": "platform", "shelter": "yes"}}, {"type": "node", "id": 11610554605, "lat": 43.6029167, "lon": 3.5998793, "tags": {"bench": "no", "bus": "yes", "highway": "bus_stop", "name": "Mas Arnaud", "network": "H\u00e9rault Transport", "network:wikidata": "Q3145008", "public_transport": "platform", "shelter": "no"}}, {"type": "node", "id": 11634938200, "lat": 43.6739493, "lon": 3.7768697, "tags": {"bench": "yes", "bus": "yes", "highway": "bus_stop", "name": "Combaillaux - Miradou", "network": "H\u00e9rault Transport", "network:wikidata": "Q3145008", "public_transport": "platform", "shelter": "yes"}}, {"type": "node", "id": 11634938206, "lat": 43.679077, "lon": 3.7727299, "tags": {"bench": "yes", "bus": "yes", "highway": "bus_stop", "name": "Combaillaux - Sajolles", "network": "H\u00e9rault Transport", "network:wikidata": "Q3145008", "public_transport": "platform", "shelter": "yes"}}, {"type": "node", "id": 11634938216, "lat": 43.6745695, "lon": 3.7685905, "tags": {"bench": "yes", "bus": "yes", "highway": "bus_stop", "name": "Combaillaux - Hauts de la Fontaine", "network": "H\u00e9rault Transport", "network:wikidata": "Q3145008", "public_transport": "platform", "shelter": "yes"}}, {"type": "node", "id": 11634938221, "lat": 43.6730419, "lon": 3.7713189, "tags": {"bench": "yes", "bus": "yes", "highway": "bus_stop", "name": "Combaillaux - \u00c9coles", "network": "H\u00e9rault Transport", "network:wikidata": "Q3145008", "public_transport": "platform", "shelter": "yes"}}, {"type": "node", "id": 11634938226, "lat": 43.6697519, "lon": 3.7766483, "tags": {"bench": "yes", "bus": "yes", "highway": "bus_stop", "name": "Combaillaux - Route de Grabels", "network": "H\u00e9rault Transport", "network:wikidata": "Q3145008", "public_transport": "platform", "shelter": "yes"}}, {"type": "node", "id": 11634938232, "lat": 43.6900305, "lon": 3.7458751, "tags": {"bench": "yes", "bus": "yes", "highway": "bus_stop", "name": "Murles - Centre", "network": "H\u00e9rault Transport", "network:wikidata": "Q3145008", "public_transport": "platform", "shelter": "yes"}}, {"type": "node", "id": 11659888971, "lat": 43.6347508, "lon": 3.6928004, "tags": {"bench": "no", "bus": "yes", "highway": "bus_stop", "name": "Montarnaud - Vign\u00e9", "network": "H\u00e9rault Transport", "network:wikidata": "Q3145008", "public_transport": "platform", "shelter": "no"}}, {"type": "node", "id": 11659888996, "lat": 43.6420634, "lon": 3.6956068, "tags": {"bench": "no", "bus": "yes", "highway": "bus_stop", "name": "Montarnaud - Vincent Badie", "network": "H\u00e9rault Transport", "network:wikidata": "Q3145008", "public_transport": "platform", "shelter": "no"}}, {"type": "node", "id": 11659888997, "lat": 43.6422448, "lon": 3.6958241, "tags": {"bench": "no", "bus": "yes", "highway": "bus_stop", "name": "Montarnaud - Vincent Badie", "network": "H\u00e9rault Transport", "network:wikidata": "Q3145008", "public_transport": "platform", "shelter": "no"}}, {"type": "node", "id": 11659889000, "lat": 43.6429869, "lon": 3.6971665, "tags": {"bench": "no", "bus": "yes", "highway": "bus_stop", "name": "CES Montarnaud", "public_transport": "platform", "shelter": "no"}}, {"type": "node", "id": 11659889033, "lat": 43.6490498, "lon": 3.6977621, "tags": {"bench": "no", "bus": "yes", "highway": "bus_stop", "name": "Montarnaud - \u00c9glise", "network": "H\u00e9rault Transport", "network:wikidata": "Q3145008", "public_transport": "platform", "shelter": "no"}}, {"type": "node", "id": 11659889039, "lat": 43.6511538, "lon": 3.6972488, "tags": {"bench": "no", "bus": "yes", "highway": "bus_stop", "name": "Montarnaud - Chemin de Beauvezet", "network": "H\u00e9rault Transport", "network:wikidata": "Q3145008", "public_transport": "platform", "shelter": "no"}}, {"type": "node", "id": 11659972401, "lat": 43.6694241, "lon": 3.720927, "tags": {"bench": "yes", "bus": "yes", "highway": "bus_stop", "name": "Centre Commercial", "network": "H\u00e9rault Transport", "network:wikidata": "Q3145008", "public_transport": "platform", "shelter": "yes"}}, {"type": "node", "id": 11659972403, "lat": 43.6687669, "lon": 3.7214653, "tags": {"bench": "no", "bus": "yes", "highway": "bus_stop", "name": "Centre Commercial", "network": "H\u00e9rault Transport", "network:wikidata": "Q3145008", "public_transport": "platform", "shelter": "no"}}, {"type": "node", "id": 11659972404, "lat": 43.6708714, "lon": 3.7188082, "tags": {"bench": "no", "bus": "yes", "highway": "bus_stop", "name": "\u00c9coles", "network": "H\u00e9rault Transport", "network:wikidata": "Q3145008", "public_transport": "platform", "shelter": "no"}}, {"type": "node", "id": 11659972428, "lat": 43.6437003, "lon": 3.7368481, "tags": {"bench": "no", "bus": "yes", "highway": "bus_stop", "name": "\u00c9coparc Bel Air", "network": "H\u00e9rault Transport", "network:wikidata": "Q3145008", "public_transport": "platform", "shelter": "no"}}, {"type": "node", "id": 11660081066, "lat": 43.6682494, "lon": 3.7163373, "tags": {"bench": "no", "bin": "no", "bus": "yes", "check_date:shelter": "2023-02-10", "highway": "bus_stop", "lit": "yes", "name": "Lotissement Ravel", "network": "H\u00e9rault Transport", "network:wikidata": "Q3145008", "public_transport": "platform", "shelter": "no", "tactile_paving": "no"}}, {"type": "node", "id": 11756015797, "lat": 43.7082182, "lon": 3.1638778, "tags": {"bench": "yes", "bus": "yes", "highway": "bus_stop", "name": "Cazilhac", "network": "H\u00e9rault Transport", "network:wikidata": "Q3145008", "operator": "H\u00e9rault Transport", "public_transport": "platform", "shelter": "yes"}}, {"type": "node", "id": 11936642230, "lat": 43.7359432, "lon": 3.194857, "tags": {"bench": "yes", "highway": "bus_stop", "name": "Boulodrome", "public_transport": "platform", "shelter": "yes"}}, {"type": "node", "id": 11936642231, "lat": 43.7071861, "lon": 3.1920173, "tags": {"bench": "no", "highway": "bus_stop", "name": "Le Bou\u00efs", "public_transport": "platform", "shelter": "no"}}, {"type": "node", "id": 11936642232, "lat": 43.6997598, "lon": 3.1674528, "tags": {"bench": "no", "highway": "bus_stop", "name": "Pontd'Orb", "public_transport": "platform", "shelter": "yes"}}, {"type": "node", "id": 11936642233, "lat": 43.6945462, "lon": 3.1650764, "tags": {"bench": "yes", "bus": "yes", "highway": "bus_stop", "name": "Mairie", "network": "H\u00e9rault Transport", "network:wikidata": "Q3145008", "operator": "H\u00e9rault Transport", "public_transport": "platform", "shelter": "yes", "tactile_paving": "no"}}, {"type": "node", "id": 11936642234, "lat": 43.6890672, "lon": 3.1705623, "tags": {"bench": "yes", "bus": "yes", "highway": "bus_stop", "name": "Cit\u00e9 HLM", "network": "H\u00e9rault Transport", "network:wikidata": "Q3145008", "operator": "H\u00e9rault Transport", "public_transport": "platform", "shelter": "yes"}}, {"type": "node", "id": 11936642235, "lat": 43.6865441, "lon": 3.1707714, "tags": {"bench": "no", "bus": "yes", "highway": "bus_stop", "name": "Le Maroc", "network": "H\u00e9rault Transport", "network:wikidata": "Q3145008", "operator": "H\u00e9rault Transport", "public_transport": "platform", "shelter": "no"}}, {"type": "node", "id": 11986045802, "lat": 43.7379064, "lon": 3.1942293, "tags": {"bench": "no", "highway": "bus_stop", "name": "Lavoir", "public_transport": "platform", "shelter": "no"}}, {"type": "node", "id": 11986045803, "lat": 43.6779103, "lon": 3.1681743, "tags": {"bench": "yes", "highway": "bus_stop", "name": "Le Ruffas", "public_transport": "platform", "shelter": "yes"}}, {"type": "node", "id": 11986045804, "lat": 43.6781654, "lon": 3.1684177, "tags": {"bench": "no", "highway": "bus_stop", "name": "Le Ruffas", "public_transport": "platform", "shelter": "no"}}, {"type": "node", "id": 12083548970, "lat": 43.8943365, "lon": 3.5113322, "tags": {"highway": "bus_stop"}}, {"type": "node", "id": 12106621196, "lat": 43.7882416, "lon": 3.7319776, "tags": {"bus": "yes", "departures_board": "timetable", "highway": "bus_stop", "name": "Route de Viols", "network": "liO H\u00e9rault Transport", "public_transport": "platform", "shelter": "no"}}, {"type": "node", "id": 12106621197, "lat": 43.7882229, "lon": 3.7320144, "tags": {"bus": "yes", "departures_board": "timetable", "highway": "bus_stop", "name": "Route de Viols", "network": "liO H\u00e9rault Transport", "public_transport": "platform", "shelter": "no"}}, {"type": "node", "id": 12278309444, "lat": 43.6221241, "lon": 3.7858793, "tags": {"bus": "yes", "highway": "bus_stop", "public_transport": "platform"}}, {"type": "node", "id": 12364346475, "lat": 43.698944, "lon": 3.5002452, "tags": {"bus": "yes", "departures_board": "no", "highway": "bus_stop", "name": "Montpeyroux - Les \u00c9coles", "network": "H\u00e9rault Transport", "network:wikidata": "Q3145008", "public_transport": "platform", "shelter": "yes"}}, {"type": "node", "id": 12459084382, "lat": 43.9887675, "lon": 3.6010077, "tags": {"bench": "no", "bin": "yes", "bus": "yes", "highway": "bus_stop", "name": "Cit\u00e9 Scolaire", "public_transport": "platform", "shelter": "no"}}, {"type": "node", "id": 12657064835, "lat": 43.6098159, "lon": 3.8011478, "tags": {"bench": "no", "bus": "yes", "highway": "bus_stop", "name": "Amandiers", "network": "TaM", "network:wikidata": "Q3537922", "public_transport": "platform", "shelter": "no", "source": "http://data.montpellier3m.fr/dataset/offre-de-transport-tam-en-gtfs"}}, {"type": "node", "id": 12657064836, "lat": 43.609891, "lon": 3.8011041, "tags": {"bench": "no", "bus": "yes", "highway": "bus_stop", "name": "Amandiers", "network": "TaM", "network:wikidata": "Q3537922", "public_transport": "platform", "shelter": "no", "source": "http://data.montpellier3m.fr/dataset/offre-de-transport-tam-en-gtfs"}}, {"type": "node", "id": 12713929408, "lat": 43.7863698, "lon": 3.7345133, "tags": {"bus": "yes", "departures_board": "realtime", "highway": "bus_stop", "name": "Rasimi\u00e8re", "network": "liO", "network:wikidata": "Q55597931", "public_transport": "platform", "shelter": "no"}}, {"type": "node", "id": 12713929409, "lat": 43.7860031, "lon": 3.7350406, "tags": {"bus": "yes", "departures_board": "timetable", "highway": "bus_stop", "name": "Rasimi\u00e8re", "network": "liO", "network:wikidata": "Q55597931", "public_transport": "platform", "shelter": "no"}}, {"type": "node", "id": 12713929410, "lat": 43.7889369, "lon": 3.7366344, "tags": {"bus": "yes", "departures_board": "timetable", "highway": "bus_stop", "name": "P\u00f4le d'\u00c9changes Multimodal", "network": "liO", "network:wikidata": "Q55597931", "public_transport": "platform", "shelter": "no"}}, {"type": "node", "id": 12713929411, "lat": 43.78887, "lon": 3.7365717, "tags": {"bus": "yes", "departures_board": "timetable", "highway": "bus_stop", "name": "P\u00f4le d'\u00c9changes Multimodal", "network": "liO", "network:wikidata": "Q55597931", "public_transport": "platform", "shelter": "no"}}, {"type": "node", "id": 12713929412, "lat": 43.7888757, "lon": 3.7364869, "tags": {"bus": "yes", "departures_board": "timetable", "highway": "bus_stop", "name": "P\u00f4le d'\u00c9changes Multimodal", "network": "liO", "network:wikidata": "Q55597931", "public_transport": "platform", "shelter": "no"}}, {"type": "node", "id": 12713929413, "lat": 43.788929, "lon": 3.7367265, "tags": {"bus": "yes", "departures_board": "timetable", "highway": "bus_stop", "name": "P\u00f4le d'\u00c9changes Multimodal", "network": "liO", "network:wikidata": "Q55597931", "public_transport": "platform", "shelter": "no"}}]}