{"version": 0.6, "generator": "Overpass API 0.7.62.5 1bd436f1", "osm3s": {"timestamp_osm_base": "2025-04-09T14:45:30Z", "copyright": "The data included in this document is from www.openstreetmap.org. The data is made available under ODbL."}, "elements": [{"type": "node", "id": 255686370, "lat": 42.424063, "lon": 2.5755449, "tags": {"highway": "bus_stop"}}, {"type": "node", "id": 436479807, "lat": 42.2664743, "lon": 2.9608083, "tags": {"bus": "yes", "highway": "bus_stop", "name": "Rambla", "name:ca": "Rambla", "public_transport": "stop_position"}}, {"type": "node", "id": 506867319, "lat": 42.2745676, "lon": 2.9604116, "tags": {"bus": "yes", "highway": "bus_stop", "name": "Capallera", "public_transport": "stop_position"}}, {"type": "node", "id": 506867330, "lat": 42.2732063, "lon": 2.9566493, "tags": {"bus": "yes", "highway": "bus_stop", "name": "Perpiny\u00e0", "name:ca": "Perpiny\u00e0", "public_transport": "stop_position"}}, {"type": "node", "id": 506867847, "lat": 42.2724618, "lon": 2.966351, "tags": {"bus": "yes", "highway": "bus_stop", "name": "Tapis", "name:ca": "Tapis", "public_transport": "stop_position"}}, {"type": "node", "id": 509915856, "lat": 42.2645951, "lon": 2.9790684, "tags": {"bus": "yes", "highway": "bus_stop", "public_transport": "platform"}}, {"type": "node", "id": 671787077, "lat": 42.252707, "lon": 2.9594831, "tags": {"bus": "yes", "highway": "bus_stop", "name": "Olivar Gran", "name:ca": "Olivar Gran", "public_transport": "stop_position"}}, {"type": "node", "id": 673652823, "lat": 42.2440112, "lon": 3.0382497, "tags": {"bench": "yes", "bus": "yes", "highway": "bus_stop", "name": "Forti\u00e0", "name:ca": "Forti\u00e0", "public_transport": "platform", "shelter": "yes"}}, {"type": "node", "id": 821285562, "lat": 42.255897, "lon": 3.0769129, "tags": {"bench": "yes", "bin": "no", "bus": "yes", "departures_board": "timetable", "highway": "bus_stop", "lit": "yes", "name": "MG 0332", "public_transport": "platform", "ref": "MG 0332", "shelter": "yes", "tactile_paving": "no"}}, {"type": "node", "id": 821285569, "lat": 42.2559795, "lon": 3.0765541, "tags": {"bench": "yes", "bus": "yes", "highway": "bus_stop", "public_transport": "platform", "shelter": "yes", "source": "GPS"}}, {"type": "node", "id": 821712610, "lat": 42.1072912, "lon": 2.7808054, "tags": {"bus": "yes", "ele": "130.14", "highway": "bus_stop", "name": "Mata - Direcci\u00f3 Banyoles", "operator": "TEISA", "public_transport": "platform", "source": "GPS"}}, {"type": "node", "id": 821712613, "lat": 42.09408, "lon": 2.802755, "tags": {"bus": "yes", "ele": "110.68", "highway": "bus_stop", "name": "Cornell\u00e0 del Terri - Mas Ferrer", "operator": "TEISA", "public_transport": "platform", "source": "GPS"}}, {"type": "node", "id": 821712615, "lat": 42.0864899, "lon": 2.8153454, "tags": {"bus": "yes", "ele": "98.18", "highway": "bus_stop", "name": "Cornell\u00e0 del Terri (Dir. Banyoles)", "name:ca": "Cornell\u00e0 del Terri (Dir. Banyoles)", "operator": "TEISA", "public_transport": "platform", "shelter": "yes", "source": "GPS"}}, {"type": "node", "id": 837128868, "lat": 42.2002111, "lon": 2.6973371, "tags": {"bus": "yes", "highway": "bus_stop", "name": "Besal\u00fa", "name:ca": "Besal\u00fa", "public_transport": "platform", "route_ref": "e1 L0803"}}, {"type": "node", "id": 837128885, "lat": 42.2002789, "lon": 2.6970953, "tags": {"bus": "yes", "highway": "bus_stop", "name": "Besal\u00fa", "name:ca": "Besal\u00fa", "public_transport": "platform", "route_ref": "e1 L0803"}}, {"type": "node", "id": 885648877, "lat": 42.2684801, "lon": 2.9588799, "tags": {"bus": "yes", "highway": "bus_stop", "name": "Museu Dal\u00ed", "name:ca": "Museu Dal\u00ed", "public_transport": "stop_position"}}, {"type": "node", "id": 893980965, "lat": 42.1956663, "lon": 3.03731, "tags": {"bus": "yes", "highway": "bus_stop", "name": "Vilacolum", "name:ca": "Vilacolum", "public_transport": "stop_position"}}, {"type": "node", "id": 937180204, "lat": 42.2679636, "lon": 2.95905, "tags": {"bus": "yes", "highway": "bus_stop", "name": "Museu Joies", "name:ca": "Museu Joies", "public_transport": "platform", "route_ref": "L1;L2", "shelter": "no"}}, {"type": "node", "id": 998958884, "lat": 42.2717577, "lon": 2.9680542, "tags": {"bus": "yes", "highway": "bus_stop", "name": "Eixample", "name:ca": "Eixample", "public_transport": "stop_position"}}, {"type": "node", "id": 1628149400, "lat": 42.2126241, "lon": 2.6073776, "tags": {"bus": "yes", "departures_board": "timetable", "highway": "bus_stop", "name": "Sant Jaume de Llierca", "name:ca": "Sant Jaume de Llierca", "public_transport": "platform", "shelter": "yes"}}, {"type": "node", "id": 1663017802, "lat": 42.1266385, "lon": 2.7679569, "tags": {"bus": "yes", "highway": "bus_stop", "name": "Banyoles - La Vila (Dir. Cornell\u00e0 del Terri)", "operator": "TEISA", "public_transport": "platform", "shelter": "no"}}, {"type": "node", "id": 1712849060, "lat": 42.2479196, "lon": 2.8161313, "tags": {"bench": "yes", "bus": "yes", "highway": "bus_stop", "name": "TEISA - Llad\u00f3", "public_transport": "stop_position", "shelter": "yes"}}, {"type": "node", "id": 1722575448, "lat": 42.2401521, "lon": 3.1247216, "tags": {"bench": "yes", "bin": "no", "bus": "yes", "departures_board": "timetable", "highway": "bus_stop", "name": "Pg. Mar\u00edtim C/ Badia", "public_transport": "platform", "route_ref": "e6", "shelter": "yes"}}, {"type": "node", "id": 1722575449, "lat": 42.2626926, "lon": 3.101998, "tags": {"bench": "yes", "bin": "yes", "bus": "yes", "departures_board": "timetable", "highway": "bus_stop", "name": "C-68 cant\u00f3 C/ Tamariu", "name:ca": "C-68 cant\u00f3 C/ Tamariu", "public_transport": "platform", "ref": "MG 0323", "route_ref": "e6", "shelter": "yes"}}, {"type": "node", "id": 1722575452, "lat": 42.2624321, "lon": 3.1023544, "tags": {"bench": "yes", "bin": "yes", "bus": "yes", "departures_board": "timetable", "highway": "bus_stop", "name": "C-68 cant\u00f3 C/ Tamariu", "name:ca": "C-68 cant\u00f3 C/ Tamariu", "public_transport": "platform", "ref": "MG 0322", "route_ref": "e6", "shelter": "yes"}}, {"type": "node", "id": 1737609447, "lat": 42.2956, "lon": 2.9515133, "tags": {"bus": "yes", "highway": "bus_stop", "public_transport": "stop_position"}}, {"type": "node", "id": 1752810222, "lat": 42.2251888, "lon": 2.8606859, "tags": {"bench": "yes", "bus": "yes", "highway": "bus_stop", "name": "Navata", "public_transport": "platform", "route_ref": "L0803", "shelter": "yes", "tactile_paving": "no"}}, {"type": "node", "id": 1763289476, "lat": 42.3887899, "lon": 3.0003655, "tags": {"bench": "yes", "bus": "yes", "highway": "bus_stop", "name": "Parada del Bus d'Espolla", "public_transport": "stop_position", "shelter": "no"}}, {"type": "node", "id": 1914054304, "lat": 42.2646953, "lon": 2.9426836, "tags": {"alt_name": "Figueres-Alt Empord\u00e0", "name": "Figueres Vilafant", "name:ca": "Figueres Vilafant", "operator": "Adif", "public_transport": "station", "railway": "station", "train": "yes", "wheelchair": "yes", "wikidata": "Q2783545", "wikipedia": "ca:Estaci\u00f3 de Figueres-Vilafant"}}, {"type": "node", "id": 1924072089, "lat": 42.1272127, "lon": 2.6398196, "tags": {"bus": "yes", "highway": "bus_stop", "public_transport": "stop_position"}}, {"type": "node", "id": 2178792999, "lat": 42.2332245, "lon": 2.6350715, "tags": {"bus": "yes", "highway": "bus_stop", "public_transport": "stop_position"}}, {"type": "node", "id": 2274053374, "lat": 42.3849793, "lon": 2.7534849, "tags": {"bench": "yes", "bin": "yes", "bus": "yes", "covered": "yes", "highway": "bus_stop", "lit": "yes", "name": "Parada d'autob\u00fas", "public_transport": "platform", "shelter": "yes", "tactile_paving": "no"}}, {"type": "node", "id": 2291983424, "lat": 42.2455816, "lon": 2.9190909, "tags": {"bus": "yes", "highway": "bus_stop", "name": "Avinyonet de Puigvent\u00f3s", "public_transport": "stop_position", "route_ref": "L0803"}}, {"type": "node", "id": 2291983442, "lat": 42.2454982, "lon": 2.9191422, "tags": {"bus": "yes", "highway": "bus_stop", "name": "Avinyonet de Puigvent\u00f3s", "public_transport": "stop_position", "route_ref": "L0803"}}, {"type": "node", "id": 2292487794, "lat": 42.2061709, "lon": 2.7506294, "tags": {"bus": "yes", "highway": "bus_stop", "name": "Mai\u00e0 de Montcal", "public_transport": "stop_position", "route_ref": "L0803"}}, {"type": "node", "id": 2292487828, "lat": 42.2062308, "lon": 2.750645, "tags": {"bus": "yes", "highway": "bus_stop", "name": "Mai\u00e0 de Montcal", "public_transport": "stop_position", "route_ref": "L0803"}}, {"type": "node", "id": 2322155549, "lat": 42.2319822, "lon": 2.9524894, "tags": {"bench": "yes", "bus": "yes", "highway": "bus_stop", "public_transport": "platform", "shelter": "yes"}}, {"type": "node", "id": 2380161838, "lat": 42.2208534, "lon": 2.8210378, "tags": {"bus": "yes", "highway": "bus_stop", "name": "Can Vil\u00e0", "public_transport": "stop_position", "route_ref": "L0803"}}, {"type": "node", "id": 2622859518, "lat": 42.2656985, "lon": 3.0178655, "tags": {"bench": "yes", "bin": "yes", "bus": "yes", "departures_board": "timetable", "highway": "bus_stop", "name": "Vila-sacra", "name:ca": "Vila-sacra", "public_transport": "platform", "ref": "MG 0354", "shelter": "yes"}}, {"type": "node", "id": 2839349507, "lat": 42.1894658, "lon": 3.0813296, "tags": {"bench": "yes", "bus": "yes", "highway": "bus_stop", "name": "Sant Pere Pescador", "name:ca": "Sant Pere Pescador", "public_transport": "platform", "shelter": "yes"}}, {"type": "node", "id": 2839349509, "lat": 42.1897946, "lon": 3.0812388, "tags": {"bench": "yes", "bus": "yes", "highway": "bus_stop", "name": "Sant Pere Pescador", "name:ca": "Sant Pere Pescador", "public_transport": "platform", "shelter": "yes"}}, {"type": "node", "id": 3015033672, "lat": 42.2659295, "lon": 2.9635871, "tags": {"bench": "yes", "bus": "yes", "bus_lines": "L1; L3", "highway": "bus_stop", "name": "Pla\u00e7a Catalunya", "name:ca": "Pla\u00e7a Catalunya", "operator": "Fisersa", "public_transport": "platform", "shelter": "yes"}}, {"type": "node", "id": 3049480376, "lat": 42.3856984, "lon": 2.7467386, "tags": {"bench": "yes", "bus": "yes", "highway": "bus_stop", "name": "Parada d'autob\u00fas", "public_transport": "platform", "shelter": "yes"}}, {"type": "node", "id": 3049495501, "lat": 42.4152548, "lon": 2.8747694, "tags": {"bus": "yes", "highway": "bus_stop", "name": "Busstop La Jonquera", "public_transport": "platform"}}, {"type": "node", "id": 3097653396, "lat": 42.1011475, "lon": 2.7910661, "tags": {"bench": "yes", "bus": "yes", "covered": "yes", "highway": "bus_stop", "name": "Borgony\u00e0 - Direcci\u00f3 Banyoles", "public_transport": "platform"}}, {"type": "node", "id": 3097653397, "lat": 42.1010253, "lon": 2.7909295, "tags": {"bus": "yes", "highway": "bus_stop", "name": "Borgony\u00e0 - Direcci\u00f3 Girona", "public_transport": "platform"}}, {"type": "node", "id": 3098643548, "lat": 42.1127705, "lon": 2.7730349, "tags": {"bus": "yes", "highway": "bus_stop", "name": "Banyoles Sud - Direcci\u00f3 Centre", "public_transport": "platform"}}, {"type": "node", "id": 3098643549, "lat": 42.1127518, "lon": 2.7727011, "tags": {"bus": "yes", "highway": "bus_stop", "name": "Banyoles - PAISOS CAT 1", "public_transport": "platform", "ref": "37815"}}, {"type": "node", "id": 3123198401, "lat": 42.1174275, "lon": 2.7643783, "tags": {"bus": "yes", "highway": "bus_stop", "name": "Estaci\u00f3 de Banyoles - Direcci\u00f3 Olot", "public_transport": "platform"}}, {"type": "node", "id": 3133560206, "lat": 42.1225302, "lon": 2.7802962, "tags": {"bus": "yes", "highway": "bus_stop", "name": "Banyoles - CC Pla Estany - El Coiet", "operator": "TEISA", "public_transport": "platform"}}, {"type": "node", "id": 3133560207, "lat": 42.12209, "lon": 2.7736361, "tags": {"bus": "yes", "highway": "bus_stop", "name": "Banyoles - Can Puig (dir. Cornell\u00e0 del Terri)", "operator": "TEISA", "public_transport": "platform"}}, {"type": "node", "id": 3133560209, "lat": 42.124412, "lon": 2.7717353, "tags": {"bus": "yes", "highway": "bus_stop", "name": "Banyoles - Canaleta", "operator": "TEISA", "public_transport": "platform"}}, {"type": "node", "id": 3133560211, "lat": 42.1203446, "lon": 2.7634903, "tags": {"bench": "no", "bin": "no", "bus": "yes", "check_date:shelter": "2024-08-24", "highway": "bus_stop", "lit": "no", "name": "Banyoles - La Vila (Dir. Usall)", "operator": "TEISA", "public_transport": "platform", "shelter": "no", "tactile_paving": "no"}}, {"type": "node", "id": 3133560212, "lat": 42.1244317, "lon": 2.7674983, "tags": {"bus": "yes", "highway": "bus_stop", "name": "Banyoles - Mas Palau", "operator": "TEISA", "public_transport": "platform"}}, {"type": "node", "id": 3133560213, "lat": 42.1206379, "lon": 2.7814565, "tags": {"bus": "yes", "highway": "bus_stop", "name": "Banyoles - c. Ramils 12", "operator": "TEISA", "public_transport": "platform"}}, {"type": "node", "id": 3133560214, "lat": 42.1207977, "lon": 2.781625, "tags": {"bus": "yes", "highway": "bus_stop", "name": "Banyoles - c. Ramils 37", "operator": "TEISA", "public_transport": "platform"}}, {"type": "node", "id": 3133560215, "lat": 42.0864574, "lon": 2.8149682, "tags": {"bus": "yes", "highway": "bus_stop", "name": "Cornell\u00e0 del Terri (Dir. Girona)", "name:ca": "Cornell\u00e0 del Terri (Dir. Girona)", "operator": "TEISA", "public_transport": "platform", "shelter": "yes"}}, {"type": "node", "id": 3133560216, "lat": 42.0891332, "lon": 2.8156944, "tags": {"bus": "yes", "highway": "bus_stop", "name": "Cornell\u00e0 del Terri - Ajuntament 1", "operator": "TEISA", "public_transport": "platform"}}, {"type": "node", "id": 3133560217, "lat": 42.0890234, "lon": 2.8156787, "tags": {"bus": "yes", "highway": "bus_stop", "name": "Cornell\u00e0 del Terri - Ajuntament 2", "operator": "TEISA", "public_transport": "platform"}}, {"type": "node", "id": 3133560218, "lat": 42.093255, "lon": 2.803043, "tags": {"bus": "yes", "highway": "bus_stop", "name": "Cornell\u00e0 del Terri - Pont Xetmar", "operator": "TEISA", "public_transport": "platform"}}, {"type": "node", "id": 3133560219, "lat": 42.0724978, "lon": 2.8161683, "tags": {"bus": "yes", "highway": "bus_stop", "name": "Palol de Revardit - La Banyeta (Dir. Banyoles)", "operator": "TEISA", "public_transport": "platform"}}, {"type": "node", "id": 3133560220, "lat": 42.0727338, "lon": 2.8148557, "tags": {"bus": "yes", "highway": "bus_stop", "name": "Palol de Revardit - La Banyeta (Dir. Girona)", "operator": "TEISA", "public_transport": "platform"}}, {"type": "node", "id": 3133560221, "lat": 42.0701837, "lon": 2.7960121, "tags": {"bus": "yes", "highway": "bus_stop", "name": "Palol de Revardit", "name:ca": "Palol de Revardit", "operator": "TEISA", "public_transport": "platform"}}, {"type": "node", "id": 3133560222, "lat": 42.058265, "lon": 2.815177, "tags": {"bus": "yes", "highway": "bus_stop", "name": "Riudellots de la Creu (Dir. Banyoles)", "name:ca": "Riudellots de la Creu (Dir. Banyoles)", "operator": "TEISA", "public_transport": "platform"}}, {"type": "node", "id": 3133560223, "lat": 42.057888, "lon": 2.813902, "tags": {"bus": "yes", "highway": "bus_stop", "name": "Riudellots de la Creu (Dir. Girona)", "name:ca": "Riudellots de la Creu (Dir. Girona)", "operator": "TEISA", "public_transport": "platform"}}, {"type": "node", "id": 3139744540, "lat": 42.1088499, "lon": 2.769731, "tags": {"bus": "yes", "highway": "bus_stop", "local_ref": "107", "name": "Banyoles (c. Jacint Masgrau i Butiny\u00e0,23)", "operator": "TEISA", "public_transport": "platform"}}, {"type": "node", "id": 3139744541, "lat": 42.1115251, "lon": 2.7724973, "tags": {"bus": "yes", "highway": "bus_stop", "local_ref": "107", "name": "Banyoles (c. de la formiga,38)", "operator": "TEISA", "public_transport": "platform"}}, {"type": "node", "id": 3139744542, "lat": 42.1113598, "lon": 2.7724519, "tags": {"bus": "yes", "highway": "bus_stop", "local_ref": "107", "name": "Banyoles (c. de la formiga,53)", "operator": "TEISA", "public_transport": "platform"}}, {"type": "node", "id": 3139744543, "lat": 42.1148945, "lon": 2.7618702, "tags": {"bus": "yes", "highway": "bus_stop", "local_ref": "107", "name": "Banyoles - Cl\u00ednica Salus", "operator": "TEISA", "public_transport": "platform"}}, {"type": "node", "id": 3139744544, "lat": 42.1087634, "lon": 2.772358, "tags": {"bus": "yes", "highway": "bus_stop", "local_ref": "107", "name": "Banyoles - Escola Pla de l'Ametller", "operator": "TEISA", "public_transport": "platform"}}, {"type": "node", "id": 3139744545, "lat": 42.1086603, "lon": 2.7662862, "tags": {"bus": "yes", "highway": "bus_stop", "local_ref": "107", "name": "Banyoles - Institut Pla de l'Estany", "operator": "TEISA", "public_transport": "platform"}}, {"type": "node", "id": 3139744546, "lat": 42.1120618, "lon": 2.7702927, "tags": {"bus": "yes", "highway": "bus_stop", "local_ref": "107", "name": "Banyoles - Pla\u00e7a St. Pere", "operator": "TEISA", "public_transport": "platform"}}, {"type": "node", "id": 3139744547, "lat": 42.0942186, "lon": 2.7672998, "tags": {"bus": "yes", "highway": "bus_stop", "local_ref": "107", "name": "Cam\u00f3s - Ajuntament", "operator": "TEISA", "public_transport": "platform"}}, {"type": "node", "id": 3139744548, "lat": 42.1024161, "lon": 2.7660896, "tags": {"bus": "yes", "highway": "bus_stop", "local_ref": "107", "name": "Cam\u00f3s - Farm\u00e0cia (Dir. Ajuntament)", "operator": "TEISA", "public_transport": "platform"}}, {"type": "node", "id": 3139744549, "lat": 42.1015763, "lon": 2.76609, "tags": {"bus": "yes", "highway": "bus_stop", "local_ref": "107", "name": "Cam\u00f3s - Farm\u00e0cia (Dir. Banyoles)", "operator": "TEISA", "public_transport": "platform"}}, {"type": "node", "id": 3139744550, "lat": 42.0970474, "lon": 2.7661854, "tags": {"bus": "yes", "highway": "bus_stop", "local_ref": "107", "name": "Cam\u00f3s - La B\u00f2bila (Dir. Banyoles)", "operator": "TEISA", "public_transport": "platform"}}, {"type": "node", "id": 3139744551, "lat": 42.0970511, "lon": 2.7660796, "tags": {"bus": "yes", "highway": "bus_stop", "local_ref": "107", "name": "Cam\u00f3s - La B\u00f2blila (Dir. Ajuntament)", "operator": "TEISA", "public_transport": "platform"}}, {"type": "node", "id": 3139744552, "lat": 42.1043359, "lon": 2.7702914, "tags": {"bus": "yes", "highway": "bus_stop", "lit": "yes", "local_ref": "107", "name": "Les Pedreres (c. Colom)", "operator": "TEISA", "public_transport": "platform"}}, {"type": "node", "id": 3139744553, "lat": 42.1066054, "lon": 2.7756207, "tags": {"bus": "yes", "highway": "bus_stop", "local_ref": "107", "name": "Mata - Pavell\u00f3", "operator": "TEISA", "public_transport": "platform"}}, {"type": "node", "id": 3139744554, "lat": 42.1045933, "lon": 2.7769466, "tags": {"bus": "yes", "highway": "bus_stop", "local_ref": "107", "name": "Mata - Pla\u00e7a Mari\u00e0 Fortuny", "operator": "TEISA", "public_transport": "platform"}}, {"type": "node", "id": 3139744555, "lat": 42.1471737, "lon": 2.7719906, "tags": {"bus": "yes", "highway": "bus_stop", "local_ref": "107", "name": "Melianta (c. Manel Alemany)", "operator": "TEISA", "public_transport": "platform"}}, {"type": "node", "id": 3139744556, "lat": 42.1471457, "lon": 2.7696714, "tags": {"bus": "yes", "highway": "bus_stop", "local_ref": "107", "name": "Melianta (ctra. Banyoles) Dir. Banyoles", "operator": "TEISA", "public_transport": "platform"}}, {"type": "node", "id": 3139744557, "lat": 42.1471326, "lon": 2.7697658, "tags": {"bus": "yes", "highway": "bus_stop", "local_ref": "107", "name": "Melianta (ctra. Banyoles)", "operator": "TEISA", "public_transport": "platform"}}, {"type": "node", "id": 3139744558, "lat": 42.1482473, "lon": 2.7719856, "tags": {"bus": "yes", "highway": "bus_stop", "local_ref": "107", "name": "Melianta (ctra. Fontcoberta)", "operator": "TEISA", "public_transport": "platform"}}, {"type": "node", "id": 3139744559, "lat": 42.10393, "lon": 2.7667564, "tags": {"bus": "yes", "highway": "bus_stop", "local_ref": "107", "name": "Porqueres - Mi\u00e0nigues (Dir. Banyoles)", "operator": "TEISA", "public_transport": "platform"}}, {"type": "node", "id": 3139744560, "lat": 42.1048216, "lon": 2.7670209, "tags": {"bus": "yes", "highway": "bus_stop", "local_ref": "107", "name": "Porqueres - Mi\u00e0nigues (Dir. Cam\u00f3s)", "operator": "TEISA", "public_transport": "platform"}}, {"type": "node", "id": 3139845192, "lat": 42.1241812, "lon": 2.767235, "tags": {"bus": "yes", "highway": "bus_stop", "name": "Banyoles - Mas Palau -2", "operator": "TEISA", "public_transport": "platform"}}, {"type": "node", "id": 3194623941, "lat": 42.5090706, "lon": 2.9629007, "tags": {"bench": "no", "highway": "bus_stop", "name": "Sor\u00e8de - Vall\u00e9e Heureuse Bas", "public_transport": "platform", "shelter": "no", "tactile_paving": "no"}}, {"type": "node", "id": 3478563198, "lat": 42.2101094, "lon": 3.0339061, "tags": {"bus": "yes", "direction": "forward", "highway": "bus_stop", "public_transport": "stop_position", "side": "right"}}, {"type": "node", "id": 3478563201, "lat": 42.210371, "lon": 3.0333625, "tags": {"bus": "yes", "direction": "forward", "highway": "bus_stop", "public_transport": "stop_position", "side": "right"}}, {"type": "node", "id": 4105586638, "lat": 42.3742538, "lon": 3.0670501, "tags": {"bus": "yes", "highway": "bus_stop", "public_transport": "platform", "shelter": "yes"}}, {"type": "node", "id": 4119504565, "lat": 42.308108, "lon": 2.9761367, "tags": {"highway": "bus_stop", "public_transport": "platform", "shelter": "yes"}}, {"type": "node", "id": 4134147078, "lat": 42.2280517, "lon": 3.0856805, "tags": {"bench": "no", "bin": "no", "bus": "yes", "highway": "bus_stop", "public_transport": "stop_position", "shelter": "no", "tactile_paving": "no"}}, {"type": "node", "id": 4713197836, "lat": 42.4904741, "lon": 2.8021201, "tags": {"highway": "bus_stop"}}, {"type": "node", "id": 4713197861, "lat": 42.4910358, "lon": 2.8078774, "tags": {"bench": "no", "bin": "no", "highway": "bus_stop", "shelter": "no", "tactile_paving": "no"}}, {"type": "node", "id": 4713197865, "lat": 42.4910951, "lon": 2.8078171, "tags": {"bench": "yes", "bin": "no", "highway": "bus_stop", "shelter": "yes", "tactile_paving": "no"}}, {"type": "node", "id": 5017045566, "lat": 42.2662402, "lon": 2.9617178, "tags": {"bench": "no", "bin": "yes", "bus": "yes", "highway": "bus_stop", "name": "Rambla", "name:ca": "Rambla", "passenger_information_display": "yes", "public_transport": "platform", "shelter": "no", "source": "survey", "source:date": "2017-08", "tactile_paving": "no"}}, {"type": "node", "id": 5017045567, "lat": 42.2665129, "lon": 2.9607974, "tags": {"bench": "yes", "bin": "no", "bus": "yes", "highway": "bus_stop", "lit": "yes", "name": "Rambla", "name:ca": "Rambla", "public_transport": "platform", "shelter": "yes", "tactile_paving": "no"}}, {"type": "node", "id": 5032480646, "lat": 42.15142, "lon": 3.0265297, "tags": {"bus": "yes", "highway": "bus_stop", "name": "Ventall\u00f3", "public_transport": "stop_position", "route_ref": "L1140"}}, {"type": "node", "id": 5056793156, "lat": 42.2657224, "lon": 2.9631603, "tags": {"bench": "yes", "bin": "no", "bus": "yes", "bus_lines": "L1; L2; LE", "highway": "bus_stop", "name": "Font Lluminosa", "name:ca": "Font Lluminosa", "operator": "Fisersa", "public_transport": "platform", "shelter": "yes"}}, {"type": "node", "id": 5060610741, "lat": 42.2639467, "lon": 2.9618289, "tags": {"bus": "yes", "bus_lines": "LE", "highway": "bus_stop", "name": "Pla\u00e7a Triangular", "name:ca": "Pla\u00e7a Triangular", "operator": "Fisersa", "public_transport": "platform"}}, {"type": "node", "id": 5119632279, "lat": 42.3059399, "lon": 2.721829, "tags": {"bus": "yes", "highway": "bus_stop", "public_transport": "platform"}}, {"type": "node", "id": 5131104976, "lat": 42.3324096, "lon": 2.859609, "tags": {"bench": "yes", "bus": "yes", "highway": "bus_stop", "public_transport": "platform", "shelter": "yes"}}, {"type": "node", "id": 5174477294, "lat": 42.3592305, "lon": 2.5202441, "tags": {"bus": "yes", "highway": "bus_stop"}}, {"type": "node", "id": 5179077704, "lat": 42.4105695, "lon": 2.5442707, "tags": {"highway": "bus_stop"}}, {"type": "node", "id": 5286485053, "lat": 42.2190267, "lon": 2.9696916, "tags": {"bench": "yes", "bin": "yes", "highway": "bus_stop", "public_transport": "platform", "shelter": "yes"}}, {"type": "node", "id": 5588967825, "lat": 42.2002416, "lon": 2.6973381, "tags": {"bus": "yes", "highway": "bus_stop", "name": "Besal\u00fa", "name:ca": "Besal\u00fa", "public_transport": "stop_position", "route_ref": "e1 L0803"}}, {"type": "node", "id": 6175104267, "lat": 42.2615525, "lon": 2.9516639, "tags": {"bus": "yes", "highway": "bus_stop", "name": "Lleida", "name:ca": "Lleida", "public_transport": "stop_position"}}, {"type": "node", "id": 6552295457, "lat": 42.0368396, "lon": 2.6472305, "tags": {"bus": "yes", "highway": "bus_stop", "name": "Sant Mart\u00ed de Ll\u00e9mena", "name:ca": "Sant Mart\u00ed de Ll\u00e9mena", "network": "LN 301", "operator": "TEISA", "public_transport": "platform", "shelter": "yes"}}, {"type": "node", "id": 6593675158, "lat": 42.2666058, "lon": 2.9747293, "tags": {"bus": "yes", "highway": "bus_stop", "name": "Cementiri", "name:ca": "Cementiri", "public_transport": "stop_position"}}, {"type": "node", "id": 6593675161, "lat": 42.2667321, "lon": 2.9779099, "tags": {"bus": "yes", "highway": "bus_stop", "name": "Clos de Fires", "name:ca": "Clos de Fires", "public_transport": "stop_position"}}, {"type": "node", "id": 6593765297, "lat": 42.2693831, "lon": 2.9864633, "tags": {"bus": "yes", "highway": "bus_stop", "name": "Moragues", "name:ca": "Moragues", "public_transport": "stop_position"}}, {"type": "node", "id": 6593765323, "lat": 42.2682997, "lon": 2.994567, "tags": {"bench": "yes", "bus": "yes", "highway": "bus_stop", "name": "Nou de Vilatenim", "name:ca": "Nou de Vilatenim", "public_transport": "platform", "shelter": "yes"}}, {"type": "node", "id": 6593765324, "lat": 42.2683005, "lon": 2.9945059, "tags": {"bus": "yes", "highway": "bus_stop", "name": "Nou de Vilatenim", "name:ca": "Nou de Vilatenim", "public_transport": "stop_position"}}, {"type": "node", "id": 6593765325, "lat": 42.2686322, "lon": 2.9947129, "tags": {"bus": "yes", "highway": "bus_stop", "name": "Nou de Vilatenim", "name:ca": "Nou de Vilatenim", "public_transport": "platform"}}, {"type": "node", "id": 6593765332, "lat": 42.2686954, "lon": 2.994686, "tags": {"bus": "yes", "highway": "bus_stop", "name": "Nou de Vilatenim", "name:ca": "Nou de Vilatenim", "public_transport": "stop_position"}}, {"type": "node", "id": 6593765334, "lat": 42.2686684, "lon": 2.9988344, "tags": {"bench": "yes", "bus": "yes", "highway": "bus_stop", "name": "Vilatenim", "name:ca": "Vilatenim", "public_transport": "platform", "shelter": "yes", "wheelchair": "yes"}}, {"type": "node", "id": 6593765335, "lat": 42.2686706, "lon": 2.998933, "tags": {"bus": "yes", "highway": "bus_stop", "name": "Vilatenim", "name:ca": "Vilatenim", "public_transport": "stop_position"}}, {"type": "node", "id": 6593861715, "lat": 42.2654266, "lon": 2.9791555, "tags": {"bus": "yes", "highway": "bus_stop", "name": "Park i Bus", "public_transport": "stop_position"}}, {"type": "node", "id": 6593861717, "lat": 42.2634958, "lon": 2.982939, "tags": {"bus": "yes", "highway": "bus_stop", "name": "Deixalleria", "name:ca": "Deixalleria", "public_transport": "stop_position"}}, {"type": "node", "id": 6593861781, "lat": 42.2672799, "lon": 2.9814282, "tags": {"bus": "yes", "highway": "bus_stop", "name": "Marca de l'Ham", "name:ca": "Marca de l'Ham", "public_transport": "stop_position"}}, {"type": "node", "id": 6593861783, "lat": 42.2668938, "lon": 2.9821543, "tags": {"bus": "yes", "highway": "bus_stop", "name": "Marca de l'Ham", "name:ca": "Marca de l'Ham", "public_transport": "stop_position"}}, {"type": "node", "id": 6594357190, "lat": 42.2664017, "lon": 2.9688057, "tags": {"bus": "yes", "highway": "bus_stop", "name": "Estaci\u00f3", "name:ca": "Estaci\u00f3", "public_transport": "stop_position"}}, {"type": "node", "id": 6594453199, "lat": 42.2680361, "lon": 2.952648, "tags": {"bus": "yes", "highway": "bus_stop", "name": "Sociosanitari", "name:ca": "Sociosanitari", "public_transport": "stop_position"}}, {"type": "node", "id": 6594453222, "lat": 42.2688038, "lon": 2.9537158, "tags": {"bus": "yes", "highway": "bus_stop", "name": "Hospital", "name:ca": "Hospital", "public_transport": "stop_position"}}, {"type": "node", "id": 6594453234, "lat": 42.2679474, "lon": 2.9589682, "tags": {"bus": "yes", "highway": "bus_stop", "name": "Museu Joies", "name:ca": "Museu Joies", "public_transport": "stop_position"}}, {"type": "node", "id": 6594453235, "lat": 42.2662713, "lon": 2.9617122, "tags": {"bus": "yes", "highway": "bus_stop", "name": "Rambla", "name:ca": "Rambla", "public_transport": "stop_position"}}, {"type": "node", "id": 6594453237, "lat": 42.2656991, "lon": 2.963105, "tags": {"bus": "yes", "highway": "bus_stop", "name": "Font Lluminosa", "name:ca": "Font Lluminosa", "public_transport": "stop_position"}}, {"type": "node", "id": 6594453241, "lat": 42.2659465, "lon": 2.9636459, "tags": {"bus": "yes", "highway": "bus_stop", "name": "Pla\u00e7a Catalunya", "name:ca": "Pla\u00e7a Catalunya", "public_transport": "stop_position"}}, {"type": "node", "id": 6594453242, "lat": 42.2660226, "lon": 2.9657038, "tags": {"bus": "yes", "bus_lines": "L1; L3", "highway": "bus_stop", "name": "Pla\u00e7a del Gra", "name:ca": "Pla\u00e7a del Gra", "operator": "Fisersa", "passenger_information_display": "yes", "public_transport": "platform", "source": "survey", "source:date": "2017-08"}}, {"type": "node", "id": 6594453243, "lat": 42.266055, "lon": 2.9656897, "tags": {"bus": "yes", "highway": "bus_stop", "name": "Pla\u00e7a del Gra", "name:ca": "Pla\u00e7a del Gra", "public_transport": "stop_position"}}, {"type": "node", "id": 6594497986, "lat": 42.2643394, "lon": 2.9491958, "tags": {"bus": "yes", "highway": "bus_stop", "name": "Pedreres", "name:ca": "Pedreres", "public_transport": "stop_position"}}, {"type": "node", "id": 6594498015, "lat": 42.264992, "lon": 2.9514756, "tags": {"bus": "yes", "highway": "bus_stop", "name": "Junc\u00e0ria", "public_transport": "stop_position"}}, {"type": "node", "id": 6594498016, "lat": 42.2665051, "lon": 2.952341, "tags": {"bus": "yes", "highway": "bus_stop", "name": "Doctor Pasteur", "name:ca": "Doctor Pasteur", "public_transport": "stop_position"}}, {"type": "node", "id": 6594514448, "lat": 42.2630433, "lon": 2.957843, "tags": {"bus": "yes", "highway": "bus_stop", "name": "Via Emporitana", "name:ca": "Via Emporitana", "public_transport": "stop_position"}}, {"type": "node", "id": 6594514450, "lat": 42.2622223, "lon": 2.9559957, "tags": {"bus": "yes", "highway": "bus_stop", "name": "Poble Nou", "name:ca": "Poble Nou", "public_transport": "stop_position"}}, {"type": "node", "id": 6594580730, "lat": 42.2624023, "lon": 2.9493606, "tags": {"bus": "yes", "highway": "bus_stop", "name": "Jutjats", "name:ca": "Jutjats", "public_transport": "stop_position"}}, {"type": "node", "id": 6594580738, "lat": 42.2663371, "lon": 2.9459718, "tags": {"bus": "yes", "highway": "bus_stop", "name": "Geri\u00e0tric", "name:ca": "Geri\u00e0tric", "public_transport": "stop_position"}}, {"type": "node", "id": 6594580741, "lat": 42.2657913, "lon": 2.9453589, "tags": {"bus": "yes", "highway": "bus_stop", "name": "Sibecas", "public_transport": "stop_position"}}, {"type": "node", "id": 6594580746, "lat": 42.2655451, "lon": 2.9470351, "tags": {"bus": "yes", "highway": "bus_stop", "name": "Culubret", "public_transport": "stop_position"}}, {"type": "node", "id": 6600849346, "lat": 42.2546626, "lon": 2.9507668, "tags": {"bus": "yes", "highway": "bus_stop", "name": "Moss\u00e8n Cinto Verdaguer", "name:ca": "Moss\u00e8n Cinto Verdaguer", "public_transport": "stop_position"}}, {"type": "node", "id": 6600849371, "lat": 42.2568213, "lon": 2.9531016, "tags": {"bus": "yes", "highway": "bus_stop", "name": "Les M\u00e8lies", "name:ca": "Les M\u00e8lies", "public_transport": "stop_position"}}, {"type": "node", "id": 6600853895, "lat": 42.2592495, "lon": 2.9522036, "tags": {"bus": "yes", "highway": "bus_stop", "name": "Maria Torres", "name:ca": "Maria Torres", "public_transport": "stop_position"}}, {"type": "node", "id": 6600853900, "lat": 42.2601874, "lon": 2.9522632, "tags": {"bus": "yes", "highway": "bus_stop", "name": "Terme", "name:ca": "Terme", "public_transport": "stop_position"}}, {"type": "node", "id": 6600853907, "lat": 42.2601962, "lon": 2.9576253, "tags": {"bus": "yes", "highway": "bus_stop", "name": "Ponent", "name:ca": "Ponent", "public_transport": "stop_position"}}, {"type": "node", "id": 6600853914, "lat": 42.2590306, "lon": 2.9582032, "tags": {"bus": "yes", "highway": "bus_stop", "name": "Pallach", "public_transport": "stop_position"}}, {"type": "node", "id": 6600853916, "lat": 42.2648179, "lon": 2.9581176, "tags": {"bus": "yes", "highway": "bus_stop", "name": "Salvador Dal\u00ed", "name:ca": "Salvador Dal\u00ed", "public_transport": "stop_position"}}, {"type": "node", "id": 6600853919, "lat": 42.2652089, "lon": 2.9565361, "tags": {"bus": "yes", "highway": "bus_stop", "name": "Llar Jubilats", "name:ca": "Llar Jubilats", "public_transport": "stop_position"}}, {"type": "node", "id": 6600853924, "lat": 42.266889, "lon": 2.9542185, "tags": {"bus": "yes", "highway": "bus_stop", "name": "Ronda del Parc", "name:ca": "Ronda del Parc", "public_transport": "stop_position"}}, {"type": "node", "id": 6600853925, "lat": 42.2614464, "lon": 2.965892, "tags": {"bus": "yes", "highway": "bus_stop", "name": "Nou", "name:ca": "Nou", "public_transport": "stop_position"}}, {"type": "node", "id": 6600853927, "lat": 42.2594834, "lon": 2.966999, "tags": {"bus": "yes", "highway": "bus_stop", "name": "Rambla Nova", "name:ca": "Rambla Nova", "public_transport": "stop_position"}}, {"type": "node", "id": 6600898159, "lat": 42.2470295, "lon": 2.9582809, "tags": {"bus": "yes", "highway": "bus_stop", "name": "Mare de D\u00e9u del Mont", "name:ca": "Mare de D\u00e9u del Mont", "public_transport": "stop_position"}}, {"type": "node", "id": 6600898166, "lat": 42.2495248, "lon": 2.9580507, "tags": {"bus": "yes", "highway": "bus_stop", "name": "Tarragona", "name:ca": "Tarragona", "public_transport": "stop_position"}}, {"type": "node", "id": 6600929766, "lat": 42.2541006, "lon": 2.9547327, "tags": {"bus": "yes", "highway": "bus_stop", "name": "CAP Vilafant", "name:ca": "CAP Vilafant", "public_transport": "stop_position"}}, {"type": "node", "id": 6600976854, "lat": 42.2572874, "lon": 2.9656962, "tags": {"bus": "yes", "highway": "bus_stop", "name": "Borrass\u00e0", "name:ca": "Borrass\u00e0", "public_transport": "stop_position"}}, {"type": "node", "id": 6600976881, "lat": 42.2477643, "lon": 2.9605188, "tags": {"bus": "yes", "highway": "bus_stop", "name": "les Forques", "name:ca": "les Forques", "public_transport": "stop_position"}}, {"type": "node", "id": 6600976883, "lat": 42.2446244, "lon": 2.9610765, "tags": {"bus": "yes", "highway": "bus_stop", "name": "Pla de l'Estany", "name:ca": "Pla de l'Estany", "public_transport": "stop_position"}}, {"type": "node", "id": 6603448333, "lat": 42.2730379, "lon": 2.9573419, "tags": {"bus": "yes", "highway": "bus_stop", "name": "Alberes", "name:ca": "Alberes", "public_transport": "stop_position"}}, {"type": "node", "id": 6603448345, "lat": 42.2713951, "lon": 2.9580833, "tags": {"bus": "yes", "highway": "bus_stop", "name": "Parc de les Aig\u00fces", "name:ca": "Parc de les Aig\u00fces", "public_transport": "stop_position"}}, {"type": "node", "id": 6603448359, "lat": 42.2702698, "lon": 2.9630118, "tags": {"bus": "yes", "highway": "bus_stop", "name": "Rec Arnau", "name:ca": "Rec Arnau", "public_transport": "stop_position"}}, {"type": "node", "id": 6603448365, "lat": 42.2698062, "lon": 2.9649073, "tags": {"bus": "yes", "highway": "bus_stop", "name": "Hortes", "name:ca": "Hortes", "public_transport": "stop_position"}}, {"type": "node", "id": 6603453618, "lat": 42.2738874, "lon": 2.9687741, "tags": {"bus": "yes", "highway": "bus_stop", "name": "Narc\u00eds Soler", "name:ca": "Narc\u00eds Soler", "public_transport": "stop_position"}}, {"type": "node", "id": 6603466270, "lat": 42.2693186, "lon": 2.9667386, "tags": {"bus": "yes", "highway": "bus_stop", "name": "Pla\u00e7a Tarradellas", "name:ca": "Pla\u00e7a Tarradellas", "public_transport": "stop_position"}}, {"type": "node", "id": 6603466272, "lat": 42.2680992, "lon": 2.9512559, "tags": {"bus": "yes", "highway": "bus_stop", "name": "Mari\u00e0 Pujolar", "name:ca": "Mari\u00e0 Pujolar", "public_transport": "stop_position"}}, {"type": "node", "id": 6603466284, "lat": 42.2715261, "lon": 2.9569097, "tags": {"bus": "yes", "highway": "bus_stop", "name": "Marignane", "public_transport": "stop_position"}}, {"type": "node", "id": 6606248382, "lat": 42.256635, "lon": 2.9680529, "tags": {"bus": "yes", "highway": "bus_stop", "name": "Rally Sud", "public_transport": "stop_position"}}, {"type": "node", "id": 6606248384, "lat": 42.2586045, "lon": 2.9674222, "tags": {"bus": "yes", "highway": "bus_stop", "name": "Rambla Nova", "name:ca": "Rambla Nova", "public_transport": "stop_position"}}, {"type": "node", "id": 6606252986, "lat": 42.2594242, "lon": 2.9651477, "tags": {"bus": "yes", "highway": "bus_stop", "name": "Torras i Bages", "public_transport": "stop_position"}}, {"type": "node", "id": 6606252990, "lat": 42.2591718, "lon": 2.9633647, "tags": {"bus": "yes", "highway": "bus_stop", "name": "Pres\u00f3", "name:ca": "Pres\u00f3", "public_transport": "stop_position"}}, {"type": "node", "id": 6606252992, "lat": 42.2605357, "lon": 2.9629421, "tags": {"bus": "yes", "highway": "bus_stop", "name": "Correus", "name:ca": "Correus", "public_transport": "stop_position"}}, {"type": "node", "id": 6606252994, "lat": 42.2627432, "lon": 2.9622472, "tags": {"bus": "yes", "highway": "bus_stop", "name": "Institut Ramon Muntaner", "name:ca": "Institut Ramon Muntaner", "public_transport": "stop_position"}}, {"type": "node", "id": 6606253004, "lat": 42.2639502, "lon": 2.9618677, "tags": {"bus": "yes", "highway": "bus_stop", "name": "Pla\u00e7a Triangular", "name:ca": "Pla\u00e7a Triangular", "public_transport": "stop_position"}}, {"type": "node", "id": 6606253006, "lat": 42.2651123, "lon": 2.9660517, "tags": {"bus": "yes", "highway": "bus_stop", "name": "M\u00e9ndez N\u00fa\u00f1ez", "public_transport": "stop_position"}}, {"type": "node", "id": 6606253008, "lat": 42.2625714, "lon": 2.9648936, "tags": {"bus": "yes", "highway": "bus_stop", "name": "Pere III", "name:ca": "Pere III", "public_transport": "stop_position"}}, {"type": "node", "id": 6606253012, "lat": 42.2620979, "lon": 2.9614445, "tags": {"bus": "yes", "highway": "bus_stop", "name": "Santa Creu", "name:ca": "Santa Creu", "public_transport": "stop_position"}}, {"type": "node", "id": 6606253031, "lat": 42.2585515, "lon": 2.9592142, "tags": {"bus": "yes", "highway": "bus_stop", "name": "Dama d'Arag\u00f3", "name:ca": "Dama d'Arag\u00f3", "public_transport": "stop_position"}}, {"type": "node", "id": 7347837790, "lat": 42.1130804, "lon": 2.7653307, "tags": {"bus": "yes", "highway": "bus_stop", "name": "Banyoles - MCONSTANTS", "public_transport": "platform", "ref": "37814"}}, {"type": "node", "id": 7504525657, "lat": 42.2163747, "lon": 2.9780258, "tags": {"name": "Vilamalla", "name:ca": "Vilamalla", "operator": "Adif", "public_transport": "station", "railway": "station", "wheelchair": "yes", "wikidata": "Q8842215", "wikipedia": "ca:Estaci\u00f3 de Vilamalla"}}, {"type": "node", "id": 7512362062, "lat": 42.2650045, "lon": 2.9689697, "tags": {"name": "Figueres", "name:ca": "Figueres", "public_transport": "station", "railway": "station", "railway:ref:DB": "XEFI", "wheelchair": "yes", "wikidata": "Q3096440", "wikipedia": "ca:Estaci\u00f3 de Figueres"}}, {"type": "node", "id": 8245302590, "lat": 42.2647362, "lon": 2.9438704, "tags": {"bus": "yes", "highway": "bus_stop", "public_transport": "platform", "shelter": "yes"}}, {"type": "node", "id": 8327345999, "lat": 42.0231283, "lon": 2.7026989, "tags": {"bus": "yes", "highway": "bus_stop", "name": "Sant Mart\u00ed de Ll\u00e9mena (Llor\u00e0)", "name:ca": "Sant Mart\u00ed de Ll\u00e9mena (Llor\u00e0)", "network": "LN 301", "operator": "TEISA", "public_transport": "platform", "shelter": "yes"}}, {"type": "node", "id": 8327346000, "lat": 42.0232834, "lon": 2.7026299, "tags": {"bus": "yes", "highway": "bus_stop", "name": "Sant Mart\u00ed de Ll\u00e9mena (Llor\u00e0)", "name:ca": "Sant Mart\u00ed de Ll\u00e9mena (Llor\u00e0)", "network": "LN 301", "operator": "TEISA", "public_transport": "platform", "shelter": "no"}}, {"type": "node", "id": 8327462715, "lat": 42.0217096, "lon": 2.682343, "tags": {"bus": "yes", "highway": "bus_stop", "name": "Sant Mart\u00ed de Ll\u00e9mena (Pla de Sant Joan)", "name:ca": "Sant Mart\u00ed de Ll\u00e9mena (Pla de Sant Joan)", "network": "LN 301", "operator": "TEISA", "public_transport": "platform"}}, {"type": "node", "id": 8387945303, "lat": 42.2668951, "lon": 2.9840279, "tags": {"bench": "yes", "bin": "no", "bus": "yes", "departures_board": "timetable", "highway": "bus_stop", "name": "Carretera de Roses (cant\u00f3 carrer de Sagitari)", "public_transport": "platform", "ref": "MG 0452", "route_ref": "e6", "shelter": "yes"}}, {"type": "node", "id": 8387945304, "lat": 42.265663, "lon": 3.017027, "tags": {"bench": "yes", "bin": "yes", "bus": "yes", "departures_board": "timetable", "highway": "bus_stop", "name": "Vila-sacra", "name:ca": "Vila-sacra", "public_transport": "platform", "ref": "MG 0355", "shelter": "yes"}}, {"type": "node", "id": 8387980029, "lat": 42.2583307, "lon": 3.0782935, "tags": {"bench": "yes", "bin": "yes", "bus": "yes", "departures_board": "timetable", "highway": "bus_stop", "lit": "yes", "public_transport": "platform", "ref": "MG 0333", "shelter": "yes", "tactile_paving": "no"}}, {"type": "node", "id": 8388016125, "lat": 42.239829, "lon": 3.1246094, "tags": {"bench": "yes", "bin": "no", "bus": "yes", "departures_board": "timetable", "highway": "bus_stop", "name": "Pg. Mar\u00edtim C/ Badia", "public_transport": "platform", "route_ref": "e6", "shelter": "yes"}}, {"type": "node", "id": 8388016126, "lat": 42.256819, "lon": 3.1069416, "tags": {"bench": "yes", "bin": "yes", "bus": "yes", "departures_board": "timetable", "highway": "bus_stop", "name": "Av. Joan Carles I canto C/ Rubina", "public_transport": "platform", "ref": "MG 0324", "route_ref": "e6", "shelter": "yes"}}, {"type": "node", "id": 8388016127, "lat": 42.256668, "lon": 3.1072977, "tags": {"bench": "yes", "bin": "no", "bus": "yes", "departures_board": "timetable", "highway": "bus_stop", "name": "Av. Joan Carles I, 37", "public_transport": "platform", "route_ref": "e6", "shelter": "yes"}}, {"type": "node", "id": 8421591102, "lat": 42.0375648, "lon": 2.7343567, "tags": {"bus": "yes", "departures_board": "yes", "highway": "bus_stop", "name": "Canet d'Adri (Pla\u00e7a del Poble)", "name:ca": "Canet d'Adri (Pla\u00e7a del Poble)", "operator": "TEISA", "public_transport": "platform", "shelter": "yes"}}, {"type": "node", "id": 8421622957, "lat": 42.0334794, "lon": 2.73722, "tags": {"bus": "yes", "highway": "bus_stop", "name": "Canet d'Adri (Ajuntament)", "name:ca": "Canet d'Adri (Ajuntament)", "operator": "TEISA", "public_transport": "stop_position"}}, {"type": "node", "id": 8663241990, "lat": 42.0215183, "lon": 2.6826109, "tags": {"bus": "yes", "departures_board": "timetable", "highway": "bus_stop", "name": "Sant Mart\u00ed de Ll\u00e9mena (Pla de Sant Joan)", "name:ca": "Sant Mart\u00ed de Ll\u00e9mena (Pla de Sant Joan)", "network": "LN 301", "operator": "TEISA", "public_transport": "platform", "shelter": "yes"}}, {"type": "node", "id": 8701245239, "lat": 42.2004372, "lon": 2.6949878, "tags": {"bus": "yes", "highway": "bus_stop", "name": "Besal\u00fa", "name:ca": "Besal\u00fa", "network": "LN 100", "operator": "TEISA", "public_transport": "platform", "shelter": "yes"}}, {"type": "node", "id": 8701245240, "lat": 42.200554, "lon": 2.6950201, "tags": {"bus": "yes", "highway": "bus_stop", "name": "Besal\u00fa", "name:ca": "Besal\u00fa", "network": "LN 100", "operator": "TEISA", "public_transport": "platform", "shelter": "yes"}}, {"type": "node", "id": 8701273329, "lat": 42.2159286, "lon": 2.6424611, "tags": {"bus": "yes", "departures_board": "timetable", "highway": "bus_stop", "name": "Argelaguer", "name:ca": "Argelaguer", "network": "LN 100", "operator": "TEISA", "public_transport": "platform", "route_ref": "L0803", "shelter": "yes"}}, {"type": "node", "id": 8701273330, "lat": 42.2160266, "lon": 2.6426315, "tags": {"bus": "yes", "departures_board": "yes", "highway": "bus_stop", "name": "Argelaguer", "name:ca": "Argelaguer", "network": "LN 100", "operator": "TEISA", "public_transport": "platform", "route_ref": "L0803", "shelter": "yes"}}, {"type": "node", "id": 8701310379, "lat": 42.1121814, "lon": 2.7715485, "tags": {"bus": "yes", "highway": "bus_stop", "public_transport": "platform", "shelter": "yes"}}, {"type": "node", "id": 8736542865, "lat": 42.1591642, "lon": 2.9109372, "tags": {"bus": "yes", "departures_board": "timetable", "highway": "bus_stop", "name": "B\u00e0scara", "name:ca": "B\u00e0scara", "public_transport": "platform", "shelter": "yes"}}, {"type": "node", "id": 8736547354, "lat": 42.1585352, "lon": 2.9105423, "tags": {"bench": "yes", "bin": "yes", "bus": "yes", "departures_board": "timetable", "highway": "bus_stop", "lit": "yes", "name": "B\u00e0scara", "name:ca": "B\u00e0scara", "public_transport": "platform", "shelter": "yes", "tactile_paving": "no"}}, {"type": "node", "id": 8736555571, "lat": 42.1948705, "lon": 2.9313362, "tags": {"bus": "yes", "departures_board": "timetable", "highway": "bus_stop", "name": "Ctra. N-ll - Cru\u00eflla a Pont\u00f3s GIP-5126", "public_transport": "platform", "shelter": "no"}}, {"type": "node", "id": 8736555805, "lat": 42.1945554, "lon": 2.9308279, "tags": {"bus": "yes", "departures_board": "timetable", "highway": "bus_stop", "name": "Ctra. N-ll - Cru\u00eflla a Pont\u00f3s GIP-5126", "public_transport": "platform", "shelter": "no"}}, {"type": "node", "id": 8739795664, "lat": 42.097547, "lon": 2.891096, "tags": {"bus": "yes", "departures_board": "timetable", "highway": "bus_stop", "name": "N-ll - Ca La Sausa", "public_transport": "platform", "shelter": "yes"}}, {"type": "node", "id": 8785254966, "lat": 42.1123287, "lon": 2.7716963, "tags": {"bus": "yes", "highway": "bus_stop", "public_transport": "platform"}}, {"type": "node", "id": 8808664500, "lat": 42.264087, "lon": 2.9674497, "tags": {"bus": "yes", "highway": "bus_stop", "public_transport": "stop_position"}}, {"type": "node", "id": 8808664501, "lat": 42.2641565, "lon": 2.9674484, "tags": {"bus": "yes", "highway": "bus_stop", "public_transport": "stop_position"}}, {"type": "node", "id": 8808664502, "lat": 42.2642309, "lon": 2.967447, "tags": {"bus": "yes", "highway": "bus_stop", "public_transport": "stop_position"}}, {"type": "node", "id": 8808664503, "lat": 42.2642984, "lon": 2.9674451, "tags": {"bus": "yes", "highway": "bus_stop", "public_transport": "stop_position"}}, {"type": "node", "id": 8808664504, "lat": 42.2643729, "lon": 2.9674411, "tags": {"bus": "yes", "highway": "bus_stop", "name": "Figueres estaci\u00f3 d'autobusos", "public_transport": "stop_position", "route_ref": "e6 L0803"}}, {"type": "node", "id": 8808664505, "lat": 42.2644448, "lon": 2.9674417, "tags": {"bus": "yes", "highway": "bus_stop", "name": "Figueres estaci\u00f3 d'autobusos", "public_transport": "stop_position"}}, {"type": "node", "id": 8808664506, "lat": 42.2645198, "lon": 2.967441, "tags": {"bus": "yes", "highway": "bus_stop", "public_transport": "stop_position"}}, {"type": "node", "id": 8808664508, "lat": 42.2645882, "lon": 2.9674404, "tags": {"bus": "yes", "highway": "bus_stop", "public_transport": "stop_position"}}, {"type": "node", "id": 8808664510, "lat": 42.2646639, "lon": 2.9674405, "tags": {"bus": "yes", "highway": "bus_stop", "public_transport": "stop_position"}}, {"type": "node", "id": 8808858459, "lat": 42.1174856, "lon": 3.1291123, "tags": {"bus": "yes", "highway": "bus_stop", "name": "L'Escala, Poble Sec", "name:ca": "L'Escala, Poble Sec", "public_transport": "stop_position", "route_ref": "L1140"}}, {"type": "node", "id": 8808858465, "lat": 42.1226458, "lon": 3.131756, "tags": {"bus": "yes", "highway": "bus_stop", "name": "L'Escala", "name:ca": "L'Escala", "name:es": "L'Escala", "name:ru": "\u041b\u0430-\u042d\u0441\u043a\u0430\u043b\u0430", "operator": "Moventis", "public_transport": "stop_position", "route_ref": "L1140"}}, {"type": "node", "id": 8808858470, "lat": 42.1246584, "lon": 3.1210804, "tags": {"bus": "yes", "highway": "bus_stop", "name": "L'Escala, Emp\u00faries", "name:ca": "L'Escala, Emp\u00faries", "public_transport": "platform", "route_ref": "L1140"}}, {"type": "node", "id": 8808858476, "lat": 42.1246795, "lon": 3.1210681, "tags": {"bus": "yes", "highway": "bus_stop", "name": "L'Escala, Emp\u00faries", "name:ca": "L'Escala, Emp\u00faries", "public_transport": "stop_position"}}, {"type": "node", "id": 8808858485, "lat": 42.1245812, "lon": 3.12063, "tags": {"bus": "yes", "highway": "bus_stop", "name": "L'Escala, Emp\u00faries", "name:ca": "L'Escala, Emp\u00faries", "public_transport": "stop_position"}}, {"type": "node", "id": 8808858487, "lat": 42.1348369, "lon": 3.074594, "tags": {"bus": "yes", "highway": "bus_stop", "name": "Viladamat", "name:ca": "Viladamat", "public_transport": "stop_position", "route_ref": "L1140"}}, {"type": "node", "id": 8808858488, "lat": 42.1347886, "lon": 3.0745907, "tags": {"bench": "yes", "bus": "yes", "highway": "bus_stop", "name": "Viladamat", "name:ca": "Viladamat", "public_transport": "platform", "route_ref": "L1140"}}, {"type": "node", "id": 8808858493, "lat": 42.145283, "lon": 3.069739, "tags": {"bus": "yes", "highway": "bus_stop", "name": "Pelacal\u00e7", "name:ca": "Pelacal\u00e7", "public_transport": "stop_position"}}, {"type": "node", "id": 8808858496, "lat": 42.1450313, "lon": 3.0699115, "tags": {"bus": "yes", "highway": "bus_stop", "name": "Pelacal\u00e7", "name:ca": "Pelacal\u00e7", "public_transport": "stop_position"}}, {"type": "node", "id": 8808858502, "lat": 42.1557137, "lon": 3.0688668, "tags": {"bus": "yes", "highway": "bus_stop", "name": "Montir\u00f3", "name:ca": "Montir\u00f3", "public_transport": "stop_position"}}, {"type": "node", "id": 8808858503, "lat": 42.1719659, "lon": 3.0727601, "tags": {"bus": "yes", "highway": "bus_stop", "name": "l'Armentera", "name:ca": "l'Armentera", "public_transport": "stop_position"}}, {"type": "node", "id": 8808858511, "lat": 42.1897952, "lon": 3.0813469, "tags": {"bus": "yes", "highway": "bus_stop", "name": "Sant Pere Pescador", "name:ca": "Sant Pere Pescador", "public_transport": "stop_position"}}, {"type": "node", "id": 8808858513, "lat": 42.1895064, "lon": 3.0812541, "tags": {"bus": "yes", "highway": "bus_stop", "name": "Sant Pere Pescador", "name:ca": "Sant Pere Pescador", "public_transport": "stop_position"}}, {"type": "node", "id": 8808858515, "lat": 42.1756346, "lon": 3.0395203, "tags": {"bus": "yes", "highway": "bus_stop", "name": "Torroella de Fluvi\u00e0", "name:ca": "Torroella de Fluvi\u00e0", "public_transport": "stop_position"}}, {"type": "node", "id": 8808878718, "lat": 42.1944078, "lon": 3.0511376, "tags": {"bus": "yes", "highway": "bus_stop", "name": "Vilamacolum", "name:ca": "Vilamacolum", "public_transport": "stop_position"}}, {"type": "node", "id": 8808878721, "lat": 42.1938149, "lon": 3.0376904, "tags": {"bus": "yes", "highway": "bus_stop", "name": "Vilacolum", "name:ca": "Vilacolum", "public_transport": "stop_position"}}, {"type": "node", "id": 8808878726, "lat": 42.2274791, "lon": 3.0420274, "tags": {"bus": "yes", "highway": "bus_stop", "name": "Riumors", "name:ca": "Riumors", "public_transport": "stop_position"}}, {"type": "node", "id": 8808878727, "lat": 42.2439758, "lon": 3.038298, "tags": {"bus": "yes", "highway": "bus_stop", "name": "Forti\u00e0", "name:ca": "Forti\u00e0", "public_transport": "stop_position"}}, {"type": "node", "id": 8808878729, "lat": 42.2511773, "lon": 2.9950531, "tags": {"bus": "yes", "highway": "bus_stop", "name": "Far d'Empord\u00e0", "name:ca": "Far d'Empord\u00e0", "public_transport": "stop_position"}}, {"type": "node", "id": 8861159129, "lat": 42.270487, "lon": 2.848568, "tags": {"bus": "yes", "highway": "bus_stop", "public_transport": "platform"}}, {"type": "node", "id": 8929112560, "lat": 42.0365282, "lon": 2.6478499, "tags": {"bus": "yes", "highway": "bus_stop", "public_transport": "stop_position"}}, {"type": "node", "id": 9234899103, "lat": 42.1246084, "lon": 3.1206316, "tags": {"bus": "yes", "highway": "bus_stop", "name": "L'Escala, Emp\u00faries", "name:ca": "L'Escala, Emp\u00faries", "public_transport": "platform"}}, {"type": "node", "id": 9243542752, "lat": 42.1223314, "lon": 3.1318724, "tags": {"bus": "yes", "description": "Locomotora de autob\u00fas en Escala, \u0410\u0432\u0442\u043e\u0431\u0443\u0441 \u043f\u0430\u0440\u043e\u0432\u043e\u0437 \u043f\u043e \u042d\u0441\u043a\u0430\u043b\u0430, Bus locomotive on Escala", "highway": "bus_stop", "name": "autob\u00fas urbano", "name:ru": "\u0422\u0443\u0440\u0438\u0441\u0442\u0438\u0447\u0435\u0441\u043a\u0438\u0439 \u043f\u0430\u0440\u043e\u0432\u043e\u0437 \u0430\u0432\u0442\u043e\u0431\u0443\u0441", "public_transport": "platform", "shelter": "yes"}}, {"type": "node", "id": 9316137624, "lat": 42.286159, "lon": 2.9376259, "tags": {"bench": "yes", "bin": "no", "bus": "yes", "departures_board": "timetable", "highway": "bus_stop", "lit": "yes", "public_transport": "platform", "shelter": "yes"}}, {"type": "node", "id": 9320686656, "lat": 42.0567233, "lon": 2.643502, "tags": {"bus": "yes", "departures_board": "yes", "highway": "bus_stop", "name": "Granolleres de Rocacorba", "name:ca": "Granolleres de Rocacorba", "operator": "Teisa", "public_transport": "platform", "shelter": "yes"}}, {"type": "node", "id": 9328304668, "lat": 42.2063004, "lon": 2.7506955, "tags": {"bus": "yes", "highway": "bus_stop", "name": "Mai\u00e0 de Montcal", "public_transport": "platform", "route_ref": "L0803", "shelter": "yes", "source": "survey 2021"}}, {"type": "node", "id": 9351105796, "lat": 42.1848687, "lon": 2.736249, "tags": {"bus": "yes", "highway": "bus_stop", "public_transport": "platform", "shelter": "no"}}, {"type": "node", "id": 9502239860, "lat": 42.2430645, "lon": 3.1288835, "tags": {"bus": "yes", "highway": "bus_stop", "public_transport": "platform"}}, {"type": "node", "id": 9530374160, "lat": 42.4037634, "lon": 2.4905382, "tags": {"bus": "yes", "highway": "bus_stop", "name": "Ligne 531 -St Martin", "public_transport": "platform", "ref": "St Martin", "shelter": "no"}}, {"type": "node", "id": 9565947025, "lat": 42.1002087, "lon": 2.9643076, "tags": {"bus": "yes", "highway": "bus_stop", "public_transport": "platform", "shelter": "yes"}}, {"type": "node", "id": 9671211236, "lat": 42.1674602, "lon": 2.7435372, "tags": {"bus": "yes", "departures_board": "timetable", "highway": "bus_stop", "name": "Serinya", "operator": "TEISA", "public_transport": "platform", "shelter": "yes"}}, {"type": "node", "id": 9671243187, "lat": 42.2129332, "lon": 2.607188, "tags": {"bus": "yes", "highway": "bus_stop", "name": "Sant Jaume de Llierca", "name:ca": "Sant Jaume de Llierca", "operator": "TEISA", "public_transport": "platform", "route_ref": "L0803", "shelter": "no"}}, {"type": "node", "id": 10040341026, "lat": 42.4651127, "lon": 2.8630999, "tags": {"bench": "no", "bin": "no", "highway": "bus_stop", "lit": "yes", "passenger_information_display": "yes", "public_transport": "platform", "shelter": "no", "tactile_paving": "no"}}, {"type": "node", "id": 10040341030, "lat": 42.4648822, "lon": 2.8632414, "tags": {"bench": "no", "bin": "no", "highway": "bus_stop", "lit": "yes", "passenger_information_display": "yes", "public_transport": "platform", "shelter": "no", "tactile_paving": "no"}}, {"type": "node", "id": 10180577844, "lat": 42.4042282, "lon": 2.5998357, "tags": {"bus": "yes", "highway": "bus_stop", "name": "La Forge del Mitg", "public_transport": "platform"}}, {"type": "node", "id": 10537257353, "lat": 42.2005141, "lon": 2.6949739, "tags": {"bus": "yes", "highway": "bus_stop", "name": "Besal\u00fa", "name:ca": "Besal\u00fa", "public_transport": "stop_position"}}, {"type": "node", "id": 10537257354, "lat": 42.2004812, "lon": 2.6950415, "tags": {"bus": "yes", "highway": "bus_stop", "name": "Besal\u00fa", "name:ca": "Besal\u00fa", "public_transport": "stop_position"}}, {"type": "node", "id": 10732630513, "lat": 42.3112445, "lon": 3.0654786, "tags": {"bench": "yes", "bin": "no", "highway": "bus_stop", "lit": "yes", "public_transport": "platform", "shelter": "yes", "tactile_paving": "no"}}, {"type": "node", "id": 10914150477, "lat": 42.1811859, "lon": 2.9310105, "tags": {"bus": "yes", "highway": "bus_stop", "name": "Cru\u00eflla a Pont\u00f3s", "public_transport": "platform", "ref": "16824", "shelter": "no"}}, {"type": "node", "id": 10914150478, "lat": 42.1819119, "lon": 2.9314271, "tags": {"bus": "yes", "highway": "bus_stop", "name": "Cru\u00eflla a Pont\u00f3s", "public_transport": "platform", "shelter": "no"}}, {"type": "node", "id": 11176199127, "lat": 42.2520682, "lon": 3.1030891, "tags": {"bench": "yes", "bin": "no", "bus": "yes", "highway": "bus_stop", "lit": "yes", "public_transport": "platform", "shelter": "yes", "tactile_paving": "no"}}, {"type": "node", "id": 11314401996, "lat": 42.4197123, "lon": 2.9241419, "tags": {"highway": "bus_stop"}}, {"type": "node", "id": 12071142969, "lat": 42.1177375, "lon": 3.1292822, "tags": {"bus": "yes", "highway": "bus_stop", "name": "L'Escala Poble Sec", "public_transport": "platform", "route_ref": "L1140"}}, {"type": "node", "id": 12071143070, "lat": 42.1175434, "lon": 3.1290481, "tags": {"bus": "yes", "highway": "bus_stop", "name": "L'Escala Poble Sec", "public_transport": "platform", "route_ref": "L1140"}}, {"type": "node", "id": 12071154770, "lat": 42.106368, "lon": 3.0723201, "tags": {"bus": "yes", "highway": "bus_stop", "name": "Albons (cruilla)", "public_transport": "platform"}}, {"type": "node", "id": 12122290351, "lat": 42.2211232, "lon": 2.5810355, "tags": {"bus": "yes", "highway": "bus_stop", "name": "Montagut (encreuament)", "public_transport": "stop_position", "route_ref": "L0803"}}, {"type": "node", "id": 12122290352, "lat": 42.2211658, "lon": 2.5809161, "tags": {"bus": "yes", "highway": "bus_stop", "name": "Montagut (encreuament)", "public_transport": "platform", "route_ref": "L0803"}}, {"type": "node", "id": 12122336693, "lat": 42.2252246, "lon": 2.8606969, "tags": {"bus": "yes", "highway": "bus_stop", "name": "Navata", "public_transport": "stop_position", "route_ref": "L0803"}}, {"type": "node", "id": 12122336694, "lat": 42.2208013, "lon": 2.8210446, "tags": {"bus": "yes", "highway": "bus_stop", "name": "Can Vil\u00e0", "public_transport": "platform", "route_ref": "L0803"}}, {"type": "node", "id": 12122336695, "lat": 42.2120156, "lon": 2.8012931, "tags": {"bus": "yes", "highway": "bus_stop", "name": "Queix\u00e0s", "public_transport": "stop_position", "route_ref": "L0803"}}, {"type": "node", "id": 12122336696, "lat": 42.2119797, "lon": 2.8013488, "tags": {"bus": "yes", "highway": "bus_stop", "name": "Queix\u00e0s", "public_transport": "platform", "route_ref": "L0803"}}, {"type": "node", "id": 12122336697, "lat": 42.205355, "lon": 2.7738774, "tags": {"bus": "yes", "highway": "bus_stop", "name": "La Guixera", "public_transport": "stop_position", "route_ref": "L0803"}}, {"type": "node", "id": 12122336698, "lat": 42.2052974, "lon": 2.7738751, "tags": {"bus": "yes", "highway": "bus_stop", "name": "La Guixera", "public_transport": "platform", "route_ref": "L0803"}}, {"type": "node", "id": 12122336699, "lat": 42.206124, "lon": 2.7506166, "tags": {"bus": "yes", "highway": "bus_stop", "name": "Mai\u00e0 de Montcal", "public_transport": "platform", "route_ref": "L0803"}}, {"type": "node", "id": 12122336700, "lat": 42.2159813, "lon": 2.6424639, "tags": {"bus": "yes", "highway": "bus_stop", "name": "Argelaguer", "public_transport": "stop_position", "route_ref": "L0803"}}, {"type": "node", "id": 12122355301, "lat": 42.213247, "lon": 2.6068046, "tags": {"bus": "yes", "highway": "bus_stop", "name": "Sant Jaume de Llierca", "public_transport": "stop_position", "route_ref": "L0803"}}, {"type": "node", "id": 12122355302, "lat": 42.213224, "lon": 2.6067683, "tags": {"bus": "yes", "highway": "bus_stop", "name": "Sant Jaume de Llierca", "public_transport": "platform", "route_ref": "L0803"}}, {"type": "node", "id": 12122359495, "lat": 42.2507457, "lon": 2.939869, "tags": {"bus": "yes", "highway": "bus_stop", "name": "Vilafant", "public_transport": "stop_position", "route_ref": "L0803"}}, {"type": "node", "id": 12122359496, "lat": 42.2507246, "lon": 2.9399123, "tags": {"bus": "yes", "highway": "bus_stop", "name": "Vilafant", "public_transport": "platform", "route_ref": "L0803"}}, {"type": "node", "id": 12122359497, "lat": 42.2509294, "lon": 2.9400609, "tags": {"bus": "yes", "highway": "bus_stop", "name": "Vilafant", "public_transport": "stop_position", "route_ref": "L0803"}}, {"type": "node", "id": 12122359498, "lat": 42.2509537, "lon": 2.9400109, "tags": {"bus": "yes", "highway": "bus_stop", "name": "Vilafant", "public_transport": "platform", "route_ref": "L0803"}}, {"type": "node", "id": 12122359499, "lat": 42.2456367, "lon": 2.9191594, "tags": {"bus": "yes", "highway": "bus_stop", "name": "Avinyonet de Puigvent\u00f3s", "public_transport": "platform", "route_ref": "L0803"}}, {"type": "node", "id": 12122359500, "lat": 42.24546, "lon": 2.9192265, "tags": {"bus": "yes", "highway": "bus_stop", "name": "Avinyonet de Puigvent\u00f3s", "public_transport": "platform", "route_ref": "L0803"}}, {"type": "node", "id": 12122369389, "lat": 42.2129059, "lon": 2.6071561, "tags": {"bus": "yes", "highway": "bus_stop", "name": "Sant Jaume de Llierca", "public_transport": "stop_position", "route_ref": "L0803"}}, {"type": "node", "id": 12122369390, "lat": 42.2159696, "lon": 2.6426422, "tags": {"bus": "yes", "highway": "bus_stop", "name": "Argelaguer", "public_transport": "stop_position", "route_ref": "L0803"}}, {"type": "node", "id": 12122369391, "lat": 42.2002346, "lon": 2.6970974, "tags": {"bus": "yes", "highway": "bus_stop", "name": "Besal\u00fa", "public_transport": "stop_position", "route_ref": "e1 L0803"}}, {"type": "node", "id": 12122369392, "lat": 42.2120859, "lon": 2.8013617, "tags": {"bus": "yes", "highway": "bus_stop", "name": "Queix\u00e0s", "public_transport": "stop_position", "route_ref": "L0803"}}, {"type": "node", "id": 12122369393, "lat": 42.2121134, "lon": 2.8012936, "tags": {"bus": "yes", "highway": "bus_stop", "name": "Queix\u00e0s", "public_transport": "platform", "route_ref": "L0803"}}, {"type": "node", "id": 12122369394, "lat": 42.221039, "lon": 2.8207124, "tags": {"bus": "yes", "highway": "bus_stop", "name": "Can Vil\u00e0", "public_transport": "stop_position", "route_ref": "L0803"}}, {"type": "node", "id": 12122369395, "lat": 42.2210439, "lon": 2.8206139, "tags": {"bus": "yes", "highway": "bus_stop", "name": "Can Vil\u00e0", "public_transport": "platform", "route_ref": "L0803"}}, {"type": "node", "id": 12122369396, "lat": 42.2252392, "lon": 2.8609336, "tags": {"bus": "yes", "highway": "bus_stop", "name": "Navata", "public_transport": "stop_position", "route_ref": "L0803"}}, {"type": "node", "id": 12122369397, "lat": 42.2252798, "lon": 2.8609351, "tags": {"bus": "yes", "highway": "bus_stop", "name": "Navata", "public_transport": "platform", "route_ref": "L0803"}}, {"type": "node", "id": 12144861971, "lat": 42.2625564, "lon": 3.1023135, "tags": {"bus": "yes", "highway": "bus_stop", "name": "C-68 cant\u00f3 C/ Tamariu", "public_transport": "stop_position", "route_ref": "e6"}}, {"type": "node", "id": 12144861972, "lat": 42.2558603, "lon": 3.0764117, "tags": {"bus": "yes", "highway": "bus_stop", "name": "C/ Sta. Clara", "public_transport": "stop_position", "route_ref": "e6"}}, {"type": "node", "id": 12144861974, "lat": 42.2652771, "lon": 3.0205131, "tags": {"bus": "yes", "highway": "bus_stop", "name": "C/ Castell\u00f3 27-29", "public_transport": "stop_position", "route_ref": "e6"}}, {"type": "node", "id": 12144861975, "lat": 42.2652417, "lon": 3.0205072, "tags": {"bus": "yes", "highway": "bus_stop", "name": "C/ Castell\u00f3 27-29", "public_transport": "platform", "route_ref": "e6"}}, {"type": "node", "id": 12144861976, "lat": 42.2669615, "lon": 2.9840212, "tags": {"bus": "yes", "highway": "bus_stop", "name": "Carretera de Roses (cant\u00f3 carrer de Sagitari)", "public_transport": "stop_position", "route_ref": "e6"}}, {"type": "node", "id": 12144908860, "lat": 42.2398925, "lon": 3.1246361, "tags": {"bus": "yes", "highway": "bus_stop", "name": "Pg. Mar\u00edtim C/ Badia", "public_transport": "stop_position", "route_ref": "e6"}}, {"type": "node", "id": 12144908861, "lat": 42.2568472, "lon": 3.1070204, "tags": {"bus": "yes", "highway": "bus_stop", "name": "Av. Joan Carles I canto C/ Rubina", "public_transport": "stop_position", "route_ref": "e6"}}, {"type": "node", "id": 12144936237, "lat": 42.265202, "lon": 3.0214155, "tags": {"bus": "yes", "highway": "bus_stop", "name": "C/ Castell\u00f3 cant\u00f3 cam\u00ed del Palol", "public_transport": "platform", "route_ref": "e6"}}, {"type": "node", "id": 12144936238, "lat": 42.2651556, "lon": 3.0213905, "tags": {"bus": "yes", "highway": "bus_stop", "name": "C/ Castell\u00f3 cant\u00f3 cam\u00ed del Palol", "public_transport": "stop_position", "route_ref": "e6"}}, {"type": "node", "id": 12144936239, "lat": 42.2557922, "lon": 3.0761463, "tags": {"bus": "yes", "highway": "bus_stop", "name": "C/ Sta. Clara cant\u00f3 carrer del Mar", "public_transport": "stop_position", "route_ref": "e6"}}, {"type": "node", "id": 12144936241, "lat": 42.2626485, "lon": 3.1020221, "tags": {"bus": "yes", "highway": "bus_stop", "name": "C-68 cant\u00f3 C/ Tamariu", "public_transport": "stop_position", "route_ref": "e6"}}, {"type": "node", "id": 12144936242, "lat": 42.256615, "lon": 3.1072403, "tags": {"bus": "yes", "highway": "bus_stop", "name": "Av. Joan Carles I, 37", "public_transport": "stop_position", "route_ref": "e6"}}, {"type": "node", "id": 12144936243, "lat": 42.2400935, "lon": 3.1246895, "tags": {"bus": "yes", "highway": "bus_stop", "name": "Pg. Mar\u00edtim C/ Badia", "public_transport": "stop_position", "route_ref": "e6"}}, {"type": "node", "id": 12144949046, "lat": 42.2669368, "lon": 2.9833746, "tags": {"bus": "yes", "highway": "bus_stop", "name": "Ctra. de Roses cant\u00f3 C/ Sagitari", "public_transport": "stop_position", "route_ref": "e6"}}, {"type": "node", "id": 12144949047, "lat": 42.2669902, "lon": 2.9833718, "tags": {"bus": "yes", "highway": "bus_stop", "name": "Ctra. de Roses cant\u00f3 C/ Sagitari", "public_transport": "platform", "route_ref": "e6"}}, {"type": "node", "id": 12144949048, "lat": 42.267495, "lon": 2.9956931, "tags": {"bus": "yes", "highway": "bus_stop", "name": "C-68", "public_transport": "stop_position", "route_ref": "e6"}}, {"type": "node", "id": 12144949049, "lat": 42.267545, "lon": 2.9956846, "tags": {"bus": "yes", "highway": "bus_stop", "name": "C-68", "public_transport": "platform", "route_ref": "e6"}}, {"type": "node", "id": 12145846077, "lat": 42.1226405, "lon": 3.1316734, "tags": {"bus": "yes", "highway": "bus_stop", "name": "L'Escala", "public_transport": "platform", "route_ref": "L1140"}}, {"type": "node", "id": 12149885667, "lat": 42.1177396, "lon": 3.1292397, "tags": {"bus": "yes", "highway": "bus_stop", "name": "L'Escala Poble Sec", "public_transport": "stop_position", "route_ref": "L1140"}}, {"type": "node", "id": 12149885668, "lat": 42.1063701, "lon": 3.0722782, "tags": {"bus": "yes", "highway": "bus_stop", "name": "Albons (cruilla)", "public_transport": "stop_position", "route_ref": "L1140"}}, {"type": "node", "id": 12149936020, "lat": 42.1063243, "lon": 3.0722628, "tags": {"bus": "yes", "highway": "bus_stop", "name": "Albons", "public_transport": "stop_position", "route_ref": "L1140"}}, {"type": "node", "id": 12149936021, "lat": 42.1063328, "lon": 3.0722061, "tags": {"bus": "yes", "highway": "bus_stop", "name": "Albons", "public_transport": "platform", "route_ref": "L1140"}}, {"type": "node", "id": 12149936022, "lat": 42.1513844, "lon": 3.0265625, "tags": {"bus": "yes", "highway": "bus_stop", "name": "Ventall\u00f3", "public_transport": "platform", "route_ref": "L1140"}}, {"type": "node", "id": 12149936023, "lat": 42.1256179, "lon": 3.120676, "tags": {"bus": "yes", "highway": "bus_stop", "name": "GI cant\u00f3 C/ Puig i ca la palca", "public_transport": "stop_position", "route_ref": "L1140"}}, {"type": "node", "id": 12149936024, "lat": 42.1256501, "lon": 3.1207026, "tags": {"bus": "yes", "highway": "bus_stop", "name": "GI cant\u00f3 C/ Puig i ca la palca", "public_transport": "platform", "route_ref": "L1140"}}, {"type": "node", "id": 12378894972, "lat": 42.262382, "lon": 3.0703885, "tags": {"bench": "yes", "bin": "yes", "bus": "yes", "highway": "bus_stop", "lit": "yes", "public_transport": "platform", "shelter": "yes", "tactile_paving": "no"}}, {"type": "node", "id": 12378971596, "lat": 42.2692945, "lon": 2.9668014, "tags": {"bench": "yes", "bin": "no", "bus": "yes", "highway": "bus_stop", "lit": "yes", "name": "Tarradellas", "public_transport": "platform", "shelter": "no", "tactile_paving": "no"}}, {"type": "node", "id": 12565341701, "lat": 42.324035, "lon": 3.0898496, "tags": {"highway": "bus_stop"}}, {"type": "node", "id": 12565341801, "lat": 42.3233058, "lon": 3.0908595, "tags": {"highway": "bus_stop"}}]}