{"version": 0.6, "generator": "Overpass API 0.7.62.5 1bd436f1", "osm3s": {"timestamp_osm_base": "2025-04-09T14:40:21Z", "copyright": "The data included in this document is from www.openstreetmap.org. The data is made available under ODbL."}, "elements": [{"type": "node", "id": 207202505, "lat": 42.2060165, "lon": 2.4975638, "tags": {"bench": "yes", "bus": "yes", "highway": "bus_stop", "name": "la Canya", "name:ca": "la Canya", "public_transport": "stop_position", "shelter": "yes"}}, {"type": "node", "id": 257550518, "lat": 42.1509905, "lon": 2.0368778, "tags": {"bus": "yes", "highway": "bus_stop", "name": "Cru\u00eflla Palmerola", "public_transport": "stop_position", "route_ref": "L0156"}}, {"type": "node", "id": 261006106, "lat": 42.2413116, "lon": 1.964948, "tags": {"name": "la Pobla de Lillet", "name:ca": "la Pobla de Lillet", "public_transport": "station", "railway": "station"}}, {"type": "node", "id": 264491393, "lat": 42.1458901, "lon": 2.5616218, "tags": {"bus": "yes", "highway": "bus_stop", "name": "Urbanitzaci\u00f3 Puig de Mar", "name:ca": "Urbanitzaci\u00f3 Puig de Mar", "public_transport": "stop_position"}}, {"type": "node", "id": 278923120, "lat": 42.2435042, "lon": 1.9733468, "tags": {"bus": "yes", "highway": "bus_stop", "name": "La Pobla de Lillet", "public_transport": "stop_position", "route_ref": "L0051"}}, {"type": "node", "id": 310186311, "lat": 42.1296438, "lon": 2.4504179, "tags": {"bus": "yes", "highway": "bus_stop", "name": "Pol\u00edgon La Serra. La Vall d'en Bas", "public_transport": "stop_position", "route_ref": "L0547"}}, {"type": "node", "id": 356071821, "lat": 42.1934014, "lon": 2.5001334, "tags": {"bus": "yes", "highway": "bus_stop", "public_transport": "stop_position"}}, {"type": "node", "id": 356071823, "lat": 42.1867448, "lon": 2.4963127, "tags": {"bus": "yes", "highway": "bus_stop", "name": "Avinguda Girona - Sant Miquel (CAP)", "name:ca": "Avinguda Girona - Sant Miquel (CAP)", "public_transport": "stop_position"}}, {"type": "node", "id": 356071826, "lat": 42.1849639, "lon": 2.4943033, "tags": {"bus": "yes", "highway": "bus_stop", "name": "desconegut", "public_transport": "stop_position"}}, {"type": "node", "id": 356071833, "lat": 42.0056758, "lon": 2.605435, "tags": {"bench": "yes", "bin": "yes", "bus": "yes", "departures_board": "timetable", "highway": "bus_stop", "name": "Amer", "name:ca": "Amer", "network": "LN 152 Girona - Angl\u00e8s - Amer - Olot", "operator": "TEISA", "public_transport": "platform", "shelter": "yes"}}, {"type": "node", "id": 370691133, "lat": 42.0739657, "lon": 2.6004943, "tags": {"bus": "yes", "highway": "bus_stop", "public_transport": "platform"}}, {"type": "node", "id": 493944502, "lat": 42.010726, "lon": 2.6032281, "tags": {"bench": "yes", "bus": "yes", "departures_board": "timetable", "highway": "bus_stop", "name": "Amer", "name:ca": "Amer", "network": "LN 152 Girona - Angl\u00e8s - Amer - Olot", "operator": "TEISA", "public_transport": "platform", "shelter": "yes"}}, {"type": "node", "id": 493944507, "lat": 42.0525032, "lon": 2.546245, "tags": {"bus": "yes", "departures_board": "timetable", "highway": "bus_stop", "name": "Les Planes d'Hostoles El Jonquer", "network": "LN 152 Girona - Angl\u00e8s - Amer - Olot", "operator": "TEISA", "public_transport": "platform", "shelter": "yes"}}, {"type": "node", "id": 498752412, "lat": 42.2088122, "lon": 2.4839822, "tags": {"bus": "yes", "highway": "bus_stop", "name": "Llocalou", "name:ca": "Llocalou", "public_transport": "stop_position", "route_ref": "L0330"}}, {"type": "node", "id": 529914130, "lat": 42.2592672, "lon": 1.9771542, "tags": {"name": "Museu del Ciment", "name:ca": "Museu del Ciment", "public_transport": "station", "railway": "station"}}, {"type": "node", "id": 530777095, "lat": 41.930983, "lon": 2.248679, "tags": {"bench": "yes", "bin": "yes", "ele:local": "493.9", "name": "Vic", "name:ca": "Vic", "operator": "Adif", "public_transport": "platform", "railway": "station", "shelter": "yes", "source:ele": "commons.wikimedia.org/wiki/File:Vic_-_Estaci\u00f3_-_20110121_(3).jpg", "train": "yes", "wikidata": "Q8842197", "wikipedia": "ca:Estaci\u00f3 de Vic"}}, {"type": "node", "id": 537050417, "lat": 41.9573775, "lon": 2.1475533, "tags": {"bus": "yes", "highway": "bus_stop", "name": "Ctra. C-154 - Casa Miquela", "public_transport": "stop_position", "ref": "1838", "route_ref": "476"}}, {"type": "node", "id": 698901206, "lat": 42.1464798, "lon": 2.5697115, "tags": {"bus": "yes", "highway": "bus_stop", "name": "Santa Pau", "name:ca": "Santa Pau", "public_transport": "stop_position"}}, {"type": "node", "id": 704347676, "lat": 42.1884404, "lon": 2.4989969, "tags": {"bus": "yes", "highway": "bus_stop", "public_transport": "stop_position"}}, {"type": "node", "id": 957218725, "lat": 42.0060204, "lon": 2.2821057, "tags": {"bus": "yes", "highway": "bus_stop", "name": "Pg. St. Joan - Mn. Aulet", "public_transport": "platform", "ref": "4786", "route_ref": "449"}}, {"type": "node", "id": 957218742, "lat": 41.9989528, "lon": 2.2862738, "tags": {"bench": "yes", "bin": "yes", "bus": "yes", "departures_board": "timetable", "highway": "bus_stop", "name": "Parada de bus", "public_transport": "platform", "shelter": "yes", "tactile_paving": "no"}}, {"type": "node", "id": 965997712, "lat": 42.0104584, "lon": 2.6032475, "tags": {"bench": "yes", "bus": "yes", "departures_board": "timetable", "highway": "bus_stop", "name": "Amer", "name:ca": "Amer", "network": "LN 152 Girona - Angl\u00e8s - Amer - Olot", "operator": "TEISA", "public_transport": "platform", "shelter": "yes"}}, {"type": "node", "id": 965997765, "lat": 42.0071415, "lon": 2.6049806, "tags": {"bench": "yes", "bus": "yes", "highway": "bus_stop", "public_transport": "stop_position", "shelter": "yes"}}, {"type": "node", "id": 1638939649, "lat": 41.914858, "lon": 2.2303689, "tags": {"bus": "yes", "highway": "bus_stop", "name": "Pl. de la Creu", "public_transport": "platform", "shelter": "no"}}, {"type": "node", "id": 1704324764, "lat": 42.2343821, "lon": 2.2877825, "tags": {"bench": "yes", "bin": "yes", "bus": "yes", "highway": "bus_stop", "public_transport": "platform", "shelter": "yes"}}, {"type": "node", "id": 1704324776, "lat": 42.2345235, "lon": 2.281311, "tags": {"bench": "yes", "bin": "yes", "bus": "yes", "highway": "bus_stop", "public_transport": "platform", "shelter": "no"}}, {"type": "node", "id": 1704324780, "lat": 42.2354527, "lon": 2.292502, "tags": {"bus": "yes", "highway": "bus_stop", "public_transport": "platform", "shelter": "yes"}}, {"type": "node", "id": 1737621556, "lat": 42.178096, "lon": 2.4904195, "tags": {"bench": "yes", "bin": "yes", "bus": "yes", "highway": "bus_stop", "public_transport": "platform", "shelter": "no", "tactile_paving": "no"}}, {"type": "node", "id": 1772777355, "lat": 41.9276346, "lon": 2.2443106, "tags": {"bus": "yes", "highway": "bus_stop", "name": "Ctra. Prats", "public_transport": "platform", "shelter": "no"}}, {"type": "node", "id": 1772777360, "lat": 41.9338061, "lon": 2.2471986, "tags": {"bench": "yes", "bin": "yes", "bus": "yes", "check_date:shelter": "2022-10-22", "highway": "bus_stop", "name": "Universitat", "name:ca": "Universitat", "public_transport": "platform", "shelter": "yes", "tactile_paving": "no"}}, {"type": "node", "id": 1772777362, "lat": 41.9332516, "lon": 2.2416091, "tags": {"bus": "yes", "highway": "bus_stop", "name": "IES J. Call\u00eds", "public_transport": "platform", "shelter": "no"}}, {"type": "node", "id": 1772777364, "lat": 41.9318525, "lon": 2.2400834, "tags": {"bus": "yes", "highway": "bus_stop", "name": "Parc Joan Riera i Rius", "name:ca": "Parc Joan Riera i Rius", "public_transport": "platform", "shelter": "no"}}, {"type": "node", "id": 1772777366, "lat": 41.929135, "lon": 2.2426987, "tags": {"bench": "yes", "bus": "yes", "highway": "bus_stop", "name": "Carrer de l'Ermita de S. Sixt", "name:ca": "Carrer de l'Ermita de S. Sixt", "public_transport": "platform", "shelter": "yes"}}, {"type": "node", "id": 1772777379, "lat": 41.9296786, "lon": 2.2389903, "tags": {"bus": "yes", "highway": "bus_stop", "name": "el Nadal", "name:ca": "el Nadal", "public_transport": "platform", "shelter": "no"}}, {"type": "node", "id": 1772787866, "lat": 41.9278936, "lon": 2.2467083, "tags": {"bench": "yes", "bin": "yes", "bus": "yes", "highway": "bus_stop", "name": "el Sucre", "name:ca": "el Sucre", "public_transport": "platform", "shelter": "no"}}, {"type": "node", "id": 1772787869, "lat": 41.9305081, "lon": 2.2489845, "tags": {"bench": "yes", "bin": "no", "bus": "yes", "highway": "bus_stop", "lit": "no", "name": "Pl. Estaci\u00f3 (RENFE)", "public_transport": "platform", "shelter": "yes", "tactile_paving": "no"}}, {"type": "node", "id": 1772801569, "lat": 41.9339513, "lon": 2.2538838, "tags": {"bus": "yes", "highway": "bus_stop", "name": "Pare Coll", "public_transport": "platform", "shelter": "no"}}, {"type": "node", "id": 1875888068, "lat": 42.0929272, "lon": 2.1309551, "tags": {"bus": "yes", "highway": "bus_stop", "name": "L'Alou", "public_transport": "stop_position", "ref": "4755", "route_ref": "471"}}, {"type": "node", "id": 1881165570, "lat": 42.1810051, "lon": 2.4915541, "tags": {"bus": "yes", "highway": "bus_stop", "name": "Carrer Bisbe Lourenzana (Estaci\u00f3 d'autobusos d'Olot)", "name:ca": "Carrer Bisbe Lourenzana (Estaci\u00f3 d'autobusos d'Olot)", "public_transport": "stop_position"}}, {"type": "node", "id": 1893030465, "lat": 42.2627996, "lon": 2.3665507, "tags": {"bench": "yes", "bin": "yes", "bus": "yes", "highway": "bus_stop", "local_ref": "Sant Pau de Seguries", "name": "Sant Pau de Seguries", "public_transport": "platform", "shelter": "yes"}}, {"type": "node", "id": 1893031145, "lat": 42.2625849, "lon": 2.366209, "tags": {"bench": "yes", "bin": "no", "bus": "yes", "highway": "bus_stop", "public_transport": "platform", "shelter": "yes", "tactile_paving": "no"}}, {"type": "node", "id": 2029763286, "lat": 42.053947, "lon": 2.2633873, "tags": {"bus": "yes", "highway": "bus_stop", "name": "IES Cirvi\u00e0num", "name:ca": "IES Cirvi\u00e0num", "public_transport": "platform", "ref": "8771", "route_ref": "466"}}, {"type": "node", "id": 2211965375, "lat": 42.1509521, "lon": 2.0367478, "tags": {"bus": "yes", "highway": "bus_stop", "name": "Cru\u00eflla Palmerola", "public_transport": "stop_position", "route_ref": "L0156"}}, {"type": "node", "id": 2219204028, "lat": 42.1523684, "lon": 2.058771, "tags": {"bus": "yes", "highway": "bus_stop", "name": "Els Hostalets de les Llosses", "public_transport": "stop_position", "route_ref": "L0156"}}, {"type": "node", "id": 2232469780, "lat": 42.118914, "lon": 2.1026398, "tags": {"bench": "yes", "bin": "yes", "bus": "yes", "highway": "bus_stop", "lit": "yes", "name": "Alpens. El Ramal", "public_transport": "platform", "ref": "8313", "route_ref": "465 471", "shelter": "no", "tactile_paving": "no", "wheelchair": "yes"}}, {"type": "node", "id": 3088261887, "lat": 42.0739962, "lon": 2.2947163, "tags": {"bus": "yes", "highway": "bus_stop", "name": "L'Era del Ros", "public_transport": "platform", "ref": "5478", "route_ref": "449"}}, {"type": "node", "id": 3099078395, "lat": 42.1926055, "lon": 2.1931535, "tags": {"bench": "yes", "bus": "yes", "highway": "bus_stop", "public_transport": "platform", "shelter": "yes"}}, {"type": "node", "id": 3100426795, "lat": 42.2029095, "lon": 2.1921006, "tags": {"bus": "yes", "highway": "bus_stop", "public_transport": "platform"}}, {"type": "node", "id": 3100426796, "lat": 42.2058376, "lon": 2.1949493, "tags": {"bus": "yes", "highway": "bus_stop", "public_transport": "platform"}}, {"type": "node", "id": 3177612896, "lat": 41.9270288, "lon": 2.2856555, "tags": {"bus": "yes", "highway": "bus_stop", "name": "Ptge. Adoberies (Calldetenes)", "public_transport": "platform"}}, {"type": "node", "id": 3177612899, "lat": 41.9271816, "lon": 2.2887056, "tags": {"bus": "yes", "highway": "bus_stop", "name": "Av. Pau Casals (Barri Nou)", "public_transport": "platform", "ref": "7156", "route_ref": "487"}}, {"type": "node", "id": 3177612901, "lat": 41.9276846, "lon": 2.2876511, "tags": {"bus": "yes", "highway": "bus_stop", "name": "C. Blanqueig (Calldetenes)", "public_transport": "platform"}}, {"type": "node", "id": 3177612902, "lat": 41.9282786, "lon": 2.2838568, "tags": {"bus": "yes", "highway": "bus_stop", "name": "Passeig Canig\u00f3 (Calldetenes)", "name:ca": "Passeig Canig\u00f3 (Calldetenes)", "public_transport": "platform"}}, {"type": "node", "id": 3177612903, "lat": 41.9274152, "lon": 2.2816389, "tags": {"bus": "yes", "highway": "bus_stop", "name": "Av. Verge de la Merc\u00e8 (Calldetenes)", "public_transport": "platform"}}, {"type": "node", "id": 3177612904, "lat": 41.9267961, "lon": 2.2784495, "tags": {"bench": "yes", "bus": "yes", "highway": "bus_stop", "name": "Quatre Estacions", "public_transport": "platform", "shelter": "yes"}}, {"type": "node", "id": 3221370051, "lat": 41.934368, "lon": 2.2568709, "tags": {"bench": "yes", "bin": "no", "bus": "yes", "highway": "bus_stop", "name": "Cl\u00ednica de Vic (Sant Miquel)", "name:ca": "Cl\u00ednica de Vic", "public_transport": "platform", "ref": "1207", "route_ref": "487", "shelter": "no"}}, {"type": "node", "id": 3221370055, "lat": 41.9361072, "lon": 2.2641538, "tags": {"bench": "yes", "bin": "no", "bus": "yes", "check_date:shelter": "2024-08-29", "highway": "bus_stop", "lit": "no", "name": "CEIP Guillem de Montrodon", "public_transport": "platform", "shelter": "yes"}}, {"type": "node", "id": 3221370172, "lat": 41.9365748, "lon": 2.2606016, "tags": {"bus": "yes", "highway": "bus_stop", "name": "Hospital General", "name:ca": "Hospital General", "public_transport": "platform", "shelter": "yes"}}, {"type": "node", "id": 3221370176, "lat": 41.9335271, "lon": 2.2615545, "tags": {"bus": "yes", "highway": "bus_stop", "name": "Ctra. De Roda", "public_transport": "platform", "shelter": "no"}}, {"type": "node", "id": 3221370177, "lat": 41.9314061, "lon": 2.2603383, "tags": {"bus": "yes", "highway": "bus_stop", "name": "CAP Osona", "public_transport": "platform", "shelter": "no"}}, {"type": "node", "id": 3221370178, "lat": 41.9295427, "lon": 2.261076, "tags": {"bus": "yes", "highway": "bus_stop", "name": "Sant Segimon (Escorial - Atl\u00e0ntida)", "name:ca": "Sant Segimon (Escorial - Atl\u00e0ntida)", "public_transport": "platform", "ref": "4019", "route_ref": "487", "shelter": "yes"}}, {"type": "node", "id": 3221370180, "lat": 41.9298508, "lon": 2.2579142, "tags": {"bench": "yes", "bus": "yes", "highway": "bus_stop", "name": "Rambla Passeig", "name:ca": "Rambla Passeig", "public_transport": "platform", "shelter": "yes"}}, {"type": "node", "id": 3221370181, "lat": 41.9310557, "lon": 2.2554247, "tags": {"bench": "yes", "bus": "yes", "highway": "bus_stop", "name": "Pl. Santa Clara", "public_transport": "platform", "shelter": "yes"}}, {"type": "node", "id": 3221370182, "lat": 41.9310321, "lon": 2.2532617, "tags": {"bus": "yes", "highway": "bus_stop", "name": "Rbla. Davallades", "public_transport": "platform"}}, {"type": "node", "id": 3221370183, "lat": 41.930597, "lon": 2.2519998, "tags": {"bench": "yes", "bin": "no", "bus": "yes", "highway": "bus_stop", "name": "Carrer Verdaguer", "name:ca": "Carrer Verdaguer", "public_transport": "platform", "shelter": "yes", "tactile_paving": "no"}}, {"type": "node", "id": 3221370184, "lat": 41.9309976, "lon": 2.2496911, "tags": {"bench": "yes", "bus": "yes", "highway": "bus_stop", "name": "Pl. Estaci\u00f3", "public_transport": "platform", "shelter": "yes"}}, {"type": "node", "id": 3221370188, "lat": 41.9322268, "lon": 2.2489323, "tags": {"bus": "yes", "highway": "bus_stop", "name": "Estaci\u00f3 d'Autobusos de Vic L4", "name:ca": "Estaci\u00f3 d'Autobusos de Vic L4", "public_transport": "stop_position"}}, {"type": "node", "id": 3221488046, "lat": 41.9324409, "lon": 2.2489215, "tags": {"bench": "yes", "bus": "yes", "covered": "yes", "highway": "bus_stop", "name": "Vic Estaci\u00f3 d'autobusos", "name:ca": "Vic estaci\u00f3 d'autobusos", "public_transport": "stop_position", "route_ref": "L0547 432 433 487"}}, {"type": "node", "id": 3222966548, "lat": 41.927535, "lon": 2.2488587, "tags": {"bus": "yes", "highway": "bus_stop", "name": "Avinguda Pa\u00efsos Catalans/Carrer de les Flors", "name:ca": "Avinguda Pa\u00efsos Catalans/Carrer de les Flors", "public_transport": "platform", "shelter": "yes"}}, {"type": "node", "id": 3222966549, "lat": 41.9242791, "lon": 2.2484201, "tags": {"bus": "yes", "highway": "bus_stop", "name": "Can Segal\u00e9s", "public_transport": "stop_position", "shelter": "yes"}}, {"type": "node", "id": 3222966550, "lat": 41.9245097, "lon": 2.2488927, "tags": {"bus": "yes", "highway": "bus_stop", "name": "Pont del Blanqueig", "name:ca": "Pont del Blanqueig", "public_transport": "stop_position", "shelter": "no"}}, {"type": "node", "id": 3222966551, "lat": 41.9213036, "lon": 2.2335724, "tags": {"bus": "yes", "check_date:shelter": "2022-07-23", "highway": "bus_stop", "name": "Can Carballo", "name:ca": "Can Carballo", "public_transport": "platform", "shelter": "yes"}}, {"type": "node", "id": 3222966552, "lat": 41.9136514, "lon": 2.227967, "tags": {"bus": "yes", "highway": "bus_stop", "name": "Pl. de l'Esgl\u00e9sia", "phone": "+34 933923330", "public_transport": "platform", "shelter": "no"}}, {"type": "node", "id": 3222966555, "lat": 41.9339797, "lon": 2.2478665, "tags": {"bus": "yes", "highway": "bus_stop", "name": "Universitat", "name:ca": "Universitat", "public_transport": "platform", "shelter": "no"}}, {"type": "node", "id": 3222966556, "lat": 41.9334708, "lon": 2.2422803, "tags": {"bus": "yes", "highway": "bus_stop", "name": "IES J. Call\u00eds", "public_transport": "platform", "shelter": "yes"}}, {"type": "node", "id": 3222966557, "lat": 41.9332407, "lon": 2.2399332, "tags": {"bus": "yes", "highway": "bus_stop", "name": "Avinguda Ol\u00edmpia", "name:ca": "Avinguda Ol\u00edmpia", "public_transport": "platform", "shelter": "yes"}}, {"type": "node", "id": 3222966558, "lat": 41.9332479, "lon": 2.2348116, "tags": {"bus": "yes", "highway": "bus_stop", "name": "CEIP Andersen", "public_transport": "platform", "shelter": "no"}}, {"type": "node", "id": 3222966559, "lat": 41.9358941, "lon": 2.2383925, "tags": {"bus": "yes", "highway": "bus_stop", "name": "Mas Osona (Zona Esportiva)", "name:ca": "Mas Osona (Zona Esportiva)", "public_transport": "platform", "ref": "4048", "route_ref": "432"}}, {"type": "node", "id": 3222966560, "lat": 41.9399361, "lon": 2.2387691, "tags": {"bus": "yes", "highway": "bus_stop", "name": "El Soler (Gurb)", "public_transport": "platform", "ref": "4049", "route_ref": "432", "shelter": "no"}}, {"type": "node", "id": 3222973461, "lat": 41.9410056, "lon": 2.2423079, "tags": {"bus": "yes", "highway": "bus_stop", "name": "Carrer Sant Jordi (Gurb)", "name:ca": "Carrer Sant Jordi (Gurb)", "public_transport": "platform", "ref": "2692", "shelter": "no"}}, {"type": "node", "id": 3222973462, "lat": 41.9460839, "lon": 2.2397646, "tags": {"bus": "yes", "highway": "bus_stop", "name": "Amistat (Gurb)", "name:ca": "Amistat (Gurb)", "public_transport": "platform", "ref": "4052", "route_ref": "432", "shelter": "no"}}, {"type": "node", "id": 3222973463, "lat": 41.9466246, "lon": 2.2418505, "tags": {"bus": "yes", "highway": "bus_stop", "name": "Prixana (Gurb)", "public_transport": "platform", "shelter": "no"}}, {"type": "node", "id": 3222973464, "lat": 41.9455536, "lon": 2.2438748, "tags": {"bus": "yes", "highway": "bus_stop", "name": "Mas Gal\u00ed (Gurb)", "name:ca": "Mas Gal\u00ed (Gurb)", "public_transport": "platform", "ref": "4054", "route_ref": "432"}}, {"type": "node", "id": 3222973465, "lat": 41.9399402, "lon": 2.2431227, "tags": {"bus": "yes", "highway": "bus_stop", "name": "Mas Esperan\u00e7a (Gurb)", "name:ca": "Mas Esperan\u00e7a (Gurb)", "public_transport": "platform", "ref": "4055", "route_ref": "432", "shelter": "yes"}}, {"type": "node", "id": 3222973466, "lat": 41.9374256, "lon": 2.2464305, "tags": {"bus": "yes", "highway": "bus_stop", "name": "Castell d'en Planes (Pavell\u00f3 Esportiu)", "name:ca": "Castell d'en Planes (Pavell\u00f3 Esportiu)", "public_transport": "platform", "ref": "4056", "route_ref": "432", "shelter": "no"}}, {"type": "node", "id": 3269252907, "lat": 41.9287837, "lon": 2.2395108, "tags": {"bus": "yes", "highway": "bus_stop", "name": "Carrer de l'Ermita de S. Sixt (Pisos Tutelats)", "name:ca": "Carrer de l'Ermita de S. Sixt (Pisos Tutelats)", "public_transport": "platform"}}, {"type": "node", "id": 3283437898, "lat": 41.9002717, "lon": 2.1026474, "tags": {"bus": "yes", "highway": "bus_stop", "name": "Ctra.Moi\u00e0 - Ctra. Vic", "public_transport": "stop_position", "route_ref": "e9"}}, {"type": "node", "id": 3476508652, "lat": 42.2110542, "lon": 2.4532589, "tags": {"bench": "yes", "bin": "yes", "bus": "yes", "check_date:bin": "2022-10-16", "highway": "bus_stop", "name": "Hostalnou", "name:ca": "Hostalnou", "public_transport": "platform", "route_ref": "L0330", "shelter": "yes"}}, {"type": "node", "id": 3702470789, "lat": 41.9323612, "lon": 2.2489175, "tags": {"bench": "yes", "bus": "yes", "covered": "yes", "highway": "bus_stop", "name": "Estaci\u00f3 d'Autobusos de Vic L1", "name:ca": "Estaci\u00f3 d'Autobusos de Vic L1", "public_transport": "stop_position"}}, {"type": "node", "id": 3702470790, "lat": 41.9323199, "lon": 2.2489175, "tags": {"bench": "yes", "bus": "yes", "covered": "yes", "highway": "bus_stop", "name": "Estaci\u00f3 d'Autobusos de Vic L2", "name:ca": "Estaci\u00f3 d'Autobusos de Vic L2", "public_transport": "stop_position"}}, {"type": "node", "id": 3702470791, "lat": 41.9322757, "lon": 2.2489175, "tags": {"bench": "yes", "bus": "yes", "covered": "yes", "highway": "bus_stop", "name": "Estaci\u00f3 d'Autobusos de Vic L3", "name:ca": "Estaci\u00f3 d'Autobusos de Vic L3", "public_transport": "stop_position"}}, {"type": "node", "id": 3705310627, "lat": 41.9193695, "lon": 2.2550017, "tags": {"bus": "yes", "highway": "bus_stop", "name": "C. Mare de D\u00e9u de Lorda", "public_transport": "platform"}}, {"type": "node", "id": 3705310628, "lat": 41.9241187, "lon": 2.2560285, "tags": {"bus": "yes", "highway": "bus_stop", "name": "C. Mart\u00ed Gen\u00eds", "public_transport": "platform"}}, {"type": "node", "id": 3705310629, "lat": 41.9247161, "lon": 2.2602688, "tags": {"bus": "yes", "highway": "bus_stop", "name": "C. Men\u00e9ndez i Pelayo", "public_transport": "platform"}}, {"type": "node", "id": 3705310630, "lat": 41.9213003, "lon": 2.2543682, "tags": {"bench": "yes", "bus": "yes", "highway": "bus_stop", "name": "C. Pare Huix / Av. de l'Estadi", "public_transport": "platform", "shelter": "yes"}}, {"type": "node", "id": 3705310631, "lat": 41.9229615, "lon": 2.2551512, "tags": {"bench": "yes", "bus": "yes", "highway": "bus_stop", "name": "C. Pius XII", "public_transport": "platform", "shelter": "yes"}}, {"type": "node", "id": 3705310632, "lat": 41.9220989, "lon": 2.2584883, "tags": {"bench": "yes", "bus": "yes", "highway": "bus_stop", "name": "C. Sant Jaume", "public_transport": "platform", "shelter": "yes"}}, {"type": "node", "id": 3705310633, "lat": 41.9261761, "lon": 2.2549579, "tags": {"bus": "yes", "highway": "bus_stop", "name": "Casal Mossen Guiteras", "public_transport": "platform"}}, {"type": "node", "id": 3705310634, "lat": 41.9235673, "lon": 2.258033, "tags": {"bench": "yes", "bus": "yes", "highway": "bus_stop", "name": "La Guia", "name:ca": "La Guia", "public_transport": "platform", "shelter": "yes"}}, {"type": "node", "id": 3705310635, "lat": 41.9264568, "lon": 2.2598925, "tags": {"bench": "yes", "bus": "yes", "highway": "bus_stop", "name": "Mol\u00ed d'en Saborit", "public_transport": "platform", "shelter": "yes"}}, {"type": "node", "id": 3705310636, "lat": 41.9201176, "lon": 2.258685, "tags": {"bus": "yes", "highway": "bus_stop", "name": "Parc Sta. Anna", "name:ca": "Parc Sta. Anna", "public_transport": "platform"}}, {"type": "node", "id": 3705310637, "lat": 41.9241003, "lon": 2.2535897, "tags": {"bench": "yes", "bus": "yes", "highway": "bus_stop", "name": "Pg. de la Generalitat - Col\u00b7legi Sagrat Cor", "name:ca": "Passeig Generalitat", "public_transport": "platform", "ref": "2391", "route_ref": "406 441", "shelter": "yes"}}, {"type": "node", "id": 3705310638, "lat": 41.9234043, "lon": 2.2548389, "tags": {"bus": "yes", "highway": "bus_stop", "name": "Pl. F. Moragas", "public_transport": "platform"}}, {"type": "node", "id": 3705310639, "lat": 41.9277659, "lon": 2.2525086, "tags": {"bench": "yes", "bin": "no", "bus": "yes", "highway": "bus_stop", "lit": "no", "name": "Sant Dom\u00e8nec / C. Sant Pere", "name:ca": "Sant Dom\u00e8nec / C. Sant Pere", "public_transport": "platform", "ref": "2393", "route_ref": "441", "shelter": "yes", "tactile_paving": "no"}}, {"type": "node", "id": 4071299889, "lat": 42.1192322, "lon": 2.4589975, "tags": {"bench": "yes", "bus": "yes", "covered": "yes", "highway": "bus_stop", "name": "Sant Esteve d'en Bas", "name:ca": "Sant Esteve d'en Bas", "operator": "Teisa", "public_transport": "platform", "shelter": "yes"}}, {"type": "node", "id": 4071299890, "lat": 42.1194233, "lon": 2.4588517, "tags": {"bench": "no", "bus": "yes", "covered": "no", "highway": "bus_stop", "name": "Sant Esteve d'en Bas", "name:ca": "Sant Esteve d'en Bas", "operator": "Teisa", "public_transport": "platform", "shelter": "no"}}, {"type": "node", "id": 4072341793, "lat": 41.9216241, "lon": 2.2539376, "tags": {"bus": "yes", "highway": "bus_stop", "name": "Av. Estadi (Esgl\u00e9sia de Lourdes)", "public_transport": "platform"}}, {"type": "node", "id": 4072341794, "lat": 41.9215853, "lon": 2.2563889, "tags": {"bench": "yes", "bus": "yes", "highway": "bus_stop", "name": "Av. Estadi (OAR Vic)", "public_transport": "platform", "shelter": "no"}}, {"type": "node", "id": 4072341795, "lat": 41.9240381, "lon": 2.2631296, "tags": {"bus": "yes", "highway": "bus_stop", "name": "Font de Sant Pere", "name:ca": "Font de Sant Pere", "public_transport": "platform", "shelter": "no"}}, {"type": "node", "id": 4072341796, "lat": 41.9277949, "lon": 2.2645465, "tags": {"bus": "yes", "highway": "bus_stop", "name": "C. Montserrat - Torell\u00f3", "public_transport": "platform", "ref": "4006", "route_ref": "487", "shelter": "no"}}, {"type": "node", "id": 4072341797, "lat": 41.9268185, "lon": 2.2647696, "tags": {"bench": "yes", "bus": "yes", "highway": "bus_stop", "name": "Av. Pa\u00efsos Catalans (Germanetes)", "public_transport": "platform", "shelter": "no"}}, {"type": "node", "id": 4072341798, "lat": 41.9208052, "lon": 2.2488471, "tags": {"bench": "yes", "bin": "no", "bus": "yes", "check_date:shelter": "2022-09-26", "highway": "bus_stop", "name": "Habitatges Montseny", "name:ca": "Habitatges Montseny", "public_transport": "platform", "shelter": "no"}}, {"type": "node", "id": 4072341799, "lat": 41.9184649, "lon": 2.2510908, "tags": {"bus": "yes", "highway": "bus_stop", "name": "La S\u00ednia", "name:ca": "La S\u00ednia", "public_transport": "platform", "shelter": "yes"}}, {"type": "node", "id": 4072341800, "lat": 41.9231814, "lon": 2.2486302, "tags": {"bus": "yes", "highway": "bus_stop", "name": "Mol\u00ed del Blanqueig", "public_transport": "platform", "shelter": "yes"}}, {"type": "node", "id": 4072341802, "lat": 41.9218497, "lon": 2.2610432, "tags": {"bus": "yes", "highway": "bus_stop", "name": "J. Pratdesaba", "public_transport": "platform", "shelter": "yes"}}, {"type": "node", "id": 4072341803, "lat": 41.9236049, "lon": 2.2515987, "tags": {"bus": "yes", "highway": "bus_stop", "name": "Rbla. Tarradellas", "public_transport": "platform", "shelter": "no"}}, {"type": "node", "id": 4073405360, "lat": 41.9210381, "lon": 2.2512061, "tags": {"bus": "yes", "highway": "bus_stop", "name": "C. Virrei Avil\u00e9s (CAP Remei)", "public_transport": "platform", "shelter": "no"}}, {"type": "node", "id": 4079034643, "lat": 41.9276307, "lon": 2.2491862, "tags": {"bus": "yes", "highway": "bus_stop", "name": "Avinguda Pa\u00efsos Catalans/Carrer de les Flors", "name:ca": "Avinguda Pa\u00efsos Catalans/Carrer de les Flors", "public_transport": "platform", "shelter": "no"}}, {"type": "node", "id": 4081645625, "lat": 41.9269052, "lon": 2.2555049, "tags": {"bus": "yes", "highway": "bus_stop", "name": "C. Soledat", "public_transport": "platform", "shelter": "no"}}, {"type": "node", "id": 4081645626, "lat": 41.9302234, "lon": 2.2656192, "tags": {"bus": "yes", "highway": "bus_stop", "name": "C. Torell\u00f3", "public_transport": "platform", "shelter": "no"}}, {"type": "node", "id": 4081645627, "lat": 41.9329789, "lon": 2.2661132, "tags": {"bus": "yes", "highway": "bus_stop", "name": "C. Torell\u00f3/C. M. de Pedrolo", "public_transport": "platform", "shelter": "no"}}, {"type": "node", "id": 4081645628, "lat": 41.9288904, "lon": 2.2694576, "tags": {"bus": "yes", "highway": "bus_stop", "name": "Sant Ll\u00e0tzer", "name:ca": "Sant Ll\u00e0tzer", "public_transport": "platform"}}, {"type": "node", "id": 4081645630, "lat": 41.9284994, "lon": 2.2803772, "tags": {"bus": "yes", "highway": "bus_stop", "name": "Parc Sant Ll\u00e0tzer", "name:ca": "Parc Sant Ll\u00e0tzer", "public_transport": "platform"}}, {"type": "node", "id": 4081645631, "lat": 41.925891, "lon": 2.2646254, "tags": {"bus": "yes", "highway": "bus_stop", "name": "Parc Xavier Roca Vi\u00f1as", "name:ca": "Parc Xavier Roca Vi\u00f1as", "public_transport": "platform", "shelter": "yes"}}, {"type": "node", "id": 4081645632, "lat": 41.928274, "lon": 2.2746602, "tags": {"bus": "yes", "highway": "bus_stop", "name": "Sant Ll\u00e0tzer Centre", "name:ca": "Sant Ll\u00e0tzer Centre", "public_transport": "platform"}}, {"type": "node", "id": 4081874622, "lat": 41.9345154, "lon": 2.2569172, "tags": {"bench": "yes", "bin": "no", "bus": "yes", "highway": "bus_stop", "name": "Cl\u00ednica de Vic", "name:ca": "Cl\u00ednica de Vic", "public_transport": "platform", "ref": "2469", "route_ref": "487", "shelter": "yes"}}, {"type": "node", "id": 4081874623, "lat": 41.9340596, "lon": 2.2538119, "tags": {"bus": "yes", "highway": "bus_stop", "name": "Pare Coll", "public_transport": "platform"}}, {"type": "node", "id": 4086194141, "lat": 42.1178801, "lon": 2.4559943, "tags": {"bench": "yes", "bus": "yes", "covered": "yes", "highway": "bus_stop", "name": "Sant Esteve d'en Bas - Centre", "public_transport": "platform", "shelter": "yes"}}, {"type": "node", "id": 4596497800, "lat": 42.1484732, "lon": 2.5436642, "tags": {"bus": "yes", "highway": "bus_stop", "name": "Volc\u00e0 Santa Margarida (Parquing)", "public_transport": "stop_position"}}, {"type": "node", "id": 4980606623, "lat": 42.1462914, "lon": 2.5686937, "tags": {"bench": "yes", "bin": "yes", "bus": "yes", "highway": "bus_stop", "name": "Santa Pau", "name:ca": "Santa Pau", "name:de": "Santa Pau", "name:en": "Santa Pau", "name:es": "Santa Pau", "public_transport": "platform", "shelter": "yes"}}, {"type": "node", "id": 5178075809, "lat": 42.4077981, "lon": 2.4697372, "tags": {"bus": "yes", "highway": "bus_stop", "public_transport": "platform"}}, {"type": "node", "id": 5220274822, "lat": 42.2463171, "lon": 2.3267311, "tags": {"bus": "yes", "highway": "bus_stop", "name": "T\u00fanel-Rotonda", "public_transport": "stop_position", "route_ref": "L0330"}}, {"type": "node", "id": 5220275130, "lat": 42.2428232, "lon": 2.4114671, "tags": {"bus": "yes", "highway": "bus_stop", "name": "Sant Salvador de Bianya", "public_transport": "stop_position", "route_ref": "L0330"}}, {"type": "node", "id": 5250279623, "lat": 42.4040148, "lon": 2.4802235, "tags": {"bus": "yes", "highway": "bus_stop", "public_transport": "platform"}}, {"type": "node", "id": 5419793198, "lat": 42.2997349, "lon": 2.166062, "tags": {"name": "Ribes-Enlla\u00e7", "name:ca": "Ribes-Enlla\u00e7", "public_transport": "station", "railway": "station", "wheelchair": "yes"}}, {"type": "node", "id": 5419793235, "lat": 42.2991932, "lon": 2.1654577, "tags": {"name": "Ribes de Freser", "name:ca": "Ribes de Freser", "operator": "Adif", "public_transport": "station", "railway": "station", "wikidata": "Q8841610", "wikipedia": "ca:Estaci\u00f3 de Ribes de Freser"}}, {"type": "node", "id": 5419793252, "lat": 42.3086224, "lon": 2.1716788, "tags": {"name": "Ribes-Vila", "name:ca": "Ribes-Vila", "public_transport": "station", "railway": "station", "wikidata": "Q8841612", "wikipedia": "ca:Estaci\u00f3 de Ribes-Vila"}}, {"type": "node", "id": 5420064211, "lat": 42.3143097, "lon": 2.09979, "tags": {"name": "Planoles", "name:ca": "Planoles", "operator": "Adif", "public_transport": "station", "railway": "station", "train": "yes", "wikidata": "Q589414", "wikipedia": "ca:Estaci\u00f3 de Planoles"}}, {"type": "node", "id": 5420065015, "lat": 42.1048309, "lon": 2.2176466, "tags": {"name": "Sant Quirze de Besora", "name:ca": "Sant Quirze de Besora", "operator": "Adif", "public_transport": "station", "railway": "station", "wikidata": "Q8841803", "wikipedia": "ca:Estaci\u00f3 de Sant Quirze de Besora"}}, {"type": "node", "id": 5420065124, "lat": 42.1955071, "lon": 2.19616, "tags": {"name": "Ripoll", "name:ca": "Ripoll", "operator": "Adif", "public_transport": "station", "railway": "station"}}, {"type": "node", "id": 5420065133, "lat": 42.1297082, "lon": 2.203594, "tags": {"name": "La Farga de Bebi\u00e9", "operator": "Adif", "public_transport": "station", "railway": "station", "wikidata": "Q11681651", "wikipedia": "ca:Estaci\u00f3 de la Farga de Bebi\u00e9"}}, {"type": "node", "id": 5438046237, "lat": 41.9305079, "lon": 2.2490537, "tags": {"bus": "yes", "highway": "bus_stop", "name": "Pl. Estaci\u00f3 (RENFE)", "public_transport": "stop_position", "shelter": "yes"}}, {"type": "node", "id": 5459475101, "lat": 41.9349212, "lon": 2.2589813, "tags": {"bus": "yes", "highway": "bus_stop", "name": "IES Vic", "name:ca": "IES Vic", "public_transport": "platform", "ref": "1210", "route_ref": "441 487", "shelter": "no"}}, {"type": "node", "id": 5460365208, "lat": 41.9358858, "lon": 2.2635756, "tags": {"bus": "yes", "highway": "bus_stop", "name": "F. MEDICINA (UNIVERSITAT)", "public_transport": "stop_position"}}, {"type": "node", "id": 5553196521, "lat": 41.9245102, "lon": 2.2489395, "tags": {"bus": "yes", "highway": "bus_stop", "name": "Pont del Blanqueig", "name:ca": "Pont del Blanqueig", "public_transport": "platform", "shelter": "no"}}, {"type": "node", "id": 5553324053, "lat": 41.9234857, "lon": 2.2531943, "tags": {"bus": "yes", "highway": "bus_stop", "name": "Passeig Generalitat / Carrer Bisbe Strauch", "name:ca": "Passeig Generalitat / Carrer Bisbe Strauch", "public_transport": "platform", "route_ref": "406 441", "shelter": "yes"}}, {"type": "node", "id": 5553324054, "lat": 42.0531594, "lon": 2.2548115, "tags": {"bus": "yes", "highway": "bus_stop", "name": "Carrer d'Espadamala / Carrer de l'Espona", "name:ca": "Carrer d'Espadamala / Carrer de l'Espona", "public_transport": "platform"}}, {"type": "node", "id": 5553324673, "lat": 42.0531173, "lon": 2.2548121, "tags": {"bus": "yes", "highway": "bus_stop", "name": "Carrer d'Espadamala / Carrer de l'Espona", "name:ca": "Carrer d'Espadamala / Carrer de l'Espona", "public_transport": "stop_position"}}, {"type": "node", "id": 5553324674, "lat": 42.0044686, "lon": 2.2836325, "tags": {"bus": "yes", "highway": "bus_stop", "name": "Passeig de Sant Joan / Carrer de l'Astr\u00f2nom Pericas", "name:ca": "Passeig de Sant Joan / Carrer de l'Astr\u00f2nom Pericas", "public_transport": "platform", "ref": "4775", "route_ref": "449"}}, {"type": "node", "id": 5553324760, "lat": 42.0530806, "lon": 2.2549079, "tags": {"bus": "yes", "highway": "bus_stop", "name": "Carrer d'Espadamala / Carrer de l'Espona", "name:ca": "Carrer d'Espadamala / Carrer de l'Espona", "public_transport": "platform"}}, {"type": "node", "id": 5588967821, "lat": 42.1808909, "lon": 2.4915436, "tags": {"bench": "yes", "bin": "yes", "bus": "yes", "highway": "bus_stop", "lit": "yes", "name": "Carrer Bisbe Lourenzana (Estaci\u00f3 d'autobusos d'Olot)", "name:ca": "Carrer Bisbe Lourenzana (Estaci\u00f3 d'autobusos d'Olot)", "public_transport": "platform", "shelter": "yes", "tactile_paving": "no"}}, {"type": "node", "id": 5680159565, "lat": 42.1483305, "lon": 2.5319385, "tags": {"bus": "yes", "highway": "bus_stop", "name": "Can Xel", "name:ca": "Can Xel", "public_transport": "stop_position"}}, {"type": "node", "id": 5680159566, "lat": 42.1553568, "lon": 2.5154119, "tags": {"bus": "yes", "highway": "bus_stop", "name": "La Fageda (Parquing)", "public_transport": "stop_position"}}, {"type": "node", "id": 5680159567, "lat": 42.1614711, "lon": 2.5112702, "tags": {"bus": "yes", "highway": "bus_stop", "name": "Can Blanc", "name:ca": "Can Blanc", "public_transport": "stop_position"}}, {"type": "node", "id": 5907398075, "lat": 42.0781778, "lon": 2.5076217, "tags": {"bus": "yes", "highway": "bus_stop", "name": "Sant Feliu de Pallerols", "name:ca": "Sant Feliu de Pallerols", "public_transport": "stop_position"}}, {"type": "node", "id": 6109420900, "lat": 42.1806643, "lon": 2.4869133, "tags": {"bus": "yes", "highway": "bus_stop", "public_transport": "stop_position"}}, {"type": "node", "id": 6171698465, "lat": 42.2070907, "lon": 2.4974726, "tags": {"bus": "yes", "highway": "bus_stop", "name": "La Canya", "public_transport": "stop_position", "route_ref": "L0330 L0803"}}, {"type": "node", "id": 6171698467, "lat": 42.2072689, "lon": 2.4975362, "tags": {"bus": "yes", "highway": "bus_stop", "name": "La Canya", "public_transport": "stop_position", "route_ref": "L0330 L0803"}}, {"type": "node", "id": 6354088973, "lat": 42.1554023, "lon": 2.5156888, "tags": {"bus": "yes", "highway": "bus_stop", "name": "La Fageda (Parquing)", "public_transport": "stop_position"}}, {"type": "node", "id": 6527892086, "lat": 42.1292961, "lon": 2.4502886, "tags": {"bench": "yes", "bin": "yes", "bus": "yes", "departures_board": "timetable", "highway": "bus_stop", "name": "Pol\u00edgon la Serra La Valld'en Bas", "name:ca": "Pol\u00edgon La Serra La Vall d'en Bas", "public_transport": "platform", "route_ref": "L0547", "shelter": "yes", "tactile_paving": "no"}}, {"type": "node", "id": 6540195892, "lat": 42.2341546, "lon": 2.2875099, "tags": {"bench": "yes", "bin": "yes", "bus": "yes", "highway": "bus_stop", "public_transport": "platform", "shelter": "yes"}}, {"type": "node", "id": 6558151995, "lat": 42.0781182, "lon": 2.5075934, "tags": {"bench": "yes", "bus": "yes", "highway": "bus_stop", "name": "Sant Feliu de Pallerols", "name:ca": "Sant Feliu de Pallerols", "operator": "Teisa", "public_transport": "platform", "shelter": "yes"}}, {"type": "node", "id": 6679961708, "lat": 42.2328172, "lon": 2.287091, "tags": {"bus": "yes", "highway": "bus_stop", "public_transport": "platform"}}, {"type": "node", "id": 7188193752, "lat": 42.235845, "lon": 2.2923408, "tags": {"bench": "yes", "bin": "yes", "bus": "yes", "highway": "bus_stop", "public_transport": "platform", "shelter": "yes"}}, {"type": "node", "id": 7527423077, "lat": 42.0521388, "lon": 2.2599804, "tags": {"name": "Torell\u00f3", "name:ca": "Torell\u00f3", "operator": "Adif", "public_transport": "station", "railway": "station", "wikidata": "Q8842059", "wikipedia": "ca:Estaci\u00f3 de Torell\u00f3"}}, {"type": "node", "id": 7527423078, "lat": 41.9998571, "lon": 2.2691128, "tags": {"name": "Manlleu", "name:ca": "Manlleu", "operator": "Adif", "public_transport": "station", "railway": "station", "wikidata": "Q8841016", "wikipedia": "ca:Estaci\u00f3 de Manlleu"}}, {"type": "node", "id": 7619867074, "lat": 42.1293314, "lon": 2.4502126, "tags": {"bus": "yes", "highway": "bus_stop", "name": "Pol\u00edgon la Serra La Vall d'en Bas", "public_transport": "stop_position", "route_ref": "L0547"}}, {"type": "node", "id": 7644708549, "lat": 42.006136, "lon": 2.2818143, "tags": {"bus": "yes", "highway": "bus_stop", "name": "Pg. Sant Joan - Arnald de Corc\u00f3", "public_transport": "platform", "ref": "5606", "route_ref": "449"}}, {"type": "node", "id": 8325046857, "lat": 42.0979609, "lon": 2.4956634, "tags": {"bus": "yes", "highway": "bus_stop", "name": "Sant Miquel de Pineda", "name:ca": "Sant Miquel de Pineda", "operator": "Teisa", "public_transport": "platform", "shelter": "yes"}}, {"type": "node", "id": 8325046858, "lat": 42.0991948, "lon": 2.4954867, "tags": {"bus": "yes", "highway": "bus_stop", "name": "Sant Miquel de Pineda", "name:ca": "Sant Miquel de Pineda", "operator": "Teisa", "public_transport": "platform", "shelter": "no"}}, {"type": "node", "id": 8325053723, "lat": 42.0783469, "lon": 2.5078475, "tags": {"bench": "yes", "bin": "no", "bus": "yes", "highway": "bus_stop", "lit": "yes", "name": "Sant Feliu de Pallerols", "name:ca": "Sant Feliu de Pallerols", "operator": "Teisa", "public_transport": "platform", "shelter": "no", "tactile_paving": "no"}}, {"type": "node", "id": 8325078050, "lat": 42.1454246, "lon": 2.4591166, "tags": {"bench": "yes", "bin": "yes", "bus": "yes", "highway": "bus_stop", "lit": "yes", "name": "les Preses", "name:ca": "les Preses", "network": "Bus Interurb\u00e0", "operator": "Teisa", "public_transport": "platform", "route_ref": "L0547", "shelter": "yes", "tactile_paving": "no"}}, {"type": "node", "id": 8325078051, "lat": 42.145603, "lon": 2.4593799, "tags": {"bench": "yes", "bin": "yes", "bus": "yes", "highway": "bus_stop", "lit": "yes", "name": "les Preses", "name:ca": "les Preses", "network": "Bus Interurb\u00e0", "operator": "Teisa", "public_transport": "platform", "route_ref": "L0547", "shelter": "yes", "tactile_paving": "no"}}, {"type": "node", "id": 8334162651, "lat": 42.0046642, "lon": 2.6051876, "tags": {"bench": "yes", "bus": "yes", "departures_board": "timetable", "highway": "bus_stop", "name": "Amer", "name:ca": "Amer", "public_transport": "platform", "shelter": "yes"}}, {"type": "node", "id": 8334171600, "lat": 42.0367577, "lon": 2.5785522, "tags": {"bus": "yes", "highway": "bus_stop", "name": "Hostal del Fang", "name:ca": "Hostal del Fang", "network": "LN 152 Girona - Angl\u00e8s - Amer - Olot", "operator": "TEISA", "public_transport": "platform"}}, {"type": "node", "id": 8334193716, "lat": 42.0216648, "lon": 2.5922908, "tags": {"bench": "yes", "bin": "no", "bus": "yes", "departures_board": "timetable", "highway": "bus_stop", "lit": "yes", "name": "Amer Sant Mar\u00e7al", "network": "LN 152 Girona - Angl\u00e8s - Amer - Olot", "operator": "TEISA", "public_transport": "platform", "shelter": "yes", "tactile_paving": "no", "website": "https://www.teisa-bus.com/"}}, {"type": "node", "id": 8334199405, "lat": 42.0570255, "lon": 2.5400039, "tags": {"bench": "yes", "bin": "no", "bus": "yes", "highway": "bus_stop", "lit": "yes", "name": "les Planes d'Hostoles", "name:ca": "les Planes d'Hostoles", "network": "LN 152 Girona - Angl\u00e8s - Amer - Olot", "operator": "TEISA", "public_transport": "platform", "shelter": "no", "tactile_paving": "no"}}, {"type": "node", "id": 8334200288, "lat": 42.0568712, "lon": 2.5400069, "tags": {"bench": "yes", "bin": "no", "bus": "yes", "departures_board": "timetable", "highway": "bus_stop", "lit": "yes", "name": "les Planes d'Hostoles", "name:ca": "les Planes d'Hostoles", "network": "LN 152 Girona - Angl\u00e8s - Amer - Olot", "operator": "TEISA", "public_transport": "platform", "shelter": "yes", "tactile_paving": "no"}}, {"type": "node", "id": 8334202519, "lat": 42.0218392, "lon": 2.592508, "tags": {"bus": "yes", "departures_board": "timetable", "highway": "bus_stop", "name": "Amer Sant Mar\u00e7al", "network": "LN 152 Girona - Angl\u00e8s - Amer - Olot", "operator": "TEISA", "public_transport": "platform", "shelter": "yes", "website": "https://www.teisa-bus.com/"}}, {"type": "node", "id": 8334202579, "lat": 42.0459462, "lon": 2.5560594, "tags": {"bus": "yes", "highway": "bus_stop", "network": "LN 152 Girona - Angl\u00e8s - Amer - Olot", "operator": "TEISA", "public_transport": "platform"}}, {"type": "node", "id": 8334211717, "lat": 42.0365868, "lon": 2.5783781, "tags": {"bench": "no", "bin": "no", "bus": "yes", "highway": "bus_stop", "name": "Hostal del Fang", "name:ca": "Hostal del Fang", "network": "LN 152 Girona - Angl\u00e8s - Amer - Olot", "operator": "TEISA", "public_transport": "platform", "shelter": "no"}}, {"type": "node", "id": 8334218132, "lat": 42.0532341, "lon": 2.5450019, "tags": {"bus": "yes", "departures_board": "timetable", "highway": "bus_stop", "name": "Les Planes d'Hostoles El Jonquer (Gasolinera)", "network": "LN 152 Girona - Angl\u00e8s - Amer - Olot", "operator": "TEISA", "public_transport": "platform", "shelter": "yes"}}, {"type": "node", "id": 8334227999, "lat": 42.1232352, "lon": 2.485017, "tags": {"bus": "yes", "highway": "bus_stop", "name": "Sant Eteve La Casilla", "network": "LN 152 Girona - Angl\u00e8s - Amer - Olot", "operator": "TEISA", "public_transport": "platform"}}, {"type": "node", "id": 8334235922, "lat": 42.1228547, "lon": 2.4856656, "tags": {"bus": "yes", "highway": "bus_stop", "name": "Sant Eteve La Casilla", "network": "LN 152 Girona - Angl\u00e8s - Amer - Olot", "operator": "TEISA", "public_transport": "platform"}}, {"type": "node", "id": 8335955013, "lat": 42.1597127, "lon": 2.4681687, "tags": {"bench": "yes", "bus": "yes", "departures_board": "timetable", "highway": "bus_stop", "name": "Sant Privat d'en Bas - Cru\u00eflla", "network": "LN 152 Girona - Angl\u00e8s - Amer - Olot", "operator": "TEISA", "public_transport": "platform", "shelter": "yes"}}, {"type": "node", "id": 8335957279, "lat": 42.1600459, "lon": 2.4681138, "tags": {"bench": "yes", "bin": "no", "bus": "yes", "departures_board": "timetable", "highway": "bus_stop", "name": "Sant Privat d'en Bas - Cru\u00eflla", "network": "LN 152 Girona - Angl\u00e8s - Amer - Olot", "operator": "TEISA", "public_transport": "platform", "shelter": "yes"}}, {"type": "node", "id": 8335974701, "lat": 42.1492017, "lon": 2.4092312, "tags": {"bus": "yes", "highway": "bus_stop", "name": "Sant Privat d'en Bas,", "name:ca": "Sant Privat d'en Bas,", "operator": "TEISA", "public_transport": "platform"}}, {"type": "node", "id": 8335977022, "lat": 42.1475958, "lon": 2.4438693, "tags": {"bus": "yes", "highway": "bus_stop", "name": "LES OLLETES", "operator": "TEISA", "public_transport": "platform"}}, {"type": "node", "id": 8343337941, "lat": 42.176685, "lon": 2.48222, "tags": {"bench": "yes", "bin": "yes", "bus": "yes", "highway": "bus_stop", "public_transport": "platform", "shelter": "yes"}}, {"type": "node", "id": 8343361274, "lat": 42.1724078, "lon": 2.4789086, "tags": {"bench": "no", "bin": "yes", "bus": "yes", "highway": "bus_stop", "name": "Parc Nou", "name:ca": "Parc Nou", "operator": "TEISA", "public_transport": "platform", "shelter": "no"}}, {"type": "node", "id": 8343375681, "lat": 42.1719252, "lon": 2.4783, "tags": {"bench": "yes", "bin": "yes", "bus": "yes", "highway": "bus_stop", "name": "Parc Nou", "name:ca": "Parc Nou", "public_transport": "platform", "shelter": "yes"}}, {"type": "node", "id": 8343384011, "lat": 42.1213206, "lon": 2.4501145, "tags": {"bench": "no", "bin": "no", "bus": "yes", "highway": "bus_stop", "name": "Cru\u00eflla Can Trona", "name:ca": "Cru\u00eflla Can Trona", "operator": "TEISA", "public_transport": "platform", "shelter": "no"}}, {"type": "node", "id": 8343387707, "lat": 42.176339, "lon": 2.4823479, "tags": {"bench": "yes", "bin": "yes", "bus": "yes", "highway": "bus_stop", "lit": "yes", "name": "MG 0406", "public_transport": "platform", "shelter": "yes", "tactile_paving": "no"}}, {"type": "node", "id": 8343390844, "lat": 42.1649877, "lon": 2.4723449, "tags": {"bench": "no", "bin": "no", "bus": "yes", "highway": "bus_stop", "name": "La Solfa", "public_transport": "platform", "shelter": "no"}}, {"type": "node", "id": 8343408637, "lat": 42.1213126, "lon": 2.4504454, "tags": {"bench": "no", "bin": "yes", "bus": "yes", "highway": "bus_stop", "name": "Cru\u00eflla Can Trona", "name:ca": "Cru\u00eflla Can Trona", "operator": "TEISA", "public_transport": "platform", "shelter": "no"}}, {"type": "node", "id": 8343423691, "lat": 42.129677, "lon": 2.4502763, "tags": {"bench": "yes", "bin": "yes", "bus": "yes", "departures_board": "timetable", "highway": "bus_stop", "name": "Pol\u00edgon La Serra. La Vall d'en Bas", "name:ca": "Pol\u00edgon La Serra. La Vall d'en Bas", "operator": "TEISA", "public_transport": "platform", "route_ref": "L0547", "shelter": "yes"}}, {"type": "node", "id": 8356690718, "lat": 42.2191757, "lon": 2.5470295, "tags": {"bus": "yes", "highway": "bus_stop", "name": "Castellfollit de la Roca", "public_transport": "stop_position", "route_ref": "L0803"}}, {"type": "node", "id": 8357254245, "lat": 42.1224731, "lon": 2.4429318, "tags": {"bus": "yes", "highway": "bus_stop", "name": "Can Trona", "name:ca": "Can Trona", "network": "Hostalets d\u2019en Bas - Joanetes - Sant Privat d\u2019en Bas - Les Olletes - La Pinya - Olot", "operator": "TEISA", "public_transport": "stop_position"}}, {"type": "node", "id": 8357257562, "lat": 42.1761541, "lon": 2.4439508, "tags": {"bus": "yes", "highway": "bus_stop", "name": "la Pinya", "name:ca": "la Pinya", "network": "Hostalets d\u2019en Bas - Joanetes - Sant Privat d\u2019en Bas - Les Olletes - La Pinya - Olot", "operator": "TEISA", "public_transport": "platform"}}, {"type": "node", "id": 8357668335, "lat": 42.1873519, "lon": 2.4690296, "tags": {"bench": "yes", "bin": "no", "bus": "yes", "highway": "bus_stop", "name": "Olot-Hospital Nou", "operator": "TEISA", "public_transport": "platform", "shelter": "yes", "tactile_paving": "no"}}, {"type": "node", "id": 8357812009, "lat": 42.1016854, "lon": 2.4497384, "tags": {"bench": "no", "bin": "no", "bus": "yes", "highway": "bus_stop", "lit": "yes", "name": "Hostalets d'en Bas-Poble", "name:ca": "Hostalets d'en Bas-Poble", "operator": "TEISA", "public_transport": "platform", "shelter": "no", "tactile_paving": "no"}}, {"type": "node", "id": 8508418956, "lat": 41.8943159, "lon": 2.1047974, "tags": {"bus": "yes", "highway": "bus_stop", "name": "Sant Feliuet de Terrassola", "public_transport": "stop_position", "route_ref": "e9"}}, {"type": "node", "id": 8571277635, "lat": 42.0514097, "lon": 2.3912189, "tags": {"bus": "yes", "highway": "bus_stop", "name": "L'Esquirol - St. Juli\u00e0 de Cabrera", "network": "431, 463, 464", "operator": "Sagal\u00e9s", "public_transport": "platform", "ref": "5811", "route_ref": "462"}}, {"type": "node", "id": 8575519133, "lat": 41.9815222, "lon": 2.3077379, "tags": {"bus": "yes", "highway": "bus_stop", "name": "Av. Diputaci\u00f3 - Torrent", "operator": "Sagal\u00e9s", "public_transport": "platform", "ref": "7812", "route_ref": "449 462", "shelter": "yes"}}, {"type": "node", "id": 8575519134, "lat": 41.987774, "lon": 2.3094725, "tags": {"bus": "yes", "highway": "bus_stop", "name": "Ctra. de Manlleu a Roda - La Prada", "operator": "Sagal\u00e9s", "public_transport": "platform", "ref": "5793", "route_ref": "449", "shelter": "yes"}}, {"type": "node", "id": 8575519135, "lat": 42.0033729, "lon": 2.2925576, "tags": {"bus": "yes", "highway": "bus_stop", "name": "Pl. Sanglas Alsina", "operator": "Sagal\u00e9s", "public_transport": "platform", "ref": "8235", "shelter": "yes"}}, {"type": "node", "id": 8848689683, "lat": 42.0258478, "lon": 2.4650546, "tags": {"bench": "no", "bin": "yes", "bus": "yes", "highway": "bus_stop", "lit": "yes", "name": "Pl. Nova de l'Era", "name:signed": "no", "public_transport": "platform", "ref": "7684", "route_ref": "462", "shelter": "no", "tactile_paving": "no"}}, {"type": "node", "id": 9124854724, "lat": 42.2195275, "lon": 2.546434, "tags": {"bus": "yes", "highway": "bus_stop", "operator": "TEISA", "public_transport": "platform", "ref": "MG 0470", "shelter": "yes"}}, {"type": "node", "id": 9169547019, "lat": 42.2088968, "lon": 2.4836986, "tags": {"bus": "yes", "departures_board": "no", "highway": "bus_stop", "name": "Llocalou", "name:ca": "Llocalou", "operator": "Teisa", "public_transport": "platform", "route_ref": "L0330", "shelter": "no"}}, {"type": "node", "id": 9169554293, "lat": 42.2111323, "lon": 2.4536936, "tags": {"bench": "no", "bus": "yes", "departures_board": "no", "highway": "bus_stop", "name": "Hostalnou", "name:ca": "Hostalnou", "operator": "Teisa", "public_transport": "platform", "route_ref": "L0330", "shelter": "no"}}, {"type": "node", "id": 9408382996, "lat": 42.1591251, "lon": 2.5113434, "tags": {"bus": "yes", "highway": "bus_stop", "public_transport": "platform"}}, {"type": "node", "id": 9449189083, "lat": 42.2428815, "lon": 2.3087719, "tags": {"bench": "no", "bus": "yes", "highway": "bus_stop", "name": "La Col\u00f2nia Llaudet", "public_transport": "platform", "route_ref": "L0330", "shelter": "no"}}, {"type": "node", "id": 9449189084, "lat": 42.2427587, "lon": 2.3087045, "tags": {"bench": "no", "bus": "yes", "highway": "bus_stop", "name": "La Col\u00f2nia Llaudet", "public_transport": "platform", "route_ref": "L0330", "shelter": "no"}}, {"type": "node", "id": 9456785130, "lat": 42.2087391, "lon": 2.4839817, "tags": {"bus": "yes", "departures_board": "timetable", "highway": "bus_stop", "name": "Llocalou", "name:ca": "Llocalou", "operator": "Teisa", "public_transport": "platform", "route_ref": "L0330", "shelter": "yes"}}, {"type": "node", "id": 9668257991, "lat": 42.2191395, "lon": 2.5471679, "tags": {"bus": "yes", "departures_board": "yes", "highway": "bus_stop", "name": "Castellfollit de la Roca", "name:ca": "Castellfollit de la Roca", "operator": "TEISA", "public_transport": "platform", "route_ref": "L0803", "shelter": "yes"}}, {"type": "node", "id": 9671264248, "lat": 42.2192195, "lon": 2.5470126, "tags": {"bus": "yes", "highway": "bus_stop", "name": "Castellfollit de la Roca", "name:ca": "Castellfollit de la Roca", "network": "teisa", "public_transport": "platform", "route_ref": "L0803", "shelter": "no"}}, {"type": "node", "id": 9839998333, "lat": 42.221236, "lon": 2.4399755, "tags": {"bus": "yes", "highway": "bus_stop", "public_transport": "platform", "shelter": "no"}}, {"type": "node", "id": 9839998334, "lat": 42.2217986, "lon": 2.4400043, "tags": {"bus": "yes", "highway": "bus_stop", "name": "Can Pair\u00f3", "public_transport": "platform", "route_ref": "L0330", "shelter": "no"}}, {"type": "node", "id": 9977170927, "lat": 42.2088369, "lon": 2.4836886, "tags": {"bus": "yes", "highway": "bus_stop", "name": "Llocalou", "public_transport": "stop_position", "route_ref": "L0330"}}, {"type": "node", "id": 9977194354, "lat": 42.2082509, "lon": 2.4918053, "tags": {"bus": "yes", "highway": "bus_stop", "public_transport": "stop_position"}}, {"type": "node", "id": 11179361362, "lat": 42.1841611, "lon": 2.4724901, "tags": {"bench": "yes", "bin": "yes", "highway": "bus_stop", "shelter": "yes"}}, {"type": "node", "id": 11179446680, "lat": 42.1840689, "lon": 2.4726009, "tags": {"bench": "yes", "highway": "bus_stop", "shelter": "yes"}}, {"type": "node", "id": 11219767154, "lat": 42.188531, "lon": 2.4989993, "tags": {"bus": "yes", "highway": "bus_stop", "name": "Olot Sant Miquel", "operator": "TEISA", "public_transport": "platform", "shelter": "yes"}}, {"type": "node", "id": 11219767155, "lat": 42.1883155, "lon": 2.4990655, "tags": {"bus": "yes", "highway": "bus_stop", "name": "Olot Sant Miquel", "public_transport": "platform"}}, {"type": "node", "id": 11230874232, "lat": 42.2125412, "lon": 2.5127641, "tags": {"bench": "yes", "bus": "yes", "departures_board": "yes", "highway": "bus_stop", "name": "Sant Joan les Fonts", "operator": "TEISA", "public_transport": "platform", "route_ref": "L0803", "shelter": "yes"}}, {"type": "node", "id": 11230874233, "lat": 42.2123519, "lon": 2.5129481, "tags": {"bus": "yes", "highway": "bus_stop", "name": "Sant Joan les Fonts", "operator": "Teisa", "public_transport": "platform", "route_ref": "L0803", "shelter": "no"}}, {"type": "node", "id": 11300285407, "lat": 42.3215213, "lon": 2.47921, "tags": {"highway": "bus_stop"}}, {"type": "node", "id": 11300297985, "lat": 42.3490771, "lon": 2.4065416, "tags": {"highway": "bus_stop"}}, {"type": "node", "id": 11373720088, "lat": 42.0034235, "lon": 2.2844806, "tags": {"bus": "yes", "highway": "bus_stop", "name": "Pg. Sant Joan - Av. de Roma", "network": "455, 464", "operator": "Sagal\u00e9s", "public_transport": "platform", "ref": "5621", "shelter": "yes"}}, {"type": "node", "id": 11373720089, "lat": 42.003471, "lon": 2.2845481, "tags": {"bus": "yes", "highway": "bus_stop", "name": "Pg. Sant Joan - Av. de Roma", "network": "455, 464", "operator": "Sagal\u00e9s", "public_transport": "platform", "ref": "5621", "shelter": "yes"}}, {"type": "node", "id": 11398324654, "lat": 42.0895961, "lon": 2.5893087, "tags": {"bus": "yes", "highway": "bus_stop", "name": "Sant Aniol de Finestres - Can Tur\u00e0", "operator": "TEISA", "public_transport": "platform"}}, {"type": "node", "id": 11468923055, "lat": 42.1816991, "lon": 2.4778639, "tags": {"bus": "yes", "highway": "bus_stop", "public_transport": "platform"}}, {"type": "node", "id": 11578604614, "lat": 42.1454109, "lon": 2.4592026, "tags": {"bus": "yes", "highway": "bus_stop", "name": "les Preses", "network": "Bus Interurb\u00e0", "operator": "Teisa", "public_transport": "stop_position", "route_ref": "L0547"}}, {"type": "node", "id": 11578604615, "lat": 42.1456252, "lon": 2.4593216, "tags": {"bus": "yes", "highway": "bus_stop", "name": "les Preses", "network": "Bus Interurb\u00e0", "operator": "Teisa", "public_transport": "stop_position", "route_ref": "L0547"}}, {"type": "node", "id": 11580129683, "lat": 42.1808751, "lon": 2.4917402, "tags": {"bus": "yes", "highway": "bus_stop", "name": "Olot (estaci\u00f3 d'autobusos)", "name:ca": "Olot (estaci\u00f3 d'autobusos)", "public_transport": "stop_position", "route_ref": "L0330 L0547 L0803"}}, {"type": "node", "id": 11580390508, "lat": 42.0782699, "lon": 2.507881, "tags": {"bus": "yes", "highway": "bus_stop", "name": "Sant Feliu de Pallerols", "name:ca": "Sant Feliu de Pallerols", "public_transport": "stop_position"}}, {"type": "node", "id": 11580390509, "lat": 42.1192789, "lon": 2.4590309, "tags": {"bus": "yes", "highway": "bus_stop", "name": "Sant Esteve d'en Bas", "name:ca": "Sant Esteve d'en Bas", "public_transport": "stop_position"}}, {"type": "node", "id": 11580390510, "lat": 42.1193748, "lon": 2.4588183, "tags": {"bus": "yes", "highway": "bus_stop", "name": "Sant Esteve d'en Bas", "name:ca": "Sant Esteve d'en Bas", "public_transport": "stop_position"}}, {"type": "node", "id": 11581486482, "lat": 42.0991956, "lon": 2.4955652, "tags": {"bus": "yes", "highway": "bus_stop", "name": "Sant Miquel de Pineda", "name:ca": "Sant Miquel de Pineda", "public_transport": "stop_position"}}, {"type": "node", "id": 11581486483, "lat": 42.0979826, "lon": 2.4955768, "tags": {"bus": "yes", "highway": "bus_stop", "name": "Sant Miquel de Pineda", "name:ca": "Sant Miquel de Pineda", "public_transport": "stop_position"}}, {"type": "node", "id": 11581486484, "lat": 42.0569231, "lon": 2.5400568, "tags": {"bus": "yes", "highway": "bus_stop", "name": "les Planes d'Hostoles", "name:ca": "les Planes d'Hostoles", "public_transport": "stop_position"}}, {"type": "node", "id": 11581486485, "lat": 42.056998, "lon": 2.5399552, "tags": {"bus": "yes", "highway": "bus_stop", "name": "les Planes d'Hostoles", "name:ca": "les Planes d'Hostoles", "public_transport": "stop_position"}}, {"type": "node", "id": 11581527587, "lat": 42.0107119, "lon": 2.6031544, "tags": {"bus": "yes", "highway": "bus_stop", "name": "Amer", "name:ca": "Amer", "public_transport": "stop_position"}}, {"type": "node", "id": 11581527588, "lat": 42.0105093, "lon": 2.6033542, "tags": {"bus": "yes", "highway": "bus_stop", "name": "Amer", "name:ca": "Amer", "public_transport": "stop_position"}}, {"type": "node", "id": 11910741330, "lat": 42.1462282, "lon": 2.5687195, "tags": {"bus": "yes", "highway": "bus_stop", "name": "Santa Pau", "public_transport": "stop_position"}}, {"type": "node", "id": 12078412282, "lat": 42.1032723, "lon": 2.4524389, "tags": {"highway": "bus_stop", "shelter": "yes"}}, {"type": "node", "id": 12119041951, "lat": 41.9325701, "lon": 2.249175, "tags": {"bench": "yes", "bus": "yes", "highway": "bus_stop", "name": "Vic Estaci\u00f3 d'autobusos", "public_transport": "platform", "route_ref": "476 L0547 432 433 441 449 462 487", "shelter": "yes"}}, {"type": "node", "id": 12119062547, "lat": 42.1807948, "lon": 2.4917015, "tags": {"bus": "yes", "highway": "bus_stop", "name": "Olot (estaci\u00f3 d'autobusos)", "public_transport": "platform", "route_ref": "L0330 L0547 L0803"}}, {"type": "node", "id": 12122270034, "lat": 42.2191824, "lon": 2.5471704, "tags": {"bus": "yes", "highway": "bus_stop", "name": "Castellfollit de la Roca", "public_transport": "stop_position", "route_ref": "L0803"}}, {"type": "node", "id": 12122270035, "lat": 42.2124152, "lon": 2.5129493, "tags": {"bus": "yes", "highway": "bus_stop", "name": "Sant Joan les Fonts", "public_transport": "stop_position", "route_ref": "L0803"}}, {"type": "node", "id": 12122270036, "lat": 42.2072345, "lon": 2.497608, "tags": {"bus": "yes", "highway": "bus_stop", "name": "La Canya", "public_transport": "platform", "route_ref": "L0330 L0803"}}, {"type": "node", "id": 12122369387, "lat": 42.2070646, "lon": 2.4974102, "tags": {"bus": "yes", "highway": "bus_stop", "name": "La Canya", "public_transport": "platform", "route_ref": "L0330 L0803"}}, {"type": "node", "id": 12122369388, "lat": 42.2124154, "lon": 2.5127777, "tags": {"bus": "yes", "highway": "bus_stop", "name": "Sant Joan les Fonts", "public_transport": "stop_position", "route_ref": "L0803"}}, {"type": "node", "id": 12136405803, "lat": 42.0093601, "lon": 2.0596385, "tags": {"bus": "yes", "highway": "bus_stop", "name": "Sta. Creu de Joglars", "public_transport": "platform", "ref": "1827", "route_ref": "471 476"}}, {"type": "node", "id": 12136420831, "lat": 41.9362299, "lon": 2.1802638, "tags": {"bus": "yes", "highway": "bus_stop", "name": "Ctra. C-154 - Hostal Nou", "public_transport": "stop_position", "ref": "9938", "route_ref": "476"}}, {"type": "node", "id": 12136420832, "lat": 41.9361664, "lon": 2.1802544, "tags": {"bus": "yes", "highway": "bus_stop", "name": "Ctra. C-154 - Hostal Nou", "public_transport": "platform", "ref": "9938", "route_ref": "476"}}, {"type": "node", "id": 12136420833, "lat": 41.9573114, "lon": 2.1475934, "tags": {"bus": "yes", "highway": "bus_stop", "name": "Ctra. C-154 - Casa Miquela", "public_transport": "platform", "ref": "1838", "route_ref": "476"}}, {"type": "node", "id": 12136420834, "lat": 41.9862002, "lon": 2.0964967, "tags": {"bus": "yes", "highway": "bus_stop", "name": "Ctra. de Gironella - Esgl\u00e9sia", "public_transport": "stop_position", "ref": "1835", "route_ref": "476"}}, {"type": "node", "id": 12136420835, "lat": 41.9861977, "lon": 2.0964468, "tags": {"bus": "yes", "highway": "bus_stop", "name": "Ctra. de Gironella - Esgl\u00e9sia", "public_transport": "platform", "ref": "1835", "route_ref": "476"}}, {"type": "node", "id": 12136482606, "lat": 42.0096746, "lon": 2.0608869, "tags": {"bus": "yes", "highway": "bus_stop", "name": "Sta. Creu de Joglars", "public_transport": "platform", "ref": "9581", "route_ref": "476"}}, {"type": "node", "id": 12136482607, "lat": 41.9861668, "lon": 2.0964998, "tags": {"bus": "yes", "highway": "bus_stop", "name": "Ctra. de Gironella - Esgl\u00e9sia", "public_transport": "stop_position", "ref": "9891", "route_ref": "476"}}, {"type": "node", "id": 12136482608, "lat": 41.9861692, "lon": 2.0965397, "tags": {"bus": "yes", "highway": "bus_stop", "name": "Ctra. de Gironella - Esgl\u00e9sia", "public_transport": "platform", "ref": "9891", "route_ref": "476"}}, {"type": "node", "id": 12136482609, "lat": 41.9574592, "lon": 2.1478258, "tags": {"bus": "yes", "highway": "bus_stop", "name": "Ctra. C-154 - Casa Miquela", "public_transport": "stop_position", "ref": "9940", "route_ref": "476"}}, {"type": "node", "id": 12136482610, "lat": 41.9574935, "lon": 2.1478081, "tags": {"bus": "yes", "highway": "bus_stop", "name": "Ctra. C-154 - Casa Miquela", "public_transport": "platform", "ref": "9940", "route_ref": "476"}}, {"type": "node", "id": 12136482611, "lat": 41.9362829, "lon": 2.1799292, "tags": {"bus": "yes", "highway": "bus_stop", "name": "Ctra. C-154 - Hostal Nou", "public_transport": "stop_position", "ref": "9939", "route_ref": "476"}}, {"type": "node", "id": 12136482612, "lat": 41.9363274, "lon": 2.1799404, "tags": {"bus": "yes", "highway": "bus_stop", "name": "Ctra. C-154 - Hostal Nou", "public_transport": "platform", "ref": "9939", "route_ref": "476"}}, {"type": "node", "id": 12136682052, "lat": 42.1480165, "lon": 2.4620714, "tags": {"bus": "yes", "highway": "bus_stop", "name": "C. Lil\u00e0", "name:ca": "C. Lil\u00e0", "network": "rumbus", "operator": "teisa", "public_transport": "platform", "ref": "1", "shelter": "no", "surface": "asphalt"}}, {"type": "node", "id": 12136742449, "lat": 42.1526586, "lon": 2.4684285, "tags": {"bus": "yes", "departures_board": "yes", "highway": "bus_stop", "name": "\u00c0rea de recepci\u00f3 de visitants de les Preses", "name:ca": "\u00c0rea de recepci\u00f3 de visitants de les Preses", "network": "rumbus", "operator": "teisa", "pole": "yes", "public_transport": "platform", "ref": "2", "shelter": "yes", "surface": "asphalt"}}, {"type": "node", "id": 12144301299, "lat": 42.1969374, "lon": 2.1950612, "tags": {"bus": "yes", "highway": "bus_stop", "name": "Ripoll estaci\u00f3 d'autobusos", "public_transport": "stop_position", "route_ref": "L0051 L0156 L0330"}}, {"type": "node", "id": 12144301300, "lat": 42.1969152, "lon": 2.1952272, "tags": {"bus": "yes", "highway": "bus_stop", "name": "Ripoll estaci\u00f3 d'autobusos", "public_transport": "platform", "route_ref": "L0051 L0156 L0330", "shelter": "yes"}}, {"type": "node", "id": 12144348519, "lat": 42.2463236, "lon": 2.3268242, "tags": {"bus": "yes", "highway": "bus_stop", "name": "T\u00fanel-Rotonda", "public_transport": "platform", "route_ref": "L0330"}}, {"type": "node", "id": 12144348520, "lat": 42.2428827, "lon": 2.4114485, "tags": {"bus": "yes", "highway": "bus_stop", "name": "Sant Salvador de Bianya", "public_transport": "platform", "route_ref": "L0330"}}, {"type": "node", "id": 12144348521, "lat": 42.2217693, "lon": 2.4399056, "tags": {"bus": "yes", "highway": "bus_stop", "name": "Can Pair\u00f3", "public_transport": "stop_position", "route_ref": "L0330"}}, {"type": "node", "id": 12144348522, "lat": 42.2110627, "lon": 2.4536924, "tags": {"bus": "yes", "highway": "bus_stop", "name": "Hostalnou", "public_transport": "stop_position", "route_ref": "L0330"}}, {"type": "node", "id": 12144355534, "lat": 42.2329673, "lon": 2.2869091, "tags": {"bus": "yes", "highway": "bus_stop", "name": "Sant Joan de les Abadesses", "public_transport": "stop_position", "route_ref": "L0330"}}, {"type": "node", "id": 12144355535, "lat": 42.2329626, "lon": 2.2869017, "tags": {"bus": "yes", "highway": "bus_stop", "name": "Sant Joan de les Abadesses", "public_transport": "platform", "route_ref": "L0330"}}, {"type": "node", "id": 12144378760, "lat": 42.2461266, "lon": 2.3265656, "tags": {"bus": "yes", "highway": "bus_stop", "name": "T\u00fanel-Rotonda", "public_transport": "stop_position", "route_ref": "L0330"}}, {"type": "node", "id": 12144378761, "lat": 42.2460715, "lon": 2.3264354, "tags": {"bus": "yes", "highway": "bus_stop", "name": "T\u00fanel-Rotonda", "public_transport": "platform", "route_ref": "L0330"}}, {"type": "node", "id": 12144378762, "lat": 42.2428422, "lon": 2.3087949, "tags": {"bus": "yes", "highway": "bus_stop", "name": "La Col\u00f2nia Llaudet", "public_transport": "stop_position", "route_ref": "L0330"}}, {"type": "node", "id": 12144378763, "lat": 42.2428049, "lon": 2.3086725, "tags": {"bus": "yes", "highway": "bus_stop", "name": "La Col\u00f2nia Llaudet", "public_transport": "stop_position", "route_ref": "L0330"}}, {"type": "node", "id": 12144414334, "lat": 42.2111226, "lon": 2.4532974, "tags": {"bus": "yes", "highway": "bus_stop", "name": "Hostalnou", "name:ca": "Hostalnou", "public_transport": "stop_position", "route_ref": "L0330"}}, {"type": "node", "id": 12144414335, "lat": 42.2215741, "lon": 2.4400193, "tags": {"bus": "yes", "highway": "bus_stop", "name": "Can Pair\u00f3", "public_transport": "stop_position", "route_ref": "L0330"}}, {"type": "node", "id": 12144414336, "lat": 42.2215634, "lon": 2.4399618, "tags": {"bus": "yes", "highway": "bus_stop", "name": "Can Pair\u00f3", "public_transport": "platform", "route_ref": "L0330"}}, {"type": "node", "id": 12144414337, "lat": 42.2428328, "lon": 2.4109894, "tags": {"bus": "yes", "highway": "bus_stop", "name": "Sant Salvador de Bianya", "public_transport": "stop_position", "route_ref": "L0330"}}, {"type": "node", "id": 12144414338, "lat": 42.2427751, "lon": 2.4109895, "tags": {"bus": "yes", "highway": "bus_stop", "name": "Sant Salvador de Bianya", "public_transport": "platform", "route_ref": "L0330"}}, {"type": "node", "id": 12180242636, "lat": 41.8943149, "lon": 2.1047108, "tags": {"bus": "yes", "highway": "bus_stop", "name": "Sant Feliuet de Terrassola", "public_transport": "platform", "route_ref": "e9"}}, {"type": "node", "id": 12180242637, "lat": 41.9002345, "lon": 2.1026495, "tags": {"bus": "yes", "highway": "bus_stop", "name": "Ctra.Moi\u00e0 - Ctra. Vic", "public_transport": "platform", "route_ref": "e9"}}, {"type": "node", "id": 12181819842, "lat": 41.89418, "lon": 2.104811, "tags": {"bus": "yes", "highway": "bus_stop", "name": "Sant Feliu de Terrassola", "public_transport": "stop_position", "route_ref": "e9"}}, {"type": "node", "id": 12181819843, "lat": 41.8941914, "lon": 2.1048595, "tags": {"bus": "yes", "highway": "bus_stop", "name": "Sant Feliu de Terrassola", "public_transport": "platform", "route_ref": "e9"}}, {"type": "node", "id": 12181819844, "lat": 41.9003149, "lon": 2.1025881, "tags": {"bus": "yes", "highway": "bus_stop", "name": "Ctra. Moi\u00e0 - Ctra. Vic", "public_transport": "platform", "route_ref": "e9"}}, {"type": "node", "id": 12181819845, "lat": 41.9002696, "lon": 2.102578, "tags": {"bus": "yes", "highway": "bus_stop", "name": "Ctra. Moi\u00e0 - Ctra. Vic", "public_transport": "stop_position", "route_ref": "e9"}}, {"type": "node", "id": 12199011210, "lat": 42.1901777, "lon": 2.4848327, "tags": {"bus": "yes", "highway": "bus_stop", "public_transport": "platform"}}, {"type": "node", "id": 12199011211, "lat": 42.1901808, "lon": 2.484793, "tags": {"bus": "yes", "highway": "bus_stop", "public_transport": "platform"}}, {"type": "node", "id": 12231850360, "lat": 42.1509142, "lon": 2.0367904, "tags": {"bus": "yes", "highway": "bus_stop", "name": "Cru\u00eflla Palmerola", "public_transport": "platform", "route_ref": "L0156"}}, {"type": "node", "id": 12231850361, "lat": 42.1524232, "lon": 2.0588261, "tags": {"bus": "yes", "highway": "bus_stop", "name": "Els Hostalets de les Llosses", "public_transport": "stop_position", "route_ref": "L0156"}}, {"type": "node", "id": 12231850362, "lat": 42.1524077, "lon": 2.0589098, "tags": {"bus": "yes", "highway": "bus_stop", "name": "Els Hostalets de les Llosses", "public_transport": "platform", "route_ref": "L0156"}}, {"type": "node", "id": 12231850363, "lat": 42.1594178, "lon": 2.0892264, "tags": {"bus": "yes", "highway": "bus_stop", "name": "Santa Maria de Matamala", "public_transport": "platform", "route_ref": "L0156"}}, {"type": "node", "id": 12231850364, "lat": 42.1594744, "lon": 2.089196, "tags": {"bus": "yes", "highway": "bus_stop", "name": "Santa Maria de Matamala", "public_transport": "stop_position", "route_ref": "L0156"}}, {"type": "node", "id": 12231850365, "lat": 42.1510614, "lon": 2.117301, "tags": {"bus": "yes", "highway": "bus_stop", "name": "Santa Maria de les Llosses", "public_transport": "stop_position", "route_ref": "L0156"}}, {"type": "node", "id": 12231850366, "lat": 42.1510303, "lon": 2.1172958, "tags": {"bus": "yes", "highway": "bus_stop", "name": "Santa Maria de les Llosses", "public_transport": "platform", "route_ref": "L0156"}}, {"type": "node", "id": 12231947005, "lat": 42.15105, "lon": 2.117184, "tags": {"bus": "yes", "highway": "bus_stop", "name": "Santa Maria de les Llosses", "public_transport": "stop_position", "route_ref": "L0156"}}, {"type": "node", "id": 12231947006, "lat": 42.1510749, "lon": 2.1171797, "tags": {"bus": "yes", "highway": "bus_stop", "name": "Santa Maria de les Llosses", "public_transport": "platform", "route_ref": "L0156"}}, {"type": "node", "id": 12231947007, "lat": 42.1595281, "lon": 2.0895314, "tags": {"bus": "yes", "highway": "bus_stop", "name": "Santa Maria de Matamala", "public_transport": "stop_position", "route_ref": "L0156"}}, {"type": "node", "id": 12231947008, "lat": 42.1595812, "lon": 2.0895192, "tags": {"bus": "yes", "highway": "bus_stop", "name": "Santa Maria de Matamala", "public_transport": "platform", "route_ref": "L0156"}}, {"type": "node", "id": 12231947009, "lat": 42.1523753, "lon": 2.0587137, "tags": {"bus": "yes", "highway": "bus_stop", "name": "Els Hostalets de les Llosses", "public_transport": "platform", "route_ref": "L0156"}}, {"type": "node", "id": 12231947010, "lat": 42.1510521, "lon": 2.0368451, "tags": {"bus": "yes", "highway": "bus_stop", "name": "Cru\u00eflla Palmerola", "public_transport": "platform", "route_ref": "L0156"}}, {"type": "node", "id": 12252938077, "lat": 42.2222602, "lon": 2.1671391, "tags": {"bus": "yes", "highway": "bus_stop", "name": "Campdev\u00e0nol", "public_transport": "stop_position", "route_ref": "L0051"}}, {"type": "node", "id": 12252938078, "lat": 42.2222254, "lon": 2.1671243, "tags": {"bus": "yes", "highway": "bus_stop", "name": "Campdev\u00e0nol", "public_transport": "platform", "route_ref": "L0051"}}, {"type": "node", "id": 12252938079, "lat": 42.2483061, "lon": 2.0910501, "tags": {"bus": "yes", "highway": "bus_stop", "name": "Gombr\u00e8n", "public_transport": "stop_position", "route_ref": "L0051"}}, {"type": "node", "id": 12252938080, "lat": 42.2482391, "lon": 2.0910887, "tags": {"bus": "yes", "highway": "bus_stop", "name": "Gombr\u00e8n", "public_transport": "platform", "route_ref": "L0051"}}, {"type": "node", "id": 12252938081, "lat": 42.2818531, "lon": 2.0165406, "tags": {"bus": "yes", "highway": "bus_stop", "name": "Castellar de n'Hug", "public_transport": "stop_position", "route_ref": "L0051"}}, {"type": "node", "id": 12252938082, "lat": 42.2818809, "lon": 2.0165029, "tags": {"bus": "yes", "highway": "bus_stop", "name": "Castellar de n'Hug", "public_transport": "platform", "route_ref": "L0051"}}, {"type": "node", "id": 12252938083, "lat": 42.2434083, "lon": 1.9733813, "tags": {"bus": "yes", "highway": "bus_stop", "name": "La Pobla de Lillet", "public_transport": "platform", "route_ref": "L0051"}}, {"type": "node", "id": 12351345466, "lat": 41.9474607, "lon": 2.2379432, "tags": {"bus": "yes", "highway": "bus_stop", "name": "Pla\u00e7a Triangle", "public_transport": "platform", "ref": "2685", "route_ref": "432"}}, {"type": "node", "id": 12351345468, "lat": 41.956034, "lon": 2.2346806, "tags": {"bus": "yes", "highway": "bus_stop", "name": "Zona Esportiva Gurb", "public_transport": "platform", "ref": "5289", "route_ref": "432"}}, {"type": "node", "id": 12351345470, "lat": 41.9469232, "lon": 2.2403742, "tags": {"bus": "yes", "highway": "bus_stop", "name": "Carrer Ripoll\u00e8s (CEIP Les Escoles)", "public_transport": "platform", "ref": "4053", "route_ref": "432"}}, {"type": "node", "id": 12357732984, "lat": 41.9416894, "lon": 2.2537806, "tags": {"bus": "yes", "highway": "bus_stop", "name": "P.I. Mas Gal\u00ed - B-521 - Sta. Coloma de Farners (Tekor)", "public_transport": "platform", "ref": "8144", "route_ref": "433"}}, {"type": "node", "id": 12357732986, "lat": 41.935061, "lon": 2.2553186, "tags": {"bench": "yes", "bin": "no", "bus": "yes", "highway": "bus_stop", "name": "Ctra. de Manlleu - Can Fajula", "public_transport": "platform", "ref": "1231", "route_ref": "433 449 462", "shelter": "yes"}}, {"type": "node", "id": 12357751638, "lat": 42.0169465, "lon": 2.2368709, "tags": {"bus": "yes", "highway": "bus_stop", "name": "Av. Pa\u00efsos Catalans", "public_transport": "platform", "ref": "2722", "route_ref": "433"}}, {"type": "node", "id": 12357751639, "lat": 42.0155705, "lon": 2.2383899, "tags": {"bus": "yes", "highway": "bus_stop", "name": "Ptge. de Par\u00e9s - Batlle Serrallonga", "public_transport": "platform", "ref": "2784", "route_ref": "433"}}, {"type": "node", "id": 12357751641, "lat": 42.0139437, "lon": 2.2373266, "tags": {"bus": "yes", "highway": "bus_stop", "name": "Ptge. de Par\u00e9s (Pavell\u00f3 Hoquei)", "public_transport": "platform", "ref": "2787", "route_ref": "433"}}, {"type": "node", "id": 12357751643, "lat": 42.0077167, "lon": 2.2408788, "tags": {"bus": "yes", "highway": "bus_stop", "name": "Pol. Industrial - Centre Comercial", "public_transport": "platform", "ref": "2721", "route_ref": "433"}}, {"type": "node", "id": 12357771968, "lat": 42.0055296, "lon": 2.2414332, "tags": {"bus": "yes", "highway": "bus_stop", "name": "La Gleva", "public_transport": "platform", "ref": "2773", "route_ref": "433"}}, {"type": "node", "id": 12357819034, "lat": 42.0153045, "lon": 2.2448082, "tags": {"bus": "yes", "highway": "bus_stop", "name": "Av. de Despujol", "public_transport": "platform", "ref": "2686", "route_ref": "433"}}, {"type": "node", "id": 12357819036, "lat": 42.0367471, "lon": 2.2326014, "tags": {"bus": "yes", "highway": "bus_stop", "name": "Carrer Sant Esteve (Vinyoles)", "public_transport": "platform", "ref": "2746", "route_ref": "433"}}, {"type": "node", "id": 12357819038, "lat": 42.0393042, "lon": 2.2310525, "tags": {"bus": "yes", "highway": "bus_stop", "name": "Major - JosepM. Sert (Vinyoles)", "public_transport": "platform", "ref": "2743", "route_ref": "433"}}, {"type": "node", "id": 12357819040, "lat": 42.0416325, "lon": 2.2326236, "tags": {"bus": "yes", "highway": "bus_stop", "name": "Escoles Velles (Vinyoles)", "public_transport": "platform", "ref": "2741", "route_ref": "433"}}, {"type": "node", "id": 12357819042, "lat": 42.0577937, "lon": 2.2389037, "tags": {"bus": "yes", "highway": "bus_stop", "name": "Ajuntament d'Or\u00eds", "public_transport": "platform", "ref": "2740", "route_ref": "433"}}, {"type": "node", "id": 12357820233, "lat": 41.9349039, "lon": 2.2551753, "tags": {"bench": "no", "bin": "no", "bus": "yes", "highway": "bus_stop", "name": "Ctra. de Vic a Manlleu - Can Fajula", "public_transport": "platform", "ref": "7916", "route_ref": "433 449 462", "shelter": "no"}}, {"type": "node", "id": 12357820235, "lat": 41.9414988, "lon": 2.2536591, "tags": {"bus": "yes", "highway": "bus_stop", "name": "P.I. Mas Gal\u00ed - B-521 - Matar\u00f3 (Lidl)", "public_transport": "platform", "ref": "7606", "route_ref": "433 462"}}, {"type": "node", "id": 12357820236, "lat": 42.0054448, "lon": 2.2411018, "tags": {"bus": "yes", "highway": "bus_stop", "name": "La Gleva", "public_transport": "platform", "ref": "2759", "route_ref": "433"}}, {"type": "node", "id": 12357831728, "lat": 42.0138907, "lon": 2.2372184, "tags": {"bus": "yes", "highway": "bus_stop", "name": "Ptge. de Par\u00e8s - Pavell\u00f3 Hoquei", "public_transport": "platform", "ref": "2690", "route_ref": "433"}}, {"type": "node", "id": 12357831730, "lat": 42.0150287, "lon": 2.23731, "tags": {"bus": "yes", "highway": "bus_stop", "name": "Ptge. de Par\u00e9s - Dr. Dom\u00e8nech Serrabou", "public_transport": "platform", "ref": "2687", "route_ref": "433"}}, {"type": "node", "id": 12357831732, "lat": 42.0169685, "lon": 2.2366703, "tags": {"bus": "yes", "highway": "bus_stop", "name": "Av. dels Pa\u00efsos Catalans", "public_transport": "platform", "ref": "2785", "route_ref": "433"}}, {"type": "node", "id": 12365214286, "lat": 41.9327284, "lon": 2.2499087, "tags": {"bus": "yes", "highway": "bus_stop", "name": "Carrer Pare Galliss\u00e0", "public_transport": "platform", "ref": "4592", "route_ref": "441"}}, {"type": "node", "id": 12370454800, "lat": 41.9715231, "lon": 2.2997877, "tags": {"bus": "yes", "highway": "bus_stop", "name": "La Creu de Codines", "public_transport": "platform", "ref": "7832", "route_ref": "449 462"}}, {"type": "node", "id": 12370457502, "lat": 41.9528854, "lon": 2.2773596, "tags": {"bus": "yes", "highway": "bus_stop", "name": "P.I. Malloles - C-153 - l'Esquirol", "public_transport": "platform", "ref": "7905", "route_ref": "449 462"}}, {"type": "node", "id": 12370457504, "lat": 41.9472523, "lon": 2.2703802, "tags": {"bus": "yes", "highway": "bus_stop", "name": "P.I. Parc d'Activitats Econ\u00f2miques - B-523 - Tortosa", "public_transport": "platform", "ref": "3006", "route_ref": "449 462"}}, {"type": "node", "id": 12370457506, "lat": 41.9453978, "lon": 2.2583503, "tags": {"bus": "yes", "highway": "bus_stop", "name": "Ctra. de Vic a Manlleu - Can Girbau", "public_transport": "platform", "ref": "8129", "route_ref": "449"}}, {"type": "node", "id": 12370620784, "lat": 42.0430225, "lon": 2.269865, "tags": {"bus": "yes", "highway": "bus_stop", "name": "Ctra. de Manlleu - Ocells", "public_transport": "platform", "ref": "5596", "route_ref": "449"}}, {"type": "node", "id": 12370620787, "lat": 42.0043784, "lon": 2.2835804, "tags": {"bus": "yes", "highway": "bus_stop", "name": "Pg. Sant Joan - Av. de Roma", "public_transport": "platform", "ref": "5621", "route_ref": "449"}}, {"type": "node", "id": 12370631033, "lat": 42.0030017, "lon": 2.2928242, "tags": {"bus": "yes", "highway": "bus_stop", "name": "Pl. Sanglas Alsina", "public_transport": "platform", "ref": "8131", "route_ref": "449"}}, {"type": "node", "id": 12370631036, "lat": 41.9856592, "lon": 2.3108754, "tags": {"bus": "yes", "highway": "bus_stop", "name": "Av. Tecla Sala - Ctra. de Manlleu", "public_transport": "platform", "ref": "7808", "route_ref": "449 462"}}, {"type": "node", "id": 12370631038, "lat": 41.9777097, "lon": 2.3053041, "tags": {"bus": "yes", "highway": "bus_stop", "name": "Pl. de Verdaguer", "public_transport": "platform", "ref": "7813", "route_ref": "449 462"}}, {"type": "node", "id": 12370738180, "lat": 42.0645033, "lon": 2.2415833, "tags": {"bus": "yes", "highway": "bus_stop", "name": "Col\u00f2nia Borgony\u00e0", "public_transport": "platform", "ref": "4855", "route_ref": "449 466"}}, {"type": "node", "id": 12370738182, "lat": 42.0519498, "lon": 2.2525, "tags": {"bus": "yes", "highway": "bus_stop", "name": "Pl. Josep Vidal", "public_transport": "platform", "ref": "2010", "route_ref": "449"}}, {"type": "node", "id": 12370738184, "lat": 42.0520124, "lon": 2.2590023, "tags": {"bus": "yes", "highway": "bus_stop", "name": "Estaci\u00f3 Rodalies de Torell\u00f3", "public_transport": "platform", "ref": "5592", "route_ref": "449"}}, {"type": "node", "id": 12370738185, "lat": 42.0501739, "lon": 2.2624006, "tags": {"bus": "yes", "highway": "bus_stop", "name": "Av. Generalitat - Pl. St. Forti\u00e0", "public_transport": "platform", "ref": "3354", "route_ref": "449"}}, {"type": "node", "id": 12370738195, "lat": 42.0490781, "lon": 2.2675687, "tags": {"bus": "yes", "highway": "bus_stop", "name": "Av. Pompeu Fabra - CAP", "public_transport": "platform", "ref": "5593", "route_ref": "449 466"}}, {"type": "node", "id": 12370738197, "lat": 42.0462789, "lon": 2.2662568, "tags": {"bus": "yes", "highway": "bus_stop", "name": "Puigdass\u00e0lit - St. Bartomeu", "public_transport": "platform", "ref": "5594", "route_ref": "449"}}, {"type": "node", "id": 12371041705, "lat": 42.0706945, "lon": 2.2908329, "tags": {"bus": "yes", "highway": "bus_stop", "name": "Ctra. BV-5224 - Benzinera", "public_transport": "platform", "ref": "5479", "route_ref": "449"}}, {"type": "node", "id": 12371041707, "lat": 42.0692993, "lon": 2.2858528, "tags": {"bus": "yes", "highway": "bus_stop", "name": "Pol\u00edgon Industrial", "public_transport": "platform", "ref": "9739", "route_ref": "449"}}, {"type": "node", "id": 12371041709, "lat": 42.0624404, "lon": 2.272737, "tags": {"bus": "yes", "highway": "bus_stop", "name": "Av. del Castell - El Pavell\u00f3", "public_transport": "platform", "ref": "5486", "route_ref": "449"}}, {"type": "node", "id": 12371041711, "lat": 42.0629749, "lon": 2.2700562, "tags": {"bus": "yes", "highway": "bus_stop", "name": "Vilamitjana- Serrallonga", "public_transport": "platform", "ref": "5541", "route_ref": "449"}}, {"type": "node", "id": 12371041713, "lat": 42.061485, "lon": 2.2643831, "tags": {"bus": "yes", "highway": "bus_stop", "name": "Ctra. BV-5229 - Zona Esportiva", "public_transport": "platform", "ref": "5542", "route_ref": "449"}}, {"type": "node", "id": 12371041715, "lat": 42.0595672, "lon": 2.255608, "tags": {"bus": "yes", "highway": "bus_stop", "name": "Col\u00f2nia Vilaseca", "public_transport": "platform", "ref": "5589", "route_ref": "449"}}, {"type": "node", "id": 12373511186, "lat": 42.059486, "lon": 2.2558014, "tags": {"bus": "yes", "highway": "bus_stop", "name": "Col\u00f2nia Vilaseca (direcci\u00f3 St. Pere de Torell\u00f3)", "public_transport": "platform", "ref": "4904", "route_ref": "449"}}, {"type": "node", "id": 12373511188, "lat": 42.0614506, "lon": 2.2646124, "tags": {"bus": "yes", "highway": "bus_stop", "name": "Ctra. de St.Vicen\u00e7 - Zona Esportiva", "public_transport": "platform", "ref": "4955", "route_ref": "449"}}, {"type": "node", "id": 12373511190, "lat": 42.0630185, "lon": 2.2698067, "tags": {"bus": "yes", "highway": "bus_stop", "name": "Vilamitjana- Serrallonga", "public_transport": "platform", "ref": "4964", "route_ref": "449"}}, {"type": "node", "id": 12373556414, "lat": 42.0626796, "lon": 2.272414, "tags": {"bus": "yes", "highway": "bus_stop", "name": "Av. del Castell - El Pavell\u00f3", "public_transport": "platform", "ref": "4965", "route_ref": "449"}}, {"type": "node", "id": 12373556416, "lat": 42.0691968, "lon": 2.2859052, "tags": {"bus": "yes", "highway": "bus_stop", "name": "Pol\u00edgon Industrial", "public_transport": "platform", "ref": "9738", "route_ref": "449"}}, {"type": "node", "id": 12373556418, "lat": 42.0706327, "lon": 2.2911384, "tags": {"bus": "yes", "highway": "bus_stop", "name": "Ctra. BV-5224 - Benzinera", "public_transport": "platform", "ref": "4966", "route_ref": "449"}}, {"type": "node", "id": 12373848311, "lat": 41.9877518, "lon": 2.3096627, "tags": {"bus": "yes", "highway": "bus_stop", "name": "Ctra. de Manlleu a Roda - La Prada", "public_transport": "platform", "ref": "5723", "route_ref": "449"}}, {"type": "node", "id": 12373848312, "lat": 42.0053486, "lon": 2.2895514, "tags": {"bus": "yes", "highway": "bus_stop", "name": "Pl. Sanglas Alsina", "public_transport": "platform", "ref": "8235", "route_ref": "449"}}, {"type": "node", "id": 12373848315, "lat": 42.0428729, "lon": 2.2702268, "tags": {"bus": "yes", "highway": "bus_stop", "name": "Ctra. de Manlleu - Matagalls", "public_transport": "platform", "ref": "2729", "route_ref": "449"}}, {"type": "node", "id": 12373848317, "lat": 42.0453757, "lon": 2.267705, "tags": {"bus": "yes", "highway": "bus_stop", "name": "Av. de la Diputaci\u00f3 - Can Jaumira", "public_transport": "platform", "ref": "4801", "route_ref": "449"}}, {"type": "node", "id": 12373874304, "lat": 42.0482583, "lon": 2.2659218, "tags": {"bus": "yes", "highway": "bus_stop", "name": "Pl. Germ\u00e0 Donat", "public_transport": "platform", "ref": "4821", "route_ref": "449 466"}}, {"type": "node", "id": 12373874306, "lat": 42.0487886, "lon": 2.2638925, "tags": {"bus": "yes", "highway": "bus_stop", "name": "Enric Prat de la Riba - Mercat Municipal", "public_transport": "platform", "ref": "4839", "route_ref": "449 466"}}, {"type": "node", "id": 12373874308, "lat": 42.0520818, "lon": 2.2592188, "tags": {"bus": "yes", "highway": "bus_stop", "name": "Estaci\u00f3 Rodalies de Torell\u00f3", "public_transport": "platform", "ref": "4842", "route_ref": "449"}}, {"type": "node", "id": 12373888076, "lat": 41.9717579, "lon": 2.300051, "tags": {"bus": "yes", "highway": "bus_stop", "name": "La Creu de Codines", "public_transport": "platform", "ref": "8161", "route_ref": "449 462"}}, {"type": "node", "id": 12373888082, "lat": 41.9767524, "lon": 2.3046309, "tags": {"bus": "yes", "highway": "bus_stop", "name": "Pl. de Verdaguer", "public_transport": "platform", "ref": "8164", "route_ref": "449 462"}}, {"type": "node", "id": 12373888084, "lat": 41.9839696, "lon": 2.3088782, "tags": {"bus": "yes", "highway": "bus_stop", "name": "Av. de la Diputaci\u00f3 - Torrent", "public_transport": "platform", "ref": "8196", "route_ref": "449 462"}}, {"type": "node", "id": 12373888086, "lat": 41.9856626, "lon": 2.310995, "tags": {"bus": "yes", "highway": "bus_stop", "name": "Av. Tecla Sala - Ctra. de Manlleu", "public_transport": "platform", "ref": "8226", "route_ref": "449 462"}}, {"type": "node", "id": 12373913721, "lat": 41.9452651, "lon": 2.2586175, "tags": {"bus": "yes", "highway": "bus_stop", "name": "Ctra. de Vic a Manlleu - Can Girbau", "public_transport": "platform", "ref": "5674", "route_ref": "449"}}, {"type": "node", "id": 12373913723, "lat": 41.9470018, "lon": 2.2705177, "tags": {"bus": "yes", "highway": "bus_stop", "name": "P.I. Parc d'Activitats Econ\u00f2miques - B-523 - Tortosa", "public_transport": "platform", "ref": "8156"}}, {"type": "node", "id": 12373913724, "lat": 41.9527053, "lon": 2.2775522, "tags": {"bus": "yes", "highway": "bus_stop", "name": "P.I. Malloles - C-153 - Mare de D\u00e9u del Far", "public_transport": "platform", "ref": "8157", "route_ref": "449"}}, {"type": "node", "id": 12379521344, "lat": 41.9468804, "lon": 2.2568992, "tags": {"bus": "yes", "highway": "bus_stop", "name": "P.I. Mas Beul\u00f3 - Ripoll - Olot (ca l'Espina)", "public_transport": "platform", "ref": "3285", "route_ref": "462"}}, {"type": "node", "id": 12379753376, "lat": 42.0497405, "lon": 2.4747994, "tags": {"bus": "yes", "highway": "bus_stop", "name": "La Devesa", "public_transport": "platform", "ref": "7745", "route_ref": "462"}}, {"type": "node", "id": 12379753378, "lat": 42.0423486, "lon": 2.4089662, "tags": {"bus": "yes", "highway": "bus_stop", "name": "L'Esquirol - Sta. Maria del Roure - Cantonigr\u00f2s", "public_transport": "platform", "ref": "7683", "route_ref": "462"}}, {"type": "node", "id": 12379753380, "lat": 42.0402399, "lon": 2.4049915, "tags": {"bus": "yes", "highway": "bus_stop", "name": "L'Esquirol - Pl. Dr. Josep Torray - Cantonigr\u00f2s", "public_transport": "platform", "ref": "5812", "route_ref": "462"}}, {"type": "node", "id": 12379753383, "lat": 42.0351615, "lon": 2.3691205, "tags": {"bus": "yes", "highway": "bus_stop", "name": "Ajuntament de l'Esquirol", "public_transport": "platform", "ref": "5739", "route_ref": "462"}}, {"type": "node", "id": 12379757326, "lat": 42.0358427, "lon": 2.3644526, "tags": {"bus": "yes", "highway": "bus_stop", "name": "St. Mart\u00ed - l'Era - l'Esquirol", "public_transport": "platform", "ref": "5741", "route_ref": "462"}}, {"type": "node", "id": 12379757328, "lat": 41.9913241, "lon": 2.3163582, "tags": {"bus": "yes", "highway": "bus_stop", "name": "Ctra. de Vic a Camprodon - Cases Noves", "public_transport": "platform", "ref": "7796"}}, {"type": "node", "id": 12379783259, "lat": 42.0309846, "lon": 2.3679605, "tags": {"bus": "yes", "highway": "bus_stop", "name": "CEIP Cabrer\u00e8s", "public_transport": "platform", "ref": "8459", "route_ref": "462"}}, {"type": "node", "id": 12380028746, "lat": 41.9913136, "lon": 2.3164652, "tags": {"bus": "yes", "highway": "bus_stop", "name": "Ctra. de Vic a Camprodon - Cases Noves", "public_transport": "platform", "ref": "5738", "route_ref": "462"}}, {"type": "node", "id": 12383226773, "lat": 42.0920172, "lon": 2.1252418, "tags": {"bus": "yes", "highway": "bus_stop", "name": "Ctra. BP-4654 - Ctra. de l'Alou", "public_transport": "platform", "ref": "3404", "route_ref": "465 471"}}, {"type": "node", "id": 12383226774, "lat": 42.0854973, "lon": 2.1275818, "tags": {"bus": "yes", "highway": "bus_stop", "name": "Ctra. BP-4654 - St. Agust\u00ed de Llu\u00e7an\u00e8s", "public_transport": "platform", "ref": "9847", "route_ref": "465 471"}}, {"type": "node", "id": 12383226775, "lat": 42.0840127, "lon": 2.1363651, "tags": {"bus": "yes", "highway": "bus_stop", "name": "Collet de Sant Agust\u00ed", "public_transport": "platform", "ref": "9524", "route_ref": "465 471"}}, {"type": "node", "id": 12383241555, "lat": 42.0966645, "lon": 2.1970372, "tags": {"bus": "yes", "highway": "bus_stop", "name": "Ctra. BP-4654 - Cussons", "public_transport": "platform", "ref": "9527", "route_ref": "465"}}, {"type": "node", "id": 12383241557, "lat": 42.0989151, "lon": 2.2032849, "tags": {"bus": "yes", "highway": "bus_stop", "name": "Ctra. BP-4654 - El Serradet", "public_transport": "platform", "ref": "9528", "route_ref": "465"}}, {"type": "node", "id": 12383241559, "lat": 42.1024287, "lon": 2.2160704, "tags": {"bus": "yes", "highway": "bus_stop", "name": "CEIP Comas i Codinach", "public_transport": "platform", "ref": "4658", "route_ref": "465"}}, {"type": "node", "id": 12383241560, "lat": 42.1006789, "lon": 2.2175142, "tags": {"bus": "yes", "highway": "bus_stop", "name": "Pl. Bisaura", "public_transport": "platform", "ref": "8238", "route_ref": "465 466 479"}}, {"type": "node", "id": 12383243425, "lat": 42.0840846, "lon": 2.1366216, "tags": {"bus": "yes", "highway": "bus_stop", "name": "Collet de Sant Agust\u00ed", "public_transport": "platform", "ref": "8243", "route_ref": "465 471"}}, {"type": "node", "id": 12383243427, "lat": 42.0855558, "lon": 2.1277334, "tags": {"bus": "yes", "highway": "bus_stop", "name": "Ctra. BP-4654 - St. Agust\u00ed de Llu\u00e7an\u00e8s", "public_transport": "platform", "ref": "8245", "route_ref": "465"}}, {"type": "node", "id": 12383243428, "lat": 42.092138, "lon": 2.1252183, "tags": {"bus": "yes", "highway": "bus_stop", "name": "Ctra. BP-4654 - Ctra. de l'Alou", "public_transport": "platform", "ref": "8312", "route_ref": "465 471"}}, {"type": "node", "id": 12383265950, "lat": 42.0989908, "lon": 2.2033327, "tags": {"bus": "yes", "highway": "bus_stop", "name": "Ctra. BP-4654 - El Serradet", "public_transport": "platform", "ref": "8241", "route_ref": "465"}}, {"type": "node", "id": 12383265952, "lat": 42.0967374, "lon": 2.1969346, "tags": {"bus": "yes", "highway": "bus_stop", "name": "Ctra. BP-4654 - Cussons", "public_transport": "platform", "ref": "8242", "route_ref": "465"}}, {"type": "node", "id": 12388289503, "lat": 42.1103385, "lon": 2.160415, "tags": {"bus": "yes", "highway": "bus_stop", "name": "Can Coromines - Ca l'Antic", "public_transport": "platform", "ref": "9541", "route_ref": "466"}}, {"type": "node", "id": 12388289505, "lat": 42.1089402, "lon": 2.2082077, "tags": {"bus": "yes", "highway": "bus_stop", "name": "Ctra. de Ribes - Ca La Maca", "public_transport": "platform", "ref": "9539", "route_ref": "466"}}, {"type": "node", "id": 12388289507, "lat": 42.0742855, "lon": 2.2396143, "tags": {"bus": "yes", "highway": "bus_stop", "name": "Col\u00f2nia la Mambla", "public_transport": "platform", "ref": "9552", "route_ref": "466"}}, {"type": "node", "id": 12388291702, "lat": 42.0595916, "lon": 2.2554527, "tags": {"bus": "yes", "highway": "bus_stop", "name": "Col\u00f2nia Vilaseca", "public_transport": "platform", "ref": "9529", "route_ref": "466"}}, {"type": "node", "id": 12388309911, "lat": 42.1090113, "lon": 2.2080726, "tags": {"bus": "yes", "highway": "bus_stop", "name": "Ctra. de Ribes - Ca La Maca", "public_transport": "platform", "ref": "9542", "route_ref": "466"}}, {"type": "node", "id": 12388323640, "lat": 42.0595483, "lon": 2.2553385, "tags": {"bus": "yes", "highway": "bus_stop", "name": "Col\u00f2nia Vilaseca (direcci\u00f3 Torell\u00f3)", "public_transport": "platform", "ref": "9535", "route_ref": "466"}}, {"type": "node", "id": 12388323641, "lat": 42.0742873, "lon": 2.2394719, "tags": {"bus": "yes", "highway": "bus_stop", "name": "Col\u00f2nia la Mambla", "public_transport": "platform", "ref": "9552", "route_ref": "466"}}, {"type": "node", "id": 12393164167, "lat": 42.0928941, "lon": 2.1309367, "tags": {"bus": "yes", "highway": "bus_stop", "name": "L'Alou", "public_transport": "platform", "ref": "4755", "route_ref": "471"}}, {"type": "node", "id": 12393190077, "lat": 42.0423463, "lon": 2.1067055, "tags": {"bus": "yes", "highway": "bus_stop", "name": "Perafita. Pl. de l'Esgl\u00e9sia", "public_transport": "platform", "ref": "9579", "route_ref": "471"}}, {"type": "node", "id": 12393195339, "lat": 42.0423481, "lon": 2.1068465, "tags": {"bus": "yes", "highway": "bus_stop", "name": "Perafita. Pl. de l'Esgl\u00e9sia", "public_transport": "platform", "ref": "9586", "route_ref": "471"}}, {"type": "node", "id": 12419479863, "lat": 42.1269647, "lon": 2.2581706, "tags": {"bus": "yes", "highway": "bus_stop", "name": "Ajuntament de Sta. Maria de Besora", "public_transport": "platform", "ref": "9555", "route_ref": "478"}}, {"type": "node", "id": 12419479864, "lat": 42.1228553, "lon": 2.3098177, "tags": {"bus": "yes", "highway": "bus_stop", "name": "Vidr\u00e0. Pl. Mari\u00e0 Vila d'Abadal", "public_transport": "platform", "ref": "9554", "route_ref": "479"}}, {"type": "node", "id": 12419479866, "lat": 42.1268696, "lon": 2.2580506, "tags": {"bus": "yes", "highway": "bus_stop", "name": "Ajuntament de Sta. Maria de Besora", "public_transport": "platform", "ref": "9553", "route_ref": "479"}}, {"type": "node", "id": 12422819896, "lat": 41.9270662, "lon": 2.2888813, "tags": {"bus": "yes", "highway": "bus_stop", "name": "Av. Pau Casals (Barri Nou)", "public_transport": "platform", "ref": "7133", "route_ref": "487"}}, {"type": "node", "id": 12422846917, "lat": 41.9377132, "lon": 2.3152348, "tags": {"bus": "yes", "highway": "bus_stop", "name": "Av. de l'Atl\u00e0ntida - Bru de Sala", "public_transport": "platform", "ref": "7139", "route_ref": "487"}}, {"type": "node", "id": 12422886599, "lat": 41.9350699, "lon": 2.2589098, "tags": {"bus": "yes", "highway": "bus_stop", "name": "Av. de Sant Bernat Calb\u00f3", "public_transport": "platform", "ref": "7161", "route_ref": "487"}}, {"type": "node", "id": 12422889401, "lat": 41.930977, "lon": 2.260472, "tags": {"bus": "yes", "highway": "bus_stop", "name": "Pl. de la Divina Pastora", "public_transport": "platform", "ref": "7159", "route_ref": "487"}}]}