{"version": 0.6, "generator": "Overpass API 0.7.62.5 1bd436f1", "osm3s": {"timestamp_osm_base": "2025-04-09T14:40:21Z", "copyright": "The data included in this document is from www.openstreetmap.org. The data is made available under ODbL."}, "elements": [{"type": "node", "id": 568470638, "lat": 44.0122149, "lon": 1.356861, "tags": {"bench": "no", "bin": "no", "highway": "bus_stop", "lit": "no", "name": "Faubourg du Moustier", "public_transport": "platform", "shelter": "no", "tactile_paving": "yes"}}, {"type": "node", "id": 568470669, "lat": 44.0140246, "lon": 1.3554582, "tags": {"bench": "yes", "bin": "yes", "highway": "bus_stop", "lit": "no", "name": "Prefecture", "shelter": "yes", "tactile_paving": "yes"}}, {"type": "node", "id": 568473797, "lat": 44.0223225, "lon": 1.3564889, "tags": {"bus": "yes", "highway": "bus_stop", "name": "3 Pigeons", "public_transport": "platform", "shelter": "no"}}, {"type": "node", "id": 568473813, "lat": 44.0223432, "lon": 1.3586519, "tags": {"bus": "yes", "highway": "bus_stop", "name": "L\u00e9on Cladel", "public_transport": "platform", "shelter": "no"}}, {"type": "node", "id": 568474170, "lat": 44.0216191, "lon": 1.3609168, "tags": {"bench": "yes", "bus": "yes", "covered": "no", "highway": "bus_stop", "name": "Le Rond", "passenger_information_display": "no", "public_transport": "platform", "shelter": "yes"}}, {"type": "node", "id": 568474296, "lat": 44.0200733, "lon": 1.360112, "tags": {"bench": "yes", "bus": "yes", "covered": "no", "highway": "bus_stop", "name": "Gambetta", "passenger_information_display": "no", "public_transport": "platform", "shelter": "yes"}}, {"type": "node", "id": 568474369, "lat": 44.017735, "lon": 1.3590008, "tags": {"bench": "no", "highway": "bus_stop", "shelter": "no"}}, {"type": "node", "id": 568474466, "lat": 44.016163, "lon": 1.3630146, "tags": {"bench": "yes", "bus": "yes", "covered": "no", "highway": "bus_stop", "name": "Garrisson", "passenger_information_display": "no", "public_transport": "platform", "shelter": "yes"}}, {"type": "node", "id": 568475143, "lat": 44.0138563, "lon": 1.3600117, "tags": {"bench": "no", "bin": "no", "bus": "yes", "check_date:shelter": "2023-04-14", "highway": "bus_stop", "name": "Lacapelle", "network": "Le Bus TM", "operator": "SEMTM", "public_transport": "platform", "shelter": "no", "tactile_paving": "yes"}}, {"type": "node", "id": 568479087, "lat": 44.0109497, "lon": 1.3547838, "tags": {"bus": "yes", "highway": "bus_stop", "name": "Jardin des Plantes", "public_transport": "platform", "shelter": "no"}}, {"type": "node", "id": 568479812, "lat": 44.0130202, "lon": 1.3507147, "tags": {"highway": "bus_stop"}}, {"type": "node", "id": 568481670, "lat": 44.0208485, "lon": 1.3553692, "tags": {"highway": "bus_stop", "name": "E. Pouvillon", "network": "Le Bus TM", "operator": "SEMTM", "shelter": "no"}}, {"type": "node", "id": 1291006157, "lat": 44.0881766, "lon": 1.4441221, "tags": {"bench": "yes", "bin": "no", "highway": "bus_stop", "name": "Albias - (Ch\u00e2teau d'eau)", "public_transport": "platform", "ref": "S09202", "shelter": "yes", "source": "P145-0604", "tactile_paving": "no"}}, {"type": "node", "id": 1296857838, "lat": 44.2043582, "lon": 1.5537729, "tags": {"bench": "yes", "highway": "bus_stop", "name": "Borredon (Gare de Montalzat)", "note": "Sign at junction, shelter 20m to west", "shelter": "yes", "source": "P145-0999 & P166-0523 [name added]"}}, {"type": "node", "id": 1413626674, "lat": 44.017432, "lon": 1.358087}, {"type": "node", "id": 1413646662, "lat": 44.017378, "lon": 1.358312}, {"type": "node", "id": 1413671913, "lat": 44.017364, "lon": 1.358303}, {"type": "node", "id": 1413684521, "lat": 44.017431, "lon": 1.358141}, {"type": "node", "id": 1413696073, "lat": 44.017379, "lon": 1.358259}, {"type": "node", "id": 1413724188, "lat": 44.017446, "lon": 1.358095}, {"type": "node", "id": 1413725517, "lat": 44.017418, "lon": 1.358133}, {"type": "node", "id": 1413738888, "lat": 44.017392, "lon": 1.358267}, {"type": "node", "id": 1485529008, "lat": 44.0039541, "lon": 1.3672768, "tags": {"bus": "yes", "highway": "bus_stop", "name": "Beausoleil Bas", "public_transport": "platform", "shelter": "no"}}, {"type": "node", "id": 1485529009, "lat": 44.0038311, "lon": 1.3671997, "tags": {"bus": "yes", "highway": "bus_stop", "name": "Beausoleil Bas", "public_transport": "platform", "shelter": "no"}}, {"type": "node", "id": 1596699514, "lat": 44.1229031, "lon": 1.14832, "tags": {"bus": "yes", "highway": "bus_stop", "name": "Moissac - La M\u00e9g\u00e8re", "public_transport": "platform", "source": "cadastre-dgi-fr source : Direction G\u00e9n\u00e9rale des Imp\u00f4ts - Cadastre. Mise \u00e0 jour : 2012"}}, {"type": "node", "id": 1596699515, "lat": 44.1238285, "lon": 1.1498477, "tags": {"bus": "yes", "highway": "bus_stop", "name": "Moissac - La M\u00e9g\u00e8re", "public_transport": "platform"}}, {"type": "node", "id": 1691968962, "lat": 44.1622668, "lon": 1.5336541, "tags": {"name": "Caussade", "official_name": "Caussade (T.-et-G.)", "operator": "SNCF", "public_transport": "station", "railway": "station", "train": "yes", "uic_ref": "8761335", "wheelchair": "yes", "wikidata": "Q683751", "wikipedia": "fr:Gare de Caussade"}}, {"type": "node", "id": 1694969968, "lat": 44.1326036, "lon": 1.502251, "tags": {"highway": "bus_stop"}}, {"type": "node", "id": 1695010450, "lat": 44.1397541, "lon": 1.5133548, "tags": {"highway": "bus_stop"}}, {"type": "node", "id": 1695262029, "lat": 44.1605174, "lon": 1.5523412, "tags": {"bench": "yes", "bin": "yes", "highway": "bus_stop", "lit": "yes", "name": "Lyc\u00e9e Claude Nougaro", "shelter": "no", "tactile_paving": "no"}}, {"type": "node", "id": 1773564404, "lat": 44.0171265, "lon": 1.3596973, "tags": {"bench": "yes", "bus": "yes", "covered": "no", "highway": "bus_stop", "name": "H. Marre", "passenger_information_display": "no", "public_transport": "platform", "shelter": "yes"}}, {"type": "node", "id": 1773564538, "lat": 44.0179105, "lon": 1.3589289, "tags": {"bench": "no", "bus": "yes", "highway": "bus_stop", "name": "Prax Paris Est", "network": "Le Bus TM", "network:wikidata": "Q3233177", "operator": "SEMTM", "operator:wikidata": "Q16677212", "passenger_information_display": "no", "public_transport": "platform", "shelter": "no"}}, {"type": "node", "id": 1773564558, "lat": 44.0178844, "lon": 1.3585599, "tags": {"bench": "yes", "bus": "yes", "highway": "bus_stop", "name": "Prax Paris Nord", "public_transport": "platform", "shelter": "yes"}}, {"type": "node", "id": 1773565674, "lat": 44.0173784, "lon": 1.3582848, "tags": {"bench": "yes", "bus": "yes", "highway": "bus_stop", "name": "Prax Paris Sud", "public_transport": "platform", "shelter": "yes"}}, {"type": "node", "id": 1973837896, "lat": 44.2389167, "lon": 1.4764707, "tags": {"bench": "yes", "highway": "bus_stop", "shelter": "yes"}}, {"type": "node", "id": 2178516864, "lat": 44.0277971, "lon": 1.3681903, "tags": {"bus": "yes", "highway": "bus_stop", "name": "J. Moulin", "network": "Le Bus TM", "operator": "SEMTM", "public_transport": "platform", "shelter": "yes", "source": "survey", "tactile_paving": "no"}}, {"type": "node", "id": 2287812982, "lat": 44.0217631, "lon": 1.3795902, "tags": {"bus": "yes", "highway": "bus_stop", "name": "Ramierou", "public_transport": "stop_position"}}, {"type": "node", "id": 2370787071, "lat": 44.0224526, "lon": 1.3612568, "tags": {"bus": "yes", "highway": "bus_stop", "name": "Le Rond", "public_transport": "platform", "shelter": "yes", "source": "survey"}}, {"type": "node", "id": 2370787073, "lat": 44.0395478, "lon": 1.3742039, "tags": {"bench": "no", "bus": "yes", "highway": "bus_stop", "name": "Ch. Matras", "network": "Le Bus TM", "operator": "SEMTM", "passenger_information_display": "no", "public_transport": "platform", "shelter": "no", "source": "survey"}}, {"type": "node", "id": 2370787074, "lat": 44.0367297, "lon": 1.3794182, "tags": {"bench": "yes", "bin": "yes", "bus": "yes", "check_date:bench": "2023-09-30", "covered": "no", "highway": "bus_stop", "name": "Matras", "network": "Le Bus TM", "operator": "SEMTM", "passenger_information_display": "no", "public_transport": "platform", "shelter": "yes", "source": "survey", "tactile_paving": "yes"}}, {"type": "node", "id": 2384157673, "lat": 43.9996363, "lon": 1.359953, "tags": {"bus": "yes", "highway": "bus_stop", "name": "Th\u00e9as", "network": "Le Bus TM", "operator": "SEMTM", "public_transport": "stop_position"}}, {"type": "node", "id": 2385858808, "lat": 43.9995988, "lon": 1.360035, "tags": {"bench": "yes", "bus": "yes", "covered": "no", "highway": "bus_stop", "name": "Th\u00e9as", "passenger_information_display": "no", "public_transport": "platform", "shelter": "yes"}}, {"type": "node", "id": 2400196400, "lat": 44.0300852, "lon": 1.3713126, "tags": {"bus": "yes", "check_date:shelter": "2023-04-17", "highway": "bus_stop", "name": "Petit Versailles", "network": "Le Bus TM", "operator": "SEMTM", "public_transport": "platform", "shelter": "no", "source": "survey"}}, {"type": "node", "id": 2400196401, "lat": 44.0299785, "lon": 1.3708898, "tags": {"bench": "yes", "bin": "yes", "bus": "yes", "check_date:shelter": "2023-04-17", "highway": "bus_stop", "lit": "yes", "name": "Petit Versailles", "network": "Le Bus TM", "network:wikidata": "Q3233177", "operator": "SEMTM", "operator:wikidata": "Q16677212", "public_transport": "platform", "shelter": "yes", "source": "survey", "tactile_paving": "yes"}}, {"type": "node", "id": 2400196406, "lat": 44.0254928, "lon": 1.3655392, "tags": {"bench": "no", "bus": "yes", "highway": "bus_stop", "name": "Caserne Pomponne", "network": "Le Bus TM", "network:wikidata": "Q3233177", "operator": "SEMTM", "operator:wikidata": "Q16677212", "passenger_information_display": "no", "public_transport": "platform", "shelter": "no", "source": "survey"}}, {"type": "node", "id": 2434099926, "lat": 44.0039487, "lon": 1.363029, "tags": {"bus": "yes", "highway": "bus_stop", "name": "R. Garros", "passenger_information_display": "no", "public_transport": "platform", "shelter": "no"}}, {"type": "node", "id": 2434099927, "lat": 44.0037731, "lon": 1.3633629, "tags": {"bus": "yes", "highway": "bus_stop", "name": "R. Garros", "passenger_information_display": "no", "public_transport": "platform", "shelter": "no"}}, {"type": "node", "id": 2434099928, "lat": 44.0030255, "lon": 1.3662329, "tags": {"bus": "yes", "highway": "bus_stop", "name": "Av. d'Albi", "passenger_information_display": "no", "public_transport": "platform", "shelter": "yes"}}, {"type": "node", "id": 2434099929, "lat": 44.0028654, "lon": 1.3663549, "tags": {"bus": "yes", "highway": "bus_stop", "name": "Av. d'Albi", "passenger_information_display": "no", "public_transport": "platform", "shelter": "no"}}, {"type": "node", "id": 2434100164, "lat": 44.002274, "lon": 1.3684671, "tags": {"bus": "yes", "highway": "bus_stop", "name": "Les Floralies", "network": "Le Bus TM", "operator": "SEMTM", "public_transport": "stop_position"}}, {"type": "node", "id": 2434106938, "lat": 44.0023646, "lon": 1.3678205, "tags": {"bus": "yes", "highway": "bus_stop", "name": "Les Floralies", "network": "Le Bus TM", "operator": "SEMTM", "public_transport": "platform", "shelter": "no"}}, {"type": "node", "id": 2434106941, "lat": 44.002439, "lon": 1.3679173, "tags": {"bus": "yes", "highway": "bus_stop", "name": "Les Floralies", "network": "Le Bus TM", "operator": "SEMTM", "public_transport": "platform", "shelter": "no"}}, {"type": "node", "id": 2434122649, "lat": 44.0041822, "lon": 1.3653557, "tags": {"bus": "yes", "highway": "bus_stop", "name": "Lat\u00e9co\u00e8re", "public_transport": "platform", "shelter": "no"}}, {"type": "node", "id": 2434122654, "lat": 44.0041204, "lon": 1.3653444, "tags": {"bus": "yes", "highway": "bus_stop", "name": "Lat\u00e9co\u00e8re", "public_transport": "platform", "shelter": "no"}}, {"type": "node", "id": 2434122658, "lat": 44.0052374, "lon": 1.3637974, "tags": {"bus": "yes", "highway": "bus_stop", "name": "Les Oiseaux", "public_transport": "platform", "shelter": "no"}}, {"type": "node", "id": 2434122660, "lat": 44.0055499, "lon": 1.3636915, "tags": {"bus": "yes", "highway": "bus_stop", "name": "Les Oiseaux", "public_transport": "platform", "shelter": "no"}}, {"type": "node", "id": 2434235052, "lat": 44.0076451, "lon": 1.3653665, "tags": {"bus": "yes", "highway": "bus_stop", "name": "Beausoleil Haut", "public_transport": "platform", "shelter": "no"}}, {"type": "node", "id": 2434235053, "lat": 44.0076196, "lon": 1.3652491, "tags": {"bus": "yes", "highway": "bus_stop", "name": "Beausoleil Haut", "public_transport": "platform", "shelter": "no"}}, {"type": "node", "id": 2434250375, "lat": 44.0079851, "lon": 1.3636861, "tags": {"bus": "yes", "highway": "bus_stop", "name": "Passage Lapierre", "public_transport": "platform", "shelter": "no"}}, {"type": "node", "id": 2434250380, "lat": 44.0080256, "lon": 1.3637579, "tags": {"bus": "yes", "highway": "bus_stop", "name": "Passage Lapierre", "public_transport": "platform", "shelter": "no"}}, {"type": "node", "id": 2434311492, "lat": 44.0090322, "lon": 1.3596346, "tags": {"bench": "yes", "bus": "yes", "covered": "no", "highway": "bus_stop", "name": "Universit\u00e9", "passenger_information_display": "no", "public_transport": "platform", "shelter": "yes"}}, {"type": "node", "id": 2434311493, "lat": 44.0100788, "lon": 1.3601374, "tags": {"bench": "no", "bus": "yes", "highway": "bus_stop", "name": "Universit\u00e9", "passenger_information_display": "no", "public_transport": "platform", "shelter": "no"}}, {"type": "node", "id": 2434312577, "lat": 44.0064586, "lon": 1.3613137, "tags": {"bench": "no", "bus": "yes", "highway": "bus_stop", "name": "H. Gouze", "network": "Le Bus TM", "operator": "SEMTM", "passenger_information_display": "no", "public_transport": "platform", "shelter": "no"}}, {"type": "node", "id": 2434312578, "lat": 44.0064316, "lon": 1.3611394, "tags": {"bench": "no", "bus": "yes", "highway": "bus_stop", "name": "H. Gouze", "network": "Le Bus TM", "operator": "SEMTM", "passenger_information_display": "no", "public_transport": "platform", "shelter": "no"}}, {"type": "node", "id": 2434321547, "lat": 44.0108021, "lon": 1.3620728, "tags": {"bench": "no", "bus": "yes", "highway": "bus_stop", "name": "C.E.S. Ingres", "passenger_information_display": "no", "public_transport": "platform", "shelter": "no"}}, {"type": "node", "id": 2434321548, "lat": 44.0113037, "lon": 1.3620969, "tags": {"bench": "no", "bus": "yes", "highway": "bus_stop", "name": "C.E.S. Ingres", "passenger_information_display": "no", "public_transport": "platform", "shelter": "no", "tactile_paving": "no"}}, {"type": "node", "id": 2434329148, "lat": 44.0140486, "lon": 1.364061, "tags": {"bench": "no", "bus": "yes", "highway": "bus_stop", "name": "Piscine", "passenger_information_display": "no", "public_transport": "platform", "shelter": "no"}}, {"type": "node", "id": 2434333613, "lat": 44.0142328, "lon": 1.3671139, "tags": {"bench": "yes", "bin": "yes", "bus": "yes", "highway": "bus_stop", "name": "Bourdelle", "public_transport": "platform", "shelter": "yes"}}, {"type": "node", "id": 2434333614, "lat": 44.0146158, "lon": 1.3665963, "tags": {"bench": "yes", "bin": "yes", "bus": "yes", "highway": "bus_stop", "name": "Bourdelle", "public_transport": "platform", "shelter": "yes", "tactile_paving": "yes"}}, {"type": "node", "id": 2434336120, "lat": 44.0124968, "lon": 1.3708114, "tags": {"bench": "yes", "bin": "yes", "bus": "yes", "highway": "bus_stop", "name": "La Fobio", "public_transport": "platform", "shelter": "yes", "tactile_paving": "no"}}, {"type": "node", "id": 2434336121, "lat": 44.0126146, "lon": 1.3708428, "tags": {"bus": "yes", "highway": "bus_stop", "name": "La Fobio", "public_transport": "platform", "shelter": "yes"}}, {"type": "node", "id": 2434341116, "lat": 44.0092087, "lon": 1.3712224, "tags": {"bus": "yes", "highway": "bus_stop", "name": "C. de Gaulle", "public_transport": "platform", "shelter": "no"}}, {"type": "node", "id": 2434341117, "lat": 44.0091112, "lon": 1.3714209, "tags": {"bus": "yes", "highway": "bus_stop", "name": "C. de Gaulle", "public_transport": "platform", "shelter": "no"}}, {"type": "node", "id": 2434350805, "lat": 44.0090061, "lon": 1.3735781, "tags": {"bus": "yes", "highway": "bus_stop", "name": "J. Malrieu", "public_transport": "platform", "shelter": "no"}}, {"type": "node", "id": 2434350806, "lat": 44.0088923, "lon": 1.3739751, "tags": {"bus": "yes", "highway": "bus_stop", "name": "J. Malrieu", "public_transport": "platform", "shelter": "no"}}, {"type": "node", "id": 2434350807, "lat": 44.0082779, "lon": 1.376731, "tags": {"bus": "yes", "highway": "bus_stop", "name": "Cit\u00e9 de l'Agriculture", "public_transport": "platform", "shelter": "no"}}, {"type": "node", "id": 2434350808, "lat": 44.0079962, "lon": 1.3779246, "tags": {"bus": "yes", "highway": "bus_stop", "name": "Cit\u00e9 de l'Agriculture", "public_transport": "platform", "shelter": "no"}}, {"type": "node", "id": 2434356806, "lat": 44.0074256, "lon": 1.3799396, "tags": {"bus": "yes", "highway": "bus_stop", "name": "Pont de Chaume", "public_transport": "platform", "shelter": "no"}}, {"type": "node", "id": 2434356807, "lat": 44.0074888, "lon": 1.3803138, "tags": {"bus": "yes", "highway": "bus_stop", "name": "Pont de Chaume", "public_transport": "platform", "shelter": "no"}}, {"type": "node", "id": 2434362379, "lat": 44.0050909, "lon": 1.3559626, "tags": {"bench": "yes", "bin": "yes", "bus": "yes", "highway": "bus_stop", "lit": "no", "name": "Bagatelle Centre Ccial Sapiac", "public_transport": "platform", "shelter": "yes", "tactile_paving": "yes"}}, {"type": "node", "id": 2434362380, "lat": 44.0056108, "lon": 1.3560378, "tags": {"bench": "yes", "bin": "yes", "bus": "yes", "highway": "bus_stop", "lit": "no", "name": "Bagatelle Centre Ccial Sapiac", "public_transport": "platform", "shelter": "yes", "tactile_paving": "yes"}}, {"type": "node", "id": 2434367571, "lat": 44.0108532, "lon": 1.3547396, "tags": {"bus": "yes", "highway": "bus_stop", "name": "Jardin des Plantes", "public_transport": "platform", "shelter": "no"}}, {"type": "node", "id": 2434370716, "lat": 44.0135606, "lon": 1.3513063, "tags": {"bus": "yes", "highway": "bus_stop", "name": "Pont Neuf", "public_transport": "platform", "shelter": "no"}}, {"type": "node", "id": 2434370717, "lat": 44.0133571, "lon": 1.35158, "tags": {"bus": "yes", "highway": "bus_stop", "name": "Pont Neuf", "public_transport": "platform", "shelter": "no"}}, {"type": "node", "id": 2434383028, "lat": 44.0146722, "lon": 1.3460915, "tags": {"bus": "yes", "highway": "bus_stop", "name": "Coll\u00e8ge J. Jaur\u00e8s", "public_transport": "platform", "shelter": "no"}}, {"type": "node", "id": 2434383033, "lat": 44.0145858, "lon": 1.3461766, "tags": {"bus": "yes", "highway": "bus_stop", "name": "Coll\u00e8ge J. Jaur\u00e8s", "public_transport": "platform", "shelter": "no"}}, {"type": "node", "id": 2434383037, "lat": 44.0146254, "lon": 1.3418254, "tags": {"bench": "yes", "bin": "yes", "bus": "yes", "highway": "bus_stop", "lit": "yes", "name": "Gare SNCF", "public_transport": "platform", "shelter": "yes", "tactile_paving": "yes"}}, {"type": "node", "id": 2434383043, "lat": 44.0144873, "lon": 1.3424618, "tags": {"bench": "no", "bin": "no", "bus": "yes", "highway": "bus_stop", "lit": "no", "name": "Gare SNCF", "public_transport": "platform", "shelter": "no", "tactile_paving": "yes"}}, {"type": "node", "id": 2449889999, "lat": 44.0064476, "lon": 1.3612231, "tags": {"bus": "yes", "highway": "bus_stop", "name": "H. Gouze", "network": "Le Bus TM", "operator": "SEMTM", "public_transport": "stop_position"}}, {"type": "node", "id": 2696397524, "lat": 44.0136936, "lon": 1.3641445, "tags": {"bench": "yes", "bus": "yes", "covered": "no", "highway": "bus_stop", "name": "Piscine", "passenger_information_display": "no", "public_transport": "platform", "ref": "Piscine", "shelter": "yes"}}, {"type": "node", "id": 2696397530, "lat": 44.0161101, "lon": 1.3628491, "tags": {"bench": "yes", "bus": "yes", "covered": "no", "highway": "bus_stop", "name": "Garrisson", "passenger_information_display": "no", "public_transport": "platform", "shelter": "yes"}}, {"type": "node", "id": 2696397535, "lat": 44.0172003, "lon": 1.359817, "tags": {"bench": "yes", "bus": "yes", "covered": "no", "highway": "bus_stop", "name": "H. Marre", "passenger_information_display": "no", "public_transport": "platform", "shelter": "yes"}}, {"type": "node", "id": 2696397541, "lat": 44.0199681, "lon": 1.3601865, "tags": {"bench": "yes", "bus": "yes", "covered": "no", "highway": "bus_stop", "name": "Gambetta", "passenger_information_display": "no", "public_transport": "platform", "shelter": "yes"}}, {"type": "node", "id": 2696912706, "lat": 44.0258533, "lon": 1.3657666, "tags": {"bench": "yes", "bus": "yes", "covered": "no", "highway": "bus_stop", "name": "Caserne Pomponne", "network": "Le Bus TM", "network:wikidata": "Q3233177", "operator": "SEMTM", "operator:wikidata": "Q16677212", "passenger_information_display": "no", "public_transport": "platform", "shelter": "yes", "source": "survey"}}, {"type": "node", "id": 2696912707, "lat": 44.0276721, "lon": 1.3682825, "tags": {"bus": "yes", "highway": "bus_stop", "name": "J. Moulin", "network": "Le Bus TM", "operator": "SEMTM", "public_transport": "platform", "shelter": "no", "tactile_paving": "yes"}}, {"type": "node", "id": 2696912708, "lat": 44.0319996, "lon": 1.3736952, "tags": {"bench": "no", "bus": "yes", "check_date:shelter": "2024-08-31", "highway": "bus_stop", "name": "Courteline", "network": "Le Bus TM", "operator": "SEMTM", "passenger_information_display": "no", "public_transport": "platform", "shelter": "no", "source": "survey"}}, {"type": "node", "id": 2696912709, "lat": 44.03168, "lon": 1.3730418, "tags": {"bench": "yes", "bus": "yes", "covered": "no", "highway": "bus_stop", "name": "Courteline", "network": "Le Bus TM", "operator": "SEMTM", "passenger_information_display": "no", "public_transport": "platform", "shelter": "yes", "source": "survey"}}, {"type": "node", "id": 2696912712, "lat": 44.0365387, "lon": 1.3714656, "tags": {"bench": "no", "bus": "yes", "highway": "bus_stop", "name": "\u00c9cole J. Moulin", "network": "Le Bus TM", "operator": "SEMTM", "passenger_information_display": "no", "public_transport": "platform", "shelter": "no", "source": "survey"}}, {"type": "node", "id": 2696912713, "lat": 44.0361686, "lon": 1.3712186, "tags": {"bench": "no", "bus": "yes", "covered": "no", "highway": "bus_stop", "name": "\u00c9cole J. Moulin", "network": "Le Bus TM", "operator": "SEMTM", "passenger_information_display": "no", "public_transport": "platform", "shelter": "no", "source": "survey"}}, {"type": "node", "id": 2696912714, "lat": 44.041513, "lon": 1.3757746, "tags": {"bench": "no", "bus": "yes", "highway": "bus_stop", "name": "Treillou", "network": "Le Bus TM", "operator": "SEMTM", "passenger_information_display": "no", "public_transport": "platform", "shelter": "no", "source": "survey"}}, {"type": "node", "id": 2698011964, "lat": 44.0392046, "lon": 1.3738687, "tags": {"bench": "no", "bus": "yes", "highway": "bus_stop", "name": "Ch. Matras", "network": "Le Bus TM", "operator": "SEMTM", "passenger_information_display": "no", "public_transport": "platform", "shelter": "no", "source": "survey"}}, {"type": "node", "id": 2698011983, "lat": 44.0366825, "lon": 1.3795885, "tags": {"bench": "no", "bin": "yes", "bus": "yes", "covered": "no", "highway": "bus_stop", "name": "Matras", "network": "Le Bus TM", "operator": "SEMTM", "passenger_information_display": "no", "public_transport": "platform", "shelter": "yes", "source": "survey"}}, {"type": "node", "id": 2698431700, "lat": 44.0381886, "lon": 1.3812449, "tags": {"bench": "yes", "bin": "yes", "bus": "yes", "check_date:bench": "2023-10-14", "covered": "no", "highway": "bus_stop", "lit": "no", "name": "Futurop\u00f4le", "network": "Le Bus TM", "operator": "SEMTM", "passenger_information_display": "no", "public_transport": "platform", "shelter": "yes", "source": "survey", "tactile_paving": "yes"}}, {"type": "node", "id": 2698431701, "lat": 44.0382662, "lon": 1.3815902, "tags": {"bench": "no", "bin": "no", "bus": "yes", "highway": "bus_stop", "lit": "no", "name": "Futurop\u00f4le", "passenger_information_display": "no", "public_transport": "platform", "shelter": "no", "source": "survey", "tactile_paving": "yes"}}, {"type": "node", "id": 2698570578, "lat": 44.0416091, "lon": 1.3857711, "tags": {"bench": "no", "bus": "yes", "highway": "bus_stop", "name": "RN 20", "network": "Le Bus TM", "operator": "SEMTM", "passenger_information_display": "no", "public_transport": "platform", "shelter": "no", "source": "survey"}}, {"type": "node", "id": 2698570579, "lat": 44.0408046, "lon": 1.3845265, "tags": {"bench": "no", "bin": "no", "bus": "yes", "check_date:shelter": "2023-12-23", "highway": "bus_stop", "lit": "no", "name": "RN 20", "network": "Le Bus TM", "operator": "SEMTM", "passenger_information_display": "no", "public_transport": "platform", "shelter": "no", "source": "survey", "tactile_paving": "no"}}, {"type": "node", "id": 2698570593, "lat": 44.0447813, "lon": 1.3897376, "tags": {"bench": "yes", "bus": "yes", "covered": "no", "highway": "bus_stop", "name": "Aussonne", "network": "Le Bus TM", "operator": "SEMTM", "passenger_information_display": "no", "public_transport": "platform", "route_ref": "Flixbus 716; Le Bus TM Ligne 2", "shelter": "yes", "source": "survey"}}, {"type": "node", "id": 2700023517, "lat": 44.0382658, "lon": 1.3386842, "tags": {"bus": "yes", "highway": "bus_stop", "name": "Hippodrome", "network": "Le Bus TM", "operator": "SEMTM", "public_transport": "platform", "shelter": "no"}}, {"type": "node", "id": 2700023520, "lat": 44.0364726, "lon": 1.3400065, "tags": {"bus": "yes", "highway": "bus_stop", "name": "R\u00e9s. Ravel", "public_transport": "platform", "shelter": "no"}}, {"type": "node", "id": 2700023522, "lat": 44.0360464, "lon": 1.340095, "tags": {"bus": "yes", "highway": "bus_stop", "name": "R\u00e9s. Ravel", "public_transport": "platform", "shelter": "no"}}, {"type": "node", "id": 2700140421, "lat": 44.0326815, "lon": 1.3418304, "tags": {"bus": "yes", "highway": "bus_stop", "name": "R\u00e9s. Hippodrome", "public_transport": "platform", "shelter": "no"}}, {"type": "node", "id": 2700140422, "lat": 44.0331077, "lon": 1.3415756, "tags": {"bus": "yes", "highway": "bus_stop", "name": "R\u00e9s. Hippodrome", "public_transport": "platform", "shelter": "yes"}}, {"type": "node", "id": 2700140423, "lat": 44.0310439, "lon": 1.3428209, "tags": {"bus": "yes", "highway": "bus_stop", "name": "Ch. St. Pierre", "public_transport": "platform", "shelter": "no"}}, {"type": "node", "id": 2700140424, "lat": 44.030921, "lon": 1.3428275, "tags": {"bus": "yes", "highway": "bus_stop", "name": "Ch. St. Pierre", "public_transport": "platform", "shelter": "no"}}, {"type": "node", "id": 2700140426, "lat": 44.0334567, "lon": 1.3472029, "tags": {"bus": "yes", "highway": "bus_stop", "name": "R\u00e9s. Lassalle", "public_transport": "platform", "shelter": "no"}}, {"type": "node", "id": 2700140427, "lat": 44.0354834, "lon": 1.3488498, "tags": {"bus": "yes", "highway": "bus_stop", "name": "Ch. Lassalle", "public_transport": "platform", "shelter": "no"}}, {"type": "node", "id": 2700140428, "lat": 44.0355431, "lon": 1.348772, "tags": {"bus": "yes", "highway": "bus_stop", "name": "Ch. Lassalle", "public_transport": "platform", "shelter": "no"}}, {"type": "node", "id": 2700140429, "lat": 44.0366307, "lon": 1.3516983, "tags": {"bus": "yes", "highway": "bus_stop", "name": "Rte de l'Aveyron", "public_transport": "platform", "shelter": "no"}}, {"type": "node", "id": 2700140430, "lat": 44.0365246, "lon": 1.3517197, "tags": {"bus": "yes", "highway": "bus_stop", "name": "Rte de l'Aveyron", "public_transport": "platform", "shelter": "no"}}, {"type": "node", "id": 2700202102, "lat": 44.0314994, "lon": 1.3556706, "tags": {"bus": "yes", "highway": "bus_stop", "name": "Coll\u00e8ge Aza\u00f1a", "public_transport": "platform", "shelter": "yes"}}, {"type": "node", "id": 2700202103, "lat": 44.0294339, "lon": 1.3544854, "tags": {"bus": "yes", "highway": "bus_stop", "name": "M. Cerdan", "public_transport": "platform", "shelter": "no"}}, {"type": "node", "id": 2700202104, "lat": 44.0294727, "lon": 1.3546021, "tags": {"bus": "yes", "highway": "bus_stop", "name": "M. Cerdan", "public_transport": "platform", "shelter": "no"}}, {"type": "node", "id": 2700202105, "lat": 44.0273995, "lon": 1.3539138, "tags": {"bus": "yes", "highway": "bus_stop", "name": "Plaisance", "public_transport": "platform", "shelter": "no"}}, {"type": "node", "id": 2700202106, "lat": 44.0274555, "lon": 1.3540211, "tags": {"bus": "yes", "highway": "bus_stop", "name": "Plaisance", "public_transport": "platform", "shelter": "yes"}}, {"type": "node", "id": 2700202107, "lat": 44.0266435, "lon": 1.3510667, "tags": {"bus": "yes", "highway": "bus_stop", "name": "La Tour", "public_transport": "platform", "shelter": "yes"}}, {"type": "node", "id": 2700202108, "lat": 44.0266291, "lon": 1.3507139, "tags": {"bus": "yes", "highway": "bus_stop", "name": "La Tour", "public_transport": "platform", "shelter": "yes"}}, {"type": "node", "id": 2700202109, "lat": 44.0269463, "lon": 1.3492172, "tags": {"bench": "yes", "highway": "bus_stop", "name": "Issanchou", "public_transport": "platform", "shelter": "yes"}}, {"type": "node", "id": 2700202110, "lat": 44.0270929, "lon": 1.3489115, "tags": {"highway": "bus_stop", "name": "Issanchou", "public_transport": "platform", "shelter": "no"}}, {"type": "node", "id": 2700217571, "lat": 44.0280635, "lon": 1.3474771, "tags": {"bus": "yes", "highway": "bus_stop", "name": "Issanchou", "network": "Le Bus TM", "operator": "SEMTM", "public_transport": "platform", "shelter": "no"}}, {"type": "node", "id": 2700217576, "lat": 44.0279296, "lon": 1.3474145, "tags": {"bus": "yes", "highway": "bus_stop", "name": "Issanchou", "network": "Le Bus TM", "operator": "SEMTM", "public_transport": "platform", "shelter": "yes"}}, {"type": "node", "id": 2700238563, "lat": 44.0248753, "lon": 1.3486139, "tags": {"bus": "yes", "highway": "bus_stop", "name": "Arsenal", "public_transport": "platform", "shelter": "no", "tactile_paving": "no"}}, {"type": "node", "id": 2700238564, "lat": 44.02487, "lon": 1.3486994, "tags": {"bus": "yes", "highway": "bus_stop", "name": "Arsenal", "public_transport": "platform", "shelter": "no", "tactile_paving": "no"}}, {"type": "node", "id": 2700238567, "lat": 44.0223909, "lon": 1.3494605, "tags": {"bench": "yes", "bus": "yes", "highway": "bus_stop", "name": "Dr. Labat", "public_transport": "platform", "shelter": "yes"}}, {"type": "node", "id": 2700392295, "lat": 44.0222646, "lon": 1.3494263, "tags": {"bench": "yes", "bus": "yes", "highway": "bus_stop", "name": "Dr. Labat", "public_transport": "platform", "shelter": "yes"}}, {"type": "node", "id": 2700392301, "lat": 44.0218668, "lon": 1.3528421, "tags": {"bench": "yes", "bin": "yes", "bus": "yes", "highway": "bus_stop", "lit": "yes", "name": "H\u00f4pital", "public_transport": "platform", "shelter": "yes", "tactile_paving": "yes"}}, {"type": "node", "id": 2700392304, "lat": 44.0217346, "lon": 1.3525323, "tags": {"bench": "yes", "bus": "yes", "highway": "bus_stop", "name": "H\u00f4pital", "public_transport": "platform", "shelter": "yes"}}, {"type": "node", "id": 2700583190, "lat": 44.0224569, "lon": 1.3585008, "tags": {"bus": "yes", "highway": "bus_stop", "name": "L\u00e9on Cladel", "public_transport": "platform", "shelter": "no"}}, {"type": "node", "id": 2700643441, "lat": 44.0164886, "lon": 1.3566495, "tags": {"bus": "yes", "highway": "bus_stop", "name": "Pr\u00e9fecture", "public_transport": "stop_position"}}, {"type": "node", "id": 2700643448, "lat": 44.0163616, "lon": 1.3529089, "tags": {"bus": "yes", "highway": "bus_stop", "name": "Mairie", "network": "Le Bus TM", "operator": "SEMTM", "public_transport": "platform", "shelter": "no"}}, {"type": "node", "id": 2700662434, "lat": 44.0164931, "lon": 1.3526591, "tags": {"bus": "yes", "highway": "bus_stop", "name": "Mairie", "network": "Le Bus TM", "operator": "SEMTM", "public_transport": "platform", "shelter": "no"}}, {"type": "node", "id": 2700662442, "lat": 44.0164999, "lon": 1.3465334, "tags": {"bench": "yes", "bin": "yes", "bus": "yes", "highway": "bus_stop", "lit": "yes", "name": "Pl. Marty", "public_transport": "platform", "shelter": "yes", "tactile_paving": "yes"}}, {"type": "node", "id": 2700662443, "lat": 44.0165286, "lon": 1.3468853, "tags": {"bench": "yes", "bin": "yes", "bus": "yes", "highway": "bus_stop", "lit": "yes", "name": "Pl. Marty", "public_transport": "platform", "shelter": "yes", "tactile_paving": "yes"}}, {"type": "node", "id": 2701156573, "lat": 44.0157348, "lon": 1.3443891, "tags": {"bench": "yes", "bin": "no", "bus": "yes", "highway": "bus_stop", "lit": "yes", "name": "Pl. Lalaque", "public_transport": "platform", "shelter": "yes", "tactile_paving": "yes"}}, {"type": "node", "id": 2701156574, "lat": 44.0160099, "lon": 1.3453693, "tags": {"bench": "yes", "bin": "yes", "bus": "yes", "highway": "bus_stop", "lit": "yes", "name": "Pl. Lalaque", "public_transport": "platform", "shelter": "yes", "tactile_paving": "yes"}}, {"type": "node", "id": 2701219389, "lat": 44.0147783, "lon": 1.3422841, "tags": {"bench": "yes", "bin": "no", "bus": "yes", "highway": "bus_stop", "lit": "yes", "name": "Gare SNCF", "public_transport": "platform", "shelter": "yes", "tactile_paving": "yes"}}, {"type": "node", "id": 2701219391, "lat": 44.0115164, "lon": 1.3454665, "tags": {"bus": "yes", "highway": "bus_stop", "name": "La Hire", "public_transport": "platform", "shelter": "no", "tactile_paving": "no"}}, {"type": "node", "id": 2701219392, "lat": 44.0116674, "lon": 1.3466474, "tags": {"bench": "yes", "bin": "yes", "bus": "yes", "highway": "bus_stop", "lit": "no", "name": "La Hire", "public_transport": "platform", "shelter": "yes", "tactile_paving": "no"}}, {"type": "node", "id": 2701436322, "lat": 44.0091322, "lon": 1.3440047, "tags": {"bus": "yes", "highway": "bus_stop", "name": "Quai Poult", "public_transport": "platform", "shelter": "no"}}, {"type": "node", "id": 2701436328, "lat": 44.0088433, "lon": 1.3449079, "tags": {"bench": "no", "bin": "no", "bus": "yes", "highway": "bus_stop", "lit": "no", "name": "Quai Poult", "public_transport": "platform", "shelter": "no", "tactile_paving": "no"}}, {"type": "node", "id": 2701471469, "lat": 44.0054605, "lon": 1.341708, "tags": {"bench": "no", "bin": "no", "bus": "yes", "highway": "bus_stop", "lit": "no", "name": "Av. de Toulouse", "public_transport": "platform", "shelter": "no", "tactile_paving": "no"}}, {"type": "node", "id": 2701471470, "lat": 44.005078, "lon": 1.3417375, "tags": {"bench": "no", "bin": "no", "bus": "yes", "highway": "bus_stop", "lit": "no", "name": "Av. de Toulouse", "public_transport": "platform", "shelter": "no", "tactile_paving": "no"}}, {"type": "node", "id": 2701471503, "lat": 44.0026731, "lon": 1.3408223, "tags": {"bench": "yes", "bin": "no", "bus": "yes", "highway": "bus_stop", "name": "Av. de Montech", "public_transport": "platform", "shelter": "yes"}}, {"type": "node", "id": 2701471504, "lat": 44.0017358, "lon": 1.3403103, "tags": {"bus": "yes", "highway": "bus_stop", "name": "Av. de Montech", "public_transport": "platform", "shelter": "no"}}, {"type": "node", "id": 2701477003, "lat": 43.9986354, "lon": 1.3393021, "tags": {"bus": "yes", "highway": "bus_stop", "name": "Le Tarn", "public_transport": "platform", "shelter": "yes"}}, {"type": "node", "id": 2701477004, "lat": 43.9989678, "lon": 1.3392953, "tags": {"bus": "yes", "highway": "bus_stop", "name": "Le Tarn", "public_transport": "platform", "shelter": "no"}}, {"type": "node", "id": 2701477005, "lat": 43.9968907, "lon": 1.3370281, "tags": {"bus": "yes", "highway": "bus_stop", "name": "P\u00f4le Emploi", "public_transport": "platform", "shelter": "no"}}, {"type": "node", "id": 2701477006, "lat": 43.9968357, "lon": 1.3369993, "tags": {"bus": "yes", "highway": "bus_stop", "name": "P\u00f4le Emploi", "public_transport": "platform", "shelter": "no"}}, {"type": "node", "id": 2701517817, "lat": 43.9955787, "lon": 1.334231, "tags": {"bus": "yes", "highway": "bus_stop", "name": "Allemagne", "public_transport": "platform", "shelter": "no"}}, {"type": "node", "id": 2701517818, "lat": 43.9955382, "lon": 1.3343812, "tags": {"bus": "yes", "highway": "bus_stop", "name": "Allemagne", "public_transport": "platform", "shelter": "no"}}, {"type": "node", "id": 2701517819, "lat": 43.9918526, "lon": 1.3333647, "tags": {"bus": "yes", "highway": "bus_stop", "name": "Belgique", "public_transport": "platform", "shelter": "no"}}, {"type": "node", "id": 2701517820, "lat": 43.992541, "lon": 1.3337026, "tags": {"bus": "yes", "highway": "bus_stop", "name": "Belgique", "public_transport": "platform", "shelter": "no"}}, {"type": "node", "id": 2701517821, "lat": 43.9897786, "lon": 1.3312444, "tags": {"bus": "yes", "highway": "bus_stop", "name": "Europe Centre Commercial", "public_transport": "platform", "shelter": "yes"}}, {"type": "node", "id": 2701517822, "lat": 43.9897898, "lon": 1.3311492, "tags": {"bus": "yes", "highway": "bus_stop", "name": "Europe Centre Commercial", "public_transport": "platform", "shelter": "no"}}, {"type": "node", "id": 2701525907, "lat": 43.9846139, "lon": 1.3308568, "tags": {"bench": "no", "bin": "no", "bus": "yes", "highway": "bus_stop", "lit": "no", "name": "Portugal", "public_transport": "platform", "shelter": "no", "tactile_paving": "no"}}, {"type": "node", "id": 2701525912, "lat": 43.9846945, "lon": 1.3309601, "tags": {"bench": "yes", "bin": "yes", "bus": "yes", "highway": "bus_stop", "lit": "no", "name": "Portugal", "public_transport": "platform", "shelter": "yes", "tactile_paving": "no"}}, {"type": "node", "id": 2701525917, "lat": 43.9831539, "lon": 1.3310606, "tags": {"bench": "no", "bin": "no", "bus": "yes", "highway": "bus_stop", "lit": "no", "name": "Albasud", "public_transport": "platform", "shelter": "no", "tactile_paving": "no"}}, {"type": "node", "id": 2701525922, "lat": 43.9832311, "lon": 1.3311813, "tags": {"bench": "no", "bin": "no", "bus": "yes", "highway": "bus_stop", "lit": "no", "name": "Albasud", "public_transport": "platform", "shelter": "no", "tactile_paving": "no"}}, {"type": "node", "id": 2701812584, "lat": 43.9716351, "lon": 1.3386435, "tags": {"bus": "yes", "highway": "bus_stop", "name": "Bressols-Campagnoles", "public_transport": "platform", "shelter": "yes"}}, {"type": "node", "id": 2701812589, "lat": 43.9714512, "lon": 1.3385163, "tags": {"bus": "yes", "highway": "bus_stop", "name": "Bressols-Campagnoles", "public_transport": "platform", "shelter": "no"}}, {"type": "node", "id": 2701812590, "lat": 43.9672352, "lon": 1.3397687, "tags": {"bus": "yes", "highway": "bus_stop", "name": "Bressols Centre-Ville", "network": "Le Bus TM", "operator": "SEMTM", "public_transport": "platform", "shelter": "yes"}}, {"type": "node", "id": 2701812591, "lat": 43.9667932, "lon": 1.3398143, "tags": {"bus": "yes", "highway": "bus_stop", "name": "Bressols Centre-Ville", "network": "Le Bus TM", "operator": "SEMTM", "public_transport": "platform", "shelter": "no"}}, {"type": "node", "id": 2701964992, "lat": 44.0195518, "lon": 1.3284575, "tags": {"bus": "yes", "highway": "bus_stop", "name": "Pont de l'Avenir", "name:fr": "Pont de l'Avenir", "public_transport": "platform", "shelter": "no"}}, {"type": "node", "id": 2701965101, "lat": 44.0193973, "lon": 1.3282221, "tags": {"bus": "yes", "highway": "bus_stop", "name": "Pont de l'Avenir", "name:fr": "Pont de l'Avenir", "public_transport": "platform", "shelter": "yes"}}, {"type": "node", "id": 2702559209, "lat": 44.0169499, "lon": 1.3408173, "tags": {"bus": "yes", "highway": "bus_stop", "name": "A. Briand", "public_transport": "platform", "shelter": "no"}}, {"type": "node", "id": 2702559214, "lat": 44.0168462, "lon": 1.3405807, "tags": {"bus": "yes", "highway": "bus_stop", "name": "A. Briand", "public_transport": "platform", "shelter": "no"}}, {"type": "node", "id": 2702691459, "lat": 44.0098832, "lon": 1.374898, "tags": {"bus": "yes", "highway": "bus_stop", "name": "P\u00f4le Solidarit\u00e9", "public_transport": "platform", "shelter": "yes"}}, {"type": "node", "id": 2702691460, "lat": 44.0096382, "lon": 1.3749208, "tags": {"bus": "yes", "highway": "bus_stop", "name": "P\u00f4le Solidarit\u00e9", "public_transport": "platform", "shelter": "yes"}}, {"type": "node", "id": 2702702783, "lat": 44.0094012, "lon": 1.3770868, "tags": {"bus": "yes", "highway": "bus_stop", "name": "M\u00e9diath\u00e8que", "public_transport": "platform", "shelter": "no"}}, {"type": "node", "id": 2702702784, "lat": 44.0097513, "lon": 1.3774516, "tags": {"bus": "yes", "highway": "bus_stop", "name": "M\u00e9diath\u00e8que", "public_transport": "platform", "shelter": "no"}}, {"type": "node", "id": 2702762954, "lat": 44.010806, "lon": 1.3813334, "tags": {"bus": "yes", "highway": "bus_stop", "name": "Maison des Associations", "public_transport": "platform", "shelter": "no"}}, {"type": "node", "id": 2702762955, "lat": 44.010673, "lon": 1.3810303, "tags": {"bus": "yes", "highway": "bus_stop", "name": "Maison des Associations", "public_transport": "platform", "shelter": "yes"}}, {"type": "node", "id": 2702762957, "lat": 44.0123388, "lon": 1.3795079, "tags": {"bus": "yes", "highway": "bus_stop", "name": "Acacias", "public_transport": "platform", "shelter": "yes"}}, {"type": "node", "id": 2702762958, "lat": 44.0124449, "lon": 1.3794972, "tags": {"bus": "yes", "highway": "bus_stop", "name": "Acacias", "public_transport": "platform", "shelter": "no"}}, {"type": "node", "id": 2702818367, "lat": 44.0137928, "lon": 1.3830686, "tags": {"bus": "yes", "highway": "bus_stop", "name": "Bel Air", "public_transport": "platform", "shelter": "no"}}, {"type": "node", "id": 2702818371, "lat": 44.0138713, "lon": 1.3829639, "tags": {"bus": "yes", "highway": "bus_stop", "name": "Bel Air", "public_transport": "platform", "shelter": "no"}}, {"type": "node", "id": 2702818375, "lat": 44.0147354, "lon": 1.3842829, "tags": {"bus": "yes", "highway": "bus_stop", "name": "Monplaisir", "public_transport": "platform", "shelter": "yes"}}, {"type": "node", "id": 2702818379, "lat": 44.0148071, "lon": 1.384417, "tags": {"bus": "yes", "highway": "bus_stop", "name": "Monplaisir", "public_transport": "platform", "shelter": "no"}}, {"type": "node", "id": 2702818396, "lat": 44.0163545, "lon": 1.3834214, "tags": {"bus": "yes", "highway": "bus_stop", "name": "Lafayette", "public_transport": "platform", "shelter": "no"}}, {"type": "node", "id": 2702818399, "lat": 44.0162542, "lon": 1.3833664, "tags": {"bus": "yes", "highway": "bus_stop", "name": "Lafayette", "public_transport": "platform", "shelter": "no"}}, {"type": "node", "id": 2702818452, "lat": 44.0187662, "lon": 1.3836886, "tags": {"bench": "no", "bin": "no", "bus": "yes", "highway": "bus_stop", "lit": "no", "name": "Ruffe", "public_transport": "platform", "shelter": "no", "tactile_paving": "no"}}, {"type": "node", "id": 2702818457, "lat": 44.0189717, "lon": 1.3831645, "tags": {"bench": "yes", "bin": "yes", "bus": "yes", "highway": "bus_stop", "lit": "no", "name": "Ruffe", "public_transport": "platform", "shelter": "yes", "tactile_paving": "yes"}}, {"type": "node", "id": 2702818460, "lat": 44.0218449, "lon": 1.3794691, "tags": {"bench": "yes", "bin": "yes", "bus": "yes", "highway": "bus_stop", "lit": "no", "name": "Ramierou", "public_transport": "platform", "shelter": "yes", "tactile_paving": "yes"}}, {"type": "node", "id": 2705649707, "lat": 44.053402, "lon": 1.3590113, "tags": {"bus": "yes", "highway": "bus_stop", "name": "Birac", "network": "Le Bus TM", "operator": "SEMTM", "public_transport": "platform", "shelter": "yes"}}, {"type": "node", "id": 2705649709, "lat": 44.0557657, "lon": 1.3602572, "tags": {"bus": "yes", "highway": "bus_stop", "name": "\u00c9cole Birac", "network": "Le Bus TM", "operator": "SEMTM", "public_transport": "platform", "shelter": "no"}}, {"type": "node", "id": 2705649710, "lat": 44.0554105, "lon": 1.3631795, "tags": {"bus": "yes", "highway": "bus_stop", "name": "Ch. Fusti\u00e9", "network": "Le Bus TM", "operator": "SEMTM", "public_transport": "platform", "shelter": "no"}}, {"type": "node", "id": 2705649712, "lat": 44.0506675, "lon": 1.3602358, "tags": {"bus": "yes", "highway": "bus_stop", "name": "Ch. Birac", "network": "Le Bus TM", "operator": "SEMTM", "public_transport": "platform", "shelter": "no"}}, {"type": "node", "id": 2705649714, "lat": 44.0499369, "lon": 1.3587411, "tags": {"bus": "yes", "highway": "bus_stop", "name": "Ch. de Gatille", "network": "Le Bus TM", "operator": "SEMTM", "public_transport": "platform", "shelter": "no"}}, {"type": "node", "id": 2705649716, "lat": 44.0459847, "lon": 1.3565638, "tags": {"bus": "yes", "highway": "bus_stop", "name": "Ch. de la Scierie", "network": "Le Bus TM", "operator": "SEMTM", "public_transport": "platform", "shelter": "no"}}, {"type": "node", "id": 2705649717, "lat": 44.046131, "lon": 1.3567908, "tags": {"bus": "yes", "highway": "bus_stop", "name": "Ch. de la Scierie", "network": "Le Bus TM", "operator": "SEMTM", "public_transport": "platform", "shelter": "no"}}, {"type": "node", "id": 2705649723, "lat": 44.0475345, "lon": 1.3576411, "tags": {"bus": "yes", "highway": "bus_stop", "name": "E. Laplace", "network": "Le Bus TM", "operator": "SEMTM", "public_transport": "platform", "shelter": "yes"}}, {"type": "node", "id": 2705649726, "lat": 44.0476781, "lon": 1.3578329, "tags": {"bus": "yes", "highway": "bus_stop", "name": "E. Laplace", "network": "Le Bus TM", "operator": "SEMTM", "public_transport": "platform", "shelter": "no"}}, {"type": "node", "id": 2705832372, "lat": 44.0430947, "lon": 1.3565464, "tags": {"bus": "yes", "highway": "bus_stop", "name": "Ch. Peligry", "network": "Le Bus TM", "operator": "SEMTM", "public_transport": "platform", "shelter": "no"}}, {"type": "node", "id": 2705832373, "lat": 44.0428797, "lon": 1.356427, "tags": {"bus": "yes", "highway": "bus_stop", "name": "Ch. Peligry", "network": "Le Bus TM", "operator": "SEMTM", "public_transport": "platform", "shelter": "no"}}, {"type": "node", "id": 2705832374, "lat": 44.0396917, "lon": 1.3567907, "tags": {"bus": "yes", "highway": "bus_stop", "name": "Philippou", "network": "Le Bus TM", "operator": "SEMTM", "public_transport": "platform", "shelter": "no"}}, {"type": "node", "id": 2705832375, "lat": 44.0393234, "lon": 1.3567545, "tags": {"bus": "yes", "highway": "bus_stop", "name": "Philippou", "network": "Le Bus TM", "operator": "SEMTM", "public_transport": "platform", "shelter": "no"}}, {"type": "node", "id": 2705993468, "lat": 44.0377767, "lon": 1.3585941, "tags": {"bus": "yes", "highway": "bus_stop", "name": "Chantilly", "network": "Le Bus TM", "operator": "SEMTM", "public_transport": "platform", "shelter": "yes"}}, {"type": "node", "id": 2705993469, "lat": 44.037936, "lon": 1.3580804, "tags": {"bus": "yes", "highway": "bus_stop", "name": "Chantilly", "network": "Le Bus TM", "operator": "SEMTM", "public_transport": "platform", "shelter": "no"}}, {"type": "node", "id": 2705993470, "lat": 44.0376439, "lon": 1.3614962, "tags": {"bus": "yes", "highway": "bus_stop", "name": "K. Marx", "network": "Le Bus TM", "operator": "SEMTM", "public_transport": "platform", "shelter": "no"}}, {"type": "node", "id": 2705993471, "lat": 44.0375234, "lon": 1.3614694, "tags": {"bus": "yes", "highway": "bus_stop", "name": "K. Marx", "network": "Le Bus TM", "operator": "SEMTM", "public_transport": "platform", "shelter": "no"}}, {"type": "node", "id": 2706035999, "lat": 44.0345013, "lon": 1.369502, "tags": {"bus": "yes", "highway": "bus_stop", "name": "B. Franklin", "network": "Le Bus TM", "operator": "SEMTM", "public_transport": "platform", "shelter": "no"}}, {"type": "node", "id": 2706036004, "lat": 44.0344001, "lon": 1.3695134, "tags": {"bus": "yes", "highway": "bus_stop", "name": "B. Franklin", "network": "Le Bus TM", "operator": "SEMTM", "public_transport": "platform", "shelter": "no"}}, {"type": "node", "id": 2706152377, "lat": 44.0329823, "lon": 1.3680073, "tags": {"bus": "yes", "highway": "bus_stop", "name": "Pater", "network": "Le Bus TM", "operator": "SEMTM", "public_transport": "platform", "shelter": "no"}}, {"type": "node", "id": 2706152378, "lat": 44.0328839, "lon": 1.3680623, "tags": {"bus": "yes", "highway": "bus_stop", "name": "Pater", "network": "Le Bus TM", "operator": "SEMTM", "public_transport": "platform", "shelter": "no"}}, {"type": "node", "id": 2706152379, "lat": 44.0334624, "lon": 1.3618235, "tags": {"bus": "yes", "highway": "bus_stop", "name": "Cos", "network": "Le Bus TM", "operator": "SEMTM", "public_transport": "platform", "shelter": "no"}}, {"type": "node", "id": 2706152380, "lat": 44.0335155, "lon": 1.3616921, "tags": {"bus": "yes", "highway": "bus_stop", "name": "Cos", "network": "Le Bus TM", "operator": "SEMTM", "public_transport": "platform", "shelter": "no"}}, {"type": "node", "id": 2706152381, "lat": 44.0341865, "lon": 1.3581649, "tags": {"bus": "yes", "highway": "bus_stop", "name": "Ardus", "network": "Le Bus TM", "operator": "SEMTM", "public_transport": "platform", "shelter": "no"}}, {"type": "node", "id": 2706152382, "lat": 44.0341884, "lon": 1.3583621, "tags": {"bus": "yes", "highway": "bus_stop", "name": "Ardus", "network": "Le Bus TM", "operator": "SEMTM", "public_transport": "platform", "shelter": "no"}}, {"type": "node", "id": 2706152383, "lat": 44.0272109, "lon": 1.357776, "tags": {"bus": "yes", "highway": "bus_stop", "name": "Croix de Pomponne", "network": "Le Bus TM", "operator": "SEMTM", "public_transport": "platform", "shelter": "yes"}}, {"type": "node", "id": 2706152384, "lat": 44.026979, "lon": 1.3578048, "tags": {"bus": "yes", "highway": "bus_stop", "name": "Croix de Pomponne", "network": "Le Bus TM", "operator": "SEMTM", "public_transport": "platform", "shelter": "no"}}, {"type": "node", "id": 2706152387, "lat": 44.0256617, "lon": 1.3567329, "tags": {"bus": "yes", "highway": "bus_stop", "name": "11e R.I.", "network": "Le Bus TM", "operator": "SEMTM", "public_transport": "platform", "shelter": "no"}}, {"type": "node", "id": 2706152388, "lat": 44.0256635, "lon": 1.3568905, "tags": {"bus": "yes", "highway": "bus_stop", "name": "11e R.I.", "network": "Le Bus TM", "operator": "SEMTM", "public_transport": "platform", "shelter": "no"}}, {"type": "node", "id": 2706152389, "lat": 44.024179, "lon": 1.3558974, "tags": {"bus": "yes", "highway": "bus_stop", "name": "Guibert", "network": "Le Bus TM", "operator": "SEMTM", "public_transport": "platform", "shelter": "yes"}}, {"type": "node", "id": 2706152390, "lat": 44.0241308, "lon": 1.3560282, "tags": {"bus": "yes", "highway": "bus_stop", "name": "Guibert", "network": "Le Bus TM", "operator": "SEMTM", "public_transport": "platform", "shelter": "no"}}, {"type": "node", "id": 2706152391, "lat": 44.0223989, "lon": 1.3562857, "tags": {"bus": "yes", "highway": "bus_stop", "name": "3 Pigeons", "public_transport": "platform", "shelter": "no"}}, {"type": "node", "id": 2707286466, "lat": 43.9992339, "lon": 1.3532119, "tags": {"bench": "yes", "bin": "yes", "bus": "yes", "highway": "bus_stop", "name": "Sapiac", "public_transport": "platform", "shelter": "yes", "tactile_paving": "yes"}}, {"type": "node", "id": 2707286473, "lat": 43.9989917, "lon": 1.3528592, "tags": {"bench": "no", "bin": "no", "bus": "yes", "highway": "bus_stop", "lit": "no", "name": "Sapiac", "public_transport": "platform", "shelter": "no", "tactile_paving": "yes"}}, {"type": "node", "id": 2707286560, "lat": 44.0020308, "lon": 1.3556176, "tags": {"bench": "yes", "bus": "yes", "highway": "bus_stop", "name": "Henri Dunant", "public_transport": "platform", "shelter": "yes"}}, {"type": "node", "id": 2707286561, "lat": 44.0019984, "lon": 1.3554105, "tags": {"bus": "yes", "highway": "bus_stop", "name": "Henri Dunant", "public_transport": "platform", "shelter": "no"}}, {"type": "node", "id": 2707687435, "lat": 44.0095518, "lon": 1.352347, "tags": {"highway": "bus_stop", "name": "Stade Sapiac", "network": "Le Bus TM", "operator": "SEMTM", "shelter": "no"}}, {"type": "node", "id": 2707687437, "lat": 44.0094664, "lon": 1.3524655, "tags": {"highway": "bus_stop", "name": "Stade Sapiac", "network": "Le Bus TM", "operator": "SEMTM", "shelter": "no"}}, {"type": "node", "id": 2707687439, "lat": 44.0096815, "lon": 1.3497457, "tags": {"highway": "bus_stop", "name": "Chanoine Belloc", "network": "Le Bus TM", "operator": "SEMTM", "shelter": "no"}}, {"type": "node", "id": 2707687441, "lat": 44.0097442, "lon": 1.3500394, "tags": {"highway": "bus_stop", "name": "Chanoine Belloc", "network": "Le Bus TM", "operator": "SEMTM", "shelter": "no"}}, {"type": "node", "id": 2707687491, "lat": 44.0130406, "lon": 1.3497465, "tags": {"bus": "yes", "highway": "bus_stop", "name": "22 Septembre", "public_transport": "platform", "shelter": "yes"}}, {"type": "node", "id": 2707687494, "lat": 44.0136025, "lon": 1.3498712, "tags": {"bus": "yes", "highway": "bus_stop", "name": "22 Septembre", "public_transport": "platform", "shelter": "no"}}, {"type": "node", "id": 2707687495, "lat": 44.016953, "lon": 1.3512593, "tags": {"bus": "yes", "highway": "bus_stop", "name": "Pont Vieux", "public_transport": "platform", "shelter": "no"}}, {"type": "node", "id": 2707687498, "lat": 44.0169492, "lon": 1.351146, "tags": {"bus": "yes", "highway": "bus_stop", "name": "Pont Vieux", "public_transport": "platform", "shelter": "no"}}, {"type": "node", "id": 2707687499, "lat": 44.0195455, "lon": 1.3541464, "tags": {"bus": "yes", "highway": "bus_stop", "name": "Th\u00e9\u00e2tre", "public_transport": "platform", "shelter": "no"}}, {"type": "node", "id": 2707687502, "lat": 44.0197003, "lon": 1.3540704, "tags": {"bus": "yes", "highway": "bus_stop", "name": "Th\u00e9\u00e2tre", "public_transport": "platform", "shelter": "no"}}, {"type": "node", "id": 2707687510, "lat": 44.0190263, "lon": 1.3600315, "tags": {"bus": "yes", "highway": "bus_stop", "name": "Commissariat", "public_transport": "platform", "shelter": "no"}}, {"type": "node", "id": 2707687512, "lat": 44.018952, "lon": 1.3599605, "tags": {"bus": "yes", "highway": "bus_stop", "name": "Commissariat", "public_transport": "platform", "shelter": "no"}}, {"type": "node", "id": 2707687514, "lat": 44.017841, "lon": 1.3644639, "tags": {"bus": "yes", "highway": "bus_stop", "name": "S\u00e9curit\u00e9 Sociale", "public_transport": "platform", "shelter": "no"}}, {"type": "node", "id": 2707687516, "lat": 44.0183141, "lon": 1.3637987, "tags": {"bus": "yes", "highway": "bus_stop", "name": "S\u00e9curit\u00e9 Sociale", "public_transport": "platform", "shelter": "no"}}, {"type": "node", "id": 2707687518, "lat": 44.0177825, "lon": 1.366967, "tags": {"bus": "yes", "highway": "bus_stop", "name": "V. Auriol", "public_transport": "platform", "shelter": "no"}}, {"type": "node", "id": 2707687520, "lat": 44.0169933, "lon": 1.3679113, "tags": {"bus": "yes", "highway": "bus_stop", "name": "V. Auriol", "public_transport": "platform", "shelter": "no"}}, {"type": "node", "id": 2707687523, "lat": 44.0175382, "lon": 1.3697519, "tags": {"bus": "yes", "highway": "bus_stop", "name": "Les Mourets", "public_transport": "platform", "shelter": "yes"}}, {"type": "node", "id": 2707687525, "lat": 44.0174861, "lon": 1.3698968, "tags": {"bus": "yes", "highway": "bus_stop", "name": "Les Mourets", "public_transport": "platform", "shelter": "yes"}}, {"type": "node", "id": 2707687527, "lat": 44.0166968, "lon": 1.372127, "tags": {"bus": "yes", "highway": "bus_stop", "name": "H. Barbusse", "public_transport": "platform", "shelter": "yes"}}, {"type": "node", "id": 2707687529, "lat": 44.0165719, "lon": 1.3721237, "tags": {"bus": "yes", "highway": "bus_stop", "name": "H. Barbusse", "public_transport": "platform", "shelter": "no"}}, {"type": "node", "id": 2707687531, "lat": 44.0150653, "lon": 1.374659, "tags": {"bus": "yes", "highway": "bus_stop", "name": "Lalande", "public_transport": "platform", "shelter": "yes"}}, {"type": "node", "id": 2707687533, "lat": 44.0149395, "lon": 1.3746208, "tags": {"bus": "yes", "highway": "bus_stop", "name": "Lalande", "public_transport": "platform", "shelter": "no"}}, {"type": "node", "id": 2708910742, "lat": 44.0171043, "lon": 1.3767423, "tags": {"bus": "yes", "highway": "bus_stop", "name": "J.F. Kennedy", "public_transport": "platform", "shelter": "yes"}}, {"type": "node", "id": 2708910743, "lat": 44.0173358, "lon": 1.3766551, "tags": {"bus": "yes", "highway": "bus_stop", "name": "J.F. Kennedy", "public_transport": "platform", "shelter": "no"}}, {"type": "node", "id": 2708910744, "lat": 44.0194763, "lon": 1.3738636, "tags": {"bus": "yes", "highway": "bus_stop", "name": "Lapauze", "public_transport": "platform", "shelter": "no"}}, {"type": "node", "id": 2708910745, "lat": 44.0194232, "lon": 1.3737724, "tags": {"bus": "yes", "highway": "bus_stop", "name": "Lapauze", "public_transport": "platform", "shelter": "no"}}, {"type": "node", "id": 2708910754, "lat": 44.0205916, "lon": 1.3743672, "tags": {"bus": "yes", "highway": "bus_stop", "name": "Les Saules", "public_transport": "platform", "shelter": "no"}}, {"type": "node", "id": 2708910755, "lat": 44.0208153, "lon": 1.3739474, "tags": {"bus": "yes", "highway": "bus_stop", "name": "Les Saules", "public_transport": "platform", "shelter": "no"}}, {"type": "node", "id": 2708910763, "lat": 44.0217295, "lon": 1.3730864, "tags": {"bus": "yes", "highway": "bus_stop", "name": "Les Mousquetaires", "public_transport": "platform", "shelter": "yes"}}, {"type": "node", "id": 2708910764, "lat": 44.0218566, "lon": 1.3731648, "tags": {"bus": "yes", "highway": "bus_stop", "name": "Les Mousquetaires", "public_transport": "platform", "shelter": "no"}}, {"type": "node", "id": 2708910777, "lat": 44.0230145, "lon": 1.3774125, "tags": {"highway": "bus_stop", "name": "La Pommeraie", "network": "Le Bus TM", "operator": "SEMTM", "shelter": "no"}}, {"type": "node", "id": 2708910778, "lat": 44.0227908, "lon": 1.3775694, "tags": {"highway": "bus_stop", "name": "La Pommeraie", "network": "Le Bus TM", "operator": "SEMTM", "shelter": "no"}}, {"type": "node", "id": 2953314888, "lat": 44.0326075, "lon": 1.3151769, "tags": {"bus": "yes", "highway": "bus_stop", "name": "Lyc\u00e9e Agricole Capou", "public_transport": "platform", "shelter": "yes"}}, {"type": "node", "id": 2953330038, "lat": 44.0335164, "lon": 1.318146, "tags": {"bus": "yes", "highway": "bus_stop", "name": "Dom. de Forest", "public_transport": "platform", "shelter": "no"}}, {"type": "node", "id": 2953330039, "lat": 44.0357975, "lon": 1.3208298, "tags": {"bus": "yes", "highway": "bus_stop", "name": "Ch. de Capou", "network": "Le Bus TM", "operator": "SEMTM", "public_transport": "platform", "shelter": "yes"}}, {"type": "node", "id": 2953330040, "lat": 44.0356399, "lon": 1.3211128, "tags": {"bus": "yes", "highway": "bus_stop", "name": "Ch. de Capou", "public_transport": "platform", "shelter": "no"}}, {"type": "node", "id": 2954339501, "lat": 44.0334138, "lon": 1.3244252, "tags": {"bus": "yes", "highway": "bus_stop", "name": "Ch. de la Margue", "network": "Le Bus TM", "operator": "SEMTM", "public_transport": "platform", "shelter": "no"}}, {"type": "node", "id": 2954339502, "lat": 44.0338265, "lon": 1.3238464, "tags": {"bus": "yes", "highway": "bus_stop", "name": "Ch. de la Margue", "public_transport": "platform", "shelter": "no"}}, {"type": "node", "id": 2954339503, "lat": 44.0297123, "lon": 1.3336639, "tags": {"bus": "yes", "highway": "bus_stop", "name": "Ch. de Lanis", "network": "Le Bus TM", "operator": "SEMTM", "public_transport": "platform", "shelter": "yes"}}, {"type": "node", "id": 2954339504, "lat": 44.0293496, "lon": 1.3341674, "tags": {"bus": "yes", "highway": "bus_stop", "name": "Ch. de Lanis", "public_transport": "platform", "shelter": "no"}}, {"type": "node", "id": 2954378231, "lat": 44.0263572, "lon": 1.3378997, "tags": {"bench": "no", "bin": "yes", "bus": "yes", "highway": "bus_stop", "lit": "yes", "name": "Stand de Tir", "network": "Le Bus TM", "operator": "SEMTM", "public_transport": "platform", "shelter": "no", "tactile_paving": "yes"}}, {"type": "node", "id": 2954378232, "lat": 44.0262189, "lon": 1.3378856, "tags": {"bench": "no", "bin": "yes", "bus": "yes", "highway": "bus_stop", "lit": "yes", "name": "Stand de Tir", "public_transport": "platform", "shelter": "no", "tactile_paving": "yes"}}, {"type": "node", "id": 2954380533, "lat": 44.0249408, "lon": 1.336301, "tags": {"bench": "no", "bus": "yes", "highway": "bus_stop", "name": "Route Bordeaux", "network": "Le Bus TM", "operator": "SEMTM", "public_transport": "platform", "shelter": "no"}}, {"type": "node", "id": 2954380534, "lat": 44.024958, "lon": 1.3365306, "tags": {"bench": "no", "bus": "yes", "highway": "bus_stop", "name": "Route Bordeaux", "public_transport": "platform", "shelter": "no"}}, {"type": "node", "id": 2954887293, "lat": 44.0241404, "lon": 1.3389655, "tags": {"bench": "no", "bin": "no", "bus": "yes", "highway": "bus_stop", "lit": "no", "name": "Fr\u00e8res Poncelet", "network": "Le Bus TM", "operator": "SEMTM", "public_transport": "platform", "shelter": "no", "tactile_paving": "no"}}, {"type": "node", "id": 2954887294, "lat": 44.02409, "lon": 1.3397957, "tags": {"bench": "no", "bin": "no", "bus": "yes", "highway": "bus_stop", "lit": "yes", "name": "Fr\u00e8res Poncelet", "public_transport": "platform", "shelter": "no", "tactile_paving": "no"}}, {"type": "node", "id": 2954887303, "lat": 44.0236488, "lon": 1.3415254, "tags": {"bench": "yes", "bin": "yes", "bus": "yes", "highway": "bus_stop", "lit": "no", "name": "Cours Foucault", "network": "Le Bus TM", "operator": "SEMYM", "public_transport": "platform", "shelter": "yes", "tactile_paving": "yes"}}, {"type": "node", "id": 2954887332, "lat": 44.0236003, "lon": 1.3428072, "tags": {"bench": "no", "bin": "no", "bus": "yes", "highway": "bus_stop", "lit": "yes", "name": "Cours Foucault", "public_transport": "platform", "shelter": "no", "tactile_paving": "yes"}}, {"type": "node", "id": 2954887433, "lat": 44.0228106, "lon": 1.3474396, "tags": {"highway": "bus_stop", "name": "Dr. Labat", "public_transport": "platform", "shelter": "no"}}, {"type": "node", "id": 2954887434, "lat": 44.0215032, "lon": 1.3510126, "tags": {"highway": "bus_stop", "name": "H\u00f4pital", "network": "Le Bus TM", "operator": "SEMTM", "shelter": "yes"}}, {"type": "node", "id": 2954965101, "lat": 44.0205233, "lon": 1.3533857, "tags": {"highway": "bus_stop", "name": "Delcass\u00e9", "network": "Le Bus TM", "operator": "SEMTM", "shelter": "no"}}, {"type": "node", "id": 2959988066, "lat": 44.0147245, "lon": 1.3559558, "tags": {"highway": "bus_stop", "name": "All\u00e9es Mortarieu", "public_transport": "platform", "shelter": "no"}}, {"type": "node", "id": 2960001223, "lat": 44.0110948, "lon": 1.3654132, "tags": {"bench": "no", "bin": "no", "bus": "yes", "highway": "bus_stop", "lit": "no", "name": "F. Faure", "public_transport": "platform", "shelter": "no", "tactile_paving": "yes"}}, {"type": "node", "id": 2960001224, "lat": 44.0111912, "lon": 1.3650377, "tags": {"bench": "no", "bin": "no", "bus": "yes", "check_date:shelter": "2024-05-27", "highway": "bus_stop", "lit": "no", "name": "F. Faure", "network": "Le Bus TM", "operator": "SEMTM", "public_transport": "platform", "shelter": "no", "tactile_paving": "yes"}}, {"type": "node", "id": 2960023015, "lat": 44.0102354, "lon": 1.3669782, "tags": {"bench": "no", "bin": "no", "bus": "yes", "highway": "bus_stop", "lit": "no", "name": "Saint-Michel", "public_transport": "platform", "shelter": "no", "tactile_paving": "yes"}}, {"type": "node", "id": 2960023016, "lat": 44.0100801, "lon": 1.367107, "tags": {"bench": "no", "bin": "no", "bus": "yes", "check_date:shelter": "2024-05-27", "highway": "bus_stop", "lit": "no", "name": "Saint- Michel", "network": "Le Bus TM", "operator": "SEMTM", "public_transport": "platform", "shelter": "no", "tactile_paving": "yes"}}, {"type": "node", "id": 2960023017, "lat": 44.0066297, "lon": 1.3865239, "tags": {"bench": "yes", "bus": "yes", "highway": "bus_stop", "name": "Ch. des Bozouls", "network": "Le Bus TM", "operator": "SEMTM", "public_transport": "platform", "shelter": "no"}}, {"type": "node", "id": 2960023018, "lat": 44.0067433, "lon": 1.3863208, "tags": {"bus": "yes", "highway": "bus_stop", "name": "Ch. des Bozouls", "public_transport": "platform", "shelter": "no"}}, {"type": "node", "id": 2960032431, "lat": 44.0106167, "lon": 1.3935319, "tags": {"bus": "yes", "highway": "bus_stop", "name": "Clos Maury", "network": "Le Bus TM", "operator": "SEMTM", "public_transport": "platform", "shelter": "no"}}, {"type": "node", "id": 4095973080, "lat": 44.0367104, "lon": 1.3794888, "tags": {"bus": "yes", "highway": "bus_stop", "name": "Matras", "network": "Le Bus TM", "operator": "SEMTM", "public_transport": "stop_position"}}, {"type": "node", "id": 5065158841, "lat": 44.0147076, "lon": 1.3413428, "tags": {"bench": "no", "bin": "no", "bus": "yes", "highway": "bus_stop", "lit": "no", "local_ref": "Montauban 921", "name": "Gare SNCF - Autocars", "pole": "yes", "public_transport": "platform", "ref": "215303", "shelter": "no", "tactile_paving": "no"}}, {"type": "node", "id": 5079810578, "lat": 44.0447591, "lon": 1.389701, "tags": {"bus": "yes", "highway": "bus_stop", "name": "Aussonne", "network": "Le Bus TM", "operator": "SEMTM", "public_transport": "stop_position", "route_ref": "Flixbus 716; Le Bus TM Ligne 2"}}, {"type": "node", "id": 5079810585, "lat": 44.0407949, "lon": 1.3845628, "tags": {"bus": "yes", "highway": "bus_stop", "name": "RN 20", "network": "Le Bus TM", "operator": "SEMTM", "public_transport": "stop_position"}}, {"type": "node", "id": 5079810586, "lat": 44.0416317, "lon": 1.3857394, "tags": {"bus": "yes", "highway": "bus_stop", "name": "RN 20", "network": "Le Bus TM", "operator": "SEMTM", "public_transport": "stop_position"}}, {"type": "node", "id": 5079810591, "lat": 44.0365014, "lon": 1.371461, "tags": {"bus": "yes", "highway": "bus_stop", "name": "\u00c9cole J. Moulin", "network": "Le Bus TM", "operator": "SEMTM", "public_transport": "stop_position"}}, {"type": "node", "id": 5079810592, "lat": 44.036196, "lon": 1.3712006, "tags": {"bus": "yes", "highway": "bus_stop", "name": "\u00c9cole J. Moulin", "network": "Le Bus TM", "network:wikidata": "Q3233177", "network:wikipedia": "fr:Autobus de Montauban", "operator": "SEMTM", "operator:wikidata": "Q16677212", "operator:wikipedia": "fr:Soci\u00e9t\u00e9 d'\u00e9conomie mixte des transports montalbanais", "public_transport": "stop_position"}}, {"type": "node", "id": 5079810593, "lat": 44.0382455, "lon": 1.3814255, "tags": {"bus": "yes", "highway": "bus_stop", "name": "Futurop\u00f4le", "network": "Le Bus TM", "network:wikidata": "Q3233177", "operator": "SEMTM", "operator:wikidata": "Q16677212", "public_transport": "stop_position"}}, {"type": "node", "id": 5079810596, "lat": 44.031632, "lon": 1.3731223, "tags": {"bus": "yes", "highway": "bus_stop", "name": "Courteline", "network": "Le Bus TM", "operator": "SEMTM", "public_transport": "stop_position"}}, {"type": "node", "id": 5079810597, "lat": 44.0320495, "lon": 1.3736492, "tags": {"bus": "yes", "highway": "bus_stop", "name": "Courteline", "network": "Le Bus TM", "operator": "SEMTM", "public_transport": "stop_position"}}, {"type": "node", "id": 5079810600, "lat": 44.0258248, "lon": 1.3658194, "tags": {"bus": "yes", "highway": "bus_stop", "name": "Caserne Pomponne", "network": "Le Bus TM", "network:wikidata": "Q3233177", "operator": "SEMTM", "operator:wikidata": "Q16677212", "public_transport": "stop_position"}}, {"type": "node", "id": 5079810601, "lat": 44.0255289, "lon": 1.3654555, "tags": {"bus": "yes", "highway": "bus_stop", "name": "Caserne Pomponne", "network": "Le Bus TM", "network:wikidata": "Q3233177", "operator": "SEMTM", "operator:wikidata": "Q16677212", "public_transport": "stop_position"}}, {"type": "node", "id": 5079810605, "lat": 44.023464, "lon": 1.3629913, "tags": {"bench": "no", "bus": "yes", "highway": "bus_stop", "name": "Salle Eurythmie", "network": "Le Bus TM", "network:wikidata": "Q3233177", "operator": "SEMTM", "operator:wikidata": "Q16677212", "passenger_information_display": "no", "public_transport": "platform", "shelter": "no"}}, {"type": "node", "id": 5079810606, "lat": 44.0233789, "lon": 1.3626934, "tags": {"bus": "yes", "highway": "bus_stop", "name": "Salle Eurythmie", "network": "Le Bus TM", "network:wikidata": "Q3233177", "operator": "SEMTM", "operator:wikidata": "Q16677212", "public_transport": "stop_position"}}, {"type": "node", "id": 5079810607, "lat": 44.0234688, "lon": 1.3629685, "tags": {"bus": "yes", "highway": "bus_stop", "name": "Salle Eurythmie", "network": "Le Bus TM", "network:wikidata": "Q3233177", "operator": "SEMTM", "operator:wikidata": "Q16677212", "public_transport": "stop_position"}}, {"type": "node", "id": 5079810609, "lat": 44.0233912, "lon": 1.3626307, "tags": {"bench": "yes", "bus": "yes", "covered": "no", "highway": "bus_stop", "name": "Salle Eurythmie", "network": "Le Bus TM", "network:wikidata": "Q3233177", "operator": "SEMTM", "operator:wikidata": "Q16677212", "passenger_information_display": "no", "public_transport": "platform", "shelter": "yes"}}, {"type": "node", "id": 5079810611, "lat": 44.0215999, "lon": 1.3609956, "tags": {"bus": "yes", "highway": "bus_stop", "name": "Le Rond", "network": "Le Bus TM", "network:wikidata": "Q3233177", "operator": "SEMTM", "operator:wikidata": "Q16677212", "public_transport": "stop_position"}}, {"type": "node", "id": 5079810613, "lat": 44.0200134, "lon": 1.3601692, "tags": {"bus": "yes", "highway": "bus_stop", "name": "Gambetta", "network": "Le Bus TM", "network:wikidata": "Q3233177", "operator": "SEMTM", "operator:wikidata": "Q16677212", "public_transport": "stop_position"}}, {"type": "node", "id": 5079810616, "lat": 44.0178904, "lon": 1.3590112, "tags": {"bus": "yes", "highway": "bus_stop", "name": "Prax Paris Est", "network": "Le Bus TM", "network:wikidata": "Q3233177", "operator": "SEMTM", "operator:wikidata": "Q16677212", "public_transport": "stop_position"}}, {"type": "node", "id": 5079810620, "lat": 44.0171595, "lon": 1.3597931, "tags": {"bus": "yes", "highway": "bus_stop", "name": "H. Marre", "network": "Le Bus TM", "network:wikidata": "Q3233177", "operator": "SEMTM", "operator:wikidata": "Q16677212", "public_transport": "stop_position"}}, {"type": "node", "id": 5079810922, "lat": 44.0161328, "lon": 1.3628774, "tags": {"bus": "yes", "highway": "bus_stop", "name": "Garrisson", "network": "Le Bus TM", "operator": "SEMTM", "public_transport": "stop_position"}}, {"type": "node", "id": 5079810923, "lat": 44.0161302, "lon": 1.36299, "tags": {"bus": "yes", "highway": "bus_stop", "name": "Garrisson", "network": "Le Bus TM", "operator": "SEMTM", "public_transport": "stop_position"}}, {"type": "node", "id": 5079810924, "lat": 44.0140802, "lon": 1.3641236, "tags": {"bus": "yes", "highway": "bus_stop", "name": "Piscine", "network": "Le Bus TM", "operator": "SEMTM", "public_transport": "stop_position"}}, {"type": "node", "id": 5079810927, "lat": 44.0112889, "lon": 1.3621731, "tags": {"bus": "yes", "highway": "bus_stop", "name": "C.E.S. Ingres", "network": "Le Bus TM", "operator": "SEMTM", "public_transport": "stop_position"}}, {"type": "node", "id": 5079810928, "lat": 44.0108101, "lon": 1.3620299, "tags": {"bus": "yes", "highway": "bus_stop", "name": "C.E.S. Ingres", "network": "Le Bus TM", "operator": "SEMTM", "public_transport": "stop_position"}}, {"type": "node", "id": 5079810929, "lat": 44.0100381, "lon": 1.3601552, "tags": {"bus": "yes", "highway": "bus_stop", "name": "Universit\u00e9", "network": "Le Bus TM", "operator": "SEMTM", "public_transport": "stop_position"}}, {"type": "node", "id": 5079810930, "lat": 44.0090237, "lon": 1.3595741, "tags": {"bus": "yes", "highway": "bus_stop", "name": "Universit\u00e9", "network": "Le Bus TM", "operator": "SEMTM", "public_transport": "stop_position"}}, {"type": "node", "id": 5079810934, "lat": 44.0030247, "lon": 1.3660801, "tags": {"bus": "yes", "highway": "bus_stop", "name": "Av. d'Albi", "network": "Le Bus TM", "operator": "SEMTM", "public_transport": "stop_position"}}, {"type": "node", "id": 5079810935, "lat": 44.0300796, "lon": 1.3711824, "tags": {"bus": "yes", "highway": "bus_stop", "name": "Petit Versailles", "network": "Le Bus TM", "operator": "SEMTM", "public_transport": "stop_position"}}, {"type": "node", "id": 6341561373, "lat": 44.1782206, "lon": 1.2691475, "tags": {"bench": "yes", "highway": "bus_stop", "public_transport": "platform", "shelter": "yes", "source": "survey"}}, {"type": "node", "id": 6495546219, "lat": 43.9765243, "lon": 1.2841962, "tags": {"bus": "yes", "highway": "bus_stop", "name": "Lacourt Saint-Pierre - Talicous", "public_transport": "platform"}}, {"type": "node", "id": 6591269864, "lat": 44.0146936, "lon": 1.3423075, "tags": {"bench": "yes", "bin": "no", "bus": "yes", "highway": "bus_stop", "lit": "yes", "name": "Gare SNCF", "public_transport": "platform", "shelter": "yes", "tactile_paving": "yes"}}, {"type": "node", "id": 6591269865, "lat": 44.0088169, "lon": 1.3561168, "tags": {"bus": "yes", "highway": "bus_stop", "name": "J. Bouin", "public_transport": "platform", "shelter": "no"}}, {"type": "node", "id": 6591269866, "lat": 44.0086095, "lon": 1.3562603, "tags": {"bus": "yes", "highway": "bus_stop", "name": "J. Bouin", "public_transport": "platform", "shelter": "no"}}, {"type": "node", "id": 6591418128, "lat": 44.0340455, "lon": 1.3762716, "tags": {"bench": "no", "bin": "no", "bus": "yes", "check_date:shelter": "2023-09-30", "highway": "bus_stop", "lit": "no", "name": "Voltaire", "network": "Le Bus TM", "operator": "SEMTM", "passenger_information_display": "no", "public_transport": "platform", "shelter": "no", "source": "survey", "tactile_paving": "no"}}, {"type": "node", "id": 6591418129, "lat": 44.0340547, "lon": 1.3760731, "tags": {"bench": "no", "bin": "yes", "bus": "yes", "check_date:shelter": "2023-09-30", "highway": "bus_stop", "lit": "no", "name": "Voltaire", "network": "Le Bus TM", "operator": "SEMTM", "passenger_information_display": "no", "public_transport": "platform", "shelter": "no", "source": "survey", "tactile_paving": "no"}}, {"type": "node", "id": 6591418130, "lat": 44.0433036, "lon": 1.3878742, "tags": {"bench": "no", "bus": "yes", "highway": "bus_stop", "name": "Rte de Paris", "network": "Le Bus TM", "operator": "SEMTM", "passenger_information_display": "no", "public_transport": "platform", "shelter": "no", "source": "survey"}}, {"type": "node", "id": 6591418131, "lat": 44.0434641, "lon": 1.3878896, "tags": {"bench": "no", "bus": "yes", "highway": "bus_stop", "name": "Rte de Paris", "network": "Le Bus TM", "operator": "SEMTM", "passenger_information_display": "no", "public_transport": "platform", "shelter": "no", "source": "survey"}}, {"type": "node", "id": 6591445465, "lat": 44.0035125, "lon": 1.3615416, "tags": {"bus": "yes", "highway": "bus_stop", "name": "H.Gouze", "network": "Le Bus TM", "operator": "SEMTM", "passenger_information_display": "no", "public_transport": "platform", "shelter": "yes"}}, {"type": "node", "id": 6591445466, "lat": 44.002953, "lon": 1.3602716, "tags": {"bus": "yes", "highway": "bus_stop", "name": "H. Gouze", "network": "Le Bus TM", "operator": "SEMTM", "passenger_information_display": "no", "public_transport": "platform", "shelter": "yes"}}, {"type": "node", "id": 6591531977, "lat": 43.9869442, "lon": 1.3272992, "tags": {"bus": "yes", "highway": "bus_stop", "name": "CAF", "public_transport": "platform", "shelter": "no"}}, {"type": "node", "id": 6591531978, "lat": 43.98695, "lon": 1.3273796, "tags": {"bus": "yes", "highway": "bus_stop", "name": "CAF", "public_transport": "platform", "shelter": "no"}}, {"type": "node", "id": 6591553274, "lat": 44.021381, "lon": 1.3765767, "tags": {"bus": "yes", "highway": "bus_stop", "name": "Lamartine", "public_transport": "platform", "shelter": "no"}}, {"type": "node", "id": 6591553275, "lat": 44.0214658, "lon": 1.3765928, "tags": {"bus": "yes", "highway": "bus_stop", "name": "Lamartine", "public_transport": "platform", "shelter": "no"}}, {"type": "node", "id": 6591574011, "lat": 44.0132721, "lon": 1.3777046, "tags": {"bus": "yes", "highway": "bus_stop", "name": "M. Guerret", "public_transport": "platform", "shelter": "no"}}, {"type": "node", "id": 6591574012, "lat": 44.0129923, "lon": 1.3780184, "tags": {"bus": "yes", "highway": "bus_stop", "name": "M. Guerret", "public_transport": "platform", "shelter": "no"}}, {"type": "node", "id": 6596361567, "lat": 44.0334254, "lon": 1.3470672, "tags": {"bus": "yes", "highway": "bus_stop", "name": "R\u00e9s. Lassalle", "public_transport": "platform", "shelter": "no"}}, {"type": "node", "id": 6596362934, "lat": 44.0382183, "lon": 1.3390184, "tags": {"bus": "yes", "highway": "bus_stop", "name": "\u00c9cole Verte", "network": "Le Bus TM", "operator": "SEMTM", "public_transport": "platform", "shelter": "no"}}, {"type": "node", "id": 6596362935, "lat": 44.0381595, "lon": 1.3389306, "tags": {"bus": "yes", "highway": "bus_stop", "name": "\u00c9cole Verte", "network": "Le Bus TM", "operator": "SEMTM", "public_transport": "platform", "shelter": "no"}}, {"type": "node", "id": 6596362936, "lat": 44.0414266, "lon": 1.3362216, "tags": {"bus": "yes", "highway": "bus_stop", "name": "Les All\u00e8gres", "public_transport": "platform", "shelter": "no"}}, {"type": "node", "id": 6596362937, "lat": 44.0412502, "lon": 1.3364562, "tags": {"bus": "yes", "highway": "bus_stop", "name": "Les All\u00e8gres", "public_transport": "platform", "shelter": "no"}}, {"type": "node", "id": 6631180636, "lat": 44.0260565, "lon": 1.3534923, "tags": {"bench": "yes", "bin": "yes", "bus": "yes", "highway": "bus_stop", "lit": "yes", "name": "H. Tourni\u00e9", "public_transport": "platform", "shelter": "yes", "tactile_paving": "no"}}, {"type": "node", "id": 6631180637, "lat": 44.0261201, "lon": 1.3535359, "tags": {"bench": "no", "bin": "no", "bus": "yes", "highway": "bus_stop", "lit": "no", "name": "H. Tourni\u00e9", "public_transport": "platform", "shelter": "no", "tactile_paving": "no"}}, {"type": "node", "id": 6631272907, "lat": 44.0110373, "lon": 1.2830474, "tags": {"bus": "yes", "highway": "bus_stop", "name": "Montbeton Place Alibert", "pole": "yes", "public_transport": "platform", "shelter": "no"}}, {"type": "node", "id": 6631272908, "lat": 44.0180432, "lon": 1.3340302, "tags": {"bus": "yes", "highway": "bus_stop", "name": "Rte de Castelsarrasin", "public_transport": "platform", "shelter": "no"}}, {"type": "node", "id": 6631272909, "lat": 44.0182997, "lon": 1.3324919, "tags": {"bus": "yes", "highway": "bus_stop", "name": "Rte de Castelsarrasin", "public_transport": "platform", "shelter": "no"}}, {"type": "node", "id": 6710010433, "lat": 44.0338474, "lon": 1.3177633, "tags": {"bus": "yes", "highway": "bus_stop", "name": "Dom. de Forest", "network": "Le Bus TM", "operator": "SEMTM", "public_transport": "platform", "shelter": "no"}}, {"type": "node", "id": 6710062865, "lat": 44.0063209, "lon": 1.3855022, "tags": {"bus": "yes", "highway": "bus_stop", "name": "Pont de Chaume P+R", "network": "Le Bus TM", "operator": "SEMTM", "public_transport": "platform", "shelter": "no"}}, {"type": "node", "id": 6710088163, "lat": 44.0095784, "lon": 1.3940593, "tags": {"bus": "yes", "highway": "bus_stop", "name": "Beauregard", "network": "Le Bus TM", "operator": "SEMTM", "public_transport": "platform", "shelter": "no"}}, {"type": "node", "id": 6710088164, "lat": 44.009686, "lon": 1.3939662, "tags": {"bus": "yes", "highway": "bus_stop", "name": "Beauregard", "public_transport": "platform", "shelter": "no"}}, {"type": "node", "id": 6710207959, "lat": 44.028714, "lon": 1.3651324, "tags": {"bus": "yes", "highway": "bus_stop", "name": "H. Panassi\u00e9", "network": "Le Bus TM", "operator": "SEMTM", "public_transport": "platform", "shelter": "yes", "source": "survey"}}, {"type": "node", "id": 6710207960, "lat": 44.0286576, "lon": 1.3650747, "tags": {"bus": "yes", "highway": "bus_stop", "name": "H. Panassi\u00e9", "network": "Le Bus TM", "operator": "SEMTM", "public_transport": "platform", "shelter": "yes", "source": "survey"}}, {"type": "node", "id": 6710218860, "lat": 44.031408, "lon": 1.3666345, "tags": {"bus": "yes", "highway": "bus_stop", "name": "Av. de Fonneuve", "network": "Le Bus TM", "operator": "SEMTM", "public_transport": "platform", "shelter": "no", "source": "survey"}}, {"type": "node", "id": 6710218861, "lat": 44.0314779, "lon": 1.3665721, "tags": {"bus": "yes", "highway": "bus_stop", "name": "Av. de Fonneuve", "network": "Le Bus TM", "operator": "SEMTM", "public_transport": "platform", "shelter": "no", "source": "survey"}}, {"type": "node", "id": 6710270934, "lat": 44.0553274, "lon": 1.3972324, "tags": {"bus": "yes", "highway": "bus_stop", "name": "Mimosas", "network": "Le Bus TM", "operator": "SEMTM", "public_transport": "platform", "shelter": "no", "source": "survey"}}, {"type": "node", "id": 6710293160, "lat": 44.0504156, "lon": 1.385487, "tags": {"bus": "yes", "highway": "bus_stop", "name": "Fray\u00e9", "network": "Le Bus TM", "operator": "SEMTM", "public_transport": "platform", "shelter": "no", "source": "survey"}}, {"type": "node", "id": 6710293161, "lat": 44.0500628, "lon": 1.3854884, "tags": {"bus": "yes", "highway": "bus_stop", "name": "Fray\u00e9", "network": "Le Bus TM", "operator": "SEMTM", "public_transport": "platform", "shelter": "no", "source": "survey"}}, {"type": "node", "id": 6710293343, "lat": 44.0455314, "lon": 1.3806202, "tags": {"bus": "yes", "highway": "bus_stop", "name": "Vitarelle", "network": "Le Bus TM", "operator": "SEMTM", "public_transport": "platform", "shelter": "no", "source": "survey"}}, {"type": "node", "id": 6710293344, "lat": 44.0453665, "lon": 1.3802808, "tags": {"bus": "yes", "highway": "bus_stop", "name": "Vitarelle", "network": "Le Bus TM", "operator": "SEMTM", "public_transport": "platform", "shelter": "no", "source": "survey"}}, {"type": "node", "id": 6710293345, "lat": 44.0415587, "lon": 1.3759907, "tags": {"bench": "no", "bus": "yes", "highway": "bus_stop", "name": "Treillou", "network": "Le Bus TM", "operator": "SEMTM", "passenger_information_display": "no", "public_transport": "platform", "shelter": "no", "source": "survey"}}, {"type": "node", "id": 6710304088, "lat": 44.0521198, "lon": 1.3861093, "tags": {"bus": "yes", "highway": "bus_stop", "name": "Granes", "network": "Le Bus TM", "operator": "SEMTM", "public_transport": "platform", "shelter": "no", "source": "survey"}}, {"type": "node", "id": 6710306553, "lat": 44.0544985, "lon": 1.3947567, "tags": {"bus": "yes", "highway": "bus_stop", "name": "Coquelicots", "network": "Le Bus TM", "operator": "SEMTM", "public_transport": "platform", "shelter": "no", "source": "survey"}}, {"type": "node", "id": 6792289813, "lat": 44.1133763, "lon": 1.4806836, "tags": {"bench": "yes", "bus": "yes", "description": "network et operator enlev\u00e9s, sont sur la relation", "highway": "bus_stop", "name": "R\u00e9alville-\u00c9glise", "public_transport": "platform", "shelter": "yes"}}, {"type": "node", "id": 6792289814, "lat": 44.1621715, "lon": 1.5339065, "tags": {"bench": "yes", "bin": "yes", "bus": "yes", "description": "network et operator enlev\u00e9s, sont sur la relation", "highway": "bus_stop", "lit": "yes", "name": "Caussade - Gare SNCF", "passenger_information_display": "yes", "pole": "yes", "public_transport": "platform", "shelter": "no", "tactile_paving": "no"}}, {"type": "node", "id": 6792289815, "lat": 44.1767941, "lon": 1.6192126, "tags": {"bench": "no", "bin": "no", "bus": "yes", "description": "network et operator enlev\u00e9s, sont sur la relation", "highway": "bus_stop", "name": "Septfonds - Salle des F\u00eates", "public_transport": "platform", "shelter": "no", "tactile_paving": "no"}}, {"type": "node", "id": 6792289816, "lat": 44.176574, "lon": 1.6176654, "tags": {"bench": "yes", "bin": "yes", "bus": "yes", "description": "network et operator enlev\u00e9s, sont sur la relation", "highway": "bus_stop", "lit": "yes", "name": "Septfonds - Salle des F\u00eates", "public_transport": "platform", "shelter": "yes", "tactile_paving": "no"}}, {"type": "node", "id": 6850942667, "lat": 44.0546161, "lon": 1.6611752, "tags": {"bus": "yes", "check_date:shelter": "2024-02-26", "departures_board": "no", "highway": "bus_stop", "name": "Bruniquel - Salle des f\u00eates", "network": "Ligne scolaire 08-17", "operator": "R\u00e9gion Occitanie", "public_transport": "platform", "shelter": "yes"}}, {"type": "node", "id": 6850942668, "lat": 44.0794964, "lon": 1.7267622, "tags": {"bus": "yes", "departures_board": "no", "highway": "bus_stop", "name": "Penne", "network": "Ligne scolaire 08-17", "operator": "R\u00e9gion Occitanie", "public_transport": "platform", "shelter": "yes"}}, {"type": "node", "id": 6850942669, "lat": 44.0795647, "lon": 1.7351668, "tags": {"bench": "no", "bin": "no", "bus": "yes", "check_date:shelter": "2024-02-26", "departures_board": "no", "highway": "bus_stop", "lit": "no", "name": "Penne", "operator": "R\u00e9gion Occitanie", "public_transport": "platform", "shelter": "no", "tactile_paving": "no"}}, {"type": "node", "id": 6850942670, "lat": 44.1171801, "lon": 1.724309, "tags": {"bench": "no", "bin": "no", "bus": "yes", "departures_board": "no", "highway": "bus_stop", "lit": "no", "name": "Cazals", "network": "Ligne scolaire 08-17", "operator": "R\u00e9gion Occitanie", "public_transport": "platform", "shelter": "no", "tactile_paving": "no"}}, {"type": "node", "id": 6912247319, "lat": 43.9583557, "lon": 1.2317915, "tags": {"bench": "no", "bin": "no", "bus": "yes", "highway": "bus_stop", "lit": "no", "name": "Montech - Poids publics", "public_transport": "platform", "shelter": "no", "tactile_paving": "no"}}, {"type": "node", "id": 6912247320, "lat": 43.9569114, "lon": 1.2274749, "tags": {"bench": "yes", "bin": "no", "bus": "yes", "highway": "bus_stop", "lit": "no", "name": "Montech - Boulevard Lagal", "public_transport": "platform", "shelter": "yes", "tactile_paving": "no"}}, {"type": "node", "id": 6912247321, "lat": 43.9591572, "lon": 1.2356836, "tags": {"bench": "yes", "bin": "no", "bus": "yes", "highway": "bus_stop", "lit": "no", "name": "Montech - Pont Canal", "public_transport": "platform", "shelter": "yes", "tactile_paving": "no"}}, {"type": "node", "id": 6912247322, "lat": 43.9644014, "lon": 1.252097, "tags": {"bus": "yes", "highway": "bus_stop", "name": "Montech - Saby", "public_transport": "platform"}}, {"type": "node", "id": 7448952414, "lat": 44.156185, "lon": 1.2658505, "tags": {"bench": "yes", "highway": "bus_stop", "public_transport": "platform", "shelter": "yes", "source": "survey"}}, {"type": "node", "id": 7448992817, "lat": 44.1889096, "lon": 1.2859064, "tags": {"bench": "yes", "highway": "bus_stop", "public_transport": "platform", "shelter": "yes", "source": "survey"}}, {"type": "node", "id": 7872521967, "lat": 44.0900259, "lon": 1.5386003, "tags": {"bus": "yes", "highway": "bus_stop", "public_transport": "platform", "source": "BDOrtho IGN 2020"}}, {"type": "node", "id": 7903550331, "lat": 44.0179323, "lon": 1.3569537, "tags": {"bench": "no", "bin": "no", "bus": "yes", "highway": "bus_stop", "public_transport": "platform", "shelter": "no", "source": "mapillary 2019;Ortho HR 2020", "tactile_paving": "no"}}, {"type": "node", "id": 7905956632, "lat": 44.0078726, "lon": 1.3399136, "tags": {"highway": "bus_stop", "name": "Port Canal", "source": "mapillary 2020;Ortho HR"}}, {"type": "node", "id": 8330376184, "lat": 44.0143078, "lon": 1.3411846, "tags": {"addr:city": "Montauban", "addr:postcode": "82000", "addr:street": "Place de la Gare", "importance": "national", "internet_access": "wlan", "name": "Montauban Ville Bourbon", "operator": "SNCF", "public_transport": "station", "railway": "station", "railway:ref:DB": "XFMBN", "train": "yes", "uic_ref": "8761124", "wheelchair": "yes", "wikidata": "Q2373429", "wikipedia": "fr:Gare de Montauban-Ville-Bourbon"}}, {"type": "node", "id": 8568378828, "lat": 43.9949361, "lon": 1.4211205, "tags": {"bus": "yes", "highway": "bus_stop", "name": "Saint-Martial", "network": "MonTM", "operator": "SemTM", "public_transport": "platform", "ref": "42", "tactile_paving": "no"}}, {"type": "node", "id": 8568378899, "lat": 43.9899672, "lon": 1.4214725, "tags": {"bus": "yes", "highway": "bus_stop", "name": "Croix des Lebrats", "network": "MonTM", "operator": "SemTM", "public_transport": "platform", "ref": "43", "tactile_paving": "no"}}, {"type": "node", "id": 8587321048, "lat": 43.9888369, "lon": 1.4267153, "tags": {"bus": "yes", "highway": "bus_stop", "name": "Fond de Mary", "network": "MonTM", "operator": "SemTM", "public_transport": "platform", "ref": "43", "tactile_paving": "no"}}, {"type": "node", "id": 8588172293, "lat": 43.9929558, "lon": 1.4206213, "tags": {"bus": "yes", "highway": "bus_stop", "name": "Les Hauts de Saint-Martial", "network": "MonTM", "operator": "SemTM", "public_transport": "platform", "ref": "31", "tactile_paving": "no"}}, {"type": "node", "id": 8950632036, "lat": 44.0881905, "lon": 1.4445399, "tags": {"bench": "yes", "highway": "bus_stop", "name": "Albias - (Ch\u00e2teau d'Eau)", "public_transport": "platform", "shelter": "yes"}}, {"type": "node", "id": 8950632044, "lat": 44.0147709, "lon": 1.3463657, "tags": {"bus": "yes", "highway": "bus_stop", "name": "Montauban - Jean Jaur\u00e8s", "public_transport": "stop_position"}}, {"type": "node", "id": 8950632046, "lat": 44.0147737, "lon": 1.3462771, "tags": {"bus": "yes", "highway": "bus_stop", "name": "Montauban - Jean Jaur\u00e8s", "passenger_information_display": "no", "pole": "yes", "public_transport": "platform", "ref": "S04432"}}, {"type": "node", "id": 8997863318, "lat": 43.999281, "lon": 1.3531598, "tags": {"bus": "yes", "highway": "bus_stop", "name": "Sapiac", "public_transport": "stop_position"}}, {"type": "node", "id": 8997863321, "lat": 44.0165411, "lon": 1.3565936, "tags": {"bench": "yes", "bin": "yes", "bus": "yes", "highway": "bus_stop", "name": "Pr\u00e9fecture", "public_transport": "platform", "shelter": "yes", "tactile_paving": "yes"}}, {"type": "node", "id": 9040270239, "lat": 44.0389495, "lon": 1.3386791, "tags": {"bench": "yes", "bus": "yes", "highway": "bus_stop", "name": "\u00c9cole Verte", "public_transport": "platform", "shelter": "yes"}}, {"type": "node", "id": 9040270254, "lat": 44.0114935, "lon": 1.2866389, "tags": {"highway": "bus_stop", "name": "Montbeton Mairie", "pole": "yes", "public_transport": "platform", "shelter": "no"}}, {"type": "node", "id": 9040270255, "lat": 44.0114896, "lon": 1.2869588, "tags": {"highway": "bus_stop", "name": "Montbeton Mairie", "pole": "yes", "public_transport": "platform", "shelter": "no"}}, {"type": "node", "id": 9040270258, "lat": 44.0121443, "lon": 1.2899243, "tags": {"highway": "bus_stop", "name": "Montbeton Centre Commercial", "pole": "yes", "public_transport": "platform", "shelter": "no"}}, {"type": "node", "id": 9040270259, "lat": 44.0122519, "lon": 1.2899229, "tags": {"highway": "bus_stop", "name": "Montbeton Centre Commercial", "pole": "yes", "public_transport": "platform", "shelter": "no"}}, {"type": "node", "id": 9040270267, "lat": 44.017025, "lon": 1.3002142, "tags": {"bench": "yes", "bin": "yes", "highway": "bus_stop", "name": "Coulandrieres", "public_transport": "platform", "shelter": "yes"}}, {"type": "node", "id": 9040270268, "lat": 44.0170617, "lon": 1.300125, "tags": {"highway": "bus_stop", "name": "Coulandrieres", "public_transport": "platform"}}, {"type": "node", "id": 9040270269, "lat": 44.0177269, "lon": 1.3206282, "tags": {"bench": "yes", "bin": "yes", "highway": "bus_stop", "name": "Gasseras", "public_transport": "platform", "shelter": "yes"}}, {"type": "node", "id": 9040270270, "lat": 44.0178395, "lon": 1.320603, "tags": {"highway": "bus_stop", "name": "Gasseras", "public_transport": "platform"}}, {"type": "node", "id": 9040270300, "lat": 44.0445096, "lon": 1.3350306, "tags": {"highway": "bus_stop", "name": "Chemin de Blazy", "pole": "yes", "public_transport": "platform", "shelter": "no"}}, {"type": "node", "id": 9040270301, "lat": 44.0442541, "lon": 1.3350306, "tags": {"bench": "yes", "highway": "bus_stop", "name": "Chemin de Blazy", "public_transport": "platform", "shelter": "yes"}}, {"type": "node", "id": 9040270302, "lat": 44.0466997, "lon": 1.3324765, "tags": {"highway": "bus_stop", "name": "Pont de B\u00e9art", "public_transport": "platform"}}, {"type": "node", "id": 9040270304, "lat": 44.0388067, "lon": 1.3386212, "tags": {"bench": "yes", "bus": "yes", "highway": "bus_stop", "name": "\u00c9cole Verte", "public_transport": "platform", "shelter": "yes"}}, {"type": "node", "id": 9060510405, "lat": 44.4200887, "lon": 1.4391197, "tags": {"bench": "no", "bus": "yes", "departures_board": "timetable", "highway": "bus_stop", "name": "La Beyne", "public_transport": "platform", "shelter": "no", "wheelchair": "no"}}, {"type": "node", "id": 9060510407, "lat": 44.4202092, "lon": 1.4393067, "tags": {"bench": "yes", "bus": "yes", "departures_board": "timetable", "highway": "bus_stop", "name": "La Beyne", "public_transport": "platform", "shelter": "yes", "wheelchair": "no"}}, {"type": "node", "id": 9060510409, "lat": 44.415419, "lon": 1.4370742, "tags": {"bench": "no", "bus": "yes", "departures_board": "timetable", "highway": "bus_stop", "name": "Roc de l'Agasse", "public_transport": "platform", "shelter": "no", "wheelchair": "no"}}, {"type": "node", "id": 9060510410, "lat": 44.4153394, "lon": 1.4372435, "tags": {"bench": "no", "bus": "yes", "departures_board": "timetable", "highway": "bus_stop", "name": "Roc de l'Agasse", "public_transport": "platform", "shelter": "no", "wheelchair": "no"}}, {"type": "node", "id": 9060686895, "lat": 44.0079845, "lon": 1.3987412, "tags": {"highway": "bus_stop", "name": "Les Pins", "public_transport": "platform"}}, {"type": "node", "id": 9060686896, "lat": 44.0069753, "lon": 1.4017117, "tags": {"highway": "bus_stop", "name": "Les Cypr\u00e8s", "public_transport": "platform"}}, {"type": "node", "id": 9060686916, "lat": 44.0047805, "lon": 1.3987036, "tags": {"highway": "bus_stop", "name": "Canteloube", "public_transport": "platform"}}, {"type": "node", "id": 9060702517, "lat": 44.0068969, "lon": 1.4017057, "tags": {"highway": "bus_stop", "name": "Les Cypr\u00e8s", "public_transport": "platform"}}, {"type": "node", "id": 9060702518, "lat": 44.008025, "lon": 1.3983992, "tags": {"highway": "bus_stop", "name": "Les Pins", "public_transport": "platform"}}, {"type": "node", "id": 9088630979, "lat": 44.0143928, "lon": 1.3424912, "tags": {"bench": "no", "bin": "no", "bus": "yes", "highway": "bus_stop", "lit": "no", "name": "Gare SNCF", "public_transport": "platform", "shelter": "no", "tactile_paving": "no"}}, {"type": "node", "id": 9088630980, "lat": 44.0149059, "lon": 1.3790926, "tags": {"highway": "bus_stop", "name": "O. de Gouges", "public_transport": "platform"}}, {"type": "node", "id": 9088630981, "lat": 44.0126205, "lon": 1.379609, "tags": {"highway": "bus_stop", "name": "Foresti\u00e9", "pole": "yes", "public_transport": "platform", "shelter": "no"}}, {"type": "node", "id": 9088630992, "lat": 43.9602871, "lon": 1.3373373, "tags": {"highway": "bus_stop", "name": "Bressols Ch. de Grenade", "public_transport": "platform"}}, {"type": "node", "id": 9088631014, "lat": 43.962678, "lon": 1.3357441, "tags": {"highway": "bus_stop", "name": "Bressols Les Hirondelles", "public_transport": "platform"}}, {"type": "node", "id": 9088631015, "lat": 43.9624946, "lon": 1.3358494, "tags": {"highway": "bus_stop", "name": "Bressols Les Hirondelles", "public_transport": "platform"}}, {"type": "node", "id": 9088631016, "lat": 43.9655288, "lon": 1.3353404, "tags": {"bus": "yes", "highway": "bus_stop", "name": "Bressols Les Colombes", "public_transport": "platform"}}, {"type": "node", "id": 9088670717, "lat": 43.9654958, "lon": 1.3352518, "tags": {"highway": "bus_stop", "name": "Bressols Les Colombes", "public_transport": "platform"}}, {"type": "node", "id": 9088670729, "lat": 43.967978, "lon": 1.3390975, "tags": {"highway": "bus_stop", "name": "Bressols Mairie", "public_transport": "platform"}}, {"type": "node", "id": 9088670730, "lat": 43.9680533, "lon": 1.3390285, "tags": {"highway": "bus_stop", "name": "Bressols Mairie", "public_transport": "platform"}}, {"type": "node", "id": 9088670744, "lat": 43.9738558, "lon": 1.338896, "tags": {"bus": "yes", "highway": "bus_stop", "name": "Les Cedres", "pole": "yes", "public_transport": "platform", "shelter": "no"}}, {"type": "node", "id": 9088670745, "lat": 43.973759, "lon": 1.3386778, "tags": {"bus": "yes", "highway": "bus_stop", "name": "Les Cedres", "pole": "yes", "public_transport": "platform", "shelter": "no"}}, {"type": "node", "id": 9088670749, "lat": 44.0127078, "lon": 1.3795412, "tags": {"highway": "bus_stop", "name": "Foresti\u00e9", "public_transport": "platform"}}, {"type": "node", "id": 9088670750, "lat": 44.0147349, "lon": 1.3790893, "tags": {"highway": "bus_stop", "name": "O. de Gouges", "public_transport": "platform"}}, {"type": "node", "id": 9396237189, "lat": 43.9700146, "lon": 1.4219412, "tags": {"bus": "yes", "highway": "bus_stop", "network": "Le Bus TM", "network:wikidata": "Q3233177", "network:wikipedia": "fr:Autobus de Montauban", "operator": "SEMTM", "operator:wikidata": "Q16677212", "operator:wikipedia": "fr:Soci\u00e9t\u00e9 d'\u00e9conomie mixte des transports montalbanais", "public_transport": "platform"}}, {"type": "node", "id": 9608338562, "lat": 44.035519, "lon": 1.2148401, "tags": {"addr:city": "La Ville-Dieu-du-Temple", "addr:street": "Place des Ainats", "name": "La Ville-Dieu", "network": "TER Occitanie", "network:wikidata": "Q37941081", "operator": "SNCF", "operator:wikidata": "Q13646", "public_transport": "station", "railway": "station", "source": "SNCF - 08/2017", "train": "yes", "uic_ref": "8761145", "wikidata": "Q3096823"}}, {"type": "node", "id": 9667844053, "lat": 43.9201456, "lon": 1.2226766, "tags": {"bus": "yes", "highway": "bus_stop", "name": "Finhan Payssot", "public_transport": "platform"}}, {"type": "node", "id": 9730253812, "lat": 44.1577096, "lon": 1.5346453, "tags": {"bench": "yes", "bin": "no", "bus": "yes", "highway": "bus_stop", "public_transport": "platform", "shelter": "yes", "source": "ortho hr 2019", "tactile_paving": "no"}}, {"type": "node", "id": 9767189299, "lat": 44.1614884, "lon": 1.5409412, "tags": {"bus": "yes", "highway": "bus_stop", "public_transport": "platform"}}, {"type": "node", "id": 9767351347, "lat": 44.1599234, "lon": 1.5506058, "tags": {"bench": "no", "bin": "yes", "bus": "yes", "highway": "bus_stop", "name:signed": "no", "public_transport": "platform", "shelter": "no", "tactile_paving": "yes"}}, {"type": "node", "id": 9767490160, "lat": 44.1713504, "lon": 1.5940091, "tags": {"bench": "no", "bin": "no", "bus": "yes", "highway": "bus_stop", "public_transport": "platform", "shelter": "no", "tactile_paving": "no"}}, {"type": "node", "id": 9774505390, "lat": 44.1186601, "lon": 1.1197539, "tags": {"bus": "yes", "highway": "bus_stop", "name": "Moissac - MFR", "public_transport": "platform"}}, {"type": "node", "id": 9774505391, "lat": 44.1347271, "lon": 1.1964648, "tags": {"bench": "yes", "bus": "yes", "highway": "bus_stop", "name": "Lafran\u00e7aise - Camparnaud", "public_transport": "platform", "shelter": "yes", "source": "IGN / BD ORTHO\u00ae - 2019;survey", "survey:date": "2022-09-01", "wheelchair": "limited"}}, {"type": "node", "id": 9774505392, "lat": 44.1274678, "lon": 1.2361292, "tags": {"bus": "yes", "highway": "bus_stop", "name": "Lafran\u00e7aise - Coll\u00e8ge", "public_transport": "platform"}}, {"type": "node", "id": 9774505393, "lat": 44.1257254, "lon": 1.2407049, "tags": {"bench": "yes", "bus": "yes", "highway": "bus_stop", "name": "Lafran\u00e7aise - Pl. R\u00e9publique", "public_transport": "platform", "shelter": "yes"}}, {"type": "node", "id": 9774505394, "lat": 44.1097735, "lon": 1.2713815, "tags": {"bus": "yes", "highway": "bus_stop", "name": "Lafran\u00e7aise - St Maurice", "public_transport": "platform"}}, {"type": "node", "id": 9774505396, "lat": 44.0223811, "lon": 1.3482694, "tags": {"bus": "yes", "highway": "bus_stop", "name": "Montauban - Saint-Theordard", "public_transport": "platform"}}, {"type": "node", "id": 9775238195, "lat": 44.0210377, "lon": 1.2930045, "tags": {"bus": "yes", "highway": "bus_stop", "name": "Montbeton - Les Fumades", "public_transport": "platform"}}, {"type": "node", "id": 9775238196, "lat": 44.023265, "lon": 1.2644496, "tags": {"bus": "yes", "highway": "bus_stop", "name": "La-Ville-Dieu-Du-Temple - Mauzaguel", "public_transport": "platform"}}, {"type": "node", "id": 9775238197, "lat": 44.0350209, "lon": 1.2150391, "tags": {"bus": "yes", "highway": "bus_stop", "name": "La-Ville-Dieu-Du-Temple - Gare", "public_transport": "platform"}}, {"type": "node", "id": 9775238199, "lat": 44.0341795, "lon": 1.1741818, "tags": {"bus": "yes", "highway": "bus_stop", "name": "Brugeau", "public_transport": "platform"}}, {"type": "node", "id": 9787454110, "lat": 44.1918289, "lon": 1.6753728, "tags": {"bench": "no", "bin": "no", "bus": "yes", "highway": "bus_stop", "lit": "no", "name": "Les places", "public_transport": "platform", "shelter": "no", "source": "mapillary 2021", "tactile_paving": "no"}}, {"type": "node", "id": 9955622760, "lat": 44.3336454, "lon": 1.511809, "tags": {"name": "Lalbenque-Fontanes", "network": "TER Occitanie", "network:wikidata": "Q37941081", "operator": "SNCF", "operator:wikidata": "Q13646", "public_transport": "station", "railway": "station", "source": "SNCF - 06/2013", "train": "yes", "uic_ref": "8761332", "wikidata": "Q1283201", "wikipedia": "fr:Gare de Lalbenque - Fontanes"}}, {"type": "node", "id": 9992962853, "lat": 44.1346208, "lon": 1.1961727, "tags": {"bench": "yes", "bus": "yes", "highway": "bus_stop", "name": "Lafran\u00e7aise - Camparnaud", "public_transport": "platform", "shelter": "yes", "source": "IGN / BD ORTHO\u00ae - 2019;survey", "survey:date": "2022-09-01", "wheelchair": "limited"}}, {"type": "node", "id": 10057173940, "lat": 43.9560316, "lon": 1.3641836, "tags": {"bench": "yes", "bin": "no", "highway": "bus_stop", "name": "Foumezous-Bas", "public_transport": "platform", "route_ref": "45", "shelter": "yes", "tactile_paving": "no", "wheelchair": "no"}}, {"type": "node", "id": 10146854597, "lat": 44.0307205, "lon": 1.3296272, "tags": {"bus": "yes", "description": "El\u00e9ment de carte temporaire mis en place pour le Festival des lanternes de Montauban du 1 d\u00e9cembre au 5 f\u00e9vrier.", "highway": "bus_stop", "name": "P1 \u21c4 COURS FOUCAULT", "network": "NAVETTE FESTIVAL DES LANTERNES", "operator": "Grand Montauban", "public_transport": "platform"}}, {"type": "node", "id": 10570753341, "lat": 44.0321989, "lon": 1.2158138, "tags": {"bus": "yes", "highway": "bus_stop", "public_transport": "platform"}}, {"type": "node", "id": 10751738258, "lat": 44.0756328, "lon": 1.2860345}, {"type": "node", "id": 10751738259, "lat": 44.0756038, "lon": 1.2860647}, {"type": "node", "id": 10751738260, "lat": 44.0755927, "lon": 1.286044}, {"type": "node", "id": 10751738261, "lat": 44.0756217, "lon": 1.2860138}, {"type": "node", "id": 11111727572, "lat": 44.0174241, "lon": 1.3581368}, {"type": "node", "id": 11111727573, "lat": 44.0173715, "lon": 1.3583078}, {"type": "node", "id": 11978083194, "lat": 44.0329126, "lon": 1.3151219, "tags": {"highway": "bus_stop", "name": "Lyc\u00e9e Agricole Capou", "public_transport": "platform", "shelter": "yes"}}, {"type": "node", "id": 12177484163, "lat": 44.2999922, "lon": 1.1252878, "tags": {"bus": "yes", "highway": "bus_stop", "public_transport": "platform"}}, {"type": "node", "id": 12223913654, "lat": 43.9567965, "lon": 1.2273598, "tags": {"bench": "yes", "bin": "no", "bus": "yes", "highway": "bus_stop", "lit": "no", "name": "Montech - Boulevard Lagal", "public_transport": "platform", "shelter": "yes", "tactile_paving": "no"}}, {"type": "node", "id": 12244454339, "lat": 44.3787285, "lon": 1.4444243, "tags": {"bus": "yes", "highway": "bus_stop", "public_transport": "platform"}}, {"type": "node", "id": 12244454349, "lat": 44.378747, "lon": 1.4445998, "tags": {"bus": "yes", "highway": "bus_stop", "public_transport": "platform"}}, {"type": "node", "id": 12645083490, "lat": 44.0219451, "lon": 1.3501979, "tags": {"alt_name": "Montauban - Saint Theodard", "bus": "yes", "highway": "bus_stop", "name": "Saint Theodard", "pole": "no", "public_transport": "platform", "ref:name": "MONTAUBAN - Saint Theodard", "shelter": "no"}}, {"type": "node", "id": 12645083491, "lat": 44.0319608, "lon": 1.3159187, "tags": {"alt_name": "Lyc\u00e9e Agricole Capou", "bus": "yes", "highway": "bus_stop", "name": "Capou", "public_transport": "platform", "ref_name": "MONTAUBAN - Capou", "shelter": "yes"}}, {"type": "node", "id": 12672836984, "lat": 44.0756376, "lon": 1.2861521, "tags": {"alt_name": "Villemade - Pl. de l'Eglise", "bus": "yes", "highway": "bus_stop", "name": "Pl. de l'Eglise", "pole": "no", "public_transport": "platform", "shelter": "no"}}, {"type": "node", "id": 12672836985, "lat": 44.0322811, "lon": 1.3158314, "tags": {"alt_name": "Lyc\u00e9e Agricole Capou", "bus": "yes", "highway": "bus_stop", "name": "Capou", "public_transport": "platform", "ref_name": "MONTAUBAN - Capou", "shelter": "yes"}}, {"type": "node", "id": 12672836986, "lat": 44.0220367, "lon": 1.3503135, "tags": {"alt_name": "Montauban - Saint Theodard", "bus": "yes", "highway": "bus_stop", "name": "Saint Theodard", "pole": "no", "public_transport": "platform", "ref:name": "MONTAUBAN - Saint Theodard", "shelter": "no"}}, {"type": "way", "id": 127797098, "nodes": [1413738888, 1413696073, 1413671913, 11111727573, 1413646662, 1413738888], "tags": {"bench": "yes", "building": "shelter", "bus": "yes", "highway": "bus_stop", "public_transport": "platform", "shelter_type": "public_transport", "source": "cadastre-dgi-fr source : Direction G\u00e9n\u00e9rale des Imp\u00f4ts - Cadastre. Mise \u00e0 jour : 2011", "wall": "no"}}, {"type": "way", "id": 127804199, "nodes": [1413724188, 1413626674, 1413725517, 11111727572, 1413684521, 1413724188], "tags": {"bench": "yes", "building": "shelter", "bus": "yes", "highway": "bus_stop", "public_transport": "platform", "shelter_type": "public_transport", "source": "cadastre-dgi-fr source : Direction G\u00e9n\u00e9rale des Imp\u00f4ts - Cadastre. Mise \u00e0 jour : 2011"}}, {"type": "way", "id": 1156155164, "nodes": [10751738261, 10751738260, 10751738259, 10751738258, 10751738261], "tags": {"bench": "yes", "highway": "bus_stop", "name": "Villemade - Pl. de l'Eglise", "public_transport": "platform", "shelter": "yes", "source": "Orthophotographie Grand Montauban 2020;Mapillary", "tactile_paving": "no"}}]}