{"version": 0.6, "generator": "Overpass API 0.7.62.5 1bd436f1", "osm3s": {"timestamp_osm_base": "2025-04-09T14:53:30Z", "copyright": "The data included in this document is from www.openstreetmap.org. The data is made available under ODbL."}, "elements": [{"type": "node", "id": 12160139, "lat": 45.1721845, "lon": 2.9701605, "tags": {"bus": "yes", "highway": "bus_stop", "name": "Sainte-Anastasie", "public_transport": "stop_position"}}, {"type": "node", "id": 734560410, "lat": 44.8994234, "lon": 2.6555908, "tags": {"bus": "yes", "highway": "bus_stop", "name": "Raulhac - Bourg", "public_transport": "stop_position"}}, {"type": "node", "id": 957040374, "lat": 45.0350199, "lon": 3.1062173, "tags": {"alt_name": "Saint-Flour", "name": "Saint-Flour - Chaudes-Aigues", "operator": "SNCF", "public_transport": "station", "railway": "station", "train": "yes", "uic_ref": "8778317", "wheelchair": "yes", "wikidata": "Q3097518", "wikipedia": "fr:Gare de Saint-Flour - Chaudes-Aigues"}}, {"type": "node", "id": 1005619958, "lat": 45.0676534, "lon": 2.6544412, "tags": {"bus": "yes", "fixme": "cet zone d'attente pour le bus aussi loin de la route me semble improbable. a verifier", "highway": "bus_stop", "public_transport": "platform"}}, {"type": "node", "id": 1005620524, "lat": 45.0699487, "lon": 2.6573842, "tags": {"highway": "bus_stop", "public_transport": "platform"}}, {"type": "node", "id": 1029638440, "lat": 45.0906651, "lon": 2.7533211, "tags": {"name": "Le Lioran", "network": "TER Auvergne-Rh\u00f4ne-Alpes", "network:wikidata": "Q41585492", "operator": "SNCF", "operator:wikidata": "Q13646", "public_transport": "station", "railway": "station", "source": "SNCF - 06/2013", "train": "yes", "uic_ref": "8764547", "wikidata": "Q2623857", "wikipedia": "fr:Gare du Lioran"}}, {"type": "node", "id": 1029639106, "lat": 44.9759667, "lon": 2.6315974, "tags": {"name": "Vic-sur-C\u00e8re", "operator": "SNCF", "public_transport": "station", "railway": "station", "source": "Orthophotographie CRAIG/TopoGEODIS 2010;SNCF - 06/2013", "train": "yes", "uic_ref": "8764544", "wikidata": "Q2592189", "wikipedia": "fr:Gare de Vic-sur-C\u00e8re"}}, {"type": "node", "id": 2627812633, "lat": 45.1107613, "lon": 2.8690874, "tags": {"bench": "yes", "bin": "no", "bus": "yes", "highway": "bus_stop", "lit": "no", "name": "Place du Balat", "public_transport": "platform", "shelter": "yes", "tactile_paving": "no"}}, {"type": "node", "id": 2657932134, "lat": 45.1090177, "lon": 2.869688, "tags": {"alt_name": "Murat (Cantal)", "name": "Murat", "operator": "SNCF", "public_transport": "station", "railway": "station", "source": "SNCF - 06/2013", "train": "yes", "uic_ref": "8764548", "wikidata": "Q3097137", "wikipedia": "fr:Gare de Murat"}}, {"type": "node", "id": 3465014020, "lat": 45.1255384, "lon": 2.9791157, "tags": {"bus": "yes", "highway": "bus_stop", "name": "Neussargues - Gare SNCF", "public_transport": "stop_position"}}, {"type": "node", "id": 3496714811, "lat": 44.8423866, "lon": 2.6627376, "tags": {"highway": "bus_stop", "source": "bing 2015"}}, {"type": "node", "id": 3935846663, "lat": 45.0342027, "lon": 3.0885305, "tags": {"bench": "yes", "bin": "yes", "highway": "bus_stop", "lit": "no", "name": "All\u00e9es Pompidou", "public_transport": "platform", "shelter": "yes", "tactile_paving": "no"}}, {"type": "node", "id": 3935846664, "lat": 45.0341382, "lon": 3.0888631, "tags": {"bench": "yes", "bin": "yes", "highway": "bus_stop", "lit": "no", "name": "All\u00e9es Pompidou", "public_transport": "platform", "shelter": "yes", "tactile_paving": "no"}}, {"type": "node", "id": 4107306789, "lat": 45.0084871, "lon": 3.117028, "tags": {"highway": "bus_stop", "public_transport": "platform"}}, {"type": "node", "id": 4922125325, "lat": 45.083011, "lon": 2.749801, "tags": {"bus": "yes", "highway": "bus_stop", "public_transport": "platform"}}, {"type": "node", "id": 7329828026, "lat": 44.8007684, "lon": 2.756968, "tags": {"bus": "yes", "highway": "bus_stop", "public_transport": "platform"}}, {"type": "node", "id": 7351346512, "lat": 45.0487115, "lon": 3.0808389, "tags": {"bench": "yes", "bin": "no", "bus": "yes", "covered": "yes", "highway": "bus_stop", "name": "Roueyre", "passenger_information_display": "yes", "public_transport": "platform", "shelter": "yes", "tactile_paving": "no", "wheelchair": "no"}}, {"type": "node", "id": 7351346560, "lat": 45.0345788, "lon": 3.0871261, "tags": {"bus": "yes", "highway": "bus_stop", "public_transport": "platform"}}, {"type": "node", "id": 7351387995, "lat": 45.0336948, "lon": 3.1064718, "tags": {"bus": "yes", "highway": "bus_stop", "public_transport": "platform"}}, {"type": "node", "id": 7351387997, "lat": 45.0338047, "lon": 3.1061781, "tags": {"bus": "yes", "highway": "bus_stop", "public_transport": "platform"}}, {"type": "node", "id": 7475692476, "lat": 45.0348172, "lon": 3.1062244, "tags": {"bench": "yes", "bin": "no", "bus": "yes", "highway": "bus_stop", "lit": "yes", "name": "Saint-Flour Gare SNCF", "public_transport": "platform", "shelter": "yes", "tactile_paving": "yes"}}, {"type": "node", "id": 9956762221, "lat": 45.1253278, "lon": 2.9791705, "tags": {"name": "Neussargues", "operator": "SNCF", "public_transport": "station", "railway": "station", "source": "SNCF - 06/2013", "train": "yes", "uic_ref": "8764550", "wheelchair": "yes", "wikidata": "Q2156841", "wikipedia": "fr:Gare de Neussargues"}}, {"type": "node", "id": 11925481653, "lat": 45.1144552, "lon": 3.0461603, "tags": {"bench": "yes", "bin": "no", "bus": "yes", "departures_board": "timetable", "highway": "bus_stop", "lit": "yes", "name": "place du 19 Mars 1962", "public_transport": "platform", "shelter": "no", "tactile_paving": "no", "wheelchair": "yes"}}, {"type": "node", "id": 11926897413, "lat": 45.1144179, "lon": 3.0454528, "tags": {"bench": "no", "bin": "no", "bus": "yes", "departures_board": "timetable", "highway": "bus_stop", "lit": "yes", "name": "place du 19 Mars 1962", "public_transport": "platform", "shelter": "no", "tactile_paving": "no", "wheelchair": "yes"}}]}