{"version": 0.6, "generator": "Overpass API 0.7.62.5 1bd436f1", "osm3s": {"timestamp_osm_base": "2025-04-09T14:31:06Z", "copyright": "The data included in this document is from www.openstreetmap.org. The data is made available under ODbL."}, "elements": [{"type": "node", "id": 529091820, "lat": 41.1134663, "lon": 1.1559334, "tags": {"bus": "yes", "highway": "bus_stop", "name": "Avinguda Ramon d'Olzina - Pla\u00e7a de Ramon Berenguer IV", "name:ca": "Avinguda Ramon d'Olzina - Pla\u00e7a de Ramon Berenguer IV", "public_transport": "stop_position"}}, {"type": "node", "id": 529091836, "lat": 41.1138816, "lon": 1.1559318, "tags": {"bus": "yes", "highway": "bus_stop", "name": "Avinguda Ramon d'Olzina - Pla\u00e7a de Ramon Berenguer IV", "name:ca": "Avinguda Ramon d'Olzina - Pla\u00e7a de Ramon Berenguer IV", "public_transport": "stop_position"}}, {"type": "node", "id": 1074550295, "lat": 41.1246335, "lon": 1.2186106, "tags": {"bus": "yes", "highway": "bus_stop", "name": "Mas de Sevil", "name:ca": "Mas de Sevil", "operator": "EMT Tarragona", "public_transport": "platform"}}, {"type": "node", "id": 1215510774, "lat": 41.1075452, "lon": 1.1485579, "tags": {"addr:city": "Vila-seca", "addr:country": "ES", "bench": "no", "bus": "yes", "highway": "bus_stop", "name": "Pla\u00e7a dels Pa\u00efsos Catalans, 1", "name:ca": "Pla\u00e7a dels Pa\u00efsos Catalans, 1", "public_transport": "platform", "shelter": "no", "type": "public_transport"}}, {"type": "node", "id": 1216812730, "lat": 41.1078742, "lon": 1.149456, "tags": {"addr:city": "Vila-seca", "addr:country": "ES", "bus": "yes", "highway": "bus_stop", "name": "Pla\u00e7a dels Pa\u00efsos Catalans, 3", "name:ca": "Pla\u00e7a dels Pa\u00efsos Catalans, 3", "public_transport": "stop_position"}}, {"type": "node", "id": 1219610444, "lat": 41.1093078, "lon": 1.1526646, "tags": {"bus": "yes", "highway": "bus_stop", "name": "Avinguda Ramon d'Olzina - Esteve Morell", "name:ca": "Avinguda Ramon d'Olzina - Esteve Morell", "public_transport": "stop_position"}}, {"type": "node", "id": 1219610461, "lat": 41.1092561, "lon": 1.1527441, "tags": {"addr:city": "Vila-seca", "addr:country": "ES", "bench": "yes", "bin": "yes", "bus": "yes", "highway": "bus_stop", "lit": "yes", "name": "Avinguda Ramon d'Olzina - Esteve Morell", "name:ca": "Avinguda Ramon d'Olzina - Esteve Morell", "public_transport": "platform", "shelter": "yes", "tactile_paving": "no"}}, {"type": "node", "id": 1223674834, "lat": 41.1125741, "lon": 1.1501254, "tags": {"addr:city": "Vila-seca", "addr:country": "ES", "bench": "no", "bus": "yes", "highway": "bus_stop", "public_transport": "platform", "shelter": "no"}}, {"type": "node", "id": 1223679130, "lat": 41.1125547, "lon": 1.1500972, "tags": {"addr:city": "Vila-seca", "addr:country": "ES", "bus": "yes", "highway": "bus_stop", "public_transport": "stop_position"}}, {"type": "node", "id": 1223709304, "lat": 41.110645, "lon": 1.1491591, "tags": {"addr:city": "Vila-seca", "addr:country": "ES", "addr:street": "Carrer del Requet de F\u00e8lix", "bus": "yes", "highway": "bus_stop", "public_transport": "stop_position"}}, {"type": "node", "id": 1223709398, "lat": 41.1106309, "lon": 1.1491343, "tags": {"addr:city": "Vila-seca", "addr:country": "ES", "bench": "no", "bus": "yes", "highway": "bus_stop", "public_transport": "platform", "shelter": "no"}}, {"type": "node", "id": 1289111722, "lat": 41.1076102, "lon": 1.148616, "tags": {"addr:city": "Vila-seca", "addr:country": "ES", "bus": "yes", "highway": "bus_stop", "name": "Pla\u00e7a dels Pa\u00efsos Catalans, 1", "name:ca": "Pla\u00e7a dels Pa\u00efsos Catalans, 1", "public_transport": "stop_position"}}, {"type": "node", "id": 1328324390, "lat": 41.0852066, "lon": 1.1569404}, {"type": "node", "id": 1328324641, "lat": 41.0851307, "lon": 1.1570134}, {"type": "node", "id": 1328324740, "lat": 41.0852005, "lon": 1.1570225}, {"type": "node", "id": 1328324863, "lat": 41.0851368, "lon": 1.1569313}, {"type": "node", "id": 1349184537, "lat": 41.0888647, "lon": 1.1562389}, {"type": "node", "id": 1349184559, "lat": 41.0889918, "lon": 1.1563332}, {"type": "node", "id": 1349184566, "lat": 41.0889989, "lon": 1.1562627}, {"type": "node", "id": 1349184571, "lat": 41.0888576, "lon": 1.1563094}, {"type": "node", "id": 1349599792, "lat": 41.0716095, "lon": 1.1500839, "tags": {"bus": "yes", "highway": "bus_stop", "public_transport": "platform"}}, {"type": "node", "id": 1417936313, "lat": 41.061191, "lon": 1.1684134, "tags": {"bus": "yes", "highway": "bus_stop", "public_transport": "stop_position"}}, {"type": "node", "id": 1674514178, "lat": 41.1078588, "lon": 1.1495087, "tags": {"bench": "no", "bus": "yes", "highway": "bus_stop", "name": "Pla\u00e7a dels Pa\u00efsos Catalans, 3", "name:ca": "Pla\u00e7a dels Pa\u00efsos Catalans, 3", "public_transport": "platform", "shelter": "no", "tactile_paving": "no"}}, {"type": "node", "id": 1674514210, "lat": 41.1093714, "lon": 1.1526622, "tags": {"bench": "no", "bus": "yes", "highway": "bus_stop", "name": "Avinguda Ramon d'Olzina - Esteve Morell", "name:ca": "Avinguda Ramon d'Olzina - Esteve Morell", "public_transport": "platform", "shelter": "no", "tactile_paving": "no"}}, {"type": "node", "id": 1978292450, "lat": 41.0866766, "lon": 1.1600957}, {"type": "node", "id": 1978292464, "lat": 41.0866678, "lon": 1.1601742}, {"type": "node", "id": 2166553005, "lat": 41.0674072, "lon": 1.1782275, "tags": {"bus": "yes", "highway": "bus_stop", "name": "Platja Gran", "name:ca": "Platja Gran", "public_transport": "stop_position"}}, {"type": "node", "id": 2166554141, "lat": 41.0689794, "lon": 1.1782532, "tags": {"amenity": "shelter", "bus": "yes", "highway": "bus_stop", "public_transport": "stop_position", "shelter_type": "public_transport"}}, {"type": "node", "id": 2457935045, "lat": 41.0702116, "lon": 1.1538291, "tags": {"bus": "yes", "highway": "bus_stop", "public_transport": "stop_position"}}, {"type": "node", "id": 2457935046, "lat": 41.070306, "lon": 1.1541703, "tags": {"bus": "yes", "highway": "bus_stop", "public_transport": "stop_position"}}, {"type": "node", "id": 3398693540, "lat": 41.145111, "lon": 1.1479277, "tags": {"bus": "yes", "highway": "bus_stop", "name": "Aeroclub de Reus", "name:ca": "Aeroclub de Reus", "network": "Reus Transport", "network:wikidata": "Q9068439", "operator": "Reus Transport", "public_transport": "platform", "ref": "214"}}, {"type": "node", "id": 3398693541, "lat": 41.1472026, "lon": 1.1523137, "tags": {"bus": "yes", "highway": "bus_stop", "name": "Aeroport", "name:ca": "Aeroport", "network": "Reus Transport", "network:wikidata": "Q9068439", "operator": "Reus Transport", "public_transport": "platform", "ref": "1"}}, {"type": "node", "id": 3399606688, "lat": 41.102188, "lon": 1.2023454, "tags": {"bus": "yes", "highway": "bus_stop", "name": "Complex Educatius", "name:ca": "Complex Educatius", "operator": "EMT Tarragona", "public_transport": "stop_position"}}, {"type": "node", "id": 3399606689, "lat": 41.1027306, "lon": 1.2007759, "tags": {"bus": "yes", "highway": "bus_stop", "name": "Centre A", "operator": "EMT Tarragona", "public_transport": "stop_position"}}, {"type": "node", "id": 3399606690, "lat": 41.1135714, "lon": 1.2191807, "tags": {"bench": "no", "bin": "no", "bus": "yes", "highway": "bus_stop", "lit": "no", "name": "Bombers", "name:ca": "Bombers", "operator": "EMT Tarragona", "public_transport": "platform", "shelter": "no", "tactile_paving": "no"}}, {"type": "node", "id": 3399606691, "lat": 41.1139021, "lon": 1.2176591, "tags": {"bus": "yes", "highway": "bus_stop", "name": "Bombers", "name:ca": "Bombers", "operator": "EMT Tarragona", "public_transport": "stop_position"}}, {"type": "node", "id": 3399606692, "lat": 41.113807, "lon": 1.2242168, "tags": {"bus": "yes", "highway": "bus_stop", "name": "Eix Transversal", "name:ca": "Eix Transversal", "operator": "EMT Tarragona", "public_transport": "platform", "shelter": "no"}}, {"type": "node", "id": 3399607893, "lat": 41.1135785, "lon": 1.2239213, "tags": {"bench": "yes", "bus": "yes", "highway": "bus_stop", "name": "Eix Transversal", "name:ca": "Eix Transversal", "operator": "EMT Tarragona", "public_transport": "platform", "shelter": "yes"}}, {"type": "node", "id": 3399607894, "lat": 41.1137993, "lon": 1.2293231, "tags": {"bus": "yes", "highway": "bus_stop", "name": "Pol\u00edgon Francol\u00ed", "name:ca": "Pol\u00edgon Francol\u00ed", "operator": "EMT Tarragona", "public_transport": "platform", "shelter": "no"}}, {"type": "node", "id": 3399607895, "lat": 41.1135872, "lon": 1.2297192, "tags": {"bench": "no", "bin": "no", "bus": "yes", "highway": "bus_stop", "lit": "no", "name": "Pol\u00edgon Francol\u00ed", "name:ca": "Pol\u00edgon Francol\u00ed", "operator": "EMT Tarragona", "public_transport": "platform", "shelter": "no", "tactile_paving": "no"}}, {"type": "node", "id": 3399607896, "lat": 41.1148605, "lon": 1.2328555, "tags": {"bench": "no", "bin": "no", "bus": "yes", "highway": "bus_stop", "lit": "no", "name": "Tanatori", "name:ca": "Tanatori", "operator": "EMT Tarragona", "public_transport": "platform", "shelter": "no", "tactile_paving": "no"}}, {"type": "node", "id": 3399607897, "lat": 41.1152284, "lon": 1.2327054, "tags": {"bench": "no", "bin": "no", "bus": "yes", "highway": "bus_stop", "lit": "no", "name": "Tanatori", "name:ca": "Tanatori", "operator": "EMT Tarragona", "public_transport": "platform", "shelter": "no", "tactile_paving": "no"}}, {"type": "node", "id": 3399729505, "lat": 41.117434, "lon": 1.2259808, "tags": {"bench": "yes", "bus": "yes", "departures_board": "yes", "highway": "bus_stop", "name": "Icomar", "name:ca": "Icomar", "operator": "EMT Tarragona", "public_transport": "platform", "ref": "25075", "shelter": "yes"}}, {"type": "node", "id": 3399729506, "lat": 41.1173213, "lon": 1.2254561, "tags": {"bench": "yes", "bus": "yes", "departures_board": "yes", "highway": "bus_stop", "name": "Icomar", "name:ca": "Icomar", "operator": "EMT Tarragona", "public_transport": "platform", "ref": "25557", "shelter": "yes"}}, {"type": "node", "id": 3399729507, "lat": 41.118696, "lon": 1.2250687, "tags": {"bus": "yes", "highway": "bus_stop", "name": "Col\u00b7legi", "name:ca": "Col\u00b7legi", "operator": "EMT Tarragona", "public_transport": "platform"}}, {"type": "node", "id": 3399729508, "lat": 41.1203049, "lon": 1.2248869, "tags": {"bus": "yes", "highway": "bus_stop", "name": "Riuclar", "operator": "EMT Tarragona", "public_transport": "platform"}}, {"type": "node", "id": 3399729509, "lat": 41.1216989, "lon": 1.2203531, "tags": {"bus": "yes", "highway": "bus_stop", "name": "Josep Roqu\u00e9", "operator": "EMT Tarragona", "public_transport": "platform"}}, {"type": "node", "id": 3399729510, "lat": 41.1216471, "lon": 1.2188363, "tags": {"bus": "yes", "highway": "bus_stop", "name": "Gai\u00e0", "name:ca": "Gai\u00e0", "operator": "EMT Tarragona", "public_transport": "platform"}}, {"type": "node", "id": 3399729511, "lat": 41.1214085, "lon": 1.2181394, "tags": {"bus": "yes", "highway": "bus_stop", "name": "Gai\u00e0", "name:ca": "Gai\u00e0", "operator": "EMT Tarragona", "public_transport": "platform"}}, {"type": "node", "id": 3399729512, "lat": 41.1213436, "lon": 1.2166617, "tags": {"bus": "yes", "highway": "bus_stop", "name": "Tenerife", "name:ca": "Tenerife", "operator": "EMT Tarragona", "public_transport": "platform"}}, {"type": "node", "id": 3399729513, "lat": 41.1230707, "lon": 1.2136411, "tags": {"bus": "yes", "highway": "bus_stop", "name": "CAP La Granja", "operator": "EMT Tarragona", "public_transport": "platform"}}, {"type": "node", "id": 3399729514, "lat": 41.1214129, "lon": 1.2133861, "tags": {"bus": "yes", "highway": "bus_stop", "name": "la Granja", "name:ca": "la Granja", "operator": "EMT Tarragona", "public_transport": "stop_position"}}, {"type": "node", "id": 3399729515, "lat": 41.1197248, "lon": 1.213094, "tags": {"bench": "yes", "bin": "no", "bus": "yes", "highway": "bus_stop", "name": "La Salle", "name:ca": "La Salle", "operator": "EMT Tarragona", "public_transport": "platform", "shelter": "yes"}}, {"type": "node", "id": 3399729516, "lat": 41.1190295, "lon": 1.2095345, "tags": {"bus": "yes", "highway": "bus_stop", "name": "Tarradellas", "operator": "EMT Tarragona", "public_transport": "platform"}}, {"type": "node", "id": 3399729517, "lat": 41.1213444, "lon": 1.1954045, "tags": {"bus": "yes", "highway": "bus_stop", "name": "Tarradellas, 4", "operator": "EMT Tarragona", "public_transport": "platform"}}, {"type": "node", "id": 3399729518, "lat": 41.1211755, "lon": 1.1933313, "tags": {"bench": "no", "bin": "no", "bus": "yes", "highway": "bus_stop", "lit": "yes", "name": "La Font", "name:ca": "La Font", "operator": "EMT Tarragona", "public_transport": "platform", "shelter": "no", "tactile_paving": "no"}}, {"type": "node", "id": 3399729519, "lat": 41.1205596, "lon": 1.1915083, "tags": {"bench": "no", "bin": "no", "bus": "yes", "highway": "bus_stop", "lit": "yes", "name": "Bonavista", "name:ca": "Bonavista", "operator": "EMT Tarragona", "public_transport": "platform", "shelter": "no", "tactile_paving": "no"}}, {"type": "node", "id": 3399729537, "lat": 41.1211318, "lon": 1.1890855, "tags": {"bus": "yes", "highway": "bus_stop", "name": "Topromi", "operator": "EMT Tarragona", "public_transport": "platform"}}, {"type": "node", "id": 3399729538, "lat": 41.1199994, "lon": 1.1853379, "tags": {"bus": "yes", "highway": "bus_stop", "name": "Carrasco i Formiguera", "operator": "EMT Tarragona", "public_transport": "stop_position"}}, {"type": "node", "id": 3399729539, "lat": 41.1197823, "lon": 1.1846446, "tags": {"bus": "yes", "highway": "bus_stop", "name": "Carrasco i Formiguera", "operator": "EMT Tarragona", "public_transport": "stop_position"}}, {"type": "node", "id": 3399729540, "lat": 41.1192034, "lon": 1.1829671, "tags": {"bench": "no", "bus": "yes", "highway": "bus_stop", "name": "Escultor Martorell", "operator": "EMT Tarragona", "public_transport": "platform", "shelter": "no"}}, {"type": "node", "id": 3399729541, "lat": 41.1201132, "lon": 1.181673, "tags": {"bus": "yes", "highway": "bus_stop", "name": "Escultor Martorell", "operator": "EMT Tarragona", "public_transport": "platform"}}, {"type": "node", "id": 3399729542, "lat": 41.1212953, "lon": 1.1805305, "tags": {"bus": "yes", "highway": "bus_stop", "name": "Mas Ricart", "name:ca": "Mas Ricart", "operator": "EMT Tarragona", "public_transport": "stop_position"}}, {"type": "node", "id": 3399729543, "lat": 41.1222191, "lon": 1.1795191, "tags": {"bus": "yes", "highway": "bus_stop", "name": "la Canonja", "name:ca": "la Canonja", "operator": "EMT Tarragona", "public_transport": "platform"}}, {"type": "node", "id": 3399729544, "lat": 41.1238968, "lon": 1.1782697, "tags": {"bus": "yes", "highway": "bus_stop", "name": "Cam\u00ed de Reus", "name:ca": "Cam\u00ed de Reus", "operator": "EMT Tarragona", "public_transport": "platform"}}, {"type": "node", "id": 3399729545, "lat": 41.1247863, "lon": 1.1802181, "tags": {"bus": "yes", "highway": "bus_stop", "name": "Barri Nou", "operator": "EMT Tarragona", "public_transport": "platform"}}, {"type": "node", "id": 3399729546, "lat": 41.1258262, "lon": 1.1816001, "tags": {"bus": "yes", "highway": "bus_stop", "name": "Sector Nord", "operator": "EMT Tarragona", "public_transport": "stop_position"}}, {"type": "node", "id": 3399729547, "lat": 41.126259, "lon": 1.1838263, "tags": {"bus": "yes", "highway": "bus_stop", "name": "Concordia", "operator": "EMT Tarragona", "public_transport": "stop_position"}}, {"type": "node", "id": 3399729549, "lat": 41.1268217, "lon": 1.1788803, "tags": {"bus": "yes", "highway": "bus_stop", "name": "Tramuntana", "name:ca": "Tramuntana", "operator": "EMT Tarragona", "public_transport": "stop_position"}}, {"type": "node", "id": 3399729550, "lat": 41.1217393, "lon": 1.1787495, "tags": {"bus": "yes", "highway": "bus_stop", "name": "la Canonja", "name:ca": "la Canonja", "operator": "EMT Tarragona", "public_transport": "platform"}}, {"type": "node", "id": 3399729551, "lat": 41.120031, "lon": 1.1794582, "tags": {"bus": "yes", "highway": "bus_stop", "name": "Les Neus", "name:ca": "Les Neus", "operator": "EMT Tarragona", "public_transport": "stop_position"}}, {"type": "node", "id": 3399729552, "lat": 41.1171433, "lon": 1.1814376, "tags": {"bus": "yes", "highway": "bus_stop", "name": "Dues Hortes", "operator": "EMT Tarragona", "public_transport": "platform"}}, {"type": "node", "id": 3399729553, "lat": 41.1158031, "lon": 1.1838089, "tags": {"bus": "yes", "highway": "bus_stop", "name": "Campsrodons", "operator": "EMT Tarragona", "public_transport": "platform"}}, {"type": "node", "id": 3399729554, "lat": 41.1171544, "lon": 1.1841837, "tags": {"bus": "yes", "highway": "bus_stop", "name": "Pau Vidal", "operator": "EMT Tarragona", "public_transport": "platform"}}, {"type": "node", "id": 3399738407, "lat": 41.1203517, "lon": 1.1916317, "tags": {"bus": "yes", "highway": "bus_stop", "name": "Bonavista", "name:ca": "Bonavista", "operator": "EMT Tarragona", "public_transport": "platform"}}, {"type": "node", "id": 3399738408, "lat": 41.1203238, "lon": 1.1945893, "tags": {"bus": "yes", "highway": "bus_stop", "name": "Mercadet", "operator": "EMT Tarragona", "public_transport": "platform"}}, {"type": "node", "id": 3400321196, "lat": 41.1157766, "lon": 1.2250047, "tags": {"bus": "yes", "departures_board": "yes", "highway": "bus_stop", "name": "Icomar", "name:ca": "Icomar", "operator": "EMT Tarragona", "public_transport": "platform", "shelter": "no"}}, {"type": "node", "id": 3400321198, "lat": 41.1216693, "lon": 1.2149319, "tags": {"bench": "yes", "bin": "no", "bus": "yes", "highway": "bus_stop", "lit": "yes", "name": "Illes Balears, 7", "name:ca": "Illes Balears, 7", "operator": "EMT Tarragona", "public_transport": "platform", "shelter": "yes", "tactile_paving": "no"}}, {"type": "node", "id": 3400321199, "lat": 41.1208258, "lon": 1.2163331, "tags": {"bus": "yes", "highway": "bus_stop", "name": "Sant Benilde", "operator": "EMT Tarragona", "public_transport": "stop_position"}}, {"type": "node", "id": 3400321200, "lat": 41.1206942, "lon": 1.2159447, "tags": {"bus": "yes", "highway": "bus_stop", "name": "Sant Benilde", "operator": "EMT Tarragona", "public_transport": "stop_position"}}, {"type": "node", "id": 3400321201, "lat": 41.1153575, "lon": 1.2178643, "tags": {"bus": "yes", "highway": "bus_stop", "name": "T\u00faria", "name:ca": "T\u00faria", "operator": "EMT Tarragona", "public_transport": "platform"}}, {"type": "node", "id": 3400321202, "lat": 41.1154027, "lon": 1.2193062, "tags": {"bus": "yes", "highway": "bus_stop", "name": "T\u00faria", "name:ca": "T\u00faria", "operator": "EMT Tarragona", "public_transport": "platform"}}, {"type": "node", "id": 3400321203, "lat": 41.1150058, "lon": 1.204506, "tags": {"bus": "yes", "highway": "bus_stop", "name": "Ctra. Val\u00e8ncia 222-224", "operator": "EMT Tarragona", "public_transport": "platform"}}, {"type": "node", "id": 3400321206, "lat": 41.11548, "lon": 1.1939659, "tags": {"bus": "yes", "highway": "bus_stop", "name": "Carrer 20, n\u00ba 10", "name:ca": "Carrer 20, n\u00ba 10", "operator": "EMT Tarragona", "public_transport": "platform"}}, {"type": "node", "id": 3400321207, "lat": 41.1180699, "lon": 1.194099, "tags": {"bus": "yes", "highway": "bus_stop", "name": "Carrer 20, n\u00ba 34", "name:ca": "Carrer 20, n\u00ba 34", "public_transport": "platform"}}, {"type": "node", "id": 3400321208, "lat": 41.1192391, "lon": 1.194429, "tags": {"bus": "yes", "highway": "bus_stop", "name": "Carrer 20, n\u00ba 56", "name:ca": "Carrer 20, n\u00ba 56", "operator": "EMT Tarragona", "public_transport": "platform"}}, {"type": "node", "id": 3402627381, "lat": 41.1171223, "lon": 1.2066137, "tags": {"bus": "yes", "departures_board": "timetable", "highway": "bus_stop", "name": "Llobregat", "operator": "EMT Tarragona", "public_transport": "platform", "ref": "25100"}}, {"type": "node", "id": 3402627382, "lat": 41.1165085, "lon": 1.2047455, "tags": {"bus": "yes", "departures_board": "timetable", "highway": "bus_stop", "name": "Brugent", "operator": "EMT Tarragona", "public_transport": "platform", "ref": "25520"}}, {"type": "node", "id": 3402627383, "lat": 41.1161312, "lon": 1.201806, "tags": {"bus": "yes", "departures_board": "timetable", "highway": "bus_stop", "name": "Campclar", "name:ca": "Campclar", "operator": "EMT Tarragona", "public_transport": "platform", "ref": "25021", "shelter": "yes"}}, {"type": "node", "id": 3402627384, "lat": 41.1193294, "lon": 1.207879, "tags": {"bus": "yes", "departures_board": "timetable", "highway": "bus_stop", "name": "Tarradellas", "operator": "EMT Tarragona", "public_transport": "platform", "ref": "25640"}}, {"type": "node", "id": 3402627385, "lat": 41.1214068, "lon": 1.2077737, "tags": {"bus": "yes", "departures_board": "timetable", "highway": "bus_stop", "name": "Poliesportiu", "name:ca": "Poliesportiu", "operator": "EMT Tarragona", "public_transport": "platform", "ref": "25154"}}, {"type": "node", "id": 3402631304, "lat": 41.1243897, "lon": 1.2106956, "tags": {"bench": "no", "bin": "no", "bus": "yes", "departures_board": "timetable", "highway": "bus_stop", "name": "Institut", "operator": "EMT Tarragona", "public_transport": "platform", "ref": "25077", "shelter": "no"}}, {"type": "node", "id": 3402631305, "lat": 41.1219183, "lon": 1.2111979, "tags": {"bench": "yes", "bin": "yes", "bus": "yes", "departures_board": "timetable", "highway": "bus_stop", "name": "Escola els \u00c0ngels", "name:ca": "Escola els \u00c0ngels", "operator": "EMT Tarragona", "public_transport": "platform", "ref": "25001", "shelter": "yes"}}, {"type": "node", "id": 3402631306, "lat": 41.1213579, "lon": 1.2114616, "tags": {"bus": "yes", "highway": "bus_stop", "name": "Escola els \u00c0ngels", "name:ca": "Escola els \u00c0ngels", "operator": "EMT Tarragona", "public_transport": "stop_position"}}, {"type": "node", "id": 3402631308, "lat": 41.1189798, "lon": 1.2115175, "tags": {"bus": "yes", "highway": "bus_stop", "name": "Segre", "operator": "EMT Tarragona", "public_transport": "stop_position"}}, {"type": "node", "id": 3402631309, "lat": 41.116962, "lon": 1.2110984, "tags": {"bus": "yes", "departures_board": "timetable", "highway": "bus_stop", "name": "Montsant", "operator": "EMT Tarragona", "public_transport": "platform", "ref": "25123", "shelter": "yes"}}, {"type": "node", "id": 3402631310, "lat": 41.1164462, "lon": 1.2131652, "tags": {"bus": "yes", "departures_board": "timetable", "highway": "bus_stop", "name": "El Pilar", "name:ca": "El Pilar", "operator": "EMT Tarragona", "public_transport": "platform", "ref": "25049", "shelter": "yes"}}, {"type": "node", "id": 3402631312, "lat": 41.1184757, "lon": 1.2183316, "tags": {"bus": "yes", "highway": "bus_stop", "name": "Torreforta", "name:ca": "Torreforta", "operator": "EMT Tarragona", "public_transport": "stop_position"}}, {"type": "node", "id": 3402631313, "lat": 41.1170156, "lon": 1.2183897, "tags": {"bench": "no", "bus": "yes", "departures_board": "timetable", "highway": "bus_stop", "name": "Montblanc", "name:ca": "Montblanc", "operator": "EMT Tarragona", "public_transport": "platform", "ref": "25121", "shelter": "no"}}, {"type": "node", "id": 3402631314, "lat": 41.1164691, "lon": 1.2194769, "tags": {"bus": "yes", "departures_board": "timetable", "highway": "bus_stop", "name": "Tortosa", "name:ca": "Tortosa", "operator": "EMT Tarragona", "public_transport": "platform", "ref": "25195", "shelter": "no"}}, {"type": "node", "id": 3420176525, "lat": 41.1090089, "lon": 1.2391652, "tags": {"bench": "no", "bin": "no", "bus": "yes", "highway": "bus_stop", "lit": "no", "name": "P\u00f2sit", "name:ca": "P\u00f2sit", "operator": "EMT Tarragona", "public_transport": "platform", "shelter": "no", "tactile_paving": "no"}}, {"type": "node", "id": 3422258277, "lat": 41.1234394, "lon": 1.2184227, "tags": {"bus": "yes", "highway": "bus_stop", "name": "Parc Riuclar", "name:ca": "Parc Riuclar", "operator": "EMT Tarragona", "public_transport": "platform"}}, {"type": "node", "id": 3422258278, "lat": 41.1240567, "lon": 1.2159387, "tags": {"bus": "yes", "highway": "bus_stop", "name": "L'Albada", "operator": "EMT Tarragona", "public_transport": "platform"}}, {"type": "node", "id": 3422258279, "lat": 41.1248996, "lon": 1.2136734, "tags": {"bench": "no", "bin": "no", "bus": "yes", "highway": "bus_stop", "name": "Car\u00e0bia", "operator": "EMT Tarragona", "public_transport": "platform", "shelter": "no"}}, {"type": "node", "id": 3422258280, "lat": 41.1259957, "lon": 1.214252, "tags": {"bus": "yes", "highway": "bus_stop", "name": "Bar\u00f3 Pierre de Cobertin", "operator": "EMT Tarragona", "public_transport": "platform"}}, {"type": "node", "id": 3422258281, "lat": 41.1252976, "lon": 1.2169636, "tags": {"bus": "yes", "highway": "bus_stop", "name": "L'Albada", "operator": "EMT Tarragona", "public_transport": "platform"}}, {"type": "node", "id": 3422258282, "lat": 41.1240878, "lon": 1.2209371, "tags": {"bus": "yes", "highway": "bus_stop", "name": "Parc Riuclar", "name:ca": "Parc Riuclar", "operator": "EMT Tarragona", "public_transport": "platform"}}, {"type": "node", "id": 3422258283, "lat": 41.1261517, "lon": 1.2129514, "tags": {"bus": "yes", "highway": "bus_stop", "name": "la Floresta", "name:ca": "la Floresta", "operator": "EMT Tarragona", "public_transport": "platform"}}, {"type": "node", "id": 3422258284, "lat": 41.1256288, "lon": 1.2115283, "tags": {"bus": "yes", "highway": "bus_stop", "name": "la Floresta", "name:ca": "la Floresta", "operator": "EMT Tarragona", "public_transport": "stop_position"}}, {"type": "node", "id": 3422258285, "lat": 41.1270311, "lon": 1.2056837, "tags": {"bus": "yes", "highway": "bus_stop", "name": "Centre Comercial", "name:ca": "Centre Comercial", "operator": "EMT Tarragona", "public_transport": "stop_position"}}, {"type": "node", "id": 3422258286, "lat": 41.1305316, "lon": 1.205335, "tags": {"bus": "yes", "highway": "bus_stop", "name": "P.P.9", "operator": "EMT Tarragona", "public_transport": "stop_position"}}, {"type": "node", "id": 3422258287, "lat": 41.1324486, "lon": 1.205344, "tags": {"bench": "yes", "bin": "yes", "bus": "yes", "highway": "bus_stop", "lit": "yes", "name": "Mestre Xavier Gols", "operator": "EMT Tarragona", "public_transport": "platform", "shelter": "no", "tactile_paving": "no"}}, {"type": "node", "id": 3422258288, "lat": 41.1306914, "lon": 1.2012309, "tags": {"bus": "yes", "highway": "bus_stop", "name": "Gavarres Nord", "name:ca": "Gavarres Nord", "operator": "EMT Tarragona", "public_transport": "stop_position"}}, {"type": "node", "id": 3422258289, "lat": 41.1263101, "lon": 1.2063868, "tags": {"bench": "no", "bin": "yes", "bus": "yes", "highway": "bus_stop", "name": "Centre Comercial", "name:ca": "Centre Comercial", "operator": "EMT Tarragona", "public_transport": "platform", "shelter": "no"}}, {"type": "node", "id": 3423277805, "lat": 41.1190677, "lon": 1.1923082, "tags": {"bus": "yes", "highway": "bus_stop", "name": "Bonavista", "name:ca": "Bonavista", "operator": "EMT Tarragona", "public_transport": "platform"}}, {"type": "node", "id": 3423277806, "lat": 41.1176077, "lon": 1.1941118, "tags": {"bus": "yes", "highway": "bus_stop", "name": "Carrer 20", "name:ca": "Carrer 20", "operator": "EMT Tarragona", "public_transport": "platform"}}, {"type": "node", "id": 3423277807, "lat": 41.117719, "lon": 1.1902346, "tags": {"bus": "yes", "highway": "bus_stop", "name": "Carrer 23", "name:ca": "Carrer 23", "operator": "EMT Tarragona", "public_transport": "platform"}}, {"type": "node", "id": 3423277808, "lat": 41.1165414, "lon": 1.1920746, "tags": {"bus": "yes", "highway": "bus_stop", "name": "Carrer 2", "name:ca": "Carrer 2", "operator": "EMT Tarragona", "public_transport": "platform"}}, {"type": "node", "id": 3423277809, "lat": 41.1187029, "lon": 1.217407, "tags": {"bench": "no", "bin": "no", "bus": "yes", "highway": "bus_stop", "lit": "yes", "name": "Torreforta", "name:ca": "Torreforta", "operator": "EMT Tarragona", "public_transport": "platform", "shelter": "no", "tactile_paving": "no"}}, {"type": "node", "id": 3703531737, "lat": 41.0868632, "lon": 1.1602154}, {"type": "node", "id": 3703531738, "lat": 41.0868727, "lon": 1.1601368}, {"type": "node", "id": 3706943214, "lat": 41.0851318, "lon": 1.1569995}, {"type": "node", "id": 3706943219, "lat": 41.0851748, "lon": 1.1569363}, {"type": "node", "id": 3706944025, "lat": 41.0852015, "lon": 1.1570091}, {"type": "node", "id": 4052832115, "lat": 41.0722374, "lon": 1.1798783, "tags": {"amenity": "shelter", "bus": "yes", "highway": "bus_stop", "public_transport": "stop_position", "shelter_type": "public_transport"}}, {"type": "node", "id": 4058461057, "lat": 41.0618387, "lon": 1.1616876, "tags": {"bus": "yes", "highway": "bus_stop", "name": "Cap Salou", "name:ca": "Cap Salou", "public_transport": "stop_position"}}, {"type": "node", "id": 4058461058, "lat": 41.0619772, "lon": 1.1628248, "tags": {"bus": "yes", "highway": "bus_stop", "name": "\u041a\u0430\u043f \u0441\u043e\u043b\u0435 \u043c\u0430\u043b\u0438\u043d\u043e\u0441", "public_transport": "stop_position"}}, {"type": "node", "id": 4058462896, "lat": 41.0641329, "lon": 1.1751019, "tags": {"bus": "yes", "highway": "bus_stop", "public_transport": "stop_position"}}, {"type": "node", "id": 4211877705, "lat": 41.1173342, "lon": 1.198958, "tags": {"bus": "yes", "highway": "bus_stop", "name": "Bonavista", "name:ca": "Bonavista", "public_transport": "platform"}}, {"type": "node", "id": 4393341096, "lat": 41.067035, "lon": 1.15102, "tags": {"bus": "yes", "highway": "bus_stop", "local_ref": "Bus Plana 1,4,5,21,47", "name": "Hotel Playa park", "name:ca": "Bus Plana 1,4,5,21,47", "public_transport": "platform"}}, {"type": "node", "id": 4394437989, "lat": 41.0709088, "lon": 1.1523858, "tags": {"bus": "yes", "highway": "bus_stop", "name": "Oasis Park", "name:ca": "Oasis Park", "public_transport": "platform"}}, {"type": "node", "id": 4394438089, "lat": 41.0716765, "lon": 1.1501328, "tags": {"bus": "yes", "highway": "bus_stop", "public_transport": "platform"}}, {"type": "node", "id": 4404907490, "lat": 41.067271, "lon": 1.1529207, "tags": {"bus": "yes", "highway": "bus_stop", "public_transport": "platform"}}, {"type": "node", "id": 5628174538, "lat": 41.1134418, "lon": 1.1559878, "tags": {"bench": "no", "bin": "no", "bus": "yes", "highway": "bus_stop", "lit": "yes", "name": "Avinguda Ramon d'Olzina - Pla\u00e7a de Ramon Berenguer IV", "name:ca": "Avinguda Ramon d'Olzina - Pla\u00e7a de Ramon Berenguer IV", "public_transport": "platform", "shelter": "no", "tactile_paving": "no"}}, {"type": "node", "id": 5628470417, "lat": 41.1139147, "lon": 1.1559516, "tags": {"bench": "no", "bin": "yes", "bus": "yes", "highway": "bus_stop", "lit": "yes", "name": "Avinguda Ramon d'Olzina - Pla\u00e7a de Ramon Berenguer IV", "name:ca": "Avinguda Ramon d'Olzina - Pla\u00e7a de Ramon Berenguer IV", "public_transport": "platform", "shelter": "no"}}, {"type": "node", "id": 5929524185, "lat": 41.0865598, "lon": 1.1515046, "tags": {"highway": "bus_stop"}}, {"type": "node", "id": 6030335050, "lat": 41.1161628, "lon": 1.2145049, "tags": {"bus": "yes", "departures_board": "timetable", "highway": "bus_stop", "name": "Naranjos", "operator": "EMT Tarragona", "public_transport": "platform", "ref": "25129", "shelter": "yes"}}, {"type": "node", "id": 6132360254, "lat": 41.1202272, "lon": 1.2246855, "tags": {"bus": "yes", "highway": "bus_stop", "name": "Riuclar", "operator": "EMT Tarragona", "public_transport": "platform"}}, {"type": "node", "id": 7061066675, "lat": 41.0667935, "lon": 1.1504729, "tags": {"bus": "yes", "highway": "bus_stop", "public_transport": "platform"}}, {"type": "node", "id": 7061138475, "lat": 41.0723233, "lon": 1.1799127, "tags": {"bus": "yes", "highway": "bus_stop", "public_transport": "platform"}}, {"type": "node", "id": 7061138481, "lat": 41.081629, "lon": 1.1824215, "tags": {"bus": "yes", "highway": "bus_stop", "public_transport": "platform"}}, {"type": "node", "id": 7061181374, "lat": 41.0885699, "lon": 1.1825279, "tags": {"bus": "yes", "highway": "bus_stop", "public_transport": "platform"}}, {"type": "node", "id": 7061181375, "lat": 41.088455, "lon": 1.1826621, "tags": {"bus": "yes", "highway": "bus_stop", "public_transport": "platform"}}, {"type": "node", "id": 7072437921, "lat": 41.0726515, "lon": 1.1739959, "tags": {"bus": "yes", "highway": "bus_stop", "public_transport": "platform"}}, {"type": "node", "id": 9062729550, "lat": 41.0999511, "lon": 1.1649598, "tags": {"bus": "yes", "highway": "bus_stop", "public_transport": "platform"}}, {"type": "node", "id": 9062729551, "lat": 41.0996563, "lon": 1.1650277, "tags": {"bus": "yes", "highway": "bus_stop", "public_transport": "platform"}}, {"type": "node", "id": 9274729215, "lat": 41.119713, "lon": 1.2113255, "tags": {"bench": "no", "bin": "no", "bus": "yes", "departures_board": "timetable", "highway": "bus_stop", "name": "Segre", "operator": "EMT Tarragona", "public_transport": "platform", "ref": "25632", "shelter": "no"}}, {"type": "node", "id": 9374695977, "lat": 41.1172643, "lon": 1.2350129, "tags": {"bench": "no", "bus": "yes", "departures_board": "yes", "highway": "bus_stop", "name": "Ctra. de Val\u00e8ncia, 2", "public_transport": "platform", "ref": "25825", "shelter": "no"}}, {"type": "node", "id": 9374695978, "lat": 41.117385, "lon": 1.2347803, "tags": {"bench": "no", "bin": "yes", "bus": "yes", "highway": "bus_stop", "lit": "yes", "name": "Ctra. de Val\u00e8ncia, 1", "public_transport": "platform", "shelter": "no", "tactile_paving": "yes"}}, {"type": "node", "id": 9519035276, "lat": 41.1119889, "lon": 1.2386281, "tags": {"bench": "no", "bin": "no", "bus": "yes", "highway": "bus_stop", "name": "Torres Jordi", "operator": "EMT Tarragona", "public_transport": "platform", "shelter": "no"}}, {"type": "node", "id": 9625822395, "lat": 41.1226304, "lon": 1.2081289, "tags": {"bus": "yes", "departures_board": "timetable", "highway": "bus_stop", "name": "Poliesportiu", "name:ca": "Poliesportiu", "operator": "EMT Tarragona", "public_transport": "platform", "ref": "25610", "shelter": "yes"}}, {"type": "node", "id": 9663650567, "lat": 41.1193799, "lon": 1.2080337, "tags": {"bus": "yes", "departures_board": "timetable", "highway": "bus_stop", "name": "Tarradellas", "operator": "EMT Tarragona", "public_transport": "platform", "ref": "25641", "shelter": "no"}}, {"type": "node", "id": 9663650568, "lat": 41.1169744, "lon": 1.2066678, "tags": {"bus": "yes", "departures_board": "timetable", "highway": "bus_stop", "name": "Llobregat", "operator": "EMT Tarragona", "public_transport": "platform", "ref": "25570", "shelter": "yes"}}, {"type": "node", "id": 9663650569, "lat": 41.1170488, "lon": 1.205181, "tags": {"bus": "yes", "departures_board": "timetable", "highway": "bus_stop", "name": "Brugent", "operator": "EMT Tarragona", "public_transport": "platform", "ref": "25016", "shelter": "yes"}}, {"type": "node", "id": 9663650576, "lat": 41.1171253, "lon": 1.211005, "tags": {"bus": "yes", "departures_board": "timetable", "highway": "bus_stop", "name": "Montsant", "operator": "EMT Tarragona", "public_transport": "platform", "shelter": "no"}}, {"type": "node", "id": 9663650578, "lat": 41.1165761, "lon": 1.2130926, "tags": {"bus": "yes", "departures_board": "timetable", "highway": "bus_stop", "name": "El Pilar", "name:ca": "El Pilar", "operator": "EMT Tarragona", "public_transport": "platform", "shelter": "no"}}, {"type": "node", "id": 9663650579, "lat": 41.1163062, "lon": 1.2144223, "tags": {"bus": "yes", "departures_board": "timetable", "highway": "bus_stop", "name": "Naranjos", "operator": "EMT Tarragona", "public_transport": "platform", "shelter": "no"}}, {"type": "node", "id": 9663650584, "lat": 41.1167615, "lon": 1.2170096, "tags": {"bench": "yes", "bin": "no", "bus": "yes", "departures_board": "timetable", "highway": "bus_stop", "lit": "yes", "name": "Mercat", "name:ca": "Mercat", "operator": "EMT Tarragona", "public_transport": "platform", "ref": "25576", "shelter": "yes", "tactile_paving": "no"}}, {"type": "node", "id": 9663650585, "lat": 41.1167926, "lon": 1.2166588, "tags": {"bench": "yes", "bin": "no", "bus": "yes", "departures_board": "timetable", "highway": "bus_stop", "name": "Mercat", "name:ca": "Mercat", "operator": "EMT Tarragona", "public_transport": "platform", "shelter": "no"}}, {"type": "node", "id": 9663650588, "lat": 41.1158971, "lon": 1.2266135, "tags": {"bench": "yes", "bin": "yes", "bus": "yes", "departures_board": "yes", "highway": "bus_stop", "lit": "yes", "name": "Icomar", "name:ca": "Icomar", "operator": "EMT Tarragona", "public_transport": "platform", "shelter": "yes", "tactile_paving": "no"}}, {"type": "node", "id": 9663650589, "lat": 41.1162581, "lon": 1.2288505, "tags": {"bench": "yes", "bus": "yes", "departures_board": "timetable", "highway": "bus_stop", "name": "Pol\u00edgon", "operator": "EMT Tarragona", "public_transport": "platform", "ref": "25152", "shelter": "no"}}, {"type": "node", "id": 9663650590, "lat": 41.1163073, "lon": 1.2281671, "tags": {"bus": "yes", "departures_board": "timetable", "highway": "bus_stop", "name": "Pol\u00edgon", "operator": "EMT Tarragona", "public_transport": "platform", "shelter": "no"}}, {"type": "node", "id": 10066685441, "lat": 41.124347, "lon": 1.2106983, "tags": {"bus": "yes", "highway": "bus_stop", "public_transport": "stop_position"}}, {"type": "node", "id": 10729429325, "lat": 41.1296063, "lon": 1.200182, "tags": {"bus": "yes", "highway": "bus_stop", "name": "Frederic Escofet i Alsina", "network": "EMT Tarragona", "operator": "EMT Tarragona", "public_transport": "platform"}}, {"type": "node", "id": 10729429326, "lat": 41.1224607, "lon": 1.1941405, "tags": {"bus": "yes", "highway": "bus_stop", "name": "Escoles Bonavista", "public_transport": "platform"}}, {"type": "node", "id": 10729429327, "lat": 41.1236791, "lon": 1.1909031, "tags": {"bus": "yes", "highway": "bus_stop", "name": "Buenos Aires", "public_transport": "platform"}}, {"type": "node", "id": 10729429328, "lat": 41.1238428, "lon": 1.1903452, "tags": {"bus": "yes", "highway": "bus_stop", "name": "Buenos Aires", "public_transport": "platform"}}, {"type": "node", "id": 10729429329, "lat": 41.1171472, "lon": 1.2002289, "tags": {"bus": "yes", "highway": "bus_stop", "name": "Nou Vial", "public_transport": "platform"}}, {"type": "node", "id": 10741215118, "lat": 41.1258889, "lon": 1.1787238, "tags": {"bus": "yes", "highway": "bus_stop", "name": "Tramuntana", "operator": "EMT Tarragona", "public_transport": "platform"}}, {"type": "node", "id": 11907927724, "lat": 41.1929134, "lon": 1.1396723, "tags": {"bus": "yes", "highway": "bus_stop", "public_transport": "platform", "shelter": "yes"}}, {"type": "node", "id": 11907927731, "lat": 41.1923428, "lon": 1.1398663, "tags": {"bus": "yes", "highway": "bus_stop", "public_transport": "platform", "shelter": "yes"}}, {"type": "node", "id": 12387812207, "lat": 41.1270385, "lon": 1.2057524, "tags": {"bench": "yes", "bin": "no", "bus": "yes", "highway": "bus_stop", "lit": "yes", "public_transport": "platform", "shelter": "yes"}}, {"type": "way", "id": 118022027, "nodes": [1328324390, 3706944025, 1328324740, 1328324641, 3706943214, 1328324863, 3706943219, 1328324390], "tags": {"building": "yes", "name": "Estaci\u00f3 del Nord", "name:ca": "Estaci\u00f3 del Nord", "public_transport": "station", "railway": "station"}}, {"type": "way", "id": 120299743, "nodes": [1349184566, 1349184559, 1349184571, 1349184537, 1349184566], "tags": {"building": "yes", "name": "Penitence Station", "public_transport": "station", "railway": "station", "source": "PNOA", "source:date": "4/7/2011"}}, {"type": "way", "id": 366377318, "nodes": [1978292464, 3703531737, 3703531738, 1978292450, 1978292464], "tags": {"building": "yes", "name": "S\u00e9samoAventura Station", "public_transport": "station", "railway": "station"}}]}