{"version": 0.6, "generator": "Overpass API 0.7.62.5 1bd436f1", "osm3s": {"timestamp_osm_base": "2025-04-09T14:59:39Z", "copyright": "The data included in this document is from www.openstreetmap.org. The data is made available under ODbL."}, "elements": [{"type": "node", "id": 3374035977, "lat": 35.495424, "lon": 6.9226373, "tags": {"direction": "SE", "highway": "bus_stop", "public_transport": "platform"}}, {"type": "node", "id": 3374037578, "lat": 35.4954958, "lon": 6.9219241, "tags": {"bus": "yes", "highway": "bus_stop", "public_transport": "platform"}}, {"type": "node", "id": 3921199168, "lat": 35.4798315, "lon": 6.9575896, "tags": {"bus": "yes", "highway": "bus_stop", "public_transport": "platform"}}, {"type": "node", "id": 3921199169, "lat": 35.4801433, "lon": 6.9575242, "tags": {"bus": "yes", "highway": "bus_stop", "public_transport": "platform"}}, {"type": "node", "id": 4510748993, "lat": 35.4923745, "lon": 6.9254509, "tags": {"bus": "yes", "highway": "bus_stop", "name": "Arr\u00eat de Taxi", "name:fr": "Arr\u00eat de Taxi", "public_transport": "platform"}}]}