{"version": 0.6, "generator": "Overpass API 0.7.62.5 1bd436f1", "osm3s": {"timestamp_osm_base": "2025-04-09T14:29:00Z", "copyright": "The data included in this document is from www.openstreetmap.org. The data is made available under ODbL."}, "elements": [{"type": "node", "id": 1069625466, "lat": 39.0792486, "lon": 1.4401197, "tags": {"bus": "yes", "highway": "bus_stop", "public_transport": "platform"}}, {"type": "node", "id": 5003715700, "lat": 39.0764202, "lon": 1.44063, "tags": {"bus": "yes", "highway": "bus_stop", "name": "Cafeteria Es Port", "public_transport": "platform", "website": "https://eivissa.tib.org/es/web/cie/parades/-/parada/00619"}}, {"type": "node", "id": 5003715703, "lat": 39.0799531, "lon": 1.4427366, "tags": {"bus": "yes", "highway": "bus_stop", "name": "Hotel Cartago", "public_transport": "platform", "website": "https://eivissa.tib.org/es/web/cie/parades/-/parada/00248"}}, {"type": "node", "id": 5003715704, "lat": 39.0820398, "lon": 1.4419182, "tags": {"bus": "yes", "highway": "bus_stop", "name": "Hotel Gale\u00f3n", "public_transport": "platform", "website": "https://eivissa.tib.org/es/web/cie/parades/-/parada/00617"}}, {"type": "node", "id": 5003715705, "lat": 39.0817148, "lon": 1.4438406, "tags": {"bus": "yes", "highway": "bus_stop", "name": "Placa Can Marsa", "public_transport": "platform", "website": "https://eivissa.tib.org/es/web/cie/parades/-/parada/00616"}}]}