{"version": 0.6, "generator": "Overpass API 0.7.62.5 1bd436f1", "osm3s": {"timestamp_osm_base": "2025-04-09T14:29:00Z", "copyright": "The data included in this document is from www.openstreetmap.org. The data is made available under ODbL."}, "elements": [{"type": "node", "id": 4494317320, "lat": 35.8241791, "lon": 2.4559761, "tags": {"bench": "yes", "bus": "yes", "covered": "yes", "highway": "bus_stop", "name": "Arr\u00eat du rond point", "name:fr": "Arr\u00eat du rond point", "public_transport": "platform", "shelter": "yes"}}, {"type": "node", "id": 4569218643, "lat": 35.8527623, "lon": 2.6062174, "tags": {"bus": "yes", "highway": "bus_stop", "name": "Arr\u00eat de bus assalia", "public_transport": "platform"}}, {"type": "node", "id": 4569218644, "lat": 35.8389125, "lon": 2.5650964, "tags": {"bus": "yes", "highway": "bus_stop", "name": "Arr\u00eat de bus", "public_transport": "platform"}}, {"type": "node", "id": 4569218977, "lat": 35.8429637, "lon": 2.6276784, "tags": {"bus": "yes", "highway": "bus_stop", "name": "Arr\u00eat de bus oum jalil", "public_transport": "platform"}}, {"type": "node", "id": 4569218979, "lat": 35.8514763, "lon": 2.6079504, "tags": {"bus": "yes", "highway": "bus_stop", "name": "Arr\u00eat", "public_transport": "platform"}}, {"type": "node", "id": 4569218982, "lat": 35.8473575, "lon": 2.5867467, "tags": {"bus": "yes", "highway": "bus_stop", "name": "Arr\u00eat de bus", "public_transport": "platform"}}, {"type": "node", "id": 4569218986, "lat": 35.836195, "lon": 2.542384, "tags": {"bus": "yes", "highway": "bus_stop", "name": "Arr\u00eat de bus", "public_transport": "platform"}}, {"type": "node", "id": 4569218987, "lat": 35.8335634, "lon": 2.5288891, "tags": {"bus": "yes", "highway": "bus_stop", "name": "Arr\u00eat de bus", "public_transport": "platform"}}, {"type": "node", "id": 4569219589, "lat": 35.8316645, "lon": 2.5069326, "tags": {"bus": "yes", "highway": "bus_stop", "name": "Arr\u00eat de bus", "public_transport": "platform"}}, {"type": "node", "id": 6024993032, "lat": 35.9942065, "lon": 2.1455022, "tags": {"highway": "bus_stop"}}, {"type": "node", "id": 6024993036, "lat": 35.9923181, "lon": 2.1432147, "tags": {"highway": "bus_stop"}}]}