{"version": 0.6, "generator": "Overpass API 0.7.62.5 1bd436f1", "osm3s": {"timestamp_osm_base": "2025-04-09T14:48:30Z", "copyright": "The data included in this document is from www.openstreetmap.org. The data is made available under ODbL."}, "elements": [{"type": "node", "id": 50635656, "lat": 47.8672803, "lon": 1.1409256, "tags": {"name": "Pezou", "operator": "SNCF", "railway": "station", "railway:ref:DB": "XFPEZ", "train": "yes", "uic_ref": "8757454", "wikidata": "Q3097269", "wikipedia": "fr:Gare de Pezou"}}, {"type": "node", "id": 50640075, "lat": 47.8020516, "lon": 1.067735, "tags": {"name": "Vend\u00f4me", "network": "TER Centre \u2212 Val de Loire", "network:wikidata": "Q912775", "operator": "SNCF", "operator:wikidata": "Q13646", "public_transport": "station", "railway": "station", "railway:ref:DB": "XFVDM", "train": "yes", "uic_ref": "8757455", "wheelchair": "yes", "wikidata": "Q3097951", "wikipedia": "fr:Gare de Vend\u00f4me"}}, {"type": "node", "id": 234293079, "lat": 47.7748937, "lon": 0.962171, "tags": {"name": "Thor\u00e9 la Rochette", "railway": "station"}}, {"type": "node", "id": 245746137, "lat": 47.5370604, "lon": 0.9860858, "tags": {"bus": "yes", "highway": "bus_stop", "name": "La Rivonnerie", "public_transport": "stop_position"}}, {"type": "node", "id": 339094602, "lat": 47.8220746, "lon": 1.02086, "tags": {"source": "cadastre-dgi-fr source : Direction G\u00e9n\u00e9rale des Imp\u00f4ts - Cadastre ; mise \u00e0 jour : 2008"}}, {"type": "node", "id": 339094604, "lat": 47.8219513, "lon": 1.0208051, "tags": {"source": "cadastre-dgi-fr source : Direction G\u00e9n\u00e9rale des Imp\u00f4ts - Cadastre ; mise \u00e0 jour : 2008"}}, {"type": "node", "id": 339094606, "lat": 47.8219294, "lon": 1.020913, "tags": {"source": "cadastre-dgi-fr source : Direction G\u00e9n\u00e9rale des Imp\u00f4ts - Cadastre ; mise \u00e0 jour : 2008"}}, {"type": "node", "id": 339094608, "lat": 47.8215635, "lon": 1.0207523, "tags": {"source": "cadastre-dgi-fr source : Direction G\u00e9n\u00e9rale des Imp\u00f4ts - Cadastre ; mise \u00e0 jour : 2008"}}, {"type": "node", "id": 339094610, "lat": 47.8215554, "lon": 1.0208093, "tags": {"source": "cadastre-dgi-fr source : Direction G\u00e9n\u00e9rale des Imp\u00f4ts - Cadastre ; mise \u00e0 jour : 2008"}}, {"type": "node", "id": 339094611, "lat": 47.8215731, "lon": 1.0208198, "tags": {"source": "cadastre-dgi-fr source : Direction G\u00e9n\u00e9rale des Imp\u00f4ts - Cadastre ; mise \u00e0 jour : 2008"}}, {"type": "node", "id": 339094613, "lat": 47.8215622, "lon": 1.0208899, "tags": {"source": "cadastre-dgi-fr source : Direction G\u00e9n\u00e9rale des Imp\u00f4ts - Cadastre ; mise \u00e0 jour : 2008"}}, {"type": "node", "id": 339094615, "lat": 47.8217883, "lon": 1.0209934, "tags": {"source": "cadastre-dgi-fr source : Direction G\u00e9n\u00e9rale des Imp\u00f4ts - Cadastre ; mise \u00e0 jour : 2008"}}, {"type": "node", "id": 339094617, "lat": 47.8217728, "lon": 1.0210571, "tags": {"source": "cadastre-dgi-fr source : Direction G\u00e9n\u00e9rale des Imp\u00f4ts - Cadastre ; mise \u00e0 jour : 2008"}}, {"type": "node", "id": 339094619, "lat": 47.8218541, "lon": 1.0210901, "tags": {"source": "cadastre-dgi-fr source : Direction G\u00e9n\u00e9rale des Imp\u00f4ts - Cadastre ; mise \u00e0 jour : 2008"}}, {"type": "node", "id": 339094620, "lat": 47.8218445, "lon": 1.0211514, "tags": {"source": "cadastre-dgi-fr source : Direction G\u00e9n\u00e9rale des Imp\u00f4ts - Cadastre ; mise \u00e0 jour : 2008"}}, {"type": "node", "id": 339094621, "lat": 47.8221791, "lon": 1.0211545, "tags": {"source": "cadastre-dgi-fr source : Direction G\u00e9n\u00e9rale des Imp\u00f4ts - Cadastre ; mise \u00e0 jour : 2008"}}, {"type": "node", "id": 339094622, "lat": 47.8224412, "lon": 1.0211322, "tags": {"source": "cadastre-dgi-fr source : Direction G\u00e9n\u00e9rale des Imp\u00f4ts - Cadastre ; mise \u00e0 jour : 2008"}}, {"type": "node", "id": 339094623, "lat": 47.8220537, "lon": 1.0209638, "tags": {"source": "cadastre-dgi-fr source : Direction G\u00e9n\u00e9rale des Imp\u00f4ts - Cadastre ; mise \u00e0 jour : 2008"}}, {"type": "node", "id": 339096997, "lat": 47.8221641, "lon": 1.021223, "tags": {"source": "cadastre-dgi-fr source : Direction G\u00e9n\u00e9rale des Imp\u00f4ts - Cadastre ; mise \u00e0 jour : 2008"}}, {"type": "node", "id": 339096998, "lat": 47.8220473, "lon": 1.0211653, "tags": {"source": "cadastre-dgi-fr source : Direction G\u00e9n\u00e9rale des Imp\u00f4ts - Cadastre ; mise \u00e0 jour : 2008"}}, {"type": "node", "id": 339096999, "lat": 47.8220338, "lon": 1.021223, "tags": {"source": "cadastre-dgi-fr source : Direction G\u00e9n\u00e9rale des Imp\u00f4ts - Cadastre ; mise \u00e0 jour : 2008"}}, {"type": "node", "id": 339097000, "lat": 47.8224175, "lon": 1.0212592, "tags": {"source": "cadastre-dgi-fr source : Direction G\u00e9n\u00e9rale des Imp\u00f4ts - Cadastre ; mise \u00e0 jour : 2008"}}, {"type": "node", "id": 361207158, "lat": 47.9001763, "lon": 0.9295781, "tags": {"bus": "yes", "highway": "bus_stop", "name": "\u00c9puisay", "public_transport": "stop_position"}}, {"type": "node", "id": 378188838, "lat": 47.8102265, "lon": 0.9830074, "tags": {"bench": "no", "bin": "no", "highway": "bus_stop", "lit": "no", "name": "Villiers-sur-Loir - Avenue Colin", "operator": "TLC", "route_ref": "13", "shelter": "no", "tactile_paving": "no"}}, {"type": "node", "id": 414714576, "lat": 47.7924015, "lon": 1.0016994, "tags": {"highway": "bus_stop", "name": "Villepoupin", "operator": "TLC", "route_ref": "13", "shelter": "yes"}}, {"type": "node", "id": 415566632, "lat": 47.8035995, "lon": 0.9985243, "tags": {"bench": "yes", "bin": "yes", "check_date:shelter": "2021-09-17", "highway": "bus_stop", "name": "Villiers-sur-Loir - \u00c9cole", "operator": "TLC", "route_ref": "13", "shelter": "yes"}}, {"type": "node", "id": 432500036, "lat": 47.7929365, "lon": 1.0332487, "tags": {"highway": "bus_stop", "shelter": "yes"}}, {"type": "node", "id": 521333214, "lat": 47.776432, "lon": 0.8034851, "tags": {"name": "Tr\u00f4o", "railway": "station", "source": "cadastre-dgi-fr source : Direction G\u00e9n\u00e9rale des Imp\u00f4ts - Cadastre. Mise \u00e0 jour : 2008"}}, {"type": "node", "id": 609079534, "lat": 47.803487, "lon": 1.1771725, "tags": {"highway": "bus_stop", "name": "Faye"}}, {"type": "node", "id": 618906866, "lat": 47.4355716, "lon": 0.7487307, "tags": {"bus": "yes", "gtfs:release_date:FR-CVL-FB": "2025-01-29", "gtfs:stop_code:FR-CVL-FB": "PERSB-2", "gtfs:stop_id:FR-CVL-FB": "TTR:PERSB-2", "gtfs:stop_name:FR-CVL-FB": "Perri\u00e8res", "highway": "bus_stop", "name": "Perri\u00e8res", "public_transport": "stop_position"}}, {"type": "node", "id": 624368803, "lat": 47.5437301, "lon": 0.8990939, "tags": {"bus": "yes", "highway": "bus_stop", "name": "La Chanterie", "public_transport": "stop_position"}}, {"type": "node", "id": 720634557, "lat": 47.82216, "lon": 1.0215287, "tags": {"bus": "yes", "highway": "bus_stop", "name": "Vend\u00f4me-Villiers TGV", "opening_hours": "Mo-Fr 06:20-21:15; Sa 06:45-13:30,13:45-20:00; Su 11:40-21:20", "public_transport": "stop_position"}}, {"type": "node", "id": 720634602, "lat": 47.8152909, "lon": 1.0226914, "tags": {"bus": "yes", "departures_board": "timetable", "highway": "bus_stop", "name": "Cit\u00e9es Unies", "network": "Move", "operator": "Move", "public_transport": "platform", "ref": "Vendome Cit\u00e9es Unies", "shelter": "no", "tactile_paving": "no"}}, {"type": "node", "id": 720638970, "lat": 47.8037706, "lon": 1.035309, "tags": {"bench": "yes", "bus": "yes", "departures_board": "timetable", "highway": "bus_stop", "name": "Les 4 Tilleuls", "network": "Move", "operator": "Move", "public_transport": "platform", "ref": "Vendome Les 4 Tilleuls", "shelter": "yes", "tactile_paving": "yes"}}, {"type": "node", "id": 789360331, "lat": 47.7982312, "lon": 1.0622392, "tags": {"bench": "yes", "bin": "no", "highway": "bus_stop", "name": "G\u00e9rard Yvon", "operator": "T\u00e9A", "shelter": "yes", "tactile_paving": "yes"}}, {"type": "node", "id": 789360340, "lat": 47.7941715, "lon": 1.064653, "tags": {"bus": "yes", "departures_board": "yes", "highway": "bus_stop", "name": "H\u00f4pital", "network": "Move", "operator": "Move", "public_transport": "platform", "ref": "Vend\u00f4me Hopital", "shelter": "yes"}}, {"type": "node", "id": 789360342, "lat": 47.794897, "lon": 1.0625348, "tags": {"bus": "yes", "departures_board": "timetable", "highway": "bus_stop", "name": "Saint-Michel", "network": "Move", "operator": "Move", "public_transport": "platform", "ref": "Vendome Saint-Michel", "shelter": "no"}}, {"type": "node", "id": 789360343, "lat": 47.7962581, "lon": 1.0607181, "tags": {"bench": "no", "bus": "yes", "highway": "bus_stop", "name": "Kennedy", "network": "Move", "operator": "Move", "public_transport": "platform", "ref": "Vendome Kennedy", "shelter": "yes", "tactile_paving": "yes"}}, {"type": "node", "id": 789360344, "lat": 47.7982145, "lon": 1.0613232, "tags": {"bench": "yes", "bin": "no", "check_date:shelter": "2022-02-15", "highway": "bus_stop", "name": "G\u00e9rard Yvon", "operator": "T\u00e9A", "shelter": "yes", "tactile_paving": "yes"}}, {"type": "node", "id": 789360348, "lat": 47.7942664, "lon": 1.0644829, "tags": {"bus": "yes", "departures_board": "timetable", "highway": "bus_stop", "name": "H\u00f4pital", "network": "Move", "operator": "Move", "public_transport": "platform", "ref": "Vend\u00f4me hopital", "shelter": "no"}}, {"type": "node", "id": 789360351, "lat": 47.7948822, "lon": 1.0628514, "tags": {"bus": "yes", "departures_board": "timetable", "highway": "bus_stop", "name": "Saint-Michel", "network": "Move", "operator": "Move", "public_transport": "platform", "ref": "Vendome Saint-Michel", "shelter": "no"}}, {"type": "node", "id": 789360355, "lat": 47.7960298, "lon": 1.0605262, "tags": {"bus": "yes", "check_date:shelter": "2021-01-12", "departures_board": "timetable", "highway": "bus_stop", "name": "Kennedy", "network": "Move", "operator": "Move", "ref": "Vendome Kennedy", "shelter": "yes", "tactile_paving": "yes"}}, {"type": "node", "id": 842088686, "lat": 47.6929253, "lon": 1.0124985, "tags": {"bus": "yes", "highway": "bus_stop", "name": "Saint-Amand Longpr\u00e9", "public_transport": "stop_position"}}, {"type": "node", "id": 842089194, "lat": 47.6930846, "lon": 1.0120828, "tags": {"name": "Saint-Amand de Vend\u00f4me", "operator": "SNCF", "public_transport": "station", "railway": "station", "source": "cadastre-dgi-fr source : Direction G\u00e9n\u00e9rale des Imp\u00f4ts - Cadastre. Mise \u00e0 jour : 2010", "train": "yes", "uic_ref": "8757464", "wikidata": "Q3097480"}}, {"type": "node", "id": 842837309, "lat": 47.6608518, "lon": 0.6463705, "tags": {"bench": "no", "highway": "bus_stop", "name": "Arr\u00eat Bus RPI", "shelter": "yes", "tactile_paving": "no"}}, {"type": "node", "id": 864968480, "lat": 47.5635688, "lon": 1.010727, "tags": {"bus": "yes", "highway": "bus_stop", "name": "Morand \u2212 Centre", "public_transport": "stop_position"}}, {"type": "node", "id": 865037519, "lat": 47.5961264, "lon": 1.2984756, "tags": {"bench": "yes", "bus": "yes", "highway": "bus_stop", "name": "Parodi", "public_transport": "platform", "shelter": "yes"}}, {"type": "node", "id": 875622757, "lat": 47.4822482, "lon": 0.8845975, "tags": {"bus": "yes", "highway": "bus_stop", "name": "Reugny - Centre", "public_transport": "stop_position"}}, {"type": "node", "id": 884609810, "lat": 47.6165708, "lon": 0.650025, "tags": {"bench": "no", "bus": "yes", "highway": "bus_stop", "name": "Louestault \u2212 Centre", "public_transport": "stop_position", "shelter": "no", "tactile_paving": "no"}}, {"type": "node", "id": 936404442, "lat": 47.7824195, "lon": 1.0676028, "tags": {"highway": "bus_stop", "name": "Offenbach"}}, {"type": "node", "id": 1105492186, "lat": 47.4415381, "lon": 0.7517177, "tags": {"bus": "yes", "gtfs:release_date:FR-CVL-FB": "2025-01-29", "gtfs:stop_code:FR-CVL-FB": "LELOB-1", "gtfs:stop_id:FR-CVL-FB": "TTR:LELOB-1", "gtfs:stop_name:FR-CVL-FB": "Les Locquets", "highway": "bus_stop", "name": "Les Locquets", "public_transport": "stop_position"}}, {"type": "node", "id": 1105584273, "lat": 47.4486534, "lon": 0.7461693, "tags": {"bus": "yes", "gtfs:release_date:FR-CVL-FB": "2025-01-29", "gtfs:stop_code:FR-CVL-FB": "FOSNB-2", "gtfs:stop_id:FR-CVL-FB": "TTR:FOSNB-2", "gtfs:stop_name:FR-CVL-FB": "Fosse Neuve", "highway": "bus_stop", "name": "Fosse Neuve", "public_transport": "stop_position"}}, {"type": "node", "id": 1289392551, "lat": 47.504812, "lon": 0.7945612, "tags": {"highway": "bus_stop", "shelter": "yes", "source": "P144-0562", "tactile_paving": "no"}}, {"type": "node", "id": 1289392564, "lat": 47.5053935, "lon": 0.7957683, "tags": {"highway": "bus_stop", "shelter": "yes", "source": "P144-0560"}}, {"type": "node", "id": 1307688414, "lat": 47.7986392, "lon": 1.0673694, "tags": {"highway": "bus_stop", "name": "Saint-Venant", "operator": "T\u00e9a", "public_transport": "platform", "shelter": "yes"}}, {"type": "node", "id": 1307688689, "lat": 47.7985212, "lon": 1.0673681, "tags": {"highway": "bus_stop", "name": "Saint-Venant", "operator": "T\u00e9a", "public_transport": "platform", "shelter": "no"}}, {"type": "node", "id": 1307698524, "lat": 47.7986049, "lon": 1.0707088, "tags": {"highway": "bus_stop", "name": "Guimond"}}, {"type": "node", "id": 1307698605, "lat": 47.7984644, "lon": 1.0706766, "tags": {"highway": "bus_stop", "name": "Guimond"}}, {"type": "node", "id": 1393365486, "lat": 47.5959077, "lon": 0.9156167, "tags": {"bus": "yes", "highway": "bus_stop", "name": "ELAn Coluche", "public_transport": "stop_position"}}, {"type": "node", "id": 1393371695, "lat": 47.5963347, "lon": 0.9133519, "tags": {"alt_name": "Stade J. Renard", "bus": "yes", "highway": "bus_stop", "name": "Champ de Foire", "public_transport": "stop_position"}}, {"type": "node", "id": 1394528341, "lat": 47.5939414, "lon": 0.8944743, "tags": {"bus": "yes", "highway": "bus_stop", "name": "Georges Bizet", "public_transport": "stop_position"}}, {"type": "node", "id": 1394590608, "lat": 47.5874674, "lon": 0.9120765, "tags": {"bus": "yes", "highway": "bus_stop", "name": "Delamotte", "public_transport": "stop_position"}}, {"type": "node", "id": 1395085963, "lat": 47.5882627, "lon": 0.8945276, "tags": {"bus": "yes", "highway": "bus_stop", "name": "Fosse Monette", "public_transport": "stop_position"}}, {"type": "node", "id": 1395183056, "lat": 47.5898513, "lon": 0.9079383, "tags": {"bus": "yes", "highway": "bus_stop", "name": "Communaut\u00e9 de Communes", "public_transport": "stop_position"}}, {"type": "node", "id": 1395795342, "lat": 47.5911476, "lon": 0.9196671, "tags": {"bus": "yes", "highway": "bus_stop", "name": "Victor Hugo", "public_transport": "stop_position"}}, {"type": "node", "id": 1395992059, "lat": 47.5456461, "lon": 0.8894966, "tags": {"bus": "yes", "highway": "bus_stop", "name": "Villedomer - Centre", "public_transport": "stop_position"}}, {"type": "node", "id": 1400044291, "lat": 47.5635329, "lon": 1.0102935, "tags": {"bus": "yes", "highway": "bus_stop", "name": "Morand \u2212 Centre", "public_transport": "stop_position"}}, {"type": "node", "id": 1400723695, "lat": 47.5851525, "lon": 0.9228965, "tags": {"bus": "yes", "highway": "bus_stop", "name": "Bonleuvre", "public_transport": "stop_position"}}, {"type": "node", "id": 1404700163, "lat": 47.5242713, "lon": 0.9943344, "tags": {"bus": "yes", "highway": "bus_stop", "name": "Autr\u00e8che \u2212 Ch\u00e2teau/Garage", "public_transport": "stop_position", "wheelchair": "yes"}}, {"type": "node", "id": 1409880800, "lat": 47.5505603, "lon": 1.0257421, "tags": {"bus": "yes", "highway": "bus_stop", "name": "Villechenard", "public_transport": "stop_position"}}, {"type": "node", "id": 1426847317, "lat": 47.8800095, "lon": 0.8097809, "tags": {"bus": "yes", "highway": "bus_stop", "name": "Savigny-sur-Braye", "public_transport": "stop_position"}}, {"type": "node", "id": 1514000640, "lat": 47.8099313, "lon": 1.061868, "tags": {"highway": "bus_stop", "name": "Maillettes"}}, {"type": "node", "id": 1514000654, "lat": 47.8100502, "lon": 1.061951, "tags": {"highway": "bus_stop", "name": "Maillettes"}}, {"type": "node", "id": 1521066888, "lat": 47.8118981, "lon": 1.0502022, "tags": {"highway": "bus_stop", "name": "La Garde"}}, {"type": "node", "id": 1527982634, "lat": 47.8378008, "lon": 1.1843632, "tags": {"highway": "bus_stop", "shelter": "yes"}}, {"type": "node", "id": 1532957157, "lat": 47.7905583, "lon": 1.0137892, "tags": {"highway": "bus_stop", "name": "Naveil - Pr\u00e9patour"}}, {"type": "node", "id": 1543958722, "lat": 47.8161809, "lon": 1.0807694, "tags": {"bus": "yes", "highway": "bus_stop", "public_transport": "platform"}}, {"type": "node", "id": 1543965289, "lat": 47.8146481, "lon": 1.0779236, "tags": {"bus": "yes", "highway": "bus_stop", "public_transport": "platform"}}, {"type": "node", "id": 1563597445, "lat": 47.7554986, "lon": 1.0779994, "tags": {"highway": "bus_stop"}}, {"type": "node", "id": 1671969884, "lat": 47.8053366, "lon": 1.0536741, "tags": {"highway": "bus_stop", "name": "Europe", "operator": "T\u00e9A", "shelter": "yes"}}, {"type": "node", "id": 1671969935, "lat": 47.8048206, "lon": 1.0496123, "tags": {"highway": "bus_stop", "name": "Jean Moulin", "operator": "T\u00e9a", "shelter": "no"}}, {"type": "node", "id": 1671969947, "lat": 47.8053726, "lon": 1.053438, "tags": {"highway": "bus_stop", "name": "Europe", "operator": "T\u00e9A", "shelter": "no"}}, {"type": "node", "id": 1671969985, "lat": 47.8047223, "lon": 1.0497232, "tags": {"highway": "bus_stop", "name": "Jean Moulin", "operator": "T\u00e9A", "shelter": "yes"}}, {"type": "node", "id": 1671999705, "lat": 47.8056104, "lon": 1.0449891, "tags": {"highway": "bus_stop", "name": "Flandres"}}, {"type": "node", "id": 1671999710, "lat": 47.8032972, "lon": 1.0431705, "tags": {"highway": "bus_stop", "name": "Provinces", "shelter": "yes"}}, {"type": "node", "id": 1671999712, "lat": 47.8067382, "lon": 1.0479207, "tags": {"highway": "bus_stop", "name": "\u00cele-de-France"}}, {"type": "node", "id": 1671999714, "lat": 47.8012056, "lon": 1.0433637, "tags": {"highway": "bus_stop", "name": "Saint-Marc", "shelter": "yes"}}, {"type": "node", "id": 1671999729, "lat": 47.8008323, "lon": 1.0463569, "tags": {"bench": "yes", "bus": "yes", "check_date:shelter": "2021-02-15", "departures_board": "timetable", "ele": "81", "highway": "bus_stop", "name": "Industrie", "network": "Move", "operator": "Move", "shelter": "yes", "tactile_paving": "yes", "wheelchair": "yes"}}, {"type": "node", "id": 1671999730, "lat": 47.8006903, "lon": 1.0467513, "tags": {"bench": "no", "bus": "yes", "check_date:shelter": "2021-02-15", "departures_board": "timetable", "highway": "bus_stop", "name": "Industrie", "network": "Move", "operator": "Move", "shelter": "no", "tactile_paving": "yes"}}, {"type": "node", "id": 1672167771, "lat": 47.8514303, "lon": 0.9981015, "tags": {"bench": "yes", "bin": "yes", "bus": "yes", "check_date:shelter": "2021-08-26", "highway": "bus_stop", "lit": "yes", "name": "AZE- Eglise", "public_transport": "platform", "shelter": "yes", "tactile_paving": "no"}}, {"type": "node", "id": 1672167778, "lat": 47.8414702, "lon": 0.9893975, "tags": {"highway": "bus_stop", "name": "AZE - Galette D24", "shelter": "yes", "tactile_paving": "no"}}, {"type": "node", "id": 1672208425, "lat": 47.8937355, "lon": 1.0271875, "tags": {"highway": "bus_stop", "name": "Danz\u00e9 - Route de Beauch\u00eane"}}, {"type": "node", "id": 1672208436, "lat": 47.9183472, "lon": 1.081341, "tags": {"bench": "yes", "highway": "bus_stop", "name": "La Ville-aux-Clercs - Centre de Secours", "shelter": "yes"}}, {"type": "node", "id": 1672208461, "lat": 47.8924666, "lon": 1.0268315, "tags": {"bench": "no", "highway": "bus_stop", "name": "Danz\u00e9 - Mairie", "shelter": "no"}}, {"type": "node", "id": 1674296475, "lat": 47.9184827, "lon": 1.0857341, "tags": {"bench": "yes", "check_date:shelter": "2022-04-03", "highway": "bus_stop", "name": "La Ville-aux-Clercs - \u00c9glise", "shelter": "yes"}}, {"type": "node", "id": 1674301344, "lat": 47.9569496, "lon": 1.079557, "tags": {"bench": "yes", "highway": "bus_stop", "name": "Chauvigny-du-Perche - Mairie", "shelter": "yes"}}, {"type": "node", "id": 1674301345, "lat": 47.9493632, "lon": 1.0384307, "tags": {"highway": "bus_stop", "name": "Romilly"}}, {"type": "node", "id": 1711479346, "lat": 47.5862598, "lon": 1.3306547, "tags": {"bench": "yes", "bus": "yes", "departures_board": "timetable", "highway": "bus_stop", "name": "Ch\u00e2teau", "public_transport": "platform", "shelter": "yes"}}, {"type": "node", "id": 1721815502, "lat": 47.7808149, "lon": 1.0674554, "tags": {"highway": "bus_stop", "name": "Berlioz"}}, {"type": "node", "id": 1722684980, "lat": 47.7822906, "lon": 1.0676886, "tags": {"highway": "bus_stop", "name": "Offenbach"}}, {"type": "node", "id": 1722684990, "lat": 47.7807974, "lon": 1.0673184, "tags": {"highway": "bus_stop", "name": "Berlioz"}}, {"type": "node", "id": 1722691335, "lat": 47.7785479, "lon": 1.0658728, "tags": {"highway": "bus_stop", "name": "Debussy"}}, {"type": "node", "id": 1722691341, "lat": 47.7818644, "lon": 1.0680238, "tags": {"highway": "bus_stop", "name": "Faur\u00e9"}}, {"type": "node", "id": 1722691345, "lat": 47.7819004, "lon": 1.0681874, "tags": {"highway": "bus_stop", "name": "Faur\u00e9"}}, {"type": "node", "id": 1724022643, "lat": 47.7786389, "lon": 1.0658346, "tags": {"highway": "bus_stop", "name": "Debussy"}}, {"type": "node", "id": 1825587838, "lat": 47.8017667, "lon": 1.07183, "tags": {"bus": "yes", "highway": "bus_stop", "name": "Chautard", "network": "Move", "public_transport": "platform", "shelter": "no"}}, {"type": "node", "id": 1825587855, "lat": 47.8006541, "lon": 1.0755711, "tags": {"bus": "yes", "highway": "bus_stop", "name": "Hamet", "public_transport": "platform"}}, {"type": "node", "id": 1825587858, "lat": 47.8016622, "lon": 1.0718407, "tags": {"highway": "bus_stop", "name": "Chautard"}}, {"type": "node", "id": 1825587861, "lat": 47.8005394, "lon": 1.0756953, "tags": {"bus": "yes", "highway": "bus_stop", "name": "Hamet", "public_transport": "platform"}}, {"type": "node", "id": 1825587881, "lat": 47.7990047, "lon": 1.0762905, "tags": {"highway": "bus_stop", "name": "Lamartine"}}, {"type": "node", "id": 1825587886, "lat": 47.8003614, "lon": 1.0801449, "tags": {"highway": "bus_stop", "name": "Amp\u00e8re", "shelter": "no"}}, {"type": "node", "id": 1825587907, "lat": 47.7991128, "lon": 1.0761269, "tags": {"highway": "bus_stop", "name": "Lamartine"}}, {"type": "node", "id": 1825587910, "lat": 47.8004371, "lon": 1.0796783, "tags": {"highway": "bus_stop", "name": "Amp\u00e8re", "shelter": "no"}}, {"type": "node", "id": 1825587915, "lat": 47.797439, "lon": 1.0783612, "tags": {"highway": "bus_stop", "name": "Faton"}}, {"type": "node", "id": 1825587918, "lat": 47.7974768, "lon": 1.078278, "tags": {"highway": "bus_stop", "name": "Faton"}}, {"type": "node", "id": 1825621164, "lat": 47.8043772, "lon": 1.069872, "tags": {"highway": "bus_stop", "name": "Cimeti\u00e8re Nord", "operator": "T\u00e9A", "shelter": "no"}}, {"type": "node", "id": 1825621177, "lat": 47.809378, "lon": 1.0655323, "tags": {"highway": "bus_stop", "name": "Oasis"}}, {"type": "node", "id": 1825621185, "lat": 47.8044673, "lon": 1.0699338, "tags": {"highway": "bus_stop", "name": "Cimeti\u00e8re Nord", "operator": "T\u00e9A", "shelter": "no"}}, {"type": "node", "id": 1825621192, "lat": 47.8093726, "lon": 1.0654276, "tags": {"highway": "bus_stop", "name": "Oasis"}}, {"type": "node", "id": 1825634237, "lat": 47.8071224, "lon": 1.0584219, "tags": {"highway": "bus_stop", "name": "Lyc\u00e9e Ronsard"}}, {"type": "node", "id": 1846272928, "lat": 47.6166263, "lon": 0.6502547, "tags": {"bench": "yes", "bus": "yes", "highway": "bus_stop", "name": "Louestault \u2212 Centre", "public_transport": "stop_position", "shelter": "yes", "tactile_paving": "no"}}, {"type": "node", "id": 1877592280, "lat": 47.59817, "lon": 1.3037657, "tags": {"bus": "yes", "highway": "bus_stop", "name": "Louis Armand", "public_transport": "platform"}}, {"type": "node", "id": 2043492182, "lat": 47.5876061, "lon": 1.3287281, "tags": {"bus": "yes", "highway": "bus_stop", "name": "Monsabr\u00e9", "public_transport": "platform"}}, {"type": "node", "id": 2069932888, "lat": 47.5425224, "lon": 0.8365116, "tags": {"bus": "yes", "highway": "bus_stop", "name": "Crotelles \u2212 Centre", "public_transport": "stop_position"}}, {"type": "node", "id": 2098642649, "lat": 47.7985935, "lon": 1.0258301, "tags": {"bus": "yes", "highway": "bus_stop", "name": "Naveil - Montrieux"}}, {"type": "node", "id": 2099425849, "lat": 47.8037457, "lon": 0.9511112, "tags": {"highway": "bus_stop", "name": "Lunay - Clouseaux"}}, {"type": "node", "id": 2099425850, "lat": 47.810685, "lon": 0.9593564, "tags": {"bus": "yes", "highway": "bus_stop", "name": "Le Gu\u00e9 du Loir", "shelter": "separate"}}, {"type": "node", "id": 2099425851, "lat": 47.803308, "lon": 0.9507061, "tags": {"highway": "bus_stop", "name": "Lunay - Clouseaux"}}, {"type": "node", "id": 2099425852, "lat": 47.7975372, "lon": 0.9420963, "tags": {"highway": "bus_stop", "name": "Lunay - Prazerie Carrefour"}}, {"type": "node", "id": 2099439105, "lat": 47.8077812, "lon": 0.9174548, "tags": {"highway": "bus_stop", "name": "Lunay - Bourg", "shelter": "yes"}}, {"type": "node", "id": 2099439114, "lat": 47.7947425, "lon": 0.9376492, "tags": {"highway": "bus_stop", "name": "Lunay - Prazerie Centre", "shelter": "yes"}}, {"type": "node", "id": 2099439121, "lat": 47.8077433, "lon": 0.9172215, "tags": {"highway": "bus_stop", "name": "Lunay - Bourg"}}, {"type": "node", "id": 2102723847, "lat": 47.8054307, "lon": 1.0610226, "tags": {"highway": "bus_stop", "name": "Jean Emond"}}, {"type": "node", "id": 2102760808, "lat": 47.7877107, "lon": 1.0768554, "tags": {"bench": "no", "bus": "yes", "highway": "bus_stop", "name": "Chappe", "public_transport": "platform", "shelter": "no", "tactile_paving": "no"}}, {"type": "node", "id": 2102760809, "lat": 47.7866404, "lon": 1.0801151, "tags": {"bus": "yes", "highway": "bus_stop", "name": "Corbini\u00e8re", "public_transport": "platform"}}, {"type": "node", "id": 2103877087, "lat": 47.8065431, "lon": 1.0668329, "tags": {"bus": "yes", "highway": "bus_stop", "name": "Branly", "public_transport": "platform", "shelter": "yes"}}, {"type": "node", "id": 2103877099, "lat": 47.8065565, "lon": 1.0682935, "tags": {"bus": "yes", "highway": "bus_stop", "name": "Branly", "operator": "T\u00e9A", "public_transport": "platform", "shelter": "no"}}, {"type": "node", "id": 2103905823, "lat": 47.7910689, "lon": 1.0641065, "tags": {"bus": "yes", "highway": "bus_stop", "name": "Saint-Georges", "public_transport": "platform", "shelter": "no"}}, {"type": "node", "id": 2103905827, "lat": 47.7910914, "lon": 1.0640354, "tags": {"bus": "yes", "highway": "bus_stop", "name": "Saint-Georges", "public_transport": "platform", "shelter": "no"}}, {"type": "node", "id": 2103905831, "lat": 47.7948977, "lon": 1.0665296, "tags": {"bench": "no", "bus": "yes", "departures_board": "timetable", "highway": "bus_stop", "name": "Mail Leclerc", "network": "Move", "operator": "Move", "public_transport": "platform", "ref": "Vendome Mail Leclerc", "shelter": "no", "tactile_paving": "no"}}, {"type": "node", "id": 2103905835, "lat": 47.7947403, "lon": 1.0669645, "tags": {"bench": "yes", "bus": "yes", "departures_board": "timetable", "highway": "bus_stop", "name": "Mail Leclerc", "network": "Move", "operator": "Move", "public_transport": "platform", "ref": "Vendome Mail Leclerc", "shelter": "no", "tactile_paving": "yes"}}, {"type": "node", "id": 2103911967, "lat": 47.7892786, "lon": 1.0757647, "tags": {"bench": "no", "bin": "no", "bus": "yes", "highway": "bus_stop", "name": "Saint-Bienheur\u00e9", "public_transport": "platform", "shelter": "no", "tactile_paving": "no"}}, {"type": "node", "id": 2103911972, "lat": 47.7896362, "lon": 1.0671146, "tags": {"bench": "no", "bin": "no", "bus": "yes", "covered": "no", "highway": "bus_stop", "name": "Place du Ch\u00e2teau", "public_transport": "platform", "shelter": "no"}}, {"type": "node", "id": 2103911974, "lat": 47.7896822, "lon": 1.0671334, "tags": {"bench": "no", "bin": "no", "bus": "yes", "highway": "bus_stop", "name": "Place du Ch\u00e2teau", "public_transport": "platform", "shelter": "no"}}, {"type": "node", "id": 2103911983, "lat": 47.7892209, "lon": 1.0757942, "tags": {"bench": "yes", "bin": "no", "bus": "yes", "highway": "bus_stop", "name": "Saint-Bienheur\u00e9", "public_transport": "platform", "shelter": "no"}}, {"type": "node", "id": 2117843528, "lat": 47.776074, "lon": 0.8909219, "tags": {"bench": "yes", "highway": "bus_stop", "name": "Les Roches L\u00e9v\u00eaques - \u00c9glise", "shelter": "yes"}}, {"type": "node", "id": 2117843534, "lat": 47.7823986, "lon": 0.8940305, "tags": {"bench": "no", "highway": "bus_stop", "name": "Les Roches L\u00e9v\u00eaques - Saint-Gervais", "shelter": "yes"}}, {"type": "node", "id": 2117843538, "lat": 47.7824041, "lon": 0.8941563, "tags": {"bench": "no", "highway": "bus_stop", "name": "Les Roches L\u00e9v\u00eaques - Saint-Gervais", "shelter": "yes"}}, {"type": "node", "id": 2117857511, "lat": 47.7507874, "lon": 0.8712408, "tags": {"highway": "bus_stop", "name": "Montoire - Coll\u00e8ge Jeannequin", "shelter": "no"}}, {"type": "node", "id": 2117857515, "lat": 47.7594585, "lon": 0.8779008, "tags": {"bench": "no", "highway": "bus_stop", "name": "Montoire - Gendarmerie", "shelter": "yes"}}, {"type": "node", "id": 2117885710, "lat": 47.7524721, "lon": 0.8629746, "tags": {"bench": "no", "highway": "bus_stop", "name": "Montoire - Coll\u00e8ge Saint-Julien", "shelter": "no"}}, {"type": "node", "id": 2117885711, "lat": 47.7527906, "lon": 0.8618501, "tags": {"bench": "yes", "bin": "yes", "highway": "bus_stop", "lit": "yes", "name": "Montoire - Mairie", "shelter": "yes", "tactile_paving": "no"}}, {"type": "node", "id": 2117885712, "lat": 47.7555228, "lon": 0.8640318, "tags": {"bench": "yes", "highway": "bus_stop", "name": "Montoire - Place des P\u00e2tis", "shelter": "yes"}}, {"type": "node", "id": 2125327194, "lat": 47.8334717, "lon": 0.9970687, "tags": {"bench": "no", "highway": "bus_stop", "name": "AZE - La M\u00e9rilli\u00e8re D957", "shelter": "no"}}, {"type": "node", "id": 2125327196, "lat": 47.8334828, "lon": 0.9967227, "tags": {"bench": "yes", "bin": "yes", "check_date:shelter": "2021-07-15", "highway": "bus_stop", "name": "AZE - La M\u00e9rilli\u00e8re D957", "shelter": "yes"}}, {"type": "node", "id": 2142199235, "lat": 47.7937428, "lon": 1.0702081, "tags": {"bench": "yes", "bin": "no", "bus": "yes", "departures_board": "timetable", "highway": "bus_stop", "name": "Place de la Libert\u00e9", "network": "Move", "operator": "Move", "public_transport": "platform", "ref": "Vendome Place de la Libert\u00e9", "shelter": "no"}}, {"type": "node", "id": 2142267847, "lat": 47.7971002, "lon": 1.0540731, "tags": {"bench": "no", "bus": "yes", "highway": "bus_stop", "name": "Croix Blanche", "public_transport": "platform", "shelter": "no"}}, {"type": "node", "id": 2142267848, "lat": 47.7971967, "lon": 1.0540991, "tags": {"bench": "yes", "bus": "yes", "highway": "bus_stop", "name": "Croix Blanche", "public_transport": "platform", "shelter": "no"}}, {"type": "node", "id": 2142267849, "lat": 47.7983786, "lon": 1.0584964, "tags": {"bus": "yes", "highway": "bus_stop", "name": "Du Bellay", "public_transport": "platform"}}, {"type": "node", "id": 2142267850, "lat": 47.7984261, "lon": 1.058477, "tags": {"bus": "yes", "highway": "bus_stop", "name": "Du Bellay", "public_transport": "platform"}}, {"type": "node", "id": 2164227352, "lat": 47.7973211, "lon": 1.049205, "tags": {"bench": "no", "highway": "bus_stop", "name": "ZI Nord", "operator": "T\u00e9a", "shelter": "yes"}}, {"type": "node", "id": 2164227353, "lat": 47.797413, "lon": 1.0490789, "tags": {"bench": "no", "highway": "bus_stop", "name": "ZI Nord", "operator": "T\u00e9A", "shelter": "yes"}}, {"type": "node", "id": 2165021263, "lat": 47.7573969, "lon": 1.0315493, "tags": {"bench": "yes", "highway": "bus_stop", "name": "Villerable", "shelter": "yes", "source": "cadastre-dgi-fr source : Direction G\u00e9n\u00e9rale des Imp\u00f4ts - Cadastre. Mise \u00e0 jour : 2013"}}, {"type": "node", "id": 2165049289, "lat": 47.7691906, "lon": 1.0346047, "tags": {"bench": "yes", "highway": "bus_stop", "shelter": "yes", "source": "cadastre-dgi-fr source : Direction G\u00e9n\u00e9rale des Imp\u00f4ts - Cadastre. Mise \u00e0 jour : 2013"}}, {"type": "node", "id": 2165169339, "lat": 47.7497658, "lon": 0.9873679, "tags": {"bench": "yes", "highway": "bus_stop", "name": "VILLIERSFAUX", "shelter": "yes", "source": "cadastre-dgi-fr source : Direction G\u00e9n\u00e9rale des Imp\u00f4ts - Cadastre. Mise \u00e0 jour : 2013"}}, {"type": "node", "id": 2167880077, "lat": 47.8155672, "lon": 1.0699412, "tags": {"highway": "bus_stop"}}, {"type": "node", "id": 2195524715, "lat": 47.6778969, "lon": 1.042167, "tags": {"bench": "yes", "highway": "bus_stop", "shelter": "yes", "source": "cadastre-dgi-fr source : Direction G\u00e9n\u00e9rale des Imp\u00f4ts - Cadastre. Mise \u00e0 jour : 2013"}}, {"type": "node", "id": 2197506955, "lat": 47.8143094, "lon": 1.060299, "tags": {"highway": "bus_stop", "name": "Mallarm\u00e9"}}, {"type": "node", "id": 2197506956, "lat": 47.783644, "lon": 1.0722401, "tags": {"bus": "yes", "highway": "bus_stop", "name": "Bl\u00e9riot", "public_transport": "platform"}}, {"type": "node", "id": 2197510708, "lat": 47.7832744, "lon": 1.0707864, "tags": {"bus": "yes", "highway": "bus_stop", "name": "Roi Henri", "public_transport": "platform"}}, {"type": "node", "id": 2197518970, "lat": 47.7854067, "lon": 1.0712315, "tags": {"bench": "no", "highway": "bus_stop", "name": "Jeanne D'Albret", "shelter": "no", "source": "cadastre-dgi-fr source : Direction G\u00e9n\u00e9rale des Imp\u00f4ts - Cadastre. Mise \u00e0 jour : 2013"}}, {"type": "node", "id": 2197526195, "lat": 47.7788812, "lon": 1.078728, "tags": {"bus": "yes", "highway": "bus_stop", "name": "Eiffel", "public_transport": "platform", "source": "cadastre-dgi-fr source : Direction G\u00e9n\u00e9rale des Imp\u00f4ts - Cadastre. Mise \u00e0 jour : 2013"}}, {"type": "node", "id": 2197526196, "lat": 47.7763214, "lon": 1.0722039, "tags": {"bench": "no", "highway": "bus_stop", "name": "ZI Sud", "shelter": "no", "source": "cadastre-dgi-fr source : Direction G\u00e9n\u00e9rale des Imp\u00f4ts - Cadastre. Mise \u00e0 jour : 2013"}}, {"type": "node", "id": 2197526197, "lat": 47.7764134, "lon": 1.0722576, "tags": {"bench": "no", "highway": "bus_stop", "name": "ZI Sud", "shelter": "no", "source": "cadastre-dgi-fr source : Direction G\u00e9n\u00e9rale des Imp\u00f4ts - Cadastre. Mise \u00e0 jour : 2013"}}, {"type": "node", "id": 2197540335, "lat": 47.7860274, "lon": 1.0785453, "tags": {"bus": "yes", "highway": "bus_stop", "name": "Aigremonts", "public_transport": "platform", "source": "cadastre-dgi-fr source : Direction G\u00e9n\u00e9rale des Imp\u00f4ts - Cadastre. Mise \u00e0 jour : 2013"}}, {"type": "node", "id": 2197546490, "lat": 47.7800194, "lon": 1.0753191, "tags": {"bus": "yes", "highway": "bus_stop", "name": "Route de Blois", "public_transport": "platform"}}, {"type": "node", "id": 2197546491, "lat": 47.7801113, "lon": 1.0753486, "tags": {"bus": "yes", "highway": "bus_stop", "name": "Route de Blois", "public_transport": "platform"}}, {"type": "node", "id": 2276969663, "lat": 47.4301151, "lon": 0.752842, "tags": {"bus": "yes", "gtfs:release_date:FR-CVL-FB": "2025-01-29", "gtfs:stop_code:FR-CVL-FB": "VAUDB-1", "gtfs:stop_id:FR-CVL-FB": "TTR:VAUDB-1", "gtfs:stop_name:FR-CVL-FB": "Vaudasni\u00e8re", "highway": "bus_stop", "name": "Vaudasni\u00e8re", "public_transport": "stop_position"}}, {"type": "node", "id": 2276969670, "lat": 47.442182, "lon": 0.7447073, "tags": {"bus": "yes", "gtfs:release_date:FR-CVL-FB": "2025-01-29", "gtfs:stop_code:FR-CVL-FB": "PAMEB-1", "gtfs:stop_id:FR-CVL-FB": "TTR:PAMEB-1", "gtfs:stop_name:FR-CVL-FB": "Par\u00e7ay Centre", "highway": "bus_stop", "name": "Par\u00e7ay Centre", "public_transport": "stop_position"}}, {"type": "node", "id": 2276969672, "lat": 47.4382829, "lon": 0.750684, "tags": {"bus": "yes", "gtfs:release_date:FR-CVL-FB": "2025-01-29", "gtfs:stop_code:FR-CVL-FB": "FRASB-1", "gtfs:stop_id:FR-CVL-FB": "TTR:FRASB-1", "gtfs:stop_name:FR-CVL-FB": "Frasne", "highway": "bus_stop", "name": "Frasne", "public_transport": "stop_position"}}, {"type": "node", "id": 2276969675, "lat": 47.4425655, "lon": 0.7493207, "tags": {"bus": "yes", "gtfs:release_date:FR-CVL-FB": "2025-01-29", "gtfs:stop_code:FR-CVL-FB": "LESAB-1", "gtfs:stop_id:FR-CVL-FB": "TTR:LESAB-1", "gtfs:stop_name:FR-CVL-FB": "Sablonni\u00e8re", "highway": "bus_stop", "name": "Sablonni\u00e8re", "public_transport": "stop_position"}}, {"type": "node", "id": 2276969698, "lat": 47.437276, "lon": 0.7480266, "tags": {"bus": "yes", "gtfs:release_date:FR-CVL-FB": "2025-01-29", "gtfs:stop_code:FR-CVL-FB": "LAVLB-1", "gtfs:stop_id:FR-CVL-FB": "TTR:LAVLB-1", "gtfs:stop_name:FR-CVL-FB": "La Vall\u00e9e", "highway": "bus_stop", "name": "La Vall\u00e9e", "public_transport": "stop_position"}}, {"type": "node", "id": 2276969710, "lat": 47.4359352, "lon": 0.7486402, "tags": {"bus": "yes", "gtfs:release_date:FR-CVL-FB": "2025-01-29", "gtfs:stop_code:FR-CVL-FB": "PERSB-1", "gtfs:stop_id:FR-CVL-FB": "TTR:PERSB-1", "gtfs:stop_name:FR-CVL-FB": "Perri\u00e8res", "highway": "bus_stop", "name": "Perri\u00e8res", "public_transport": "stop_position"}}, {"type": "node", "id": 2276969732, "lat": 47.4373508, "lon": 0.7480518, "tags": {"bus": "yes", "gtfs:release_date:FR-CVL-FB": "2025-01-29", "gtfs:stop_code:FR-CVL-FB": "LAVLB-2", "gtfs:stop_id:FR-CVL-FB": "TTR:LAVLB-2", "gtfs:stop_name:FR-CVL-FB": "La Vall\u00e9e", "highway": "bus_stop", "name": "La Vall\u00e9e", "public_transport": "stop_position"}}, {"type": "node", "id": 2276969768, "lat": 47.4419896, "lon": 0.7450938, "tags": {"bus": "yes", "gtfs:release_date:FR-CVL-FB": "2025-01-29", "gtfs:stop_code:FR-CVL-FB": "PAMEB-2", "gtfs:stop_id:FR-CVL-FB": "TTR:PAMEB-2", "gtfs:stop_name:FR-CVL-FB": "Par\u00e7ay Centre", "highway": "bus_stop", "name": "Par\u00e7ay Centre", "public_transport": "stop_position"}}, {"type": "node", "id": 2276969774, "lat": 47.4413415, "lon": 0.7518657, "tags": {"bus": "yes", "gtfs:release_date:FR-CVL-FB": "2025-01-29", "gtfs:stop_code:FR-CVL-FB": "LELOB-2", "gtfs:stop_id:FR-CVL-FB": "TTR:LELOB-2", "gtfs:stop_name:FR-CVL-FB": "Les Locquets", "highway": "bus_stop", "name": "Les Locquets", "public_transport": "stop_position"}}, {"type": "node", "id": 2276969786, "lat": 47.4384823, "lon": 0.7510812, "tags": {"bus": "yes", "gtfs:release_date:FR-CVL-FB": "2025-01-29", "gtfs:stop_code:FR-CVL-FB": "FRASB-2", "gtfs:stop_id:FR-CVL-FB": "TTR:FRASB-2", "gtfs:stop_name:FR-CVL-FB": "Frasne", "highway": "bus_stop", "name": "Frasne", "public_transport": "stop_position"}}, {"type": "node", "id": 2333153085, "lat": 47.7979338, "lon": 1.0647711, "tags": {"highway": "bus_stop", "operator": "Cr\u00e9abus"}}, {"type": "node", "id": 2345249801, "lat": 47.8014052, "lon": 1.0699017, "tags": {"highway": "bus_stop", "name": "Gare TER", "operator": "T\u00e9A"}}, {"type": "node", "id": 2345249802, "lat": 47.8009902, "lon": 1.0696057, "tags": {"highway": "bus_stop", "name": "Gare TER", "operator": "VBUS", "shelter": "no"}}, {"type": "node", "id": 2349321252, "lat": 47.8032041, "lon": 1.0356281, "tags": {"bench": "yes", "bin": "no", "departures_board": "timetable", "highway": "bus_stop", "lit": "no", "name": "Les 4 Tilleuls", "network": "Move", "operator": "Move", "ref": "Vendome Les 4 Tilleuls", "shelter": "yes", "tactile_paving": "yes"}}, {"type": "node", "id": 2349321258, "lat": 47.8153757, "lon": 1.022806, "tags": {"bus": "yes", "departures_board": "timetable", "highway": "bus_stop", "name": "Cit\u00e9es Unies", "network": "Move", "operator": "Move", "public_transport": "platform", "ref": "Vendome Cit\u00e9es Unies", "shelter": "no", "tactile_paving": "no"}}, {"type": "node", "id": 2349345433, "lat": 47.8011201, "lon": 1.0433707, "tags": {"bench": "yes", "bin": "no", "bus": "yes", "departures_board": "timetable", "highway": "bus_stop", "name": "Saint-Marc", "network": "Move", "operator": "Move", "shelter": "no"}}, {"type": "node", "id": 2351277357, "lat": 47.8008166, "lon": 1.0497612, "tags": {"bus": "yes", "departures_board": "timetable", "highway": "bus_stop", "name": "Jouhaux", "network": "Move", "operator": "Move", "public_transport": "stop_position", "shelter": "no"}}, {"type": "node", "id": 2351305108, "lat": 47.8018638, "lon": 1.0676955, "tags": {"bus": "yes", "highway": "bus_stop", "name": "Vend\u00f4me - Gare TER", "public_transport": "stop_position"}}, {"type": "node", "id": 2354908750, "lat": 47.787532, "lon": 1.0635989, "tags": {"bus": "yes", "highway": "bus_stop", "name": "Saint-Lubin", "public_transport": "platform"}}, {"type": "node", "id": 2354908751, "lat": 47.7875287, "lon": 1.0637244, "tags": {"bus": "yes", "highway": "bus_stop", "name": "Saint-Lubin", "public_transport": "platform"}}, {"type": "node", "id": 2385139807, "lat": 47.7856206, "lon": 1.0810201, "tags": {"bench": "yes", "bus": "yes", "highway": "bus_stop", "name": "Proust", "public_transport": "platform", "shelter": "yes"}}, {"type": "node", "id": 2398213066, "lat": 47.5240133, "lon": 0.9946331, "tags": {"bus": "yes", "highway": "bus_stop", "name": "Autr\u00e8che \u2212 Ch\u00e2teau/Garage", "public_transport": "stop_position", "wheelchair": "yes"}}, {"type": "node", "id": 2400741061, "lat": 47.5886111, "lon": 0.9174884, "tags": {"bus": "yes", "highway": "bus_stop", "name": "Ch\u00e2teau-Renault \u2212 H\u00f4pital", "public_transport": "stop_position"}}, {"type": "node", "id": 2400741071, "lat": 47.5876432, "lon": 0.9017506, "tags": {"bus": "yes", "highway": "bus_stop", "name": "Ch\u00e2teau-Renault \u2212 Gare SNCF - Cour de la Gare", "public_transport": "stop_position"}}, {"type": "node", "id": 2400741079, "lat": 47.5877961, "lon": 0.9015238, "tags": {"name": "Ch\u00e2teau-Renault", "operator": "SNCF", "railway": "station", "railway:ref:DB": "XFCTR", "source": "SNCF - 06/2013", "train": "yes", "uic_ref": "8757466", "wikidata": "Q3096228", "wikipedia": "fr:Gare de Ch\u00e2teau-Renault"}}, {"type": "node", "id": 2980205415, "lat": 47.8072851, "lon": 1.0654761, "tags": {"bus": "yes", "highway": "bus_stop", "name": "Danan", "operator": "Move", "public_transport": "platform", "shelter": "no"}}, {"type": "node", "id": 2980208563, "lat": 47.8071402, "lon": 1.0646987, "tags": {"bus": "yes", "highway": "bus_stop", "name": "Danan", "operator": "Move", "public_transport": "platform", "shelter": "no"}}, {"type": "node", "id": 2980228660, "lat": 47.801706, "lon": 1.0689725, "tags": {"bench": "yes", "check_date:shelter": "2020-09-15", "highway": "bus_stop", "name": "Gare TER", "operator": "T\u00e9A", "shelter": "yes", "tactile_paving": "yes"}}, {"type": "node", "id": 3256866342, "lat": 47.583613, "lon": 1.3219224, "tags": {"bench": "yes", "bin": "yes", "bus": "yes", "highway": "bus_stop", "lit": "yes", "name": "Gambetta", "public_transport": "platform", "shelter": "yes", "tactile_paving": "no"}}, {"type": "node", "id": 3256866343, "lat": 47.5843083, "lon": 1.3197368, "tags": {"bench": "yes", "bus": "yes", "highway": "bus_stop", "name": "M\u00e9dicis", "public_transport": "platform", "shelter": "yes"}}, {"type": "node", "id": 3257060232, "lat": 47.5885341, "lon": 1.3132651, "tags": {"bench": "yes", "bus": "yes", "highway": "bus_stop", "name": "Saint-Joseph", "public_transport": "platform", "shelter": "yes"}}, {"type": "node", "id": 3257060233, "lat": 47.5902282, "lon": 1.3119859, "tags": {"bench": "yes", "bus": "yes", "highway": "bus_stop", "name": "Jules Ferry", "public_transport": "platform", "shelter": "yes"}}, {"type": "node", "id": 3257100907, "lat": 47.592185, "lon": 1.3132022, "tags": {"bench": "yes", "highway": "bus_stop", "name": "Lewes", "public_transport": "platform", "shelter": "yes"}}, {"type": "node", "id": 3257100908, "lat": 47.5949205, "lon": 1.31474, "tags": {"bench": "yes", "highway": "bus_stop", "name": "Ader", "public_transport": "platform", "shelter": "no"}}, {"type": "node", "id": 3257100909, "lat": 47.5982573, "lon": 1.3177808, "tags": {"bench": "yes", "highway": "bus_stop", "name": "Mermoz", "public_transport": "platform", "shelter": "yes"}}, {"type": "node", "id": 3257100910, "lat": 47.6017832, "lon": 1.3215946, "tags": {"highway": "bus_stop", "name": "Industrie", "public_transport": "platform", "shelter": "yes"}}, {"type": "node", "id": 3470134756, "lat": 47.5831002, "lon": 1.3205817, "tags": {"bench": "yes", "highway": "bus_stop", "name": "Charles d'Orl\u00e9ans", "public_transport": "platform", "shelter": "yes"}}, {"type": "node", "id": 3470134757, "lat": 47.5983059, "lon": 1.3175983, "tags": {"bench": "yes", "highway": "bus_stop", "name": "Mermoz", "public_transport": "platform"}}, {"type": "node", "id": 3470134758, "lat": 47.5882175, "lon": 1.313367, "tags": {"bench": "yes", "bus": "yes", "highway": "bus_stop", "name": "Saint-Joseph", "public_transport": "platform", "shelter": "yes"}}, {"type": "node", "id": 3470138157, "lat": 47.5922246, "lon": 1.3129702, "tags": {"bench": "yes", "highway": "bus_stop", "name": "Lewes", "public_transport": "platform", "shelter": "yes"}}, {"type": "node", "id": 3491351064, "lat": 47.592893, "lon": 0.9150317, "tags": {"bus": "yes", "highway": "bus_stop", "name": "Ch\u00e2teau-Renault \u2212 Place Jean Jaur\u00e8s", "public_transport": "stop_position"}}, {"type": "node", "id": 3491351065, "lat": 47.5909276, "lon": 0.9081276, "tags": {"bus": "yes", "highway": "bus_stop", "name": "La Tannerie", "public_transport": "stop_position"}}, {"type": "node", "id": 3551863529, "lat": 47.5849476, "lon": 0.9225604, "tags": {"bus": "yes", "highway": "bus_stop", "name": "Bonleuvre", "public_transport": "stop_position"}}, {"type": "node", "id": 3565317504, "lat": 47.591519, "lon": 1.2838803, "tags": {"highway": "bus_stop", "name": "Cimeti\u00e8re", "public_transport": "platform", "source": "survey"}}, {"type": "node", "id": 3792894398, "lat": 47.4457227, "lon": 0.7421377, "tags": {"bus": "yes", "gtfs:release_date:FR-CVL-FB": "2025-01-29", "gtfs:stop_code:FR-CVL-FB": "THBAB-1", "gtfs:stop_id:FR-CVL-FB": "TTR:THBAB-1", "gtfs:stop_name:FR-CVL-FB": "Thibaudi\u00e8re", "highway": "bus_stop", "name": "Thibaudi\u00e8re", "public_transport": "stop_position"}}, {"type": "node", "id": 3792894399, "lat": 47.4453357, "lon": 0.7428237, "tags": {"bus": "yes", "gtfs:release_date:FR-CVL-FB": "2025-01-29", "gtfs:stop_code:FR-CVL-FB": "THBAB-2", "gtfs:stop_id:FR-CVL-FB": "TTR:THBAB-2", "gtfs:stop_name:FR-CVL-FB": "Thibaudi\u00e8re", "highway": "bus_stop", "name": "Thibaudi\u00e8re", "public_transport": "stop_position"}}, {"type": "node", "id": 3904841095, "lat": 47.8219316, "lon": 1.0209031}, {"type": "node", "id": 3904841096, "lat": 47.8220549, "lon": 1.020958}, {"type": "node", "id": 3904841108, "lat": 47.8220199, "lon": 1.0208352, "tags": {"entrance": "yes", "level": "0"}}, {"type": "node", "id": 3904841116, "lat": 47.8219277, "lon": 1.0211829, "tags": {"entrance": "main", "level": "0"}}, {"type": "node", "id": 3904841121, "lat": 47.8220133, "lon": 1.0208325, "tags": {"entrance": "yes", "layer": "1", "level": "1"}}, {"type": "node", "id": 3904921811, "lat": 47.8218157, "lon": 1.0208628}, {"type": "node", "id": 3904921815, "lat": 47.8218939, "lon": 1.0208971}, {"type": "node", "id": 3904921822, "lat": 47.822084, "lon": 1.0211823}, {"type": "node", "id": 4001005479, "lat": 47.6008886, "lon": 0.9247003, "tags": {"bus": "yes", "highway": "bus_stop", "name": "\u00c9mile Zola", "public_transport": "stop_position"}}, {"type": "node", "id": 4012782544, "lat": 47.4871737, "lon": 0.9482704, "tags": {"description": "Transports scolaires", "highway": "bus_stop", "public_transport": "platform"}}, {"type": "node", "id": 4030610460, "lat": 47.5125724, "lon": 0.9103755, "tags": {"bus": "yes", "highway": "bus_stop", "name": "Neuill\u00e9-le-Lierre \u2212 Centre", "public_transport": "stop_position"}}, {"type": "node", "id": 4030610461, "lat": 47.5898605, "lon": 0.9216292, "tags": {"alt_name": "Joran", "bus": "yes", "highway": "bus_stop", "name": "Saint-Malo", "public_transport": "stop_position"}}, {"type": "node", "id": 4030610926, "lat": 47.5426682, "lon": 0.9193793, "tags": {"bus": "yes", "highway": "bus_stop", "name": "Auzouer-en-Touraine \u2212 Centre", "public_transport": "stop_position", "wheelchair": "yes"}}, {"type": "node", "id": 4030610927, "lat": 47.4590262, "lon": 0.8780625, "tags": {"bus": "yes", "highway": "bus_stop", "name": "Chan\u00e7ay \u2212 Gare SNCF", "public_transport": "stop_position"}}, {"type": "node", "id": 4030610929, "lat": 47.5872618, "lon": 0.9027546, "tags": {"bus": "yes", "highway": "bus_stop", "name": "Ch\u00e2teau-Renault \u2212 Gare SNCF - Boulevard National", "public_transport": "stop_position", "wheelchair": "yes"}}, {"type": "node", "id": 4030610932, "lat": 47.4971625, "lon": 0.7833008, "tags": {"bus": "yes", "highway": "bus_stop", "name": "Croix-Po\u00eblon", "public_transport": "stop_position"}}, {"type": "node", "id": 4030610933, "lat": 47.5024136, "lon": 0.790805, "tags": {"bus": "yes", "highway": "bus_stop", "name": "J-B Moreau", "public_transport": "stop_position"}}, {"type": "node", "id": 4030610934, "lat": 47.4746709, "lon": 0.8809267, "tags": {"bus": "yes", "highway": "bus_stop", "name": "La Roubelli\u00e8re", "public_transport": "stop_position"}}, {"type": "node", "id": 4058724400, "lat": 47.5703216, "lon": 0.6709765, "tags": {"bus": "yes", "highway": "bus_stop", "name": "Beaumont-la-Ronce \u2212 Centre", "public_transport": "stop_position"}}, {"type": "node", "id": 4058724401, "lat": 47.5704977, "lon": 0.6711499, "tags": {"bus": "yes", "highway": "bus_stop", "name": "Beaumont-la-Ronce \u2212 Centre", "public_transport": "stop_position"}}, {"type": "node", "id": 4058724404, "lat": 47.6586066, "lon": 0.6442768, "tags": {"bench": "yes", "bus": "yes", "highway": "bus_stop", "name": "Chemill\u00e9-sur-D\u00eame \u2212 Maison de Retraite", "public_transport": "stop_position", "shelter": "yes", "tactile_paving": "no"}}, {"type": "node", "id": 4058724405, "lat": 47.6586734, "lon": 0.6438977, "tags": {"bench": "yes", "bus": "yes", "highway": "bus_stop", "name": "Chemill\u00e9-sur-D\u00eame \u2212 Maison de Retraite", "public_transport": "stop_position", "shelter": "yes", "tactile_paving": "no"}}, {"type": "node", "id": 4058724409, "lat": 47.6572383, "lon": 0.6486074, "tags": {"bus": "yes", "highway": "bus_stop", "name": "Route de Tours", "public_transport": "stop_position"}}, {"type": "node", "id": 4058724410, "lat": 47.6574814, "lon": 0.6485469, "tags": {"bus": "yes", "highway": "bus_stop", "name": "Route de Tours", "public_transport": "stop_position"}}, {"type": "node", "id": 4059848901, "lat": 47.524959, "lon": 0.9969403, "tags": {"bus": "yes", "highway": "bus_stop", "name": "Autr\u00e8che \u2212 Mairie", "public_transport": "stop_position"}}, {"type": "node", "id": 4059848902, "lat": 47.5409262, "lon": 1.031817, "tags": {"bus": "yes", "highway": "bus_stop", "name": "Dame-Marie-les-Bois \u2212 Centre", "public_transport": "stop_position"}}, {"type": "node", "id": 4059848905, "lat": 47.5850541, "lon": 1.0364547, "tags": {"bus": "yes", "highway": "bus_stop", "name": "Saint-Nicolas-des-Motets \u2212 Centre", "public_transport": "stop_position"}}, {"type": "node", "id": 4059848906, "lat": 47.6036411, "lon": 0.9725073, "tags": {"bus": "yes", "highway": "bus_stop", "name": "Saunay - Centre", "public_transport": "stop_position"}}, {"type": "node", "id": 4081125145, "lat": 47.5939648, "lon": 0.8987854, "tags": {"bus": "yes", "highway": "bus_stop", "name": "Bel-Air", "public_transport": "stop_position"}}, {"type": "node", "id": 4081125146, "lat": 47.5873884, "lon": 0.8961395, "tags": {"bus": "yes", "highway": "bus_stop", "name": "Boisni\u00e8re", "public_transport": "stop_position"}}, {"type": "node", "id": 4081125147, "lat": 47.5899102, "lon": 0.9013503, "tags": {"bus": "yes", "highway": "bus_stop", "name": "Centre Commercial", "public_transport": "stop_position"}}, {"type": "node", "id": 4081125148, "lat": 47.5990451, "lon": 0.9111277, "tags": {"bus": "yes", "highway": "bus_stop", "name": "Cimeti\u00e8re", "public_transport": "stop_position"}}, {"type": "node", "id": 4081125149, "lat": 47.6002934, "lon": 0.9238546, "tags": {"bus": "yes", "highway": "bus_stop", "name": "Colette", "public_transport": "stop_position"}}, {"type": "node", "id": 4081125150, "lat": 47.5982406, "lon": 0.9260179, "tags": {"bus": "yes", "highway": "bus_stop", "name": "Gendarmerie", "public_transport": "stop_position"}}, {"type": "node", "id": 4081125151, "lat": 47.595495, "lon": 0.9124642, "tags": {"bus": "yes", "highway": "bus_stop", "name": "G\u00e9n\u00e9ral de Gaulle", "public_transport": "stop_position"}}, {"type": "node", "id": 4081125152, "lat": 47.5928637, "lon": 0.9130792, "tags": {"bus": "yes", "highway": "bus_stop", "name": "Mairie-Le Ch\u00e2teau", "public_transport": "stop_position"}}, {"type": "node", "id": 4081125153, "lat": 47.5906287, "lon": 0.9096813, "tags": {"bus": "yes", "highway": "bus_stop", "name": "Michelet", "public_transport": "stop_position"}}, {"type": "node", "id": 4081125284, "lat": 47.5972414, "lon": 0.9206414, "tags": {"bus": "yes", "highway": "bus_stop", "name": "8 Mai", "public_transport": "stop_position"}}, {"type": "node", "id": 4086120436, "lat": 47.867025, "lon": 1.1411834, "tags": {"bus": "yes", "highway": "bus_stop", "name": "Pezou", "public_transport": "stop_position"}}, {"type": "node", "id": 4246759043, "lat": 47.5896321, "lon": 0.8939519, "tags": {"bench": "yes", "bin": "yes", "highway": "bus_stop", "shelter": "yes"}}, {"type": "node", "id": 4256686979, "lat": 47.7569758, "lon": 1.0809387, "tags": {"highway": "bus_stop", "shelter": "yes"}}, {"type": "node", "id": 4380440370, "lat": 47.588712, "lon": 0.9177474, "tags": {"bus": "yes", "highway": "bus_stop", "name": "Ch\u00e2teau-Renault \u2212 H\u00f4pital", "public_transport": "stop_position"}}, {"type": "node", "id": 4380561279, "lat": 47.5872517, "lon": 0.9016529, "tags": {"bus": "yes", "highway": "bus_stop", "name": "Ch\u00e2teau-Renault \u2212 Gare SNCF - Rue de Launey", "public_transport": "stop_position", "wheelchair": "yes"}}, {"type": "node", "id": 4380561794, "lat": 47.5885773, "lon": 0.9026162, "tags": {"bus": "yes", "highway": "bus_stop", "name": "Ch\u00e2teau-Renault \u2212 Gare SNCF - Caserne des Pompiers", "public_transport": "stop_position"}}, {"type": "node", "id": 4380688097, "lat": 47.5887248, "lon": 0.9051992, "tags": {"bus": "yes", "highway": "bus_stop", "name": "Le Maine", "public_transport": "stop_position"}}, {"type": "node", "id": 4380688127, "lat": 47.5895395, "lon": 0.9098085, "tags": {"bus": "yes", "highway": "bus_stop", "name": "Foulerie", "public_transport": "stop_position"}}, {"type": "node", "id": 4407396635, "lat": 47.9107098, "lon": 1.144532, "tags": {"bench": "yes", "covered": "yes", "highway": "bus_stop", "shelter": "yes"}}, {"type": "node", "id": 4437822952, "lat": 47.4878622, "lon": 0.9502613, "tags": {"bench": "no", "highway": "bus_stop", "shelter": "no"}}, {"type": "node", "id": 4438928102, "lat": 47.4871559, "lon": 0.9482873, "tags": {"bin": "yes", "highway": "bus_stop", "shelter": "yes"}}, {"type": "node", "id": 4550084940, "lat": 47.5854563, "lon": 1.3234577, "tags": {"name": "Blois - Chambord", "operator": "SNCF", "public_transport": "station", "railway": "station", "train": "yes", "uic_ref": "8757400", "wheelchair": "yes", "wikidata": "Q2273271", "wikipedia": "fr:Gare de Blois"}}, {"type": "node", "id": 4612229822, "lat": 47.6001435, "lon": 0.9219617, "tags": {"bus": "yes", "highway": "bus_stop", "name": "Ruau", "public_transport": "stop_position"}}, {"type": "node", "id": 4613109764, "lat": 47.594467, "lon": 0.898038, "tags": {"bus": "yes", "highway": "bus_stop", "name": "Marie Curie", "public_transport": "stop_position"}}, {"type": "node", "id": 4695270000, "lat": 47.5867655, "lon": 0.9088334, "tags": {"bus": "yes", "highway": "bus_stop", "name": "Ch\u00e2teau Renault - Lyc\u00e9e Beauregard", "public_transport": "stop_position"}}, {"type": "node", "id": 4695270003, "lat": 47.5869791, "lon": 0.9095428, "tags": {"bus": "yes", "highway": "bus_stop", "name": "Beauregard", "public_transport": "platform"}}, {"type": "node", "id": 4903886906, "lat": 47.5945873, "lon": 1.2999283, "tags": {"bench": "no", "highway": "bus_stop", "name": "Bougainville", "public_transport": "platform", "shelter": "no"}}, {"type": "node", "id": 4903886908, "lat": 47.595036, "lon": 1.3007235, "tags": {"bench": "yes", "highway": "bus_stop", "name": "Bougainville", "public_transport": "platform", "shelter": "yes"}}, {"type": "node", "id": 4923925602, "lat": 47.5925051, "lon": 1.2997403, "tags": {"bench": "yes", "bus": "yes", "highway": "bus_stop", "name": "Duguay-Trouin", "public_transport": "platform", "shelter": "yes"}}, {"type": "node", "id": 4923925603, "lat": 47.5921244, "lon": 1.2995966, "tags": {"bench": "yes", "bus": "yes", "highway": "bus_stop", "name": "Duguay-Trouin", "public_transport": "platform", "shelter": "yes"}}, {"type": "node", "id": 5327778152, "lat": 47.5837112, "lon": 1.3224159, "tags": {"bench": "yes", "bus": "yes", "highway": "bus_stop", "name": "Gambetta", "public_transport": "platform", "shelter": "yes"}}, {"type": "node", "id": 5349727307, "lat": 47.800749, "lon": 1.0498929, "tags": {"bench": "no", "bus": "yes", "departures_board": "timetable", "highway": "bus_stop", "name": "Jouhaux", "network": "Move", "operator": "Move", "public_transport": "platform", "shelter": "no", "tactile_paving": "yes"}}, {"type": "node", "id": 5628366611, "lat": 47.573498, "lon": 1.3019688, "tags": {"bench": "yes", "bin": "yes", "bus": "yes", "highway": "bus_stop", "name": "Taille aux Moines", "public_transport": "platform", "shelter": "yes", "tactile_paving": "no"}}, {"type": "node", "id": 5628366612, "lat": 47.5735588, "lon": 1.2994603, "tags": {"bench": "no", "bin": "no", "bus": "yes", "highway": "bus_stop", "name": "Juteau", "public_transport": "platform", "shelter": "no"}}, {"type": "node", "id": 5628366613, "lat": 47.5766296, "lon": 1.3020236, "tags": {"bus": "yes", "highway": "bus_stop", "name": "Camille Claudel", "public_transport": "platform", "shelter": "yes"}}, {"type": "node", "id": 5628366614, "lat": 47.5767359, "lon": 1.301738, "tags": {"bus": "yes", "highway": "bus_stop", "name": "Camille Claudel", "public_transport": "platform", "shelter": "no"}}, {"type": "node", "id": 5628366615, "lat": 47.5787564, "lon": 1.3013441, "tags": {"bus": "yes", "highway": "bus_stop", "name": "Quini\u00e8re", "public_transport": "platform"}}, {"type": "node", "id": 5628366616, "lat": 47.5787058, "lon": 1.3012422, "tags": {"bus": "yes", "highway": "bus_stop", "name": "Quini\u00e8re", "public_transport": "platform"}}, {"type": "node", "id": 5628366617, "lat": 47.5806869, "lon": 1.3016398, "tags": {"bus": "yes", "highway": "bus_stop", "name": "La Fontaine", "public_transport": "platform"}}, {"type": "node", "id": 5628366618, "lat": 47.5809927, "lon": 1.302211, "tags": {"bus": "yes", "highway": "bus_stop", "name": "La Fontaine", "public_transport": "platform"}}, {"type": "node", "id": 5628367921, "lat": 47.581146, "lon": 1.3082399, "tags": {"bus": "yes", "highway": "bus_stop", "name": "Mar\u00e9chal Juin", "public_transport": "platform"}}, {"type": "node", "id": 5628367922, "lat": 47.5814063, "lon": 1.3078364, "tags": {"bus": "yes", "highway": "bus_stop", "name": "Mar\u00e9chal Juin", "public_transport": "platform"}}, {"type": "node", "id": 5628367923, "lat": 47.5784873, "lon": 1.3110872, "tags": {"bench": "yes", "bin": "yes", "bus": "yes", "highway": "bus_stop", "name": "Clemenceau", "public_transport": "platform", "shelter": "yes", "tactile_paving": "no"}}, {"type": "node", "id": 5628367924, "lat": 47.5784119, "lon": 1.3110729, "tags": {"bench": "yes", "bin": "yes", "bus": "yes", "highway": "bus_stop", "name": "Clemenceau", "public_transport": "platform", "shelter": "yes", "tactile_paving": "no"}}, {"type": "node", "id": 5628367925, "lat": 47.5812016, "lon": 1.3163467, "tags": {"bus": "yes", "highway": "bus_stop", "name": "Guynemer", "public_transport": "platform"}}, {"type": "node", "id": 5628367926, "lat": 47.5814104, "lon": 1.3168811, "tags": {"bus": "yes", "highway": "bus_stop", "name": "Guynemer", "public_transport": "platform"}}, {"type": "node", "id": 5628367927, "lat": 47.5830127, "lon": 1.3201716, "tags": {"bus": "yes", "highway": "bus_stop", "name": "Charles d'Orl\u00e9ans", "public_transport": "platform"}}, {"type": "node", "id": 5628367928, "lat": 47.5831301, "lon": 1.3227525, "tags": {"bus": "yes", "highway": "bus_stop", "name": "Montlaur", "public_transport": "platform"}}, {"type": "node", "id": 5628681234, "lat": 47.5902697, "lon": 1.3117737, "tags": {"bench": "yes", "bus": "yes", "highway": "bus_stop", "name": "Jules Ferry", "public_transport": "platform", "shelter": "yes"}}, {"type": "node", "id": 5628681235, "lat": 47.593502, "lon": 1.3091633, "tags": {"bench": "yes", "bus": "yes", "highway": "bus_stop", "name": "B\u00e9gon", "public_transport": "platform", "shelter": "yes"}}, {"type": "node", "id": 5628681236, "lat": 47.5917552, "lon": 1.3075199, "tags": {"bench": "yes", "bus": "yes", "check_date:shelter": "2024-03-08", "highway": "bus_stop", "name": "Genevoix", "public_transport": "platform", "shelter": "yes"}}, {"type": "node", "id": 5628681237, "lat": 47.5899023, "lon": 1.3060688, "tags": {"bus": "yes", "highway": "bus_stop", "name": "Lorjou", "public_transport": "platform"}}, {"type": "node", "id": 5628681238, "lat": 47.5901434, "lon": 1.3062794, "tags": {"bus": "yes", "highway": "bus_stop", "name": "Lorjou", "public_transport": "platform"}}, {"type": "node", "id": 5628681239, "lat": 47.5895134, "lon": 1.302818, "tags": {"bus": "yes", "highway": "bus_stop", "name": "Europe", "public_transport": "platform"}}, {"type": "node", "id": 5628681240, "lat": 47.5895279, "lon": 1.3034038, "tags": {"bus": "yes", "highway": "bus_stop", "name": "Europe", "public_transport": "platform"}}, {"type": "node", "id": 5628681241, "lat": 47.593974, "lon": 1.2979901, "tags": {"bench": "yes", "bus": "yes", "highway": "bus_stop", "name": "Duguesclin", "public_transport": "platform", "shelter": "yes"}}, {"type": "node", "id": 5628681242, "lat": 47.5972948, "lon": 1.2992688, "tags": {"bench": "yes", "bus": "yes", "highway": "bus_stop", "name": "Mitonnellerie", "public_transport": "platform", "shelter": "yes"}}, {"type": "node", "id": 5628681243, "lat": 47.5980773, "lon": 1.3074353, "tags": {"bus": "yes", "highway": "bus_stop", "name": "Pigel\u00e9e", "public_transport": "platform"}}, {"type": "node", "id": 5628681244, "lat": 47.5995592, "lon": 1.3082856, "tags": {"bus": "yes", "highway": "bus_stop", "name": "Latham", "public_transport": "platform"}}, {"type": "node", "id": 5628681245, "lat": 47.5988949, "lon": 1.3072185, "tags": {"bus": "yes", "highway": "bus_stop", "name": "Sauvageau", "public_transport": "platform"}}, {"type": "node", "id": 5632358211, "lat": 47.5690081, "lon": 1.3309174, "tags": {"highway": "bus_stop", "name": "Agl'Eau", "public_transport": "platform"}}, {"type": "node", "id": 5632358212, "lat": 47.5689173, "lon": 1.3324431, "tags": {"bench": "yes", "bin": "yes", "highway": "bus_stop", "name": "Agl'Eau", "public_transport": "platform", "shelter": "yes", "tactile_paving": "no"}}, {"type": "node", "id": 5632358214, "lat": 47.5724102, "lon": 1.3386151, "tags": {"highway": "bus_stop", "name": "Blois-Vienne", "public_transport": "platform"}}, {"type": "node", "id": 5632358215, "lat": 47.5723978, "lon": 1.3383948, "tags": {"highway": "bus_stop", "name": "Blois-Vienne", "public_transport": "platform"}}, {"type": "node", "id": 5632755008, "lat": 47.5668366, "lon": 1.3202048, "tags": {"bench": "yes", "highway": "bus_stop", "name": "B\u00e9jun", "public_transport": "platform", "shelter": "yes"}}, {"type": "node", "id": 5632755010, "lat": 47.5692439, "lon": 1.3231475, "tags": {"bus": "yes", "highway": "bus_stop", "name": "Bas-Riv\u00e8re", "operator": "Keolis", "public_transport": "platform"}}, {"type": "node", "id": 5632755011, "lat": 47.5691311, "lon": 1.3231174, "tags": {"bus": "yes", "highway": "bus_stop", "name": "Bas-Rivi\u00e8re", "operator": "Keolis", "public_transport": "platform"}}, {"type": "node", "id": 5632755012, "lat": 47.5717071, "lon": 1.3254471, "tags": {"bus": "yes", "highway": "bus_stop", "name": "Puy-Cuisy", "public_transport": "platform"}}, {"type": "node", "id": 5632755014, "lat": 47.5717846, "lon": 1.325393, "tags": {"bus": "yes", "highway": "bus_stop", "name": "Puy-Cuisy", "operator": "Keolis", "public_transport": "platform"}}, {"type": "node", "id": 5632755016, "lat": 47.5729604, "lon": 1.3276205, "tags": {"bus": "yes", "highway": "bus_stop", "name": "Croix-Rouge", "operator": "Keolis", "public_transport": "platform"}}, {"type": "node", "id": 5632755017, "lat": 47.5729161, "lon": 1.3275514, "tags": {"bus": "yes", "highway": "bus_stop", "name": "Croix-Rouge", "operator": "Keolis", "public_transport": "platform"}}, {"type": "node", "id": 5632755018, "lat": 47.5738538, "lon": 1.3321713, "tags": {"bus": "yes", "highway": "bus_stop", "name": "Rabateux", "operator": "Keolis", "public_transport": "platform"}}, {"type": "node", "id": 5632755019, "lat": 47.573978, "lon": 1.3325907, "tags": {"bus": "yes", "highway": "bus_stop", "name": "Rabateux", "operator": "Keolis", "public_transport": "platform"}}, {"type": "node", "id": 5720244929, "lat": 47.5882139, "lon": 1.3149257, "tags": {"bench": "yes", "bus": "yes", "highway": "bus_stop", "name": "Kennedy", "public_transport": "platform", "shelter": "yes"}}, {"type": "node", "id": 5720244930, "lat": 47.5905923, "lon": 1.3169649, "tags": {"bus": "yes", "highway": "bus_stop", "name": "Waldshut", "public_transport": "platform"}}, {"type": "node", "id": 5720244931, "lat": 47.5953563, "lon": 1.3175872, "tags": {"bench": "yes", "bus": "yes", "highway": "bus_stop", "name": "Pierre et Marie Curie", "public_transport": "platform", "shelter": "yes"}}, {"type": "node", "id": 5720244932, "lat": 47.5976837, "lon": 1.3137349, "tags": {"bench": "yes", "bus": "yes", "highway": "bus_stop", "name": "Br\u00e9guet", "public_transport": "platform", "shelter": "yes"}}, {"type": "node", "id": 5720244933, "lat": 47.5983946, "lon": 1.3103597, "tags": {"bench": "yes", "bus": "yes", "highway": "bus_stop", "name": "D\u00e9troyat", "public_transport": "platform", "shelter": "yes"}}, {"type": "node", "id": 5720244934, "lat": 47.6028489, "lon": 1.309085, "tags": {"bench": "yes", "bus": "yes", "highway": "bus_stop", "name": "Centre de Secours", "public_transport": "platform", "shelter": "yes"}}, {"type": "node", "id": 5720244942, "lat": 47.606245, "lon": 1.3125963, "tags": {"bench": "no", "bin": "yes", "bus": "yes", "highway": "bus_stop", "lit": "no", "name": "Gutemberg", "public_transport": "platform", "shelter": "no", "tactile_paving": "no"}}, {"type": "node", "id": 5720244943, "lat": 47.6097888, "lon": 1.3088655, "tags": {"bus": "yes", "highway": "bus_stop", "name": "Vend\u00f4me", "public_transport": "platform", "shelter": "no"}}, {"type": "node", "id": 5720244944, "lat": 47.6238838, "lon": 1.2989886, "tags": {"bus": "yes", "highway": "bus_stop", "name": "Blois 2", "public_transport": "platform"}}, {"type": "node", "id": 5725744973, "lat": 47.5864118, "lon": 1.2902995, "tags": {"bus": "yes", "highway": "bus_stop", "name": "Pin\u00e7onni\u00e8re", "public_transport": "platform"}}, {"type": "node", "id": 5725744974, "lat": 47.5879551, "lon": 1.2911636, "tags": {"bus": "yes", "highway": "bus_stop", "name": "Gen\u00eats", "public_transport": "platform"}}, {"type": "node", "id": 5725744975, "lat": 47.5873659, "lon": 1.2985174, "tags": {"bus": "yes", "highway": "bus_stop", "name": "Lac", "public_transport": "platform"}}, {"type": "node", "id": 5725744976, "lat": 47.5872212, "lon": 1.2983794, "tags": {"bus": "yes", "highway": "bus_stop", "name": "Lac", "public_transport": "platform"}}, {"type": "node", "id": 5725744977, "lat": 47.5818143, "lon": 1.2985715, "tags": {"bus": "yes", "highway": "bus_stop", "name": "All\u00e9es", "public_transport": "platform"}}, {"type": "node", "id": 5725744978, "lat": 47.5818788, "lon": 1.2982335, "tags": {"bus": "yes", "highway": "bus_stop", "name": "All\u00e9es", "public_transport": "platform"}}, {"type": "node", "id": 5725744979, "lat": 47.5837212, "lon": 1.3115153, "tags": {"bench": "no", "bin": "yes", "bus": "yes", "check_date:shelter": "2024-08-13", "highway": "bus_stop", "name": "Arrou", "public_transport": "platform", "shelter": "no", "tactile_paving": "yes"}}, {"type": "node", "id": 5725744980, "lat": 47.5843025, "lon": 1.3152432, "tags": {"bench": "no", "bus": "yes", "highway": "bus_stop", "name": "Racine", "public_transport": "platform", "shelter": "no"}}, {"type": "node", "id": 5726118822, "lat": 47.6237853, "lon": 1.3077168, "tags": {"bus": "yes", "highway": "bus_stop", "name": "Pervenches", "public_transport": "platform"}}, {"type": "node", "id": 5726118823, "lat": 47.626241, "lon": 1.3054258, "tags": {"bus": "yes", "highway": "bus_stop", "name": "Mauvi\u00e8re", "public_transport": "platform"}}, {"type": "node", "id": 6702761400, "lat": 47.5729475, "lon": 1.3029091, "tags": {"bus": "yes", "highway": "bus_stop", "name": "Taille aux Moines", "public_transport": "platform"}}, {"type": "node", "id": 6946339152, "lat": 47.8324209, "lon": 1.0729326, "tags": {"bus": "yes", "highway": "bus_stop", "public_transport": "platform"}}, {"type": "node", "id": 7215896106, "lat": 47.5898387, "lon": 1.2958892, "tags": {"bus": "yes", "highway": "bus_stop", "name": "Montesquieu", "public_transport": "platform", "source": "survey"}}, {"type": "node", "id": 7215896107, "lat": 47.5892264, "lon": 1.2960783, "tags": {"bus": "yes", "highway": "bus_stop", "name": "Montesquieu", "public_transport": "platform", "source": "survey"}}, {"type": "node", "id": 7215896108, "lat": 47.593556, "lon": 1.2912027, "tags": {"highway": "bus_stop", "name": "Villiersfins", "public_transport": "platform", "source": "survey"}}, {"type": "node", "id": 7215896109, "lat": 47.593547, "lon": 1.2910371, "tags": {"highway": "bus_stop", "name": "Villiersfins", "public_transport": "platform", "source": "survey"}}, {"type": "node", "id": 7215896111, "lat": 47.5914686, "lon": 1.2837776, "tags": {"highway": "bus_stop", "name": "Cimeti\u00e8re", "public_transport": "platform", "source": "survey"}}, {"type": "node", "id": 7223212993, "lat": 47.5840922, "lon": 1.3200076, "tags": {"bench": "yes", "bus": "yes", "highway": "bus_stop", "name": "M\u00e9dicis", "public_transport": "platform"}}, {"type": "node", "id": 7223212994, "lat": 47.5953458, "lon": 1.3151999, "tags": {"bench": "yes", "bus": "yes", "highway": "bus_stop", "name": "Ader", "public_transport": "platform", "shelter": "yes"}}, {"type": "node", "id": 7223212995, "lat": 47.6019954, "lon": 1.3220716, "tags": {"highway": "bus_stop", "name": "Industrie", "public_transport": "platform"}}, {"type": "node", "id": 7227271156, "lat": 47.5843147, "lon": 1.3158113, "tags": {"bench": "yes", "bus": "yes", "highway": "bus_stop", "name": "Racine", "public_transport": "platform", "shelter": "yes"}}, {"type": "node", "id": 7227271157, "lat": 47.5836797, "lon": 1.3114855, "tags": {"bench": "yes", "bin": "yes", "bus": "yes", "highway": "bus_stop", "name": "Arrou", "public_transport": "platform", "shelter": "no", "tactile_paving": "yes"}}, {"type": "node", "id": 7227271158, "lat": 47.5879438, "lon": 1.2912449, "tags": {"bus": "yes", "highway": "bus_stop", "name": "Gen\u00eats", "public_transport": "platform"}}, {"type": "node", "id": 7230008129, "lat": 47.5978338, "lon": 1.3068433, "tags": {"bus": "yes", "highway": "bus_stop", "name": "Pigel\u00e9e", "public_transport": "platform"}}, {"type": "node", "id": 7230008130, "lat": 47.5983474, "lon": 1.3038272, "tags": {"bench": "yes", "bus": "yes", "highway": "bus_stop", "name": "Louis Armand", "public_transport": "platform", "shelter": "yes"}}, {"type": "node", "id": 7230008131, "lat": 47.597746, "lon": 1.2992594, "tags": {"bus": "yes", "highway": "bus_stop", "name": "Mitonnellerie", "public_transport": "platform"}}, {"type": "node", "id": 7230008132, "lat": 47.5962159, "lon": 1.2989831, "tags": {"bench": "yes", "bus": "yes", "highway": "bus_stop", "name": "Parodi", "public_transport": "platform", "shelter": "yes"}}, {"type": "node", "id": 7230008133, "lat": 47.5940453, "lon": 1.2980933, "tags": {"bench": "yes", "bus": "yes", "highway": "bus_stop", "name": "Duguesclin", "public_transport": "platform"}}, {"type": "node", "id": 7230008134, "lat": 47.5920999, "lon": 1.3079819, "tags": {"bench": "yes", "bus": "yes", "highway": "bus_stop", "name": "Genevoix", "public_transport": "platform", "shelter": "yes"}}, {"type": "node", "id": 7230008135, "lat": 47.593263, "lon": 1.3087316, "tags": {"bench": "yes", "bus": "yes", "highway": "bus_stop", "name": "B\u00e9gon", "public_transport": "platform", "shelter": "yes"}}, {"type": "node", "id": 7231117524, "lat": 47.5669957, "lon": 1.3202165, "tags": {"highway": "bus_stop", "name": "B\u00e9jun", "public_transport": "platform"}}, {"type": "node", "id": 7231117527, "lat": 47.5884901, "lon": 1.3153379, "tags": {"bench": "yes", "bus": "yes", "highway": "bus_stop", "name": "Kennedy", "public_transport": "platform", "shelter": "yes"}}, {"type": "node", "id": 7231117528, "lat": 47.5911032, "lon": 1.3175641, "tags": {"bus": "yes", "highway": "bus_stop", "name": "Waldshut", "public_transport": "platform"}}, {"type": "node", "id": 7231117529, "lat": 47.595685, "lon": 1.3174286, "tags": {"bench": "yes", "bus": "yes", "highway": "bus_stop", "name": "Pierre et Marie Curie", "public_transport": "platform", "shelter": "yes"}}, {"type": "node", "id": 7231117530, "lat": 47.5974001, "lon": 1.3142791, "tags": {"bench": "yes", "bus": "yes", "highway": "bus_stop", "name": "Br\u00e9guet", "public_transport": "platform", "shelter": "yes"}}, {"type": "node", "id": 7231117531, "lat": 47.5986205, "lon": 1.3099185, "tags": {"bench": "yes", "bus": "yes", "highway": "bus_stop", "name": "D\u00e9troyat", "public_transport": "platform", "shelter": "yes"}}, {"type": "node", "id": 7231117532, "lat": 47.5993675, "lon": 1.3082944, "tags": {"bench": "yes", "bus": "yes", "highway": "bus_stop", "name": "Latham", "public_transport": "platform", "shelter": "yes"}}, {"type": "node", "id": 7231117533, "lat": 47.602689, "lon": 1.3091326, "tags": {"bus": "yes", "highway": "bus_stop", "name": "Centre de Secours", "public_transport": "platform"}}, {"type": "node", "id": 7231117534, "lat": 47.6061332, "lon": 1.3124961, "tags": {"bus": "yes", "highway": "bus_stop", "name": "Gutemberg", "public_transport": "platform"}}, {"type": "node", "id": 7231117535, "lat": 47.6099126, "lon": 1.3089126, "tags": {"bus": "yes", "highway": "bus_stop", "name": "Vend\u00f4me", "public_transport": "platform", "shelter": "no"}}, {"type": "node", "id": 7236017218, "lat": 47.6261661, "lon": 1.3054238, "tags": {"bus": "yes", "highway": "bus_stop", "name": "Mauvi\u00e8re", "public_transport": "platform"}}, {"type": "node", "id": 7236017219, "lat": 47.623868, "lon": 1.3077754, "tags": {"bus": "yes", "highway": "bus_stop", "name": "Pervenches", "public_transport": "platform"}}, {"type": "node", "id": 7279508212, "lat": 47.8559883, "lon": 0.7451069, "tags": {"highway": "bus_stop", "public_transport": "platform"}}, {"type": "node", "id": 7279508213, "lat": 47.8333299, "lon": 0.7457775, "tags": {"bus": "yes", "highway": "bus_stop", "public_transport": "platform"}}, {"type": "node", "id": 7279508214, "lat": 47.7721764, "lon": 0.8231941, "tags": {"highway": "bus_stop", "public_transport": "platform", "shelter": "no"}}, {"type": "node", "id": 7279508215, "lat": 47.7774111, "lon": 0.7765612, "tags": {"highway": "bus_stop", "public_transport": "platform"}}, {"type": "node", "id": 7279508216, "lat": 47.7774976, "lon": 0.7763305, "tags": {"highway": "bus_stop", "public_transport": "platform"}}, {"type": "node", "id": 8018120384, "lat": 47.792237, "lon": 1.0604197, "tags": {"bus": "yes", "highway": "bus_stop", "name": "Gr\u00e8ve", "public_transport": "platform"}}, {"type": "node", "id": 8063787712, "lat": 47.80787, "lon": 1.0843728, "tags": {"bus": "yes", "highway": "bus_stop", "public_transport": "platform"}}, {"type": "node", "id": 8063787713, "lat": 47.8079201, "lon": 1.0843015, "tags": {"bus": "yes", "highway": "bus_stop", "public_transport": "platform"}}, {"type": "node", "id": 8063787714, "lat": 47.8107015, "lon": 1.0858664, "tags": {"bus": "yes", "highway": "bus_stop", "name": "\u00c9glise", "public_transport": "platform"}}, {"type": "node", "id": 8284342250, "lat": 47.7748894, "lon": 0.7614296, "tags": {"bus": "yes", "highway": "bus_stop", "public_transport": "platform", "shelter": "yes"}}, {"type": "node", "id": 8460067662, "lat": 47.4956726, "lon": 0.932359, "tags": {"bus": "yes", "highway": "bus_stop", "public_transport": "platform", "shelter": "no"}}, {"type": "node", "id": 8600348716, "lat": 47.793705, "lon": 1.0704199, "tags": {"bench": "yes", "bus": "yes", "departures_board": "timetable", "highway": "bus_stop", "name": "Place de la Libert\u00e9", "network": "Move", "operator": "Move", "public_transport": "platform", "ref": "Vendome Place de la Libert\u00e9", "shelter": "yes", "tactile_paving": "yes"}}, {"type": "node", "id": 8603462672, "lat": 47.810687, "lon": 1.0281468, "tags": {"bench": "yes", "bus": "yes", "departures_board": "timetable", "highway": "bus_stop", "name": "Mons", "network": "Move", "operator": "Move", "public_transport": "platform", "ref": "Vendome Mons", "shelter": "yes", "tactile_paving": "no"}}, {"type": "node", "id": 8603464625, "lat": 47.8108152, "lon": 1.0280336, "tags": {"bench": "no", "bus": "yes", "departures_board": "timetable", "highway": "bus_stop", "name": "Mons", "network": "Move", "operator": "Move", "public_transport": "platform", "ref": "Vendome Mons", "shelter": "yes", "tactile_paving": "no"}}, {"type": "node", "id": 8638700037, "lat": 47.5941274, "lon": 1.319033, "tags": {"bus": "yes", "departures_board": "no", "highway": "bus_stop", "name": "Marignan", "network": "Azalys", "operator": "Keolis Blois", "public_transport": "platform"}}, {"type": "node", "id": 8638700038, "lat": 47.5941033, "lon": 1.3189682, "tags": {"bus": "yes", "departures_board": "no", "highway": "bus_stop", "name": "Marignan", "network": "Azalys", "operator": "Keolis Blois", "public_transport": "platform"}}, {"type": "node", "id": 9047940439, "lat": 47.8152678, "lon": 0.5621929, "tags": {"bus": "yes", "highway": "bus_stop", "name": "Courdemanche Place Jacques De La Mothe", "network": "Al\u00e9op", "network:wikidata": "Q65156365", "network:wikipedia": "fr:Al\u00e9op", "operator": "Al\u00e9op", "public_transport": "platform", "shelter": "yes", "url": "https://aleop.paysdelaloire.fr/"}}, {"type": "node", "id": 9115284464, "lat": 47.4738341, "lon": 0.74952, "tags": {"bus": "yes", "gtfs:release_date:FR-CVL-FB": "2025-01-29", "gtfs:stop_code:FR-CVL-FB": "LADIB-2", "gtfs:stop_id:FR-CVL-FB": "TTR:LADIB-2", "gtfs:stop_name:FR-CVL-FB": "La Diablerie", "highway": "bus_stop", "name": "La Diablerie", "public_transport": "stop_position"}}, {"type": "node", "id": 9187339020, "lat": 47.8068264, "lon": 0.9927643, "tags": {"bench": "no", "bin": "no", "bus": "yes", "highway": "bus_stop", "lit": "no", "name": "La Poste", "network": "R\u00e9mi", "network:wikidata": "Q39075313", "network:wikipedia": "fr:R\u00e9seau de mobilit\u00e9 interurbaine", "public_transport": "platform", "shelter": "no", "tactile_paving": "no"}}, {"type": "node", "id": 9269950244, "lat": 47.5852613, "lon": 1.3242602, "tags": {"bench": "yes", "bin": "yes", "bus": "yes", "departures_board": "realtime", "highway": "bus_stop", "name": "Gare SNCF", "network": "Azalys", "network:wikidata": "Q24936087", "operator": "Keolis Blois", "public_transport": "platform", "shelter": "yes", "tactile_paving": "yes"}}, {"type": "node", "id": 9362399774, "lat": 47.5720091, "lon": 1.3105536, "tags": {"bus": "yes", "highway": "bus_stop", "name": "Rote aux \u00c2nes", "network": "Azalys", "operator": "Keolis", "public_transport": "platform"}}, {"type": "node", "id": 9362399775, "lat": 47.5765899, "lon": 1.3186101, "tags": {"bench": "yes", "bin": "no", "bus": "yes", "highway": "bus_stop", "lit": "yes", "name": "Les Imberts", "network": "Azalys", "operator": "Keolis", "public_transport": "platform", "shelter": "no", "tactile_paving": "no"}}, {"type": "node", "id": 9362399776, "lat": 47.5793868, "lon": 1.323581, "tags": {"bus": "yes", "highway": "bus_stop", "name": "Foix", "network": "Azalys", "operator": "Keolis", "public_transport": "platform"}}, {"type": "node", "id": 9362399777, "lat": 47.5809391, "lon": 1.3275201, "tags": {"bus": "yes", "highway": "bus_stop", "name": "Arceau", "network": "Azalys", "operator": "Keolis", "public_transport": "platform"}}, {"type": "node", "id": 9362416115, "lat": 47.5762215, "lon": 1.3179668, "tags": {"bench": "yes", "bin": "no", "bus": "yes", "highway": "bus_stop", "lit": "yes", "name": "Les Imberts", "network": "Azalys", "operator": "Keolis", "public_transport": "platform", "shelter": "no", "tactile_paving": "no"}}, {"type": "node", "id": 9362416116, "lat": 47.5721145, "lon": 1.3104557, "tags": {"bus": "yes", "highway": "bus_stop", "name": "Rote aux \u00c2nes", "network": "Azalys", "operator": "Keolis", "public_transport": "platform"}}, {"type": "node", "id": 9362523617, "lat": 47.5628638, "lon": 1.3006905, "tags": {"bus": "yes", "highway": "bus_stop", "name": "Petit Pont", "network": "Azalys", "operator": "Keolis", "public_transport": "platform", "shelter": "no"}}, {"type": "node", "id": 9364103715, "lat": 47.5892071, "lon": 1.3077898, "tags": {"bus": "yes", "highway": "bus_stop", "name": "Jean Bart", "network": "Azalys", "network:wikidata": "Q24936087", "operator": "Keolis Blois", "public_transport": "platform"}}, {"type": "node", "id": 9372776929, "lat": 47.5893273, "lon": 1.3071551, "tags": {"bus": "yes", "highway": "bus_stop", "name": "Jean Bart", "network": "Azalys", "network:wikidata": "Q24936087", "operator": "Keolis Blois", "public_transport": "platform"}}, {"type": "node", "id": 9544969243, "lat": 47.4806631, "lon": 0.8089958, "tags": {"bus": "yes", "highway": "bus_stop", "public_transport": "platform"}}, {"type": "node", "id": 9562915432, "lat": 47.6484132, "lon": 1.1226076, "tags": {"bench": "no", "bin": "no", "bus": "yes", "highway": "bus_stop", "lit": "no", "public_transport": "platform", "shelter": "no", "tactile_paving": "no"}}, {"type": "node", "id": 9562915433, "lat": 47.6484504, "lon": 1.122688, "tags": {"bench": "no", "bin": "no", "bus": "yes", "highway": "bus_stop", "lit": "no", "public_transport": "platform", "shelter": "no", "tactile_paving": "no"}}, {"type": "node", "id": 9570261975, "lat": 47.5897815, "lon": 0.9212908, "tags": {"bus": "yes", "highway": "bus_stop", "public_transport": "platform"}}, {"type": "node", "id": 9570441569, "lat": 47.6005807, "lon": 0.9365126, "tags": {"bus": "yes", "highway": "bus_stop", "public_transport": "platform"}}, {"type": "node", "id": 9577873265, "lat": 47.56376, "lon": 1.0107723, "tags": {"bus": "yes", "highway": "bus_stop", "public_transport": "platform"}}, {"type": "node", "id": 9583292096, "lat": 47.6722149, "lon": 1.264121, "tags": {"bus": "yes", "highway": "bus_stop", "public_transport": "platform"}}, {"type": "node", "id": 9599415853, "lat": 47.6239756, "lon": 1.2823553, "tags": {"bus": "yes", "highway": "bus_stop", "public_transport": "platform"}}, {"type": "node", "id": 9599415854, "lat": 47.6233919, "lon": 1.2827129, "tags": {"bus": "yes", "highway": "bus_stop", "public_transport": "platform"}}, {"type": "node", "id": 9599415855, "lat": 47.6235842, "lon": 1.2827557, "tags": {"bus": "yes", "highway": "bus_stop", "public_transport": "platform"}}, {"type": "node", "id": 9607812957, "lat": 47.5882172, "lon": 1.313334, "tags": {"bench": "yes", "bus": "yes", "highway": "bus_stop", "name": "Saint-Joseph", "public_transport": "platform", "shelter": "yes"}}, {"type": "node", "id": 9625663198, "lat": 47.6716689, "lon": 1.239415, "tags": {"bus": "yes", "highway": "bus_stop", "name": "La Chapelle-Vend\u00f4moise Mairie", "network": "R\u00e9mi", "network:wikidata": "Q39075313", "public_transport": "platform"}}, {"type": "node", "id": 9625663199, "lat": 47.6715403, "lon": 1.2393591, "tags": {"bus": "yes", "highway": "bus_stop", "name": "La Chapelle-Vend\u00f4moise Mairie", "network": "R\u00e9mi", "network:wikidata": "Q39075313", "public_transport": "platform"}}, {"type": "node", "id": 9625700124, "lat": 47.697589, "lon": 1.2258043, "tags": {"bus": "yes", "highway": "bus_stop", "public_transport": "platform"}}, {"type": "node", "id": 9625700125, "lat": 47.69774, "lon": 1.225735, "tags": {"bus": "yes", "highway": "bus_stop", "public_transport": "platform"}}, {"type": "node", "id": 9625731471, "lat": 47.693346, "lon": 1.2194264, "tags": {"bus": "yes", "highway": "bus_stop", "public_transport": "platform"}}, {"type": "node", "id": 9625731472, "lat": 47.6933328, "lon": 1.2196309, "tags": {"bus": "yes", "highway": "bus_stop", "public_transport": "platform"}}, {"type": "node", "id": 9625731473, "lat": 47.6931361, "lon": 1.219515, "tags": {"bus": "yes", "highway": "bus_stop", "public_transport": "platform"}}, {"type": "node", "id": 9625796629, "lat": 47.6876114, "lon": 1.1951843, "tags": {"bus": "yes", "highway": "bus_stop", "public_transport": "platform"}}, {"type": "node", "id": 9625796660, "lat": 47.6881683, "lon": 1.1978774, "tags": {"bus": "yes", "highway": "bus_stop", "public_transport": "platform"}}, {"type": "node", "id": 9625796661, "lat": 47.6881456, "lon": 1.1979202, "tags": {"bus": "yes", "highway": "bus_stop", "public_transport": "platform"}}, {"type": "node", "id": 9626478858, "lat": 47.6760401, "lon": 1.1147494, "tags": {"bus": "yes", "highway": "bus_stop", "public_transport": "platform"}}, {"type": "node", "id": 9626478859, "lat": 47.6755162, "lon": 1.1151418, "tags": {"bench": "yes", "bin": "yes", "bus": "yes", "highway": "bus_stop", "lit": "no", "name": "Jardin de Cassandre n\u00b06-8", "public_transport": "platform", "shelter": "yes", "tactile_paving": "no"}}, {"type": "node", "id": 9628574914, "lat": 47.6849654, "lon": 1.1587533, "tags": {"bus": "yes", "highway": "bus_stop", "public_transport": "platform"}}, {"type": "node", "id": 9628574915, "lat": 47.6849604, "lon": 1.1586512, "tags": {"bus": "yes", "highway": "bus_stop", "public_transport": "platform", "shelter": "yes"}}, {"type": "node", "id": 9628872284, "lat": 47.6410773, "lon": 1.2262937, "tags": {"bus": "yes", "highway": "bus_stop", "public_transport": "platform"}}, {"type": "node", "id": 9628872316, "lat": 47.6436551, "lon": 1.2331547, "tags": {"bus": "yes", "highway": "bus_stop", "public_transport": "platform"}}, {"type": "node", "id": 9628940814, "lat": 47.6466224, "lon": 1.2648645, "tags": {"bus": "yes", "highway": "bus_stop", "public_transport": "platform"}}, {"type": "node", "id": 9629042954, "lat": 47.6454384, "lon": 1.2761086, "tags": {"bus": "yes", "highway": "bus_stop", "public_transport": "platform", "shelter": "yes"}}, {"type": "node", "id": 9629042961, "lat": 47.6465986, "lon": 1.2757826, "tags": {"bus": "yes", "highway": "bus_stop", "public_transport": "platform", "shelter": "yes"}}, {"type": "node", "id": 9805749711, "lat": 47.6779909, "lon": 1.2599693, "tags": {"bus": "yes", "highway": "bus_stop", "public_transport": "platform"}}, {"type": "node", "id": 9848617358, "lat": 47.5744429, "lon": 1.3278415, "tags": {"bus": "yes", "highway": "bus_stop", "name": "Colombier", "public_transport": "platform"}}, {"type": "node", "id": 9848617360, "lat": 47.574443, "lon": 1.3277408, "tags": {"bus": "yes", "highway": "bus_stop", "name": "Colombier", "public_transport": "platform"}}, {"type": "node", "id": 9848617363, "lat": 47.6272597, "lon": 1.3040078, "tags": {"bus": "yes", "highway": "bus_stop", "name": "Carr\u00e9s", "public_transport": "platform"}}, {"type": "node", "id": 9848617364, "lat": 47.627196, "lon": 1.304055, "tags": {"bus": "yes", "highway": "bus_stop", "name": "Carr\u00e9s", "public_transport": "platform"}}, {"type": "node", "id": 10182534953, "lat": 47.5418111, "lon": 1.0312717, "tags": {"bus": "yes", "highway": "bus_stop", "public_transport": "platform"}}, {"type": "node", "id": 10183024589, "lat": 47.4822297, "lon": 0.8817619, "tags": {"bus": "yes", "highway": "bus_stop", "public_transport": "platform"}}, {"type": "node", "id": 10245677295, "lat": 47.5821081, "lon": 1.3041079, "tags": {"bus": "yes", "departures_board": "timetable", "highway": "bus_stop", "name": "Marivaux", "network": "Azalys", "network:wikidata": "Q24936087", "operator": "Keolis Blois", "public_transport": "platform", "shelter": "yes", "wheelchair": "yes"}}, {"type": "node", "id": 10245677296, "lat": 47.5819847, "lon": 1.304101, "tags": {"bus": "yes", "departures_board": "timetable", "highway": "bus_stop", "name": "Marivaux", "network": "Azalys", "network:wikidata": "Q24936087", "operator": "Keolis Blois", "public_transport": "platform", "shelter": "yes", "wheelchair": "yes"}}, {"type": "node", "id": 10245695038, "lat": 47.586394, "lon": 1.3240146, "tags": {"bench": "yes", "bin": "no", "bus": "yes", "departures_board": "timetable", "highway": "bus_stop", "name": "Gare Routi\u00e8re SNCF", "network": "Azalys", "network:wikidata": "Q24936087", "operator": "Keolis Blois", "public_transport": "platform", "shelter": "yes"}}, {"type": "node", "id": 10245695039, "lat": 47.5865766, "lon": 1.3240191, "tags": {"bus": "yes", "departures_board": "timetable", "highway": "bus_stop", "name": "Gare Routi\u00e8re SNCF", "network": "Azalys", "network:wikidata": "Q24936087", "operator": "Keolis Blois", "public_transport": "platform", "shelter": "yes"}}, {"type": "node", "id": 10245695042, "lat": 47.5856359, "lon": 1.3254107, "tags": {"bus": "yes", "departures_board": "realtime", "highway": "bus_stop", "name": "Gare SNCF", "network": "Azalys", "network:wikidata": "Q24936087", "operator": "Keolis Blois", "public_transport": "platform", "shelter": "yes"}}, {"type": "node", "id": 10727447121, "lat": 47.5885299, "lon": 1.2952039, "tags": {"bus": "yes", "highway": "bus_stop", "name": "Picardi\u00e8re", "public_transport": "platform"}}, {"type": "node", "id": 10727447122, "lat": 47.5882224, "lon": 1.29443, "tags": {"bus": "yes", "highway": "bus_stop", "name": "Picardi\u00e8re", "public_transport": "platform"}}, {"type": "node", "id": 10739495299, "lat": 47.5808813, "lon": 1.3275647, "tags": {"bus": "yes", "highway": "bus_stop", "name": "Arceau", "public_transport": "platform"}}, {"type": "node", "id": 10739495300, "lat": 47.5793108, "lon": 1.32365, "tags": {"bus": "yes", "highway": "bus_stop", "name": "Foix", "public_transport": "platform"}}, {"type": "node", "id": 10812640480, "lat": 47.6921519, "lon": 1.2025891, "tags": {"bus": "yes", "highway": "bus_stop", "public_transport": "platform", "shelter": "yes"}}, {"type": "node", "id": 10812640481, "lat": 47.6922107, "lon": 1.2025064, "tags": {"bus": "yes", "highway": "bus_stop", "public_transport": "platform"}}, {"type": "node", "id": 10816583826, "lat": 47.5671332, "lon": 1.1174353, "tags": {"bus": "yes", "highway": "bus_stop", "public_transport": "platform"}}, {"type": "node", "id": 10816583827, "lat": 47.5672377, "lon": 1.1178501, "tags": {"bus": "yes", "highway": "bus_stop", "public_transport": "platform", "shelter": "yes"}}, {"type": "node", "id": 10816631799, "lat": 47.6462151, "lon": 0.8950008, "tags": {"bus": "yes", "highway": "bus_stop", "public_transport": "platform"}}, {"type": "node", "id": 10816646551, "lat": 47.6938647, "lon": 1.0674362, "tags": {"bus": "yes", "highway": "bus_stop", "public_transport": "platform", "shelter": "yes"}}, {"type": "node", "id": 10816648705, "lat": 47.6448539, "lon": 0.8950399, "tags": {"bus": "yes", "highway": "bus_stop", "public_transport": "platform"}}, {"type": "node", "id": 10816757177, "lat": 47.599234, "lon": 1.0630264, "tags": {"bus": "yes", "highway": "bus_stop", "public_transport": "platform"}}, {"type": "node", "id": 10816757178, "lat": 47.5995013, "lon": 1.0624855, "tags": {"bus": "yes", "highway": "bus_stop", "public_transport": "platform"}}, {"type": "node", "id": 11014727242, "lat": 47.4987733, "lon": 0.7932376, "tags": {"name": "Monnaie", "official_name": "Monnaie", "operator": "SNCF", "public_transport": "station", "railway": "station", "train": "yes", "uic_ref": "8757468", "wikidata": "Q3097060", "wikipedia": "fr:Gare de Monnaie"}}, {"type": "node", "id": 11173478302, "lat": 47.4440057, "lon": 0.7425626, "tags": {"bus": "yes", "highway": "bus_stop", "public_transport": "stop_position"}}, {"type": "node", "id": 11173478303, "lat": 47.4441897, "lon": 0.7426885, "tags": {"bus": "yes", "highway": "bus_stop", "public_transport": "stop_position"}}, {"type": "node", "id": 11286592112, "lat": 47.4966144, "lon": 0.8004821, "tags": {"highway": "bus_stop", "public_transport": "platform", "shelter": "yes"}}, {"type": "node", "id": 11378407142, "lat": 47.6046883, "lon": 1.1403961, "tags": {"bench": "yes", "bin": "no", "highway": "bus_stop", "name": "Place", "shelter": "yes"}}, {"type": "node", "id": 12407187827, "lat": 47.7282519, "lon": 1.0876655, "tags": {"bus": "yes", "highway": "bus_stop", "public_transport": "platform"}}, {"type": "node", "id": 12407187828, "lat": 47.7290804, "lon": 1.0873323, "tags": {"bus": "yes", "highway": "bus_stop", "public_transport": "platform"}}, {"type": "node", "id": 12504395106, "lat": 47.8040487, "lon": 1.072882, "tags": {"bus": "yes", "highway": "bus_stop", "name": "Cheval blanc", "operator": "cars Saint Laurent", "public_transport": "platform"}}, {"type": "node", "id": 12596321357, "lat": 47.4669547, "lon": 0.7414216, "tags": {"bus": "yes", "gtfs:release_date:FR-CVL-FB": "2025-01-29", "gtfs:stop_code:FR-CVL-FB": "CASNB-2", "gtfs:stop_id:FR-CVL-FB": "TTR:CASNB-2", "gtfs:stop_name:FR-CVL-FB": "Cassantin", "highway": "bus_stop", "name": "Cassantin", "public_transport": "stop_position"}}, {"type": "node", "id": 12607568761, "lat": 47.4295087, "lon": 0.7534555, "tags": {"bus": "yes", "gtfs:release_date:FR-CVL-FB": "2025-01-29", "gtfs:stop_code:FR-CVL-FB": "VAUDB-2", "gtfs:stop_id:FR-CVL-FB": "TTR:VAUDB-2", "gtfs:stop_name:FR-CVL-FB": "Vaudasni\u00e8re", "highway": "bus_stop", "name": "Vaudasni\u00e8re", "public_transport": "stop_position"}}, {"type": "node", "id": 12628748532, "lat": 47.4425909, "lon": 0.749259, "tags": {"bus": "yes", "gtfs:release_date:FR-CVL-FB": "2025-01-29", "gtfs:stop_code:FR-CVL-FB": "LESAB-2", "gtfs:stop_id:FR-CVL-FB": "TTR:LESAB-2", "gtfs:stop_name:FR-CVL-FB": "Sablonni\u00e8re", "highway": "bus_stop", "name": "Sablonni\u00e8re", "public_transport": "stop_position"}}, {"type": "node", "id": 12663413012, "lat": 47.4686508, "lon": 0.7474957, "tags": {"bus": "yes", "gtfs:release_date:FR-CVL-FB": "2025-01-29", "gtfs:stop_code:FR-CVL-FB": "CARQB-1", "gtfs:stop_id:FR-CVL-FB": "TTR:CARQB-1", "gtfs:stop_name:FR-CVL-FB": "Carqueterie", "highway": "bus_stop", "name": "Carqueterie", "public_transport": "stop_position"}}, {"type": "node", "id": 12663413024, "lat": 47.4706702, "lon": 0.7457275, "tags": {"bus": "yes", "gtfs:release_date:FR-CVL-FB": "2025-01-29", "gtfs:stop_code:FR-CVL-FB": "COLRB-1", "gtfs:stop_id:FR-CVL-FB": "TTR:COLRB-1", "gtfs:stop_name:FR-CVL-FB": "Couleur", "highway": "bus_stop", "name": "Couleur", "public_transport": "stop_position"}}, {"type": "way", "id": 30662829, "nodes": [339094602, 3904841108, 3904841121, 339094604, 3904841095, 339094606, 3904921815, 3904921811, 339094608, 339094610, 339094611, 339094613, 339094615, 339094617, 339094619, 339094620, 3904841116, 339096999, 339096998, 3904921822, 339096997, 339094621, 339097000, 339094622, 339094623, 3904841096, 339094602], "tags": {"addr:housenumber": "1", "building": "train_station", "building:levels": "1", "building:part": "yes", "level": "0", "name": "Vend\u00f4me-Villiers TGV", "operator": "SNCF", "public_transport": "station", "railway": "station", "roof:levels": "1", "roof:shape": "gabled", "source": "cadastre-dgi-fr source : Direction G\u00e9n\u00e9rale des Imp\u00f4ts - Cadastre;mise \u00e0 jour : 2008", "train": "yes", "uic_ref": "8757121", "wheelchair": "yes", "wikipedia": "fr:Gare de Vend\u00f4me - Villiers-sur-Loir TGV"}}]}