{"version": 0.6, "generator": "Overpass API 0.7.62.5 1bd436f1", "osm3s": {"timestamp_osm_base": "2025-04-09T14:45:30Z", "copyright": "The data included in this document is from www.openstreetmap.org. The data is made available under ODbL."}, "elements": [{"type": "node", "id": 1685296164, "lat": 36.7692084, "lon": 4.9574979, "tags": {"bus": "yes", "highway": "bus_stop", "name": "Amegrud", "public_transport": "platform", "shelter": "yes"}}, {"type": "node", "id": 3010205789, "lat": 36.7477859, "lon": 5.0522349, "tags": {"bus": "yes", "highway": "bus_stop", "name": "Souk El Fellah", "name:ar": "\u0633\u0648\u0642 \u0627\u0644\u0641\u0644\u0627\u062d", "name:en": "Souk El Fellah", "name:fr": "Souk El Fellah", "public_transport": "platform"}}, {"type": "node", "id": 3010208380, "lat": 36.7453451, "lon": 5.0489787, "tags": {"bus": "yes", "highway": "bus_stop", "name": "Edimco", "name:ar": "\u0623\u064a\u062f\u0645\u0643\u0648", "name:en": "Edimco", "name:fr": "Edimco", "public_transport": "platform"}}, {"type": "node", "id": 3257010266, "lat": 36.749498, "lon": 5.0541226, "tags": {"bus": "yes", "highway": "bus_stop", "public_transport": "platform"}}, {"type": "node", "id": 3257015825, "lat": 36.751288, "lon": 5.0477722, "tags": {"bus": "yes", "highway": "bus_stop", "name": "Stade", "name:ar": "\u0627\u0644\u0645\u0644\u0639\u0628", "name:en": "Stadium", "name:fr": "Stade", "public_transport": "platform"}}, {"type": "node", "id": 3265279745, "lat": 36.8099245, "lon": 4.9881371, "tags": {"bus": "yes", "highway": "bus_stop", "name": "1\u00e8re piste", "public_transport": "platform"}}, {"type": "node", "id": 3265279746, "lat": 36.8090097, "lon": 4.9835452, "tags": {"bus": "yes", "highway": "bus_stop", "name": "2\u00e8me piste", "public_transport": "platform"}}, {"type": "node", "id": 3265279747, "lat": 36.8104268, "lon": 4.977619, "tags": {"bus": "yes", "highway": "bus_stop", "name": "3 \u00e8me piste", "public_transport": "platform"}}, {"type": "node", "id": 4070525498, "lat": 36.6944448, "lon": 4.6714937, "tags": {"bus": "yes", "highway": "bus_stop", "name": "El Hemmam", "name:ar": "\u0627\u0644\u062d\u0645\u0627\u0645", "name:ber": "\u2d4d\u2d43\u2d3b\u2d4e\u2d4e\u2d30\u2d4e", "name:en": "El Hemmam", "name:fr": "El Hemmam", "name:kab": "L\u1e25emmam", "public_transport": "platform"}}, {"type": "node", "id": 4070525499, "lat": 36.6944362, "lon": 4.6715553, "tags": {"bus": "yes", "highway": "bus_stop", "name": "Arr\u00eat Tizi-Ouzou/Alger", "public_transport": "platform"}}, {"type": "node", "id": 4070525500, "lat": 36.6925651, "lon": 4.6736501, "tags": {"bus": "yes", "highway": "bus_stop", "name": "Arr\u00eat A\u00eft-Maamar", "public_transport": "platform"}}, {"type": "node", "id": 4070525501, "lat": 36.6927931, "lon": 4.6734248, "tags": {"bus": "yes", "highway": "bus_stop", "name": "Arr\u00eat Aguemoune", "name:ar": "\u0645\u0648\u0642\u0641 \u0623\u0642\u0645\u0648\u0646", "name:ber": "\u2d30\u2d35\u2d4e\u2d4e\u2d53\u2d4f", "public_transport": "platform"}}, {"type": "node", "id": 4070525502, "lat": 36.6927071, "lon": 4.6735187, "tags": {"bus": "yes", "highway": "bus_stop", "name": "Arr\u00eat El-kseur/Sidi Aich", "public_transport": "platform"}}, {"type": "node", "id": 4070606134, "lat": 36.692464, "lon": 4.6739505, "tags": {"bus": "yes", "highway": "bus_stop", "name": "Arr\u00eat B\u00e9jaia/El-kseur", "public_transport": "platform"}}, {"type": "node", "id": 4073592851, "lat": 36.7524846, "lon": 5.0379955, "tags": {"alt_name:ar": "\u062b\u0627\u0631\u0642\u0649 \u0623\u0648\u0632\u0645\u0648\u0631", "amenity": "bus_station", "bus": "yes", "highway": "bus_stop", "name": "Targa Ouzemmour", "public_transport": "platform"}}, {"type": "node", "id": 4092184353, "lat": 36.797576, "lon": 5.0080512, "tags": {"bus": "yes", "highway": "bus_stop", "name": "Sahel", "name:ar": "\u0627\u0644\u0633\u0627\u062d\u0644", "public_transport": "platform"}}, {"type": "node", "id": 4092188558, "lat": 36.8038932, "lon": 5.0065851, "tags": {"addr:city": "\u062b\u0627\u0632\u0628\u0648\u062c\u062b", "alt_name:ar": "\u062a\u0627\u0632\u0628\u0648\u062c\u062a", "bus": "yes", "highway": "bus_stop", "name": "Tazebbujt", "name:ar": "\u062b\u0627\u0632\u0628\u0648\u062c\u062b", "name:en": "Tazebbujt", "name:fr": "Tazebbujt", "name:kab": "Tazebbujt", "public_transport": "platform"}}, {"type": "node", "id": 4092191940, "lat": 36.8267658, "lon": 4.9421361, "tags": {"amenity": "bus_station", "bus": "yes", "highway": "bus_stop", "name": "Saket", "name:ar": "\u0633\u0627\u0643\u062a", "name:fr": "Saket", "public_transport": "platform"}}, {"type": "node", "id": 4231760890, "lat": 36.7509575, "lon": 5.0446783, "tags": {"bus": "yes", "highway": "bus_stop", "name": "Russelle", "name:ar": "\u0631\u0648\u0633\u0644", "name:en": "Russelle", "name:fr": "Russelle", "public_transport": "platform"}}, {"type": "node", "id": 4231761089, "lat": 36.7510208, "lon": 5.0445072, "tags": {"bus": "yes", "highway": "bus_stop", "name": "Russelle", "name:ar": "\u0631\u0648\u0633\u0644", "name:en": "Russelle", "name:fr": "Russelle", "public_transport": "platform"}}, {"type": "node", "id": 5461617509, "lat": 36.7480636, "lon": 5.0391119, "tags": {"bench": "yes", "bus": "yes", "highway": "bus_stop", "name": "Universit\u00e9", "name:ar": "\u0627\u0644\u062c\u0627\u0645\u0639\u0629", "name:en": "University", "name:fr": "Universit\u00e9", "public_transport": "platform", "shelter": "yes", "source": "local knowledge"}}, {"type": "node", "id": 5461684501, "lat": 36.7442143, "lon": 5.049138, "tags": {"bus": "yes", "highway": "bus_stop", "name": "Somacob", "name:ar": "\u0635\u0648\u0645\u0627\u0643\u0648\u0628", "name:en": "Somacob", "name:fr": "Somacob", "public_transport": "platform", "source": "local knowledge"}}, {"type": "node", "id": 5461684502, "lat": 36.7424132, "lon": 5.0578686, "tags": {"bus": "yes", "highway": "bus_stop", "public_transport": "platform", "source": "connaissance locale"}}, {"type": "node", "id": 5462429911, "lat": 36.7404007, "lon": 5.0398754, "tags": {"bus": "yes", "highway": "bus_stop", "name": "Laazib Ou Maamar", "name:ar": "\u0644\u0639\u0632\u064a\u0628 \u0623\u0648\u0645\u0639\u0645\u0631", "public_transport": "platform"}}, {"type": "node", "id": 5467228146, "lat": 36.7452475, "lon": 5.0491287, "tags": {"bus": "yes", "highway": "bus_stop", "name": "Edimco", "name:ar": "\u0623\u064a\u062f\u0645\u0643\u0648", "name:en": "Edimco", "name:fr": "Edimco", "public_transport": "platform"}}, {"type": "node", "id": 5471019793, "lat": 36.7426413, "lon": 5.0361478, "tags": {"alt_name:ar": "\u062f\u0627\u0631 \u062c\u0628\u0644", "bus": "yes", "highway": "bus_stop", "name": "Dar Djebel", "name:ar": "\u062f\u0627\u0631 \u0627\u0644\u062c\u0628\u0644", "name:de": "Dar Djabal", "name:en": "Dar Djabal", "name:fr": "Dar Djebel", "public_transport": "platform"}}, {"type": "node", "id": 5757271397, "lat": 36.7467039, "lon": 5.0351007, "tags": {"bus": "yes", "highway": "bus_stop", "name": "Boukhiama 1", "name:ar": "\u0628\u0648\u062e\u064a\u0627\u0645\u0629 1", "name:en": "Boukhiama 1", "name:fr": "Boukhiama 1", "public_transport": "platform", "source": "local knowledge"}}, {"type": "node", "id": 5760632220, "lat": 36.7411079, "lon": 5.0163593, "tags": {"bus": "yes", "highway": "bus_stop", "public_transport": "platform"}}, {"type": "node", "id": 5760634254, "lat": 36.7467834, "lon": 5.0345571, "tags": {"bus": "yes", "highway": "bus_stop", "name": "Boukhiama 1", "name:ar": "\u0628\u0648\u062e\u064a\u0627\u0645\u0629 1", "name:en": "Boukhiama 1", "name:fr": "Boukhiama 1", "public_transport": "platform"}}, {"type": "node", "id": 9700490474, "lat": 36.7510805, "lon": 5.0469399, "tags": {"bus": "yes", "highway": "bus_stop", "name": "Stade", "public_transport": "platform"}}]}