{"version": 0.6, "generator": "Overpass API 0.7.62.5 1bd436f1", "osm3s": {"timestamp_osm_base": "2025-04-09T14:45:30Z", "copyright": "The data included in this document is from www.openstreetmap.org. The data is made available under ODbL."}, "elements": [{"type": "node", "id": 324016875, "lat": 46.5656766, "lon": 0.8637299, "tags": {"bus": "yes", "highway": "bus_stop", "name": "Saint-Savin - Centre", "public_transport": "stop_position"}}, {"type": "node", "id": 340028112, "lat": 46.9134989, "lon": 0.9859345, "tags": {"bus": "yes", "highway": "bus_stop", "name": "Charnizay - Centre", "public_transport": "stop_position"}}, {"type": "node", "id": 431510674, "lat": 46.8004207, "lon": 0.5293107, "tags": {"bus": "yes", "highway": "bus_stop", "name": "Cartier", "public_transport": "platform"}}, {"type": "node", "id": 525409438, "lat": 46.7854679, "lon": 0.8710985, "tags": {"bus": "yes", "highway": "bus_stop", "name": "Mus\u00e9e Mado Robin", "public_transport": "stop_position", "ref": "Yzeures/s/Creuse - Mus\u00e9e Mado Robin"}}, {"type": "node", "id": 525451335, "lat": 46.7859095, "lon": 0.8712115, "tags": {"bench": "yes", "bus": "yes", "highway": "bus_stop", "name": "Place Fran\u00e7ois Mitterrand", "public_transport": "platform", "shelter": "no", "tactile_paving": "yes"}}, {"type": "node", "id": 604229085, "lat": 46.9207045, "lon": 0.919029, "tags": {"bus": "yes", "highway": "bus_stop", "name": "Le Petit Pressigny \u2212 Centre", "public_transport": "stop_position"}}, {"type": "node", "id": 604229138, "lat": 46.9447746, "lon": 0.8943587, "tags": {"bus": "yes", "highway": "bus_stop", "name": "La Celle-Guenand \u2212 Centre", "public_transport": "stop_position"}}, {"type": "node", "id": 665066120, "lat": 46.8766512, "lon": 0.5088453, "tags": {"bus": "yes", "highway": "bus_stop", "name": "Usseau - Centre", "public_transport": "stop_position"}}, {"type": "node", "id": 690670281, "lat": 46.9424565, "lon": 0.7100604, "tags": {"bus": "yes", "highway": "bus_stop", "name": "Rives", "public_transport": "stop_position"}}, {"type": "node", "id": 712954224, "lat": 46.8419045, "lon": 0.811049, "tags": {"bus": "yes", "highway": "bus_stop", "name": "Chambon \u2212 Mairie", "public_transport": "stop_position"}}, {"type": "node", "id": 729824411, "lat": 46.7841497, "lon": 0.8784814, "tags": {"bench": "yes", "bus": "yes", "highway": "bus_stop", "name": "Rue Pasteur", "public_transport": "platform", "shelter": "yes", "tactile_paving": "yes"}}, {"type": "node", "id": 1770505421, "lat": 46.8006198, "lon": 0.5272174, "tags": {"bus": "yes", "highway": "bus_stop", "name": "Aquitaine", "public_transport": "platform"}}, {"type": "node", "id": 1770505422, "lat": 46.8007281, "lon": 0.5271069, "tags": {"bus": "yes", "highway": "bus_stop", "name": "Aquitaine", "public_transport": "platform"}}, {"type": "node", "id": 1789931114, "lat": 46.8069941, "lon": 0.5551846, "tags": {"bus": "yes", "highway": "bus_stop", "name": "Chant des Oiseaux", "public_transport": "platform"}}, {"type": "node", "id": 1813961216, "lat": 46.5194757, "lon": 0.6417641, "tags": {"bench": "yes", "bus": "yes", "highway": "bus_stop", "name": "Valdivienne - Moulin Brault", "public_transport": "platform", "shelter": "yes", "tactile_paving": "yes"}}, {"type": "node", "id": 2001081762, "lat": 46.7973269, "lon": 0.5316022, "tags": {"bus": "yes", "highway": "bus_stop", "lit": "yes", "name": "Moulin", "public_transport": "platform"}}, {"type": "node", "id": 2001081766, "lat": 46.7987735, "lon": 0.5243307, "tags": {"bus": "yes", "highway": "bus_stop", "name": "Saint-Just", "public_transport": "platform"}}, {"type": "node", "id": 2001081772, "lat": 46.7972079, "lon": 0.5323552, "tags": {"bus": "yes", "highway": "bus_stop", "name": "Moulin", "public_transport": "platform"}}, {"type": "node", "id": 2001081774, "lat": 46.7953535, "lon": 0.5256678, "tags": {"bus": "yes", "highway": "bus_stop", "name": "For\u00eat", "public_transport": "platform"}}, {"type": "node", "id": 2001081779, "lat": 46.7963541, "lon": 0.524903, "tags": {"bench": "yes", "bus": "yes", "departures_board": "yes", "highway": "bus_stop", "name": "Hamilton", "public_transport": "platform", "shelter": "yes"}}, {"type": "node", "id": 2001081784, "lat": 46.7995051, "lon": 0.5249811, "tags": {"bus": "yes", "highway": "bus_stop", "name": "Saint-Just", "public_transport": "platform"}}, {"type": "node", "id": 2001081787, "lat": 46.7990221, "lon": 0.5278948, "tags": {"bus": "yes", "highway": "bus_stop", "name": "Auchan", "public_transport": "platform"}}, {"type": "node", "id": 2150537101, "lat": 46.7783135, "lon": 0.458168, "tags": {"bus": "yes", "highway": "bus_stop", "name": "Girardi\u00e8re", "public_transport": "platform", "shelter": "yes"}}, {"type": "node", "id": 2150537169, "lat": 46.7785197, "lon": 0.4581156, "tags": {"bus": "yes", "highway": "bus_stop", "name": "Girardi\u00e8re", "public_transport": "platform"}}, {"type": "node", "id": 2161114149, "lat": 46.8244944, "lon": 0.5590068, "tags": {"bus": "yes", "highway": "bus_stop", "name": "Leclerc", "public_transport": "platform", "shelter": "yes"}}, {"type": "node", "id": 2162373349, "lat": 46.8362057, "lon": 0.5421514, "tags": {"bench": "yes", "bin": "yes", "bus": "yes", "highway": "bus_stop", "name": "D\u00e9sir\u00e9e", "operator": "Keolis", "public_transport": "platform", "shelter": "yes", "tactile_paving": "no"}}, {"type": "node", "id": 2162373350, "lat": 46.8361693, "lon": 0.5420078, "tags": {"bench": "yes", "bin": "yes", "bus": "yes", "highway": "bus_stop", "name": "D\u00e9sir\u00e9e", "public_transport": "platform", "shelter": "yes", "tactile_paving": "no"}}, {"type": "node", "id": 2162378893, "lat": 46.834195, "lon": 0.545791, "tags": {"bench": "no", "bus": "yes", "highway": "bus_stop", "name": "Cimeti\u00e8re", "public_transport": "platform", "shelter": "no"}}, {"type": "node", "id": 2162378936, "lat": 46.8343111, "lon": 0.5456814, "tags": {"bench": "no", "bus": "yes", "highway": "bus_stop", "name": "Cimeti\u00e8re", "public_transport": "platform", "shelter": "no"}}, {"type": "node", "id": 2162484725, "lat": 46.7987831, "lon": 0.5496865, "tags": {"bus": "yes", "highway": "bus_stop", "name": "Paradis", "public_transport": "platform"}}, {"type": "node", "id": 2164015964, "lat": 46.805338, "lon": 0.5425683, "tags": {"bus": "yes", "highway": "bus_stop", "name": "Churchill", "public_transport": "platform", "shelter": "yes"}}, {"type": "node", "id": 2164015965, "lat": 46.8055803, "lon": 0.5428125, "tags": {"bus": "yes", "highway": "bus_stop", "name": "Churchill", "public_transport": "platform"}}, {"type": "node", "id": 2164265246, "lat": 46.8305428, "lon": 0.5459942, "tags": {"bus": "yes", "highway": "bus_stop", "name": "Sangnier", "public_transport": "platform", "shelter": "no"}}, {"type": "node", "id": 2164265247, "lat": 46.8301002, "lon": 0.5457026, "tags": {"bus": "yes", "highway": "bus_stop", "name": "Sangnier", "public_transport": "platform", "shelter": "no"}}, {"type": "node", "id": 2164265250, "lat": 46.8328773, "lon": 0.5461993, "tags": {"bus": "yes", "highway": "bus_stop", "name": "Ripault", "public_transport": "platform"}}, {"type": "node", "id": 2164265253, "lat": 46.8330399, "lon": 0.5464431, "tags": {"bus": "yes", "highway": "bus_stop", "name": "Ripault", "public_transport": "platform"}}, {"type": "node", "id": 2164268627, "lat": 46.8229555, "lon": 0.5466474, "tags": {"bench": "no", "bus": "yes", "highway": "bus_stop", "name": "Maine", "public_transport": "platform", "shelter": "no"}}, {"type": "node", "id": 2164268630, "lat": 46.8244278, "lon": 0.5456528, "tags": {"bench": "no", "bus": "yes", "highway": "bus_stop", "name": "Catherine", "public_transport": "platform", "shelter": "no"}}, {"type": "node", "id": 2164268633, "lat": 46.8274218, "lon": 0.5451923, "tags": {"bench": "no", "bin": "no", "bus": "yes", "highway": "bus_stop", "name": "Michelet", "public_transport": "platform", "shelter": "no"}}, {"type": "node", "id": 2164268636, "lat": 46.8243769, "lon": 0.5454818, "tags": {"bench": "yes", "bus": "yes", "highway": "bus_stop", "name": "Catherine", "public_transport": "platform", "shelter": "yes"}}, {"type": "node", "id": 2164268640, "lat": 46.8273522, "lon": 0.5454248, "tags": {"bench": "no", "bus": "yes", "highway": "bus_stop", "name": "Michelet", "public_transport": "platform", "shelter": "no"}}, {"type": "node", "id": 2164268643, "lat": 46.822739, "lon": 0.5466009, "tags": {"bench": "yes", "bus": "yes", "highway": "bus_stop", "name": "Maine", "public_transport": "platform", "shelter": "yes"}}, {"type": "node", "id": 2164280429, "lat": 46.8189104, "lon": 0.5486162, "tags": {"bench": "yes", "bin": "yes", "bus": "yes", "highway": "bus_stop", "lit": "yes", "name": "Gare SNCF", "public_transport": "platform", "shelter": "yes", "tactile_paving": "yes"}}, {"type": "node", "id": 2164280433, "lat": 46.8160641, "lon": 0.5457359, "tags": {"bus": "yes", "highway": "bus_stop", "name": "Poste", "public_transport": "platform"}}, {"type": "node", "id": 2164280436, "lat": 46.818958, "lon": 0.5487564, "tags": {"bench": "yes", "bin": "yes", "bus": "yes", "highway": "bus_stop", "lit": "yes", "name": "Gare SNCF", "public_transport": "platform", "shelter": "yes", "tactile_paving": "yes"}}, {"type": "node", "id": 2164280437, "lat": 46.815894, "lon": 0.5448381, "tags": {"bus": "yes", "highway": "bus_stop", "name": "Poste", "public_transport": "platform", "shelter": "yes"}}, {"type": "node", "id": 2164280439, "lat": 46.8186632, "lon": 0.5455474, "tags": {"alt_name": "Place", "bus": "yes", "highway": "bus_stop", "name": "Chatellerault - H\u00f4tel de Ville", "public_transport": "stop_position"}}, {"type": "node", "id": 2164280442, "lat": 46.8186554, "lon": 0.5458173, "tags": {"alt_name": "Place", "bus": "yes", "highway": "bus_stop", "name": "Chatellerault - H\u00f4tel de Ville", "public_transport": "stop_position"}}, {"type": "node", "id": 2164296250, "lat": 46.8025984, "lon": 0.5412299, "tags": {"bus": "yes", "highway": "bus_stop", "name": "Abelin", "public_transport": "platform"}}, {"type": "node", "id": 2164296258, "lat": 46.8025928, "lon": 0.541085, "tags": {"bus": "yes", "highway": "bus_stop", "name": "Abelin", "public_transport": "platform"}}, {"type": "node", "id": 2164296263, "lat": 46.8073532, "lon": 0.5429883, "tags": {"bus": "yes", "highway": "bus_stop", "name": "Europe", "public_transport": "platform"}}, {"type": "node", "id": 2164296270, "lat": 46.807679, "lon": 0.5431768, "tags": {"bench": "yes", "bus": "yes", "departures_board": "timetable", "highway": "bus_stop", "name": "Europe", "public_transport": "platform", "shelter": "yes"}}, {"type": "node", "id": 2164296275, "lat": 46.8110178, "lon": 0.5436194, "tags": {"bench": "yes", "bus": "yes", "highway": "bus_stop", "name": "Piscine", "public_transport": "platform", "shelter": "yes"}}, {"type": "node", "id": 2164296282, "lat": 46.8116273, "lon": 0.5439292, "tags": {"bench": "yes", "bin": "yes", "bus": "yes", "highway": "bus_stop", "name": "Piscine", "public_transport": "platform", "shelter": "yes"}}, {"type": "node", "id": 2165103824, "lat": 46.8007448, "lon": 0.5397166, "tags": {"bus": "yes", "highway": "bus_stop", "name": "Lyautey", "public_transport": "platform"}}, {"type": "node", "id": 2165103837, "lat": 46.8008151, "lon": 0.5395654, "tags": {"bus": "yes", "highway": "bus_stop", "name": "Lyautey", "public_transport": "platform"}}, {"type": "node", "id": 2165111321, "lat": 46.797072, "lon": 0.5352595, "tags": {"bus": "yes", "highway": "bus_stop", "name": "Salle Omnisports", "public_transport": "platform"}}, {"type": "node", "id": 2165111325, "lat": 46.7972078, "lon": 0.5349639, "tags": {"bus": "yes", "highway": "bus_stop", "name": "Salle Omnisports", "public_transport": "platform"}}, {"type": "node", "id": 2165134209, "lat": 46.7989943, "lon": 0.5343226, "tags": {"bus": "yes", "highway": "bus_stop", "name": "Hameaux de la For\u00eat", "operator": "Keolis", "public_transport": "platform"}}, {"type": "node", "id": 2166620809, "lat": 46.8027103, "lon": 0.5511541, "tags": {"bus": "yes", "highway": "bus_stop", "name": "Eiffel", "public_transport": "platform"}}, {"type": "node", "id": 2166658921, "lat": 46.8007164, "lon": 0.5473675, "tags": {"bench": "no", "bus": "yes", "highway": "bus_stop", "name": "Dorat", "public_transport": "platform", "shelter": "no"}}, {"type": "node", "id": 2166658922, "lat": 46.8005925, "lon": 0.5477343, "tags": {"bench": "yes", "bus": "yes", "highway": "bus_stop", "name": "Dorat", "public_transport": "platform", "shelter": "yes"}}, {"type": "node", "id": 2166671843, "lat": 46.8018037, "lon": 0.5459706, "tags": {"bench": "yes", "bus": "yes", "highway": "bus_stop", "name": "Gu\u00e9rin", "public_transport": "platform", "shelter": "yes"}}, {"type": "node", "id": 2166671844, "lat": 46.8038505, "lon": 0.549129, "tags": {"bus": "yes", "highway": "bus_stop", "name": "Sand", "public_transport": "platform"}}, {"type": "node", "id": 2166671845, "lat": 46.8025381, "lon": 0.5464946, "tags": {"bus": "yes", "highway": "bus_stop", "name": "Pitet", "public_transport": "platform"}}, {"type": "node", "id": 2166671846, "lat": 46.8038179, "lon": 0.5496729, "tags": {"bus": "yes", "highway": "bus_stop", "name": "Sand", "public_transport": "platform"}}, {"type": "node", "id": 2166671847, "lat": 46.8026189, "lon": 0.5463954, "tags": {"bus": "yes", "highway": "bus_stop", "name": "Pitet", "public_transport": "platform"}}, {"type": "node", "id": 2179514462, "lat": 46.8104712, "lon": 0.5472076, "tags": {"bus": "yes", "highway": "bus_stop", "name": "Braille", "public_transport": "platform", "shelter": "no"}}, {"type": "node", "id": 2179514463, "lat": 46.8105194, "lon": 0.5473196, "tags": {"bus": "yes", "highway": "bus_stop", "name": "Braille", "public_transport": "platform"}}, {"type": "node", "id": 2179611294, "lat": 46.820655, "lon": 0.5444237, "tags": {"bus": "yes", "highway": "bus_stop", "name": "Ch\u00e2telet", "public_transport": "platform"}}, {"type": "node", "id": 2179614164, "lat": 46.8206679, "lon": 0.5446168, "tags": {"bus": "yes", "highway": "bus_stop", "name": "Ch\u00e2telet", "public_transport": "platform"}}, {"type": "node", "id": 2179635380, "lat": 46.8201389, "lon": 0.5521971, "tags": {"bus": "yes", "highway": "bus_stop", "name": "Pasteur", "public_transport": "platform"}}, {"type": "node", "id": 2179635385, "lat": 46.8201429, "lon": 0.5518346, "tags": {"bus": "yes", "highway": "bus_stop", "name": "Pasteur", "public_transport": "platform"}}, {"type": "node", "id": 2180593065, "lat": 46.8399797, "lon": 0.5391354, "tags": {"bench": "no", "bus": "yes", "highway": "bus_stop", "name": "Papin", "public_transport": "platform", "shelter": "no"}}, {"type": "node", "id": 2180624677, "lat": 46.8400316, "lon": 0.5467722, "tags": {"bench": "yes", "bus": "yes", "highway": "bus_stop", "name": "Auriol", "public_transport": "platform", "shelter": "yes"}}, {"type": "node", "id": 2193130983, "lat": 46.8156446, "lon": 0.5352425, "tags": {"bench": "yes", "bus": "yes", "highway": "bus_stop", "name": "Acadiens", "public_transport": "platform", "shelter": "yes", "source": "Observations sur Places + GPS"}}, {"type": "node", "id": 2197591458, "lat": 46.8183928, "lon": 0.5490931, "tags": {"bench": "yes", "bus": "yes", "highway": "bus_stop", "local_ref": "Lignes en Vienne", "name": "Gare de Ch\u00e2tellerault", "public_transport": "platform", "shelter": "yes", "tactile_paving": "no"}}, {"type": "node", "id": 2197613362, "lat": 46.8184315, "lon": 0.54829, "tags": {"bus": "yes", "highway": "bus_stop", "name": "Gare SNCF", "public_transport": "platform"}}, {"type": "node", "id": 2197613363, "lat": 46.8185705, "lon": 0.5484293, "tags": {"bus": "yes", "highway": "bus_stop", "name": "Gare SNCF", "public_transport": "platform"}}, {"type": "node", "id": 2199647959, "lat": 46.7919809, "lon": 0.5464584, "tags": {"bus": "yes", "highway": "bus_stop", "name": "Verne", "public_transport": "platform", "shelter": "yes"}}, {"type": "node", "id": 2199647967, "lat": 46.7918351, "lon": 0.5462896, "tags": {"bus": "yes", "highway": "bus_stop", "name": "Verne", "public_transport": "platform", "shelter": "no"}}, {"type": "node", "id": 2202288048, "lat": 46.8074179, "lon": 0.5296399, "tags": {"bus": "yes", "highway": "bus_stop", "name": "King", "public_transport": "platform"}}, {"type": "node", "id": 2202288049, "lat": 46.8065094, "lon": 0.5293072, "tags": {"bus": "yes", "highway": "bus_stop", "name": "King", "public_transport": "platform"}}, {"type": "node", "id": 2202298562, "lat": 46.8040405, "lon": 0.5287938, "tags": {"bus": "yes", "highway": "bus_stop", "name": "Carr\u00e9", "operator": "Keolis", "public_transport": "platform"}}, {"type": "node", "id": 2202298563, "lat": 46.804707, "lon": 0.5290541, "tags": {"bus": "yes", "highway": "bus_stop", "name": "Carr\u00e9", "operator": "Keolis", "public_transport": "platform"}}, {"type": "node", "id": 2202310519, "lat": 46.8030637, "lon": 0.5285707, "tags": {"bus": "yes", "highway": "bus_stop", "name": "Zay", "public_transport": "platform"}}, {"type": "node", "id": 2202310521, "lat": 46.8027985, "lon": 0.5286866, "tags": {"bus": "yes", "highway": "bus_stop", "name": "Zay", "public_transport": "platform"}}, {"type": "node", "id": 2202320356, "lat": 46.8014804, "lon": 0.5283712, "tags": {"bus": "yes", "highway": "bus_stop", "name": "Renardi\u00e8res", "public_transport": "platform"}}, {"type": "node", "id": 2202320360, "lat": 46.8014826, "lon": 0.5282367, "tags": {"bus": "yes", "highway": "bus_stop", "name": "Renardi\u00e8res", "public_transport": "platform"}}, {"type": "node", "id": 2202357069, "lat": 46.7987978, "lon": 0.5276415, "tags": {"bus": "yes", "highway": "bus_stop", "name": "Auchan", "public_transport": "platform"}}, {"type": "node", "id": 2205606095, "lat": 46.7956323, "lon": 0.5472679, "tags": {"bench": "no", "bus": "yes", "highway": "bus_stop", "name": "Ozon", "public_transport": "platform", "shelter": "no"}}, {"type": "node", "id": 2205606108, "lat": 46.7955557, "lon": 0.5471218, "tags": {"bench": "no", "bin": "no", "bus": "yes", "highway": "bus_stop", "name": "Ozon", "public_transport": "platform", "shelter": "no"}}, {"type": "node", "id": 2205606114, "lat": 46.798928, "lon": 0.5480096, "tags": {"bench": "no", "bus": "yes", "highway": "bus_stop", "lit": "no", "name": "Chilloux", "public_transport": "platform", "shelter": "no"}}, {"type": "node", "id": 2205606116, "lat": 46.7989976, "lon": 0.5482027, "tags": {"bus": "yes", "highway": "bus_stop", "name": "Chilloux", "public_transport": "platform"}}, {"type": "node", "id": 2206758477, "lat": 46.8094398, "lon": 0.548564, "tags": {"bus": "yes", "highway": "bus_stop", "name": "14\u00e8me RTA", "public_transport": "platform", "shelter": "no"}}, {"type": "node", "id": 2206758478, "lat": 46.8095028, "lon": 0.5485899, "tags": {"bus": "yes", "highway": "bus_stop", "name": "14\u00e8me RTA", "public_transport": "platform"}}, {"type": "node", "id": 2206821334, "lat": 46.828285, "lon": 0.5509706, "tags": {"bus": "yes", "highway": "bus_stop", "name": "Capucines", "public_transport": "platform"}}, {"type": "node", "id": 2206822614, "lat": 46.832055, "lon": 0.5555906, "tags": {"bus": "yes", "highway": "bus_stop", "name": "H\u00f4pital", "public_transport": "platform"}}, {"type": "node", "id": 2207227187, "lat": 46.7176942, "lon": 0.5402513, "tags": {"bus": "yes", "highway": "bus_stop", "name": "Vouneuil-Centre", "public_transport": "platform"}}, {"type": "node", "id": 2208026459, "lat": 46.7987721, "lon": 0.5342697, "tags": {"bus": "yes", "highway": "bus_stop", "name": "Hameaux de la For\u00eat", "operator": "Keolis", "public_transport": "platform"}}, {"type": "node", "id": 2208047887, "lat": 46.7919291, "lon": 0.5286425, "tags": {"bus": "yes", "highway": "bus_stop", "name": "Viennoise", "public_transport": "platform"}}, {"type": "node", "id": 2208047897, "lat": 46.7890219, "lon": 0.5276311, "tags": {"bus": "yes", "highway": "bus_stop", "name": "\u00c9tang", "public_transport": "platform"}}, {"type": "node", "id": 2208135595, "lat": 46.8186562, "lon": 0.5459313, "tags": {"alt_name": "Place", "bus": "yes", "highway": "bus_stop", "name": "Chatellerault - H\u00f4tel de Ville", "public_transport": "stop_position"}}, {"type": "node", "id": 2208135597, "lat": 46.8189074, "lon": 0.545585, "tags": {"alt_name": "Place", "bus": "yes", "highway": "bus_stop", "name": "Chatellerault - H\u00f4tel de Ville", "public_transport": "stop_position"}}, {"type": "node", "id": 2208135598, "lat": 46.8189124, "lon": 0.5454887, "tags": {"alt_name": "Place", "bus": "yes", "highway": "bus_stop", "name": "Chatellerault - H\u00f4tel de Ville", "public_transport": "stop_position"}}, {"type": "node", "id": 2208135599, "lat": 46.8188963, "lon": 0.5458505, "tags": {"alt_name": "Place", "bus": "yes", "highway": "bus_stop", "name": "Chatellerault - H\u00f4tel de Ville", "public_transport": "stop_position"}}, {"type": "node", "id": 2208135600, "lat": 46.8188945, "lon": 0.5459685, "tags": {"alt_name": "Place", "bus": "yes", "highway": "bus_stop", "name": "Chatellerault - H\u00f4tel de Ville", "public_transport": "stop_position"}}, {"type": "node", "id": 2208135601, "lat": 46.818666, "lon": 0.5454469, "tags": {"alt_name": "Place", "bus": "yes", "highway": "bus_stop", "name": "Chatellerault - H\u00f4tel de Ville", "public_transport": "stop_position"}}, {"type": "node", "id": 2208152198, "lat": 46.8414112, "lon": 0.5489674, "tags": {"bus": "yes", "highway": "bus_stop", "name": "Argenson", "public_transport": "platform"}}, {"type": "node", "id": 2208158781, "lat": 46.8453669, "lon": 0.5470737, "tags": {"bench": "yes", "bus": "yes", "highway": "bus_stop", "name": "Bl\u00e9riot", "public_transport": "platform", "shelter": "yes"}}, {"type": "node", "id": 2208158798, "lat": 46.8475489, "lon": 0.5472731, "tags": {"bus": "yes", "highway": "bus_stop", "name": "Snecma", "public_transport": "platform"}}, {"type": "node", "id": 2208183559, "lat": 46.8321029, "lon": 0.5708924, "tags": {"bus": "yes", "highway": "bus_stop", "name": "Place d'Antoign\u00e9", "public_transport": "platform"}}, {"type": "node", "id": 2208187082, "lat": 46.8208477, "lon": 0.5493059, "tags": {"bus": "yes", "highway": "bus_stop", "name": "Grande Eau", "public_transport": "platform"}}, {"type": "node", "id": 2208187084, "lat": 46.8205974, "lon": 0.5495852, "tags": {"bus": "yes", "highway": "bus_stop", "name": "Grande Eau", "public_transport": "platform"}}, {"type": "node", "id": 2208203797, "lat": 46.8294789, "lon": 0.5722897, "tags": {"bus": "yes", "highway": "bus_stop", "name": "\u00c9cole d'Antoign\u00e9", "public_transport": "platform", "shelter": "no"}}, {"type": "node", "id": 2208212778, "lat": 46.8317148, "lon": 0.5787798, "tags": {"bus": "yes", "highway": "bus_stop", "name": "Plantes", "public_transport": "platform"}}, {"type": "node", "id": 2208212779, "lat": 46.8336664, "lon": 0.5790462, "tags": {"bus": "yes", "highway": "bus_stop", "name": "Maison Neuve", "public_transport": "platform"}}, {"type": "node", "id": 2208212784, "lat": 46.8330893, "lon": 0.5747006, "tags": {"bus": "yes", "highway": "bus_stop", "name": "Portail Rouge", "public_transport": "platform"}}, {"type": "node", "id": 2208212787, "lat": 46.8313058, "lon": 0.5758391, "tags": {"bus": "yes", "highway": "bus_stop", "name": "Guilloti\u00e8re", "public_transport": "platform", "shelter": "no"}}, {"type": "node", "id": 2208212789, "lat": 46.8306423, "lon": 0.5744892, "tags": {"bus": "yes", "highway": "bus_stop", "name": "Tour Girard", "public_transport": "platform", "shelter": "no"}}, {"type": "node", "id": 2208214541, "lat": 46.8280709, "lon": 0.5694162, "tags": {"bus": "yes", "highway": "bus_stop", "name": "Source", "public_transport": "platform"}}, {"type": "node", "id": 2208220018, "lat": 46.8304101, "lon": 0.5677969, "tags": {"bus": "yes", "highway": "bus_stop", "name": "Berlioz", "public_transport": "platform"}}, {"type": "node", "id": 2208220021, "lat": 46.8292036, "lon": 0.5645517, "tags": {"bus": "yes", "highway": "bus_stop", "name": "Loge", "public_transport": "platform"}}, {"type": "node", "id": 2208604664, "lat": 46.8148173, "lon": 0.5401032, "tags": {"bus": "yes", "highway": "bus_stop", "name": "Berthelot", "public_transport": "platform"}}, {"type": "node", "id": 2208604665, "lat": 46.815163, "lon": 0.5396382, "tags": {"bus": "yes", "highway": "bus_stop", "name": "Berthelot", "public_transport": "platform"}}, {"type": "node", "id": 2208608673, "lat": 46.8143772, "lon": 0.5428537, "tags": {"bus": "yes", "highway": "bus_stop", "name": "Wilson", "public_transport": "platform"}}, {"type": "node", "id": 2208608676, "lat": 46.8145601, "lon": 0.5421547, "tags": {"bus": "yes", "highway": "bus_stop", "name": "Wilson", "public_transport": "platform"}}, {"type": "node", "id": 2208893669, "lat": 46.8129276, "lon": 0.5319032, "tags": {"bench": "yes", "bus": "yes", "highway": "bus_stop", "name": "AFPA", "public_transport": "platform", "shelter": "yes"}}, {"type": "node", "id": 2208910769, "lat": 46.8132581, "lon": 0.5320919, "tags": {"bus": "yes", "highway": "bus_stop", "name": "AFPA", "public_transport": "platform"}}, {"type": "node", "id": 2208927238, "lat": 46.8047225, "lon": 0.5180825, "tags": {"bus": "yes", "highway": "bus_stop", "name": "Mergault", "operator": "Keolis", "public_transport": "platform"}}, {"type": "node", "id": 2208927242, "lat": 46.8012006, "lon": 0.5240116, "tags": {"bus": "yes", "highway": "bus_stop", "name": "Vert Galant", "public_transport": "platform"}}, {"type": "node", "id": 2208927244, "lat": 46.8019202, "lon": 0.5218154, "tags": {"bus": "yes", "highway": "bus_stop", "name": "Sorel", "public_transport": "platform"}}, {"type": "node", "id": 2208927246, "lat": 46.802142, "lon": 0.5214199, "tags": {"bus": "yes", "highway": "bus_stop", "name": "Sorel", "public_transport": "platform"}}, {"type": "node", "id": 2208927249, "lat": 46.8010183, "lon": 0.5242483, "tags": {"bus": "yes", "highway": "bus_stop", "name": "Vert Galant", "public_transport": "platform"}}, {"type": "node", "id": 2208927252, "lat": 46.8046563, "lon": 0.5180054, "tags": {"bus": "yes", "highway": "bus_stop", "name": "Mergault", "operator": "Keolis", "public_transport": "platform"}}, {"type": "node", "id": 2208927257, "lat": 46.8057506, "lon": 0.5172986, "tags": {"bus": "yes", "highway": "bus_stop", "name": "Audinet", "public_transport": "platform"}}, {"type": "node", "id": 2208947103, "lat": 46.8112378, "lon": 0.5271048, "tags": {"bus": "yes", "highway": "bus_stop", "name": "Gatault", "public_transport": "platform"}}, {"type": "node", "id": 2208947104, "lat": 46.809961, "lon": 0.5225691, "tags": {"bus": "yes", "highway": "bus_stop", "name": "Tamaris", "public_transport": "platform"}}, {"type": "node", "id": 2208947106, "lat": 46.8073001, "lon": 0.5188966, "tags": {"bus": "yes", "highway": "bus_stop", "name": "Beaus\u00e9jour", "public_transport": "platform"}}, {"type": "node", "id": 2208947107, "lat": 46.8073828, "lon": 0.5189324, "tags": {"bus": "yes", "highway": "bus_stop", "name": "Beaus\u00e9jour", "public_transport": "platform"}}, {"type": "node", "id": 2208947109, "lat": 46.8057541, "lon": 0.5174926, "tags": {"bus": "yes", "highway": "bus_stop", "name": "Audinet", "public_transport": "platform"}}, {"type": "node", "id": 2208947112, "lat": 46.8107403, "lon": 0.525348, "tags": {"bus": "yes", "highway": "bus_stop", "name": "Rivi\u00e8re", "public_transport": "platform"}}, {"type": "node", "id": 2208962131, "lat": 46.8121134, "lon": 0.5184064, "tags": {"bus": "yes", "highway": "bus_stop", "name": "Bois de Boulogne", "public_transport": "platform"}}, {"type": "node", "id": 2208962134, "lat": 46.8125123, "lon": 0.52708, "tags": {"bus": "yes", "highway": "bus_stop", "name": "H\u00f4tel des Imp\u00f4ts", "public_transport": "platform"}}, {"type": "node", "id": 2210351652, "lat": 46.8209536, "lon": 0.5463824, "tags": {"bus": "yes", "highway": "bus_stop", "name": "Faure", "public_transport": "platform"}}, {"type": "node", "id": 2210351653, "lat": 46.8210658, "lon": 0.5471151, "tags": {"bus": "yes", "highway": "bus_stop", "name": "Faure", "public_transport": "platform"}}, {"type": "node", "id": 2210364443, "lat": 46.8184613, "lon": 0.5530205, "tags": {"bench": "no", "bus": "yes", "highway": "bus_stop", "name": "Mar\u00e9chal Foch", "public_transport": "platform", "shelter": "no"}}, {"type": "node", "id": 2210364444, "lat": 46.8185411, "lon": 0.5532887, "tags": {"bus": "yes", "highway": "bus_stop", "name": "Mar\u00e9chal Foch", "public_transport": "platform"}}, {"type": "node", "id": 2210364447, "lat": 46.8182089, "lon": 0.5535692, "tags": {"bus": "yes", "highway": "bus_stop", "name": "Mar\u00e9chal Leclerc", "public_transport": "platform"}}, {"type": "node", "id": 2210364451, "lat": 46.8180613, "lon": 0.553265, "tags": {"bus": "yes", "highway": "bus_stop", "name": "Mar\u00e9chal Leclerc", "public_transport": "platform"}}, {"type": "node", "id": 2210368652, "lat": 46.8204662, "lon": 0.5551702, "tags": {"bus": "yes", "highway": "bus_stop", "name": "Fauvette", "public_transport": "platform"}}, {"type": "node", "id": 2210368655, "lat": 46.8204382, "lon": 0.5552879, "tags": {"bus": "yes", "highway": "bus_stop", "name": "Fauvette", "public_transport": "platform"}}, {"type": "node", "id": 2210380590, "lat": 46.8261469, "lon": 0.5584219, "tags": {"bus": "yes", "highway": "bus_stop", "name": "Roseraie", "public_transport": "platform"}}, {"type": "node", "id": 2210380601, "lat": 46.8257329, "lon": 0.5586722, "tags": {"bus": "yes", "highway": "bus_stop", "name": "Roseraie", "public_transport": "platform"}}, {"type": "node", "id": 2210385243, "lat": 46.8273236, "lon": 0.5571024, "tags": {"bus": "yes", "highway": "bus_stop", "name": "Jouvet", "public_transport": "platform"}}, {"type": "node", "id": 2210385244, "lat": 46.8280719, "lon": 0.5567776, "tags": {"bus": "yes", "highway": "bus_stop", "name": "Jouvet", "public_transport": "platform"}}, {"type": "node", "id": 2210396073, "lat": 46.8263463, "lon": 0.5532862, "tags": {"bus": "yes", "highway": "bus_stop", "name": "Charcot", "public_transport": "platform"}}, {"type": "node", "id": 2210397485, "lat": 46.8251237, "lon": 0.5517633, "tags": {"bus": "yes", "highway": "bus_stop", "name": "Roc", "public_transport": "platform"}}, {"type": "node", "id": 2210399155, "lat": 46.8265916, "lon": 0.5504376, "tags": {"bus": "yes", "highway": "bus_stop", "name": "Minimes", "public_transport": "platform"}}, {"type": "node", "id": 2210405954, "lat": 46.8296033, "lon": 0.5540105, "tags": {"bench": "yes", "bus": "yes", "highway": "bus_stop", "name": "G\u00e2ts", "public_transport": "platform", "shelter": "yes"}}, {"type": "node", "id": 2210405956, "lat": 46.8298069, "lon": 0.5515133, "tags": {"bus": "yes", "highway": "bus_stop", "name": "Rimbaud", "public_transport": "platform"}}, {"type": "node", "id": 2210418279, "lat": 46.8318307, "lon": 0.4576498, "tags": {"bench": "yes", "bus": "yes", "highway": "bus_stop", "name": "Thur\u00e9-Centre", "public_transport": "platform", "shelter": "yes"}}, {"type": "node", "id": 2210428291, "lat": 46.8296507, "lon": 0.4625071, "tags": {"highway": "bus_stop", "name": "Jacques Brel"}}, {"type": "node", "id": 2210437156, "lat": 46.8270829, "lon": 0.4929937, "tags": {"bus": "yes", "highway": "bus_stop", "name": "Gruges", "public_transport": "platform"}}, {"type": "node", "id": 2210452289, "lat": 46.8182284, "lon": 0.5000574, "tags": {"bus": "yes", "highway": "bus_stop", "name": "Baste", "public_transport": "platform"}}, {"type": "node", "id": 2210452295, "lat": 46.8233608, "lon": 0.4924219, "tags": {"bus": "yes", "highway": "bus_stop", "name": "Brenusson", "public_transport": "platform"}}, {"type": "node", "id": 2210452302, "lat": 46.8178862, "lon": 0.4953051, "tags": {"bus": "yes", "highway": "bus_stop", "name": "Place de Besse", "public_transport": "platform", "shelter": "yes"}}, {"type": "node", "id": 2210452305, "lat": 46.818272, "lon": 0.4998676, "tags": {"bus": "yes", "highway": "bus_stop", "name": "Baste", "public_transport": "platform"}}, {"type": "node", "id": 2210452313, "lat": 46.8212124, "lon": 0.4933257, "tags": {"bus": "yes", "highway": "bus_stop", "name": "Joseph", "public_transport": "platform"}}, {"type": "node", "id": 2210459158, "lat": 46.8190848, "lon": 0.5057019, "tags": {"bus": "yes", "highway": "bus_stop", "name": "Maltoterie", "public_transport": "platform"}}, {"type": "node", "id": 2210459211, "lat": 46.8190658, "lon": 0.5066099, "tags": {"bus": "yes", "highway": "bus_stop", "name": "Maltoterie", "public_transport": "platform"}}, {"type": "node", "id": 2210466290, "lat": 46.8195871, "lon": 0.5134477, "tags": {"bus": "yes", "highway": "bus_stop", "name": "Bonali\u00e8re", "public_transport": "platform"}}, {"type": "node", "id": 2210466293, "lat": 46.8193441, "lon": 0.5100351, "tags": {"bus": "yes", "highway": "bus_stop", "name": "Pi\u00e9tard", "public_transport": "platform"}}, {"type": "node", "id": 2210466310, "lat": 46.8195704, "lon": 0.5192418, "tags": {"bus": "yes", "highway": "bus_stop", "name": "Envigne", "public_transport": "platform"}}, {"type": "node", "id": 2210466319, "lat": 46.819479, "lon": 0.5192335, "tags": {"bus": "yes", "highway": "bus_stop", "name": "Envigne", "public_transport": "platform"}}, {"type": "node", "id": 2210469666, "lat": 46.8185329, "lon": 0.5194107, "tags": {"bus": "yes", "highway": "bus_stop", "name": "Milet", "public_transport": "platform"}}, {"type": "node", "id": 2210469669, "lat": 46.8178794, "lon": 0.5203427, "tags": {"bench": "yes", "bus": "yes", "highway": "bus_stop", "name": "Tivoli", "public_transport": "platform", "shelter": "yes"}}, {"type": "node", "id": 2210478963, "lat": 46.8173653, "lon": 0.5248785, "tags": {"bus": "yes", "highway": "bus_stop", "name": "Courteline", "public_transport": "platform"}}, {"type": "node", "id": 2210491542, "lat": 46.8167026, "lon": 0.5270728, "tags": {"bus": "yes", "highway": "bus_stop", "name": "Giraudeau", "public_transport": "platform"}}, {"type": "node", "id": 2210491559, "lat": 46.8168306, "lon": 0.5268705, "tags": {"bus": "yes", "highway": "bus_stop", "name": "Giraudeau", "public_transport": "platform"}}, {"type": "node", "id": 2213403692, "lat": 46.8180153, "lon": 0.5288025, "tags": {"bus": "yes", "highway": "bus_stop", "name": "Tassigny", "public_transport": "platform"}}, {"type": "node", "id": 2213403695, "lat": 46.817856, "lon": 0.5291499, "tags": {"bus": "yes", "highway": "bus_stop", "name": "Tassigny", "public_transport": "platform"}}, {"type": "node", "id": 2213403697, "lat": 46.8173292, "lon": 0.5310759, "tags": {"bus": "yes", "highway": "bus_stop", "name": "Mistral", "public_transport": "platform"}}, {"type": "node", "id": 2213403699, "lat": 46.8173862, "lon": 0.5311488, "tags": {"bus": "yes", "highway": "bus_stop", "name": "Mistral", "public_transport": "platform"}}, {"type": "node", "id": 2213406484, "lat": 46.8174829, "lon": 0.5347594, "tags": {"bus": "yes", "highway": "bus_stop", "name": "Ch\u00e2teau-Fort", "public_transport": "platform"}}, {"type": "node", "id": 2213406486, "lat": 46.8174351, "lon": 0.5347554, "tags": {"bus": "yes", "highway": "bus_stop", "name": "Ch\u00e2teau-Fort", "public_transport": "platform"}}, {"type": "node", "id": 2213406490, "lat": 46.8171833, "lon": 0.5328708, "tags": {"bus": "yes", "highway": "bus_stop", "name": "Herriot", "public_transport": "platform"}}, {"type": "node", "id": 2213406493, "lat": 46.8170943, "lon": 0.5328251, "tags": {"bus": "yes", "highway": "bus_stop", "name": "Herriot", "public_transport": "platform"}}, {"type": "node", "id": 2213410708, "lat": 46.8166553, "lon": 0.5360759, "tags": {"bus": "yes", "highway": "bus_stop", "name": "R\u00e9publique", "public_transport": "platform"}}, {"type": "node", "id": 2213410711, "lat": 46.817094, "lon": 0.5362824, "tags": {"bus": "yes", "highway": "bus_stop", "name": "Cygne", "public_transport": "platform"}}, {"type": "node", "id": 2213423109, "lat": 46.8163599, "lon": 0.5383675, "tags": {"bus": "yes", "highway": "bus_stop", "name": "Belgique", "public_transport": "platform"}}, {"type": "node", "id": 2213423113, "lat": 46.8169106, "lon": 0.5377326, "tags": {"bus": "yes", "highway": "bus_stop", "name": "Belgique", "public_transport": "platform"}}, {"type": "node", "id": 2213612690, "lat": 46.7933743, "lon": 0.5689403, "tags": {"bus": "yes", "highway": "bus_stop", "name": "Charti\u00e8re", "public_transport": "platform"}}, {"type": "node", "id": 2213638263, "lat": 46.7899391, "lon": 0.5792001, "tags": {"bus": "yes", "highway": "bus_stop", "name": "Targ\u00e9-Centre", "public_transport": "platform"}}, {"type": "node", "id": 2213638271, "lat": 46.7900325, "lon": 0.5791022, "tags": {"bench": "yes", "bus": "yes", "highway": "bus_stop", "name": "Targ\u00e9-Centre", "public_transport": "platform", "shelter": "yes"}}, {"type": "node", "id": 2213638292, "lat": 46.7915981, "lon": 0.5725092, "tags": {"bus": "yes", "highway": "bus_stop", "name": "Desnos", "public_transport": "platform"}}, {"type": "node", "id": 2213647698, "lat": 46.7910952, "lon": 0.5827713, "tags": {"bus": "yes", "highway": "bus_stop", "name": "Stade", "public_transport": "platform"}}, {"type": "node", "id": 2213652360, "lat": 46.7915003, "lon": 0.5849714, "tags": {"bus": "yes", "highway": "bus_stop", "name": "Pagnol", "public_transport": "platform"}}, {"type": "node", "id": 2213681051, "lat": 46.7795638, "lon": 0.6141968, "tags": {"bus": "yes", "highway": "bus_stop", "name": "Senill\u00e9-Centre", "public_transport": "platform"}}, {"type": "node", "id": 2215127669, "lat": 46.8271062, "lon": 0.5089851, "tags": {"bus": "yes", "highway": "bus_stop", "name": "Charloterie", "public_transport": "platform"}}, {"type": "node", "id": 2215127670, "lat": 46.8288885, "lon": 0.5045186, "tags": {"bus": "yes", "highway": "bus_stop", "name": "Romarins", "public_transport": "platform"}}, {"type": "node", "id": 2215129655, "lat": 46.8263522, "lon": 0.5106591, "tags": {"bus": "yes", "highway": "bus_stop", "name": "Perdrige", "public_transport": "platform"}}, {"type": "node", "id": 2215138951, "lat": 46.8233266, "lon": 0.5089258, "tags": {"bus": "yes", "highway": "bus_stop", "name": "Pontillon", "public_transport": "platform"}}, {"type": "node", "id": 2215156044, "lat": 46.8242667, "lon": 0.5058884, "tags": {"bus": "yes", "highway": "bus_stop", "name": "Haute-Bercilli\u00e8re", "public_transport": "platform"}}, {"type": "node", "id": 2222399314, "lat": 46.8176018, "lon": 0.5622798, "tags": {"bus": "yes", "highway": "bus_stop", "name": "Pidoux", "public_transport": "platform"}}, {"type": "node", "id": 2222399318, "lat": 46.8175006, "lon": 0.562154, "tags": {"bus": "yes", "highway": "bus_stop", "name": "Pidoux", "public_transport": "platform"}}, {"type": "node", "id": 2222399323, "lat": 46.8186369, "lon": 0.5622256, "tags": {"bus": "yes", "highway": "bus_stop", "name": "LEP Le Verger", "public_transport": "platform"}}, {"type": "node", "id": 2222399328, "lat": 46.8187683, "lon": 0.562677, "tags": {"bus": "yes", "highway": "bus_stop", "name": "LEP Le Verger", "public_transport": "platform"}}, {"type": "node", "id": 2222436769, "lat": 46.8153524, "lon": 0.554889, "tags": {"bus": "yes", "highway": "bus_stop", "name": "Beauregard", "public_transport": "platform"}}, {"type": "node", "id": 2222447699, "lat": 46.8157156, "lon": 0.5535553, "tags": {"bus": "yes", "highway": "bus_stop", "name": "Reibel", "public_transport": "platform"}}, {"type": "node", "id": 2222450336, "lat": 46.8137954, "lon": 0.5519472, "tags": {"bus": "yes", "highway": "bus_stop", "name": "Sarrail", "public_transport": "platform"}}, {"type": "node", "id": 2222450337, "lat": 46.8142518, "lon": 0.5562418, "tags": {"bus": "yes", "highway": "bus_stop", "name": "Herrault", "public_transport": "platform"}}, {"type": "node", "id": 2222457917, "lat": 46.8118948, "lon": 0.5560385, "tags": {"bus": "yes", "highway": "bus_stop", "name": "Lys", "public_transport": "platform"}}, {"type": "node", "id": 2222457918, "lat": 46.8102722, "lon": 0.5557743, "tags": {"bus": "yes", "highway": "bus_stop", "name": "Giono", "public_transport": "platform"}}, {"type": "node", "id": 2222457919, "lat": 46.8121428, "lon": 0.5566444, "tags": {"bus": "yes", "highway": "bus_stop", "name": "Charlet", "public_transport": "platform"}}, {"type": "node", "id": 2222458382, "lat": 46.8100991, "lon": 0.5556283, "tags": {"bus": "yes", "highway": "bus_stop", "name": "Giono", "public_transport": "platform"}}, {"type": "node", "id": 2222465422, "lat": 46.8057108, "lon": 0.5551932, "tags": {"bus": "yes", "highway": "bus_stop", "name": "Champ de la Croix", "public_transport": "platform"}}, {"type": "node", "id": 2222465423, "lat": 46.8069604, "lon": 0.5550851, "tags": {"bus": "yes", "highway": "bus_stop", "name": "Chant des Oiseaux", "public_transport": "platform"}}, {"type": "node", "id": 2222465424, "lat": 46.8057228, "lon": 0.555076, "tags": {"bus": "yes", "highway": "bus_stop", "name": "Champ de la Croix", "public_transport": "platform"}}, {"type": "node", "id": 2222471840, "lat": 46.8043553, "lon": 0.5543461, "tags": {"bus": "yes", "highway": "bus_stop", "name": "B\u00e9caud", "public_transport": "platform"}}, {"type": "node", "id": 2234674291, "lat": 46.8263656, "lon": 0.5286137, "tags": {"bus": "yes", "highway": "bus_stop", "name": "Aiguillon", "public_transport": "platform"}}, {"type": "node", "id": 2234690236, "lat": 46.8336567, "lon": 0.5202281, "tags": {"bus": "yes", "highway": "bus_stop", "name": "Moury", "public_transport": "platform"}}, {"type": "node", "id": 2234697197, "lat": 46.8510492, "lon": 0.506978, "tags": {"bus": "yes", "highway": "bus_stop", "name": "Clan\u00e9", "public_transport": "platform"}}, {"type": "node", "id": 2234697198, "lat": 46.8498422, "lon": 0.5129861, "tags": {"bus": "yes", "highway": "bus_stop", "name": "Tapisserie", "public_transport": "platform"}}, {"type": "node", "id": 2234709889, "lat": 46.8506768, "lon": 0.5018764, "tags": {"bus": "yes", "highway": "bus_stop", "name": "Blanchards", "public_transport": "platform"}}, {"type": "node", "id": 2272615166, "lat": 46.8186191, "lon": 0.5561214, "tags": {"bus": "yes", "highway": "bus_stop", "name": "Fontaine", "public_transport": "platform"}}, {"type": "node", "id": 2272615169, "lat": 46.818713, "lon": 0.5559941, "tags": {"bus": "yes", "highway": "bus_stop", "name": "Fontaine", "public_transport": "platform"}}, {"type": "node", "id": 2272617456, "lat": 46.8194958, "lon": 0.5598123, "tags": {"bus": "yes", "highway": "bus_stop", "name": "Parc Le Verger", "operator": "Keolis", "public_transport": "platform"}}, {"type": "node", "id": 2272617460, "lat": 46.8194111, "lon": 0.5599496, "tags": {"bus": "yes", "highway": "bus_stop", "name": "Parc Le Verger", "public_transport": "platform"}}, {"type": "node", "id": 2272620349, "lat": 46.8190724, "lon": 0.567394, "tags": {"bus": "yes", "highway": "bus_stop", "name": "Peu", "public_transport": "platform"}}, {"type": "node", "id": 2272648059, "lat": 46.8221553, "lon": 0.5569496, "tags": {"bench": "yes", "bus": "yes", "highway": "bus_stop", "name": "Tro\u00ebnes", "public_transport": "platform", "shelter": "yes"}}, {"type": "node", "id": 2272648061, "lat": 46.8224045, "lon": 0.5573735, "tags": {"bus": "yes", "highway": "bus_stop", "name": "Tro\u00ebnes", "public_transport": "platform"}}, {"type": "node", "id": 2293388048, "lat": 46.7727774, "lon": 0.5083979, "tags": {"bus": "yes", "highway": "bus_stop", "name": "Doutardes", "public_transport": "platform"}}, {"type": "node", "id": 2293388053, "lat": 46.7728623, "lon": 0.5084529, "tags": {"bus": "yes", "highway": "bus_stop", "name": "Doutardes", "public_transport": "platform"}}, {"type": "node", "id": 2293400922, "lat": 46.7684844, "lon": 0.5019967, "tags": {"bus": "yes", "highway": "bus_stop", "name": "Souh\u00e9", "public_transport": "platform"}}, {"type": "node", "id": 2293400930, "lat": 46.7685984, "lon": 0.501919, "tags": {"bus": "yes", "highway": "bus_stop", "name": "Souh\u00e9", "public_transport": "platform"}}, {"type": "node", "id": 2293401581, "lat": 46.7661218, "lon": 0.4953986, "tags": {"bus": "yes", "highway": "bus_stop", "name": "Maurice Ravel", "public_transport": "platform"}}, {"type": "node", "id": 2293407524, "lat": 46.7617252, "lon": 0.4906484, "tags": {"bench": "no", "bin": "yes", "bus": "yes", "highway": "bus_stop", "lit": "yes", "name": "Hugo", "public_transport": "platform", "shelter": "no", "tactile_paving": "no"}}, {"type": "node", "id": 2293407526, "lat": 46.7617955, "lon": 0.490575, "tags": {"bench": "no", "bin": "no", "bus": "yes", "highway": "bus_stop", "lit": "yes", "name": "Hugo", "public_transport": "platform", "shelter": "no", "tactile_paving": "no"}}, {"type": "node", "id": 2293415723, "lat": 46.7628018, "lon": 0.4784068, "tags": {"bench": "no", "bin": "no", "bus": "yes", "highway": "bus_stop", "lit": "no", "name": "Naintr\u00e9 Centre", "public_transport": "platform", "shelter": "no", "tactile_paving": "no"}}, {"type": "node", "id": 2293426873, "lat": 46.7562994, "lon": 0.4785451, "tags": {"bench": "no", "bus": "yes", "highway": "bus_stop", "name": "Brassens", "public_transport": "platform", "shelter": "no", "tactile_paving": "no"}}, {"type": "node", "id": 2294510303, "lat": 46.7592496, "lon": 0.706385, "tags": {"bus": "yes", "highway": "bus_stop", "public_transport": "platform"}}, {"type": "node", "id": 2295709432, "lat": 46.7306171, "lon": 0.5096625, "tags": {"bus": "yes", "highway": "bus_stop", "name": "Pied Sec", "public_transport": "platform"}}, {"type": "node", "id": 2296829198, "lat": 46.7893602, "lon": 0.5373141, "tags": {"bus": "yes", "highway": "bus_stop", "name": "Emma\u00fcs", "public_transport": "platform"}}, {"type": "node", "id": 2296868906, "lat": 46.7732769, "lon": 0.4940797, "tags": {"bus": "yes", "highway": "bus_stop", "name": "Bergeste", "public_transport": "platform"}}, {"type": "node", "id": 2296868908, "lat": 46.7734057, "lon": 0.494186, "tags": {"bus": "yes", "highway": "bus_stop", "name": "Bergeste", "public_transport": "platform"}}, {"type": "node", "id": 2296868909, "lat": 46.7759525, "lon": 0.4906263, "tags": {"bus": "yes", "highway": "bus_stop", "name": "Pont d'Autoroute", "public_transport": "platform"}}, {"type": "node", "id": 2296875807, "lat": 46.7735068, "lon": 0.4826162, "tags": {"bus": "yes", "highway": "bus_stop", "name": "Repousson", "public_transport": "platform"}}, {"type": "node", "id": 2296893892, "lat": 46.7771913, "lon": 0.4840693, "tags": {"bus": "yes", "highway": "bus_stop", "name": "Corset", "public_transport": "platform"}}, {"type": "node", "id": 2296893896, "lat": 46.7853759, "lon": 0.4804383, "tags": {"bus": "yes", "highway": "bus_stop", "name": "Galochonnerie", "public_transport": "platform", "shelter": "yes"}}, {"type": "node", "id": 2296903862, "lat": 46.7759892, "lon": 0.4418672, "tags": {"bus": "yes", "highway": "bus_stop", "name": "Gu\u00e9donni\u00e8re", "public_transport": "platform"}}, {"type": "node", "id": 2296903877, "lat": 46.7762875, "lon": 0.4521532, "tags": {"bus": "yes", "highway": "bus_stop", "name": "Rou\u00e8re", "public_transport": "platform"}}, {"type": "node", "id": 2296903878, "lat": 46.7756242, "lon": 0.4484271, "tags": {"bus": "yes", "highway": "bus_stop", "name": "Davaillerie", "public_transport": "platform"}}, {"type": "node", "id": 2296908498, "lat": 46.7738393, "lon": 0.4315625, "tags": {"bus": "yes", "highway": "bus_stop", "name": "Valette", "public_transport": "platform"}}, {"type": "node", "id": 2298420865, "lat": 46.8172298, "lon": 0.5410207, "tags": {"bus": "yes", "highway": "bus_stop", "name": "Biblioth\u00e8que", "public_transport": "platform"}}, {"type": "node", "id": 2298420866, "lat": 46.8170437, "lon": 0.5385705, "tags": {"bus": "yes", "highway": "bus_stop", "name": "Henri VI", "public_transport": "platform"}}, {"type": "node", "id": 2298420867, "lat": 46.817053, "lon": 0.5384048, "tags": {"bus": "yes", "highway": "bus_stop", "name": "Henri VI", "public_transport": "platform"}}, {"type": "node", "id": 2298455642, "lat": 46.817858, "lon": 0.5354786, "tags": {"bus": "yes", "highway": "bus_stop", "name": "Avaucourt", "public_transport": "platform"}}, {"type": "node", "id": 2298455651, "lat": 46.8193387, "lon": 0.5356135, "tags": {"bus": "yes", "highway": "bus_stop", "name": "Barbusse", "operator": "Keolis", "public_transport": "platform"}}, {"type": "node", "id": 2298455655, "lat": 46.8193493, "lon": 0.5355123, "tags": {"bus": "yes", "highway": "bus_stop", "name": "Barbusse", "public_transport": "platform"}}, {"type": "node", "id": 2298455658, "lat": 46.8145256, "lon": 0.5334303, "tags": {"bus": "yes", "highway": "bus_stop", "name": "Krebs", "operator": "Keolis", "public_transport": "platform"}}, {"type": "node", "id": 2298455661, "lat": 46.8142525, "lon": 0.5314023, "tags": {"bench": "no", "bus": "yes", "highway": "bus_stop", "name": "S\u00e9curit\u00e9 Sociale", "public_transport": "platform", "shelter": "no"}}, {"type": "node", "id": 2298473038, "lat": 46.8334404, "lon": 0.5344413, "tags": {"bus": "yes", "highway": "bus_stop", "name": "Einstein", "note:route_ref": "Flixbus 723;Keolis Ligne C", "public_transport": "platform", "route_ref": "723;4;C"}}, {"type": "node", "id": 2298599385, "lat": 46.8192787, "lon": 0.539223, "tags": {"bus": "yes", "highway": "bus_stop", "name": "Bon Secours", "public_transport": "platform"}}, {"type": "node", "id": 2298599388, "lat": 46.8193336, "lon": 0.5393629, "tags": {"bus": "yes", "highway": "bus_stop", "name": "Bon Secours", "public_transport": "platform"}}, {"type": "node", "id": 2298841083, "lat": 46.7372892, "lon": 0.6127727, "tags": {"bus": "yes", "highway": "bus_stop", "name": "Chaumussons", "public_transport": "platform"}}, {"type": "node", "id": 2298843080, "lat": 46.733357, "lon": 0.6189442, "tags": {"bus": "yes", "highway": "bus_stop", "name": "Monthoiron-Centre", "public_transport": "platform"}}, {"type": "node", "id": 2298854581, "lat": 46.780048, "lon": 0.5484665, "tags": {"bus": "yes", "highway": "bus_stop", "name": "A\u00e9ro Club", "public_transport": "platform"}}, {"type": "node", "id": 2298854583, "lat": 46.7804155, "lon": 0.5485555, "tags": {"bus": "yes", "highway": "bus_stop", "lit": "no", "name": "A\u00e9ro Club", "public_transport": "platform"}}, {"type": "node", "id": 2300160308, "lat": 46.6732219, "lon": 0.6528478, "tags": {"bench": "yes", "bus": "yes", "highway": "bus_stop", "name": "Archigny-Centre", "public_transport": "platform", "shelter": "yes"}}, {"type": "node", "id": 2300191978, "lat": 46.6735386, "lon": 0.6483314, "tags": {"bus": "yes", "highway": "bus_stop", "name": "Gazilli\u00e8re", "public_transport": "platform", "shelter": "no"}}, {"type": "node", "id": 2338105270, "lat": 46.6935471, "lon": 0.5627122, "tags": {"bus": "yes", "highway": "bus_stop", "name": "Grands Pr\u00e9s", "public_transport": "platform"}}, {"type": "node", "id": 2338144650, "lat": 46.6871604, "lon": 0.5674244, "tags": {"bus": "yes", "highway": "bus_stop", "name": "11 Novembre 1918", "public_transport": "platform"}}, {"type": "node", "id": 2338963805, "lat": 46.7711247, "lon": 0.5453851, "tags": {"bus": "yes", "highway": "bus_stop", "name": "Corneille", "public_transport": "platform"}}, {"type": "node", "id": 2338963806, "lat": 46.7704517, "lon": 0.5432141, "tags": {"bus": "yes", "highway": "bus_stop", "name": "Katz", "public_transport": "platform"}}, {"type": "node", "id": 2338963807, "lat": 46.7717803, "lon": 0.547463, "tags": {"bus": "yes", "highway": "bus_stop", "name": "Lamartine", "public_transport": "platform"}}, {"type": "node", "id": 2338971198, "lat": 46.7718553, "lon": 0.5441716, "tags": {"bus": "yes", "highway": "bus_stop", "name": "Faulcon", "public_transport": "platform"}}, {"type": "node", "id": 2338974948, "lat": 46.7736793, "lon": 0.5368474, "tags": {"bench": "no", "bin": "no", "bus": "yes", "highway": "bus_stop", "lit": "no", "name": "Cenon-Centre", "public_transport": "platform", "shelter": "no", "tactile_paving": "yes"}}, {"type": "node", "id": 2338974949, "lat": 46.773932, "lon": 0.536825, "tags": {"bench": "yes", "bin": "yes", "bus": "yes", "highway": "bus_stop", "lit": "no", "name": "Cenon-Centre", "public_transport": "platform", "shelter": "yes", "tactile_paving": "yes"}}, {"type": "node", "id": 2338974950, "lat": 46.7721841, "lon": 0.5342072, "tags": {"bench": "yes", "bin": "no", "bus": "yes", "highway": "bus_stop", "name": "Languedoc", "public_transport": "platform", "shelter": "yes", "tactile_paving": "no"}}, {"type": "node", "id": 2338978668, "lat": 46.7716513, "lon": 0.5369511, "tags": {"bench": "no", "bin": "yes", "bus": "yes", "highway": "bus_stop", "name": "\u00c9cole de Cenon", "public_transport": "platform", "shelter": "yes", "tactile_paving": "no"}}, {"type": "node", "id": 2338980115, "lat": 46.7694652, "lon": 0.5367097, "tags": {"bench": "no", "bin": "no", "bus": "yes", "highway": "bus_stop", "name": "Parc", "public_transport": "platform", "shelter": "no", "tactile_paving": "no"}}, {"type": "node", "id": 2338983428, "lat": 46.7666703, "lon": 0.5366675, "tags": {"bench": "no", "bin": "no", "bus": "yes", "highway": "bus_stop", "name": "Alsace", "public_transport": "platform", "shelter": "no", "tactile_paving": "no"}}, {"type": "node", "id": 2338990015, "lat": 46.7562986, "lon": 0.535087, "tags": {"bus": "yes", "highway": "bus_stop", "name": "Petits Pr\u00e9s", "public_transport": "platform"}}, {"type": "node", "id": 2338991743, "lat": 46.7550875, "lon": 0.5302432, "tags": {"bus": "yes", "highway": "bus_stop", "name": "Grippeaux", "public_transport": "platform"}}, {"type": "node", "id": 2338994945, "lat": 46.7555232, "lon": 0.5266982, "tags": {"bus": "yes", "highway": "bus_stop", "name": "Jumeaux", "public_transport": "platform"}}, {"type": "node", "id": 2338994947, "lat": 46.7569815, "lon": 0.5256543, "tags": {"bus": "yes", "highway": "bus_stop", "name": "Croix", "public_transport": "platform"}}, {"type": "node", "id": 2339001768, "lat": 46.7526266, "lon": 0.5257461, "tags": {"bus": "yes", "highway": "bus_stop", "name": "Graillerie", "public_transport": "platform"}}, {"type": "node", "id": 2339001770, "lat": 46.7435718, "lon": 0.5288829, "tags": {"bus": "yes", "highway": "bus_stop", "name": "Rabottes", "public_transport": "platform"}}, {"type": "node", "id": 2339001771, "lat": 46.7435442, "lon": 0.528738, "tags": {"bus": "yes", "highway": "bus_stop", "name": "Rabottes", "public_transport": "platform"}}, {"type": "node", "id": 2339005556, "lat": 46.7328183, "lon": 0.5302295, "tags": {"bus": "yes", "highway": "bus_stop", "name": "Pontereau", "public_transport": "platform"}}, {"type": "node", "id": 2339005889, "lat": 46.7255966, "lon": 0.5324986, "tags": {"bus": "yes", "highway": "bus_stop", "name": "Pireau", "public_transport": "platform"}}, {"type": "node", "id": 2339013428, "lat": 46.7142474, "lon": 0.5449709, "tags": {"bus": "yes", "highway": "bus_stop", "name": "Coll\u00e8ge Vouneuil", "public_transport": "platform"}}, {"type": "node", "id": 2354834027, "lat": 46.8196435, "lon": 0.5730565, "tags": {"bus": "yes", "highway": "bus_stop", "name": "Grenadier", "public_transport": "platform"}}, {"type": "node", "id": 2354850121, "lat": 46.8191819, "lon": 0.5819781, "tags": {"bus": "yes", "highway": "bus_stop", "name": "Pantis Boutin", "public_transport": "platform"}}, {"type": "node", "id": 2354851076, "lat": 46.8141829, "lon": 0.5763153, "tags": {"bus": "yes", "highway": "bus_stop", "name": "Grand Vau", "public_transport": "platform"}}, {"type": "node", "id": 2354853326, "lat": 46.8125804, "lon": 0.5749823, "tags": {"bus": "yes", "highway": "bus_stop", "name": "Alouette", "operator": "Keolis", "public_transport": "platform"}}, {"type": "node", "id": 2354864102, "lat": 46.8094041, "lon": 0.5781411, "tags": {"bus": "yes", "highway": "bus_stop", "name": "Chapon", "public_transport": "platform"}}, {"type": "node", "id": 2376284318, "lat": 46.8297025, "lon": 0.5557888, "tags": {"bus": "yes", "highway": "bus_stop", "name": "Vilar", "public_transport": "platform"}}, {"type": "node", "id": 2376285182, "lat": 46.829974, "lon": 0.5557247, "tags": {"bus": "yes", "highway": "bus_stop", "name": "Vilar", "public_transport": "platform", "shelter": "no"}}, {"type": "node", "id": 2376488126, "lat": 46.7570379, "lon": 0.4845492, "tags": {"bench": "yes", "bus": "yes", "highway": "bus_stop", "lit": "yes", "name": "Naintr\u00e9 Espace Commercial", "public_transport": "platform", "shelter": "yes", "tactile_paving": "no"}}, {"type": "node", "id": 2378970465, "lat": 46.5696753, "lon": 0.6440994, "tags": {"bus": "yes", "highway": "bus_stop", "name": "Chauvigny - Place de la Mairie", "public_transport": "stop_position"}}, {"type": "node", "id": 2418864799, "lat": 46.9089008, "lon": 0.8128426, "tags": {"bus": "yes", "highway": "bus_stop", "name": "Etableau", "public_transport": "stop_position"}}, {"type": "node", "id": 2461679499, "lat": 46.7627164, "lon": 0.5077893, "tags": {"bus": "yes", "highway": "bus_stop", "name": "Berthons", "public_transport": "platform"}}, {"type": "node", "id": 2461679501, "lat": 46.7627352, "lon": 0.5079012, "tags": {"bench": "yes", "bin": "yes", "bus": "yes", "highway": "bus_stop", "name": "Berthons", "public_transport": "platform", "shelter": "yes", "tactile_paving": "no"}}, {"type": "node", "id": 2480045450, "lat": 46.8154642, "lon": 0.5342689, "tags": {"bus": "yes", "highway": "bus_stop", "name": "Ch\u00e2teauneuf", "operator": "Keolis", "public_transport": "platform"}}, {"type": "node", "id": 2480045453, "lat": 46.8150044, "lon": 0.533714, "tags": {"bus": "yes", "highway": "bus_stop", "name": "Ch\u00e2teauneuf", "public_transport": "platform"}}, {"type": "node", "id": 2519615899, "lat": 46.7949226, "lon": 0.5320872, "tags": {"bus": "yes", "highway": "bus_stop", "name": "Car\u00eame", "public_transport": "platform"}}, {"type": "node", "id": 2519615907, "lat": 46.7948348, "lon": 0.5321954, "tags": {"bus": "yes", "highway": "bus_stop", "name": "Car\u00eame", "public_transport": "platform"}}, {"type": "node", "id": 2519622353, "lat": 46.7939814, "lon": 0.5297635, "tags": {"bus": "yes", "highway": "bus_stop", "name": "Mar\u00e9chal Juin", "public_transport": "platform"}}, {"type": "node", "id": 2521128082, "lat": 46.7920172, "lon": 0.5286947, "tags": {"bus": "yes", "highway": "bus_stop", "name": "Viennoise", "public_transport": "platform"}}, {"type": "node", "id": 2529485094, "lat": 46.8105876, "lon": 0.5301786, "tags": {"bus": "yes", "highway": "bus_stop", "name": "Salis", "public_transport": "platform"}}, {"type": "node", "id": 2529490840, "lat": 46.810534, "lon": 0.5302929, "tags": {"bus": "yes", "highway": "bus_stop", "name": "Salis", "public_transport": "platform"}}, {"type": "node", "id": 2530460095, "lat": 46.8088866, "lon": 0.5299482, "tags": {"bus": "yes", "highway": "bus_stop", "name": "Estr\u00e9es", "operator": "Keolis", "public_transport": "platform"}}, {"type": "node", "id": 2530464759, "lat": 46.8085297, "lon": 0.5297399, "tags": {"bus": "yes", "highway": "bus_stop", "name": "Estr\u00e9es", "public_transport": "platform"}}, {"type": "node", "id": 2533784017, "lat": 46.8037494, "lon": 0.5200226, "tags": {"bus": "yes", "highway": "bus_stop", "name": "Rabeau", "operator": "Keolis", "public_transport": "platform"}}, {"type": "node", "id": 2533784021, "lat": 46.8036277, "lon": 0.5203857, "tags": {"bus": "yes", "highway": "bus_stop", "name": "Rabeau", "operator": "Keolis", "public_transport": "platform"}}, {"type": "node", "id": 2589799983, "lat": 46.8546829, "lon": 0.9280337, "tags": {"bus": "yes", "highway": "bus_stop", "name": "Preuilly-sur-Claise - Place des Halles", "public_transport": "stop_position"}}, {"type": "node", "id": 2600693897, "lat": 46.8539096, "lon": 0.9278826, "tags": {"bus": "yes", "highway": "bus_stop", "public_transport": "platform", "shelter": "yes"}}, {"type": "node", "id": 2603037493, "lat": 46.8245194, "lon": 0.5593951, "tags": {"bus": "yes", "highway": "bus_stop", "name": "Leclerc", "public_transport": "platform"}}, {"type": "node", "id": 2665250206, "lat": 46.822644, "lon": 0.5333445, "tags": {"bus": "yes", "highway": "bus_stop", "name": "Epicerie", "public_transport": "platform"}}, {"type": "node", "id": 2665251726, "lat": 46.8224752, "lon": 0.5334161, "tags": {"bus": "yes", "highway": "bus_stop", "name": "Epicerie", "public_transport": "platform"}}, {"type": "node", "id": 2665293080, "lat": 46.8211667, "lon": 0.5350268, "tags": {"bus": "yes", "highway": "bus_stop", "name": "Sanital", "public_transport": "platform"}}, {"type": "node", "id": 2822547067, "lat": 46.5774058, "lon": 0.7767776, "tags": {"bench": "yes", "bus": "yes", "covered": "yes", "highway": "bus_stop", "public_transport": "platform", "shelter": "yes"}}, {"type": "node", "id": 2857539081, "lat": 46.8652873, "lon": 0.7715237, "tags": {"bus": "yes", "highway": "bus_stop", "name": "Caf\u00e9 de la Poste", "public_transport": "stop_position"}}, {"type": "node", "id": 2879954419, "lat": 46.801722, "lon": 0.5462335, "tags": {"bus": "yes", "highway": "bus_stop", "name": "Gu\u00e9rin", "public_transport": "platform", "shelter": "no"}}, {"type": "node", "id": 3413030897, "lat": 46.6307949, "lon": 1.0635223, "tags": {"bus": "yes", "highway": "bus_stop", "name": "Le Blanc - Place du Bateau", "public_transport": "stop_position"}}, {"type": "node", "id": 3657109023, "lat": 46.8319545, "lon": 0.4601975, "tags": {"bus": "yes", "covered": "yes", "highway": "bus_stop", "public_transport": "platform", "shelter": "yes"}}, {"type": "node", "id": 3723468901, "lat": 46.7578062, "lon": 0.4795761, "tags": {"bench": "yes", "bus": "yes", "highway": "bus_stop", "name": "Colette", "public_transport": "platform", "shelter": "yes", "tactile_paving": "no"}}, {"type": "node", "id": 3727722564, "lat": 46.8414267, "lon": 0.5176554, "tags": {"bus": "yes", "highway": "bus_stop", "name": "Plessis", "public_transport": "platform"}}, {"type": "node", "id": 3727728661, "lat": 46.844164, "lon": 0.4892562, "tags": {"bus": "yes", "highway": "bus_stop", "name": "Bardini\u00e8res", "public_transport": "platform"}}, {"type": "node", "id": 3727728662, "lat": 46.8498179, "lon": 0.4936177, "tags": {"bus": "yes", "highway": "bus_stop", "name": "Genauraye", "public_transport": "platform"}}, {"type": "node", "id": 3727733891, "lat": 46.8231577, "lon": 0.5263467, "tags": {"bus": "yes", "highway": "bus_stop", "name": "Croix Rouge", "public_transport": "platform"}}, {"type": "node", "id": 3727741190, "lat": 46.8190059, "lon": 0.5316783, "tags": {"bus": "yes", "highway": "bus_stop", "name": "Cerceau", "public_transport": "platform"}}, {"type": "node", "id": 3727741191, "lat": 46.8189655, "lon": 0.5315415, "tags": {"bus": "yes", "highway": "bus_stop", "name": "Cerceau", "public_transport": "platform"}}, {"type": "node", "id": 3727747412, "lat": 46.8172765, "lon": 0.5247769, "tags": {"bus": "yes", "highway": "bus_stop", "name": "Courteline", "public_transport": "platform"}}, {"type": "node", "id": 3727749929, "lat": 46.8170655, "lon": 0.522096, "tags": {"bus": "yes", "highway": "bus_stop", "name": "Mac\u00e9", "public_transport": "platform"}}, {"type": "node", "id": 3727749930, "lat": 46.817162, "lon": 0.5223108, "tags": {"bench": "yes", "bus": "yes", "highway": "bus_stop", "name": "Mac\u00e9", "public_transport": "platform", "shelter": "yes"}}, {"type": "node", "id": 3727753243, "lat": 46.817653, "lon": 0.5205502, "tags": {"bus": "yes", "highway": "bus_stop", "name": "Tivoli", "public_transport": "platform"}}, {"type": "node", "id": 3727766249, "lat": 46.8209722, "lon": 0.5354453, "tags": {"bus": "yes", "highway": "bus_stop", "name": "Sanital", "public_transport": "platform"}}, {"type": "node", "id": 3727789261, "lat": 46.7813372, "lon": 0.5314961, "tags": {"bus": "yes", "highway": "bus_stop", "name": "Bordes", "public_transport": "platform"}}, {"type": "node", "id": 3727797115, "lat": 46.7761574, "lon": 0.5316142, "tags": {"bus": "yes", "highway": "bus_stop", "name": "Maine", "public_transport": "platform"}}, {"type": "node", "id": 3727805645, "lat": 46.7754721, "lon": 0.5272508, "tags": {"bus": "yes", "highway": "bus_stop", "name": "Prieur\u00e9", "public_transport": "platform"}}, {"type": "node", "id": 3727805646, "lat": 46.7753748, "lon": 0.5267621, "tags": {"bus": "yes", "highway": "bus_stop", "name": "Prieur\u00e9", "public_transport": "platform"}}, {"type": "node", "id": 3727812325, "lat": 46.7721842, "lon": 0.5215236, "tags": {"bus": "yes", "highway": "bus_stop", "name": "Terres Rouges", "public_transport": "platform"}}, {"type": "node", "id": 3727812326, "lat": 46.772462, "lon": 0.5218232, "tags": {"bus": "yes", "highway": "bus_stop", "name": "Terres Rouges", "public_transport": "platform"}}, {"type": "node", "id": 3727826318, "lat": 46.7514831, "lon": 0.4998745, "tags": {"bench": "yes", "bin": "yes", "bus": "yes", "highway": "bus_stop", "name": "Bel Air", "public_transport": "platform", "shelter": "yes", "tactile_paving": "no"}}, {"type": "node", "id": 3727826328, "lat": 46.7674332, "lon": 0.5130076, "tags": {"bench": "yes", "bin": "yes", "bus": "yes", "highway": "bus_stop", "name": "Chezelles", "public_transport": "platform", "shelter": "yes"}}, {"type": "node", "id": 3727833206, "lat": 46.7531782, "lon": 0.4962813, "tags": {"bench": "yes", "bus": "yes", "highway": "bus_stop", "name": "Domine", "public_transport": "platform", "shelter": "yes", "tactile_paving": "no"}}, {"type": "node", "id": 3727841485, "lat": 46.7636238, "lon": 0.4936463, "tags": {"bus": "yes", "highway": "bus_stop", "name": "Picasso", "public_transport": "platform"}}, {"type": "node", "id": 3727848942, "lat": 46.7667029, "lon": 0.4925869, "tags": {"bus": "yes", "highway": "bus_stop", "name": "Marmoure", "public_transport": "platform"}}, {"type": "node", "id": 3727850608, "lat": 46.7720217, "lon": 0.4935363, "tags": {"bench": "no", "bus": "yes", "highway": "bus_stop", "name": "Ferry", "public_transport": "platform", "shelter": "yes", "tactile_paving": "no"}}, {"type": "node", "id": 3727864532, "lat": 46.7813105, "lon": 0.4858506, "tags": {"bus": "yes", "highway": "bus_stop", "name": "Acacias", "public_transport": "platform"}}, {"type": "node", "id": 4034270795, "lat": 46.9814851, "lon": 0.8386485, "tags": {"bus": "yes", "highway": "bus_stop", "name": "Paulmy - Centre", "public_transport": "stop_position"}}, {"type": "node", "id": 4034270796, "lat": 46.9818644, "lon": 0.8389892, "tags": {"bus": "yes", "highway": "bus_stop", "name": "Paulmy \u2212 Centre", "public_transport": "stop_position"}}, {"type": "node", "id": 4034270797, "lat": 46.9819842, "lon": 0.8385133, "tags": {"bus": "yes", "highway": "bus_stop", "name": "Paulmy - Centre", "public_transport": "stop_position"}}, {"type": "node", "id": 4034275854, "lat": 46.9932609, "lon": 0.8816701, "tags": {"bus": "yes", "highway": "bus_stop", "name": "Ferri\u00e8re-Lar\u00e7on \u2212 Centre", "public_transport": "stop_position"}}, {"type": "node", "id": 4034275856, "lat": 46.9206151, "lon": 0.8059972, "tags": {"bus": "yes", "highway": "bus_stop", "name": "Le Grand Pressigny - Salle des F\u00eates", "public_transport": "stop_position"}}, {"type": "node", "id": 4035244549, "lat": 46.837644, "lon": 0.8108437, "tags": {"bus": "yes", "highway": "bus_stop", "name": "Beau-S\u00e9jour", "public_transport": "stop_position"}}, {"type": "node", "id": 4035244562, "lat": 46.7385066, "lon": 0.954826, "tags": {"bus": "yes", "highway": "bus_stop", "name": "Tournon-Saint-Pierre - Mairie", "public_transport": "stop_position"}}, {"type": "node", "id": 4035244795, "lat": 46.8878633, "lon": 0.7376797, "tags": {"bus": "yes", "highway": "bus_stop", "name": "La Creusette", "public_transport": "stop_position"}}, {"type": "node", "id": 4035244796, "lat": 46.8882782, "lon": 0.7372929, "tags": {"bus": "yes", "highway": "bus_stop", "name": "La Creusette", "public_transport": "stop_position"}}, {"type": "node", "id": 4035244813, "lat": 46.9423172, "lon": 0.7100384, "tags": {"bus": "yes", "highway": "bus_stop", "name": "Rives", "public_transport": "stop_position"}}, {"type": "node", "id": 4161623563, "lat": 46.5704905, "lon": 0.6355259, "tags": {"addr:city": "Chauvigny", "addr:housenumber": "10", "addr:postcode": "86300", "addr:street": "Rue de la Folie", "name": "V\u00e9loRail de Chauvigny", "phone": "+33 5 49 88 93 63", "public_transport": "station", "railway": "station", "website": "http://www.velorail-chauvigny.fr/"}}, {"type": "node", "id": 4290854867, "lat": 46.8186988, "lon": 0.5492875, "tags": {"name": "Ch\u00e2tellerault", "operator": "SNCF", "public_transport": "station", "railway": "station", "railway:ref:DB": "XFCRT", "source": "SNCF - 06/2013", "train": "yes", "uic_ref": "8757514", "wikidata": "Q1878152", "wikipedia": "fr:Gare de Ch\u00e2tellerault"}}, {"type": "node", "id": 4440832424, "lat": 46.8746284, "lon": 0.5691167, "tags": {"addr:city": "Ingrandes", "addr:postcode": "86220", "addr:street": "Rue de la Gare", "alt_name": "Ingrandes", "internet_access": "no", "name": "Ingrandes sur Vienne", "network": "TER Nouvelle-Aquitaine", "network:wikidata": "Q47519663", "operator": "SNCF", "operator:wikidata": "Q13646", "public_transport": "station", "railway": "station", "train": "yes", "uic_ref": "8757513", "wikidata": "Q1940437", "wikipedia": "fr:Gare d'Ingrandes-sur-Vienne"}}, {"type": "node", "id": 4472264482, "lat": 46.6307015, "lon": 1.0637316, "tags": {"bus": "yes", "highway": "bus_stop", "name": "Le-Blanc-Pl-du-Bateau", "operator": "SNCF", "public_transport": "platform", "source": "SNCF - 06/2016", "uic_ref": "8720160"}}, {"type": "node", "id": 4550029286, "lat": 46.783342, "lon": 0.5257652, "tags": {"name": "Nerpuy", "operator": "SNCF", "public_transport": "station", "railway": "station", "source": "SNCF - 06/2013", "train": "yes", "uic_ref": "8757516", "wikidata": "Q2672815", "wikipedia": "fr:Gare de Nerpuy"}}, {"type": "node", "id": 4550029287, "lat": 46.7595235, "lon": 0.496274, "tags": {"name": "Naintr\u00e9-les-Barres", "operator": "SNCF", "public_transport": "station", "railway": "station", "source": "SNCF - 06/2013", "train": "yes", "uic_ref": "8757517", "wheelchair": "limited", "wikidata": "Q1970279", "wikipedia": "fr:Gare de Naintr\u00e9-les-Barres"}}, {"type": "node", "id": 4815011220, "lat": 46.8441637, "lon": 0.5499101, "tags": {"bus": "yes", "highway": "bus_stop", "name": "Magneti Marelli", "public_transport": "platform"}}, {"type": "node", "id": 4815015698, "lat": 46.8385718, "lon": 0.5439534, "tags": {"bench": "yes", "bus": "yes", "highway": "bus_stop", "name": "Coli", "public_transport": "platform", "shelter": "yes"}}, {"type": "node", "id": 4815015699, "lat": 46.8387351, "lon": 0.5441654, "tags": {"bus": "yes", "highway": "bus_stop", "name": "Coli", "operator": "Keolis", "public_transport": "platform"}}, {"type": "node", "id": 4815021682, "lat": 46.8380268, "lon": 0.5404706, "tags": {"bench": "no", "bus": "yes", "highway": "bus_stop", "name": "Vercher", "public_transport": "platform", "shelter": "no"}}, {"type": "node", "id": 4815021683, "lat": 46.838029, "lon": 0.5406121, "tags": {"bench": "no", "bus": "yes", "highway": "bus_stop", "name": "Vercher", "public_transport": "platform", "shelter": "no"}}, {"type": "node", "id": 4815082224, "lat": 46.7549108, "lon": 0.4827291, "tags": {"bench": "no", "bus": "yes", "highway": "bus_stop", "name": "Cerisier Noir", "public_transport": "platform", "shelter": "no", "tactile_paving": "no"}}, {"type": "node", "id": 4815082225, "lat": 46.7547069, "lon": 0.4799623, "tags": {"bench": "no", "bus": "yes", "highway": "bus_stop", "name": "Ch\u00e9deville", "public_transport": "platform", "shelter": "no", "tactile_paving": "no"}}, {"type": "node", "id": 4815082226, "lat": 46.7549254, "lon": 0.4825937, "tags": {"bench": "no", "bus": "yes", "highway": "bus_stop", "name": "Cerisier Noir", "public_transport": "platform", "shelter": "no", "tactile_paving": "no"}}, {"type": "node", "id": 4815096376, "lat": 46.7589928, "lon": 0.4821161, "tags": {"bench": "yes", "bin": "yes", "bus": "yes", "highway": "bus_stop", "lit": "yes", "name": "Rabelais", "public_transport": "platform", "shelter": "yes", "tactile_paving": "no"}}, {"type": "node", "id": 4815096380, "lat": 46.7590478, "lon": 0.481492, "tags": {"bench": "no", "bin": "no", "bus": "yes", "highway": "bus_stop", "lit": "yes", "name": "Rabelais", "public_transport": "platform", "shelter": "no", "tactile_paving": "no"}}, {"type": "node", "id": 4815101712, "lat": 46.7603818, "lon": 0.4798959, "tags": {"bench": "no", "bin": "yes", "bus": "yes", "highway": "bus_stop", "lit": "yes", "name": "Rolland", "public_transport": "platform", "shelter": "yes", "tactile_paving": "no"}}, {"type": "node", "id": 4815101713, "lat": 46.7602219, "lon": 0.4798584, "tags": {"bench": "no", "bin": "no", "bus": "yes", "highway": "bus_stop", "lit": "yes", "name": "Rolland", "public_transport": "platform", "shelter": "no", "tactile_paving": "no"}}, {"type": "node", "id": 4815109225, "lat": 46.7628218, "lon": 0.478882, "tags": {"bench": "yes", "bin": "yes", "bus": "yes", "highway": "bus_stop", "lit": "no", "name": "Naintr\u00e9 Centre", "public_transport": "platform", "shelter": "yes", "tactile_paving": "no"}}, {"type": "node", "id": 4815121396, "lat": 46.7634723, "lon": 0.4824494, "tags": {"bench": "no", "bin": "no", "bus": "yes", "highway": "bus_stop", "lit": "no", "name": "Anatole France", "public_transport": "platform", "shelter": "no", "tactile_paving": "no"}}, {"type": "node", "id": 4815121397, "lat": 46.763388, "lon": 0.4823288, "tags": {"bench": "yes", "bin": "yes", "bus": "yes", "highway": "bus_stop", "lit": "yes", "name": "Anatole France", "public_transport": "platform", "shelter": "yes", "tactile_paving": "no"}}, {"type": "node", "id": 4815133060, "lat": 46.7610524, "lon": 0.4858397, "tags": {"bench": "no", "bin": "no", "bus": "yes", "highway": "bus_stop", "lit": "yes", "name": "Neruda", "public_transport": "platform", "shelter": "no", "tactile_paving": "no"}}, {"type": "node", "id": 4815133061, "lat": 46.7609275, "lon": 0.4858209, "tags": {"bench": "yes", "bin": "yes", "bus": "yes", "highway": "bus_stop", "lit": "yes", "name": "Neruda", "public_transport": "platform", "shelter": "yes", "tactile_paving": "yes"}}, {"type": "node", "id": 4815143486, "lat": 46.7631756, "lon": 0.4944228, "tags": {"bus": "yes", "highway": "bus_stop", "name": "Avenue de Paris", "public_transport": "platform"}}, {"type": "node", "id": 4815143488, "lat": 46.763426, "lon": 0.4950484, "tags": {"bus": "yes", "highway": "bus_stop", "name": "Avenue de Paris", "public_transport": "platform", "shelter": "yes"}}, {"type": "node", "id": 4815151066, "lat": 46.7702522, "lon": 0.5013424, "tags": {"bus": "yes", "highway": "bus_stop", "name": "Bois Granger", "public_transport": "platform"}}, {"type": "node", "id": 4815151067, "lat": 46.7703088, "lon": 0.5011692, "tags": {"bus": "yes", "highway": "bus_stop", "name": "Bois Granger", "public_transport": "platform"}}, {"type": "node", "id": 4815211867, "lat": 46.8234121, "lon": 0.5333006, "tags": {"bus": "yes", "highway": "bus_stop", "name": "Richelieu", "public_transport": "platform"}}, {"type": "node", "id": 4815211868, "lat": 46.8236895, "lon": 0.5332869, "tags": {"bus": "yes", "highway": "bus_stop", "name": "Richelieu", "public_transport": "platform"}}, {"type": "node", "id": 4815211869, "lat": 46.8213285, "lon": 0.5325852, "tags": {"bus": "yes", "highway": "bus_stop", "name": "Voltaire", "public_transport": "platform"}}, {"type": "node", "id": 4815211870, "lat": 46.8212881, "lon": 0.5324699, "tags": {"bus": "yes", "highway": "bus_stop", "name": "Voltaire", "public_transport": "platform"}}, {"type": "node", "id": 4815219444, "lat": 46.8255263, "lon": 0.5342096, "tags": {"bus": "yes", "highway": "bus_stop", "name": "Lumi\u00e8re", "public_transport": "platform"}}, {"type": "node", "id": 4815219445, "lat": 46.8257356, "lon": 0.5344228, "tags": {"bus": "yes", "highway": "bus_stop", "name": "Lumi\u00e8re", "public_transport": "platform"}}, {"type": "node", "id": 4815238655, "lat": 46.8353795, "lon": 0.5337626, "tags": {"bus": "yes", "highway": "bus_stop", "name": "IUT", "public_transport": "platform"}}, {"type": "node", "id": 4815421380, "lat": 46.8349295, "lon": 0.5336512, "tags": {"bus": "yes", "highway": "bus_stop", "name": "IUT", "public_transport": "platform"}}, {"type": "node", "id": 4815439372, "lat": 46.8178549, "lon": 0.5353531, "tags": {"bus": "yes", "highway": "bus_stop", "name": "Avaucourt", "public_transport": "platform"}}, {"type": "node", "id": 4815482244, "lat": 46.7714087, "lon": 0.5050316, "tags": {"bus": "yes", "highway": "bus_stop", "name": "Bois Weber", "public_transport": "platform"}}, {"type": "node", "id": 4815482245, "lat": 46.7713266, "lon": 0.5051041, "tags": {"bus": "yes", "highway": "bus_stop", "name": "Bois Weber", "public_transport": "platform"}}, {"type": "node", "id": 4815504860, "lat": 46.7569857, "lon": 0.4843311, "tags": {"bench": "no", "bus": "yes", "highway": "bus_stop", "lit": "yes", "name": "Naintr\u00e9 Espace Commercial", "public_transport": "platform", "shelter": "no", "tactile_paving": "no"}}, {"type": "node", "id": 4818106168, "lat": 46.8276732, "lon": 0.4907901, "tags": {"bus": "yes", "highway": "bus_stop", "name": "Ch\u00e2taigneraie", "public_transport": "platform"}}, {"type": "node", "id": 4818123827, "lat": 46.8285467, "lon": 0.4656181, "tags": {"bus": "yes", "highway": "bus_stop", "name": "Pierre", "public_transport": "platform"}}, {"type": "node", "id": 4818127017, "lat": 46.8320459, "lon": 0.4660443, "tags": {"bus": "yes", "highway": "bus_stop", "name": "Vitet", "public_transport": "platform"}}, {"type": "node", "id": 4963781401, "lat": 46.8271938, "lon": 0.4730997, "tags": {"bus": "yes", "highway": "bus_stop", "name": "Poirier", "public_transport": "platform"}}, {"type": "node", "id": 4963781402, "lat": 46.827315, "lon": 0.472228, "tags": {"bus": "yes", "highway": "bus_stop", "name": "Poirier", "public_transport": "platform"}}, {"type": "node", "id": 4963793955, "lat": 46.8276405, "lon": 0.4815535, "tags": {"bus": "yes", "highway": "bus_stop", "name": "Baudonni\u00e8re", "public_transport": "platform"}}, {"type": "node", "id": 4963793956, "lat": 46.8272265, "lon": 0.4799684, "tags": {"bus": "yes", "highway": "bus_stop", "name": "Baudonni\u00e8re", "public_transport": "platform"}}, {"type": "node", "id": 4964040864, "lat": 46.815836, "lon": 0.5588914, "tags": {"bus": "yes", "highway": "bus_stop", "name": "Terrier Blanc", "public_transport": "platform"}}, {"type": "node", "id": 4964040865, "lat": 46.8157404, "lon": 0.5589869, "tags": {"bus": "yes", "highway": "bus_stop", "name": "Terrier Blanc", "public_transport": "platform"}}, {"type": "node", "id": 4965951017, "lat": 46.8139767, "lon": 0.5313299, "tags": {"bench": "no", "bus": "yes", "highway": "bus_stop", "name": "S\u00e9curit\u00e9 Sociale", "public_transport": "platform", "shelter": "no"}}, {"type": "node", "id": 4965956482, "lat": 46.8126073, "lon": 0.5264563, "tags": {"bus": "yes", "highway": "bus_stop", "name": "H\u00f4tel des Imp\u00f4ts", "public_transport": "platform"}}, {"type": "node", "id": 4965969663, "lat": 46.8123512, "lon": 0.5231814, "tags": {"bus": "yes", "highway": "bus_stop", "name": "Tavernier", "public_transport": "platform"}}, {"type": "node", "id": 4965969664, "lat": 46.8109533, "lon": 0.5192788, "tags": {"bus": "yes", "highway": "bus_stop", "name": "Lautrec", "public_transport": "platform"}}, {"type": "node", "id": 4965969665, "lat": 46.812141, "lon": 0.5214674, "tags": {"bus": "yes", "highway": "bus_stop", "name": "Vlaminck", "public_transport": "platform"}}, {"type": "node", "id": 4965977112, "lat": 46.8111717, "lon": 0.5270947, "tags": {"bus": "yes", "highway": "bus_stop", "name": "Gatault", "public_transport": "platform"}}, {"type": "node", "id": 4965982757, "lat": 46.8105998, "lon": 0.5250872, "tags": {"bus": "yes", "highway": "bus_stop", "name": "Rivi\u00e8re", "public_transport": "platform"}}, {"type": "node", "id": 4965988104, "lat": 46.8088788, "lon": 0.5189058, "tags": {"bus": "yes", "highway": "bus_stop", "name": "Fillaud", "public_transport": "platform"}}, {"type": "node", "id": 4968233478, "lat": 46.7827536, "lon": 0.603672, "tags": {"bus": "yes", "highway": "bus_stop", "name": "Mothe", "public_transport": "platform"}}, {"type": "node", "id": 4968233479, "lat": 46.7826709, "lon": 0.6038142, "tags": {"bus": "yes", "highway": "bus_stop", "name": "Mothe", "public_transport": "platform"}}, {"type": "node", "id": 4968233480, "lat": 46.7812401, "lon": 0.6088085, "tags": {"bus": "yes", "highway": "bus_stop", "name": "Fronsali\u00e8re", "operator": "Keolis", "public_transport": "platform"}}, {"type": "node", "id": 4968239175, "lat": 46.7899423, "lon": 0.5884465, "tags": {"bus": "yes", "highway": "bus_stop", "name": "Ecotion", "public_transport": "platform"}}, {"type": "node", "id": 4968248941, "lat": 46.7898087, "lon": 0.5883412, "tags": {"bus": "yes", "highway": "bus_stop", "name": "Ecotion", "public_transport": "platform"}}, {"type": "node", "id": 4968294495, "lat": 46.8067836, "lon": 0.5492522, "tags": {"bus": "yes", "highway": "bus_stop", "name": "Marronnerie", "public_transport": "platform"}}, {"type": "node", "id": 4968294496, "lat": 46.806756, "lon": 0.5493444, "tags": {"bus": "yes", "highway": "bus_stop", "name": "Marronnerie", "public_transport": "platform"}}, {"type": "node", "id": 4968302741, "lat": 46.8083487, "lon": 0.5491805, "tags": {"bus": "yes", "highway": "bus_stop", "name": "Ranc", "public_transport": "platform"}}, {"type": "node", "id": 4968302742, "lat": 46.8083111, "lon": 0.5492672, "tags": {"bus": "yes", "highway": "bus_stop", "name": "Ranc", "public_transport": "platform"}}, {"type": "node", "id": 4968342936, "lat": 46.7913025, "lon": 0.621003, "tags": {"bus": "yes", "highway": "bus_stop", "name": "Nozilli\u00e8re", "public_transport": "platform"}}, {"type": "node", "id": 4968342939, "lat": 46.7928887, "lon": 0.6184537, "tags": {"bus": "yes", "highway": "bus_stop", "name": "Justice", "public_transport": "platform"}}, {"type": "node", "id": 4968383308, "lat": 46.7846838, "lon": 0.6202365, "tags": {"bus": "yes", "highway": "bus_stop", "name": "Salvert", "public_transport": "platform"}}, {"type": "node", "id": 4968385575, "lat": 46.7846378, "lon": 0.6203233, "tags": {"bus": "yes", "highway": "bus_stop", "name": "Salvert", "public_transport": "stop_position"}}, {"type": "node", "id": 4968395264, "lat": 46.7786202, "lon": 0.6136909, "tags": {"bus": "yes", "highway": "bus_stop", "name": "Senill\u00e9-Centre", "public_transport": "stop_position"}}, {"type": "node", "id": 4970498548, "lat": 46.8036483, "lon": 0.6256799, "tags": {"bus": "yes", "highway": "bus_stop", "name": "Saint-Sauveur-Champagne", "public_transport": "platform"}}, {"type": "node", "id": 4970498549, "lat": 46.8065398, "lon": 0.6246331, "tags": {"bus": "yes", "highway": "bus_stop", "name": "Croix du Bourg", "public_transport": "platform"}}, {"type": "node", "id": 4970501013, "lat": 46.8082031, "lon": 0.6235046, "tags": {"bus": "yes", "highway": "bus_stop", "name": "Saint-Sauveur-Centre", "public_transport": "platform"}}, {"type": "node", "id": 4970508312, "lat": 46.813736, "lon": 0.6267313, "tags": {"bus": "yes", "highway": "bus_stop", "name": "Pin", "public_transport": "platform"}}, {"type": "node", "id": 4970508313, "lat": 46.8079539, "lon": 0.623571, "tags": {"bus": "yes", "highway": "bus_stop", "name": "Saint-Sauveur-Centre", "public_transport": "platform"}}, {"type": "node", "id": 4970517173, "lat": 46.8175696, "lon": 0.6317156, "tags": {"bus": "yes", "highway": "bus_stop", "name": "Chaumes", "public_transport": "platform"}}, {"type": "node", "id": 4970520182, "lat": 46.811587, "lon": 0.6174475, "tags": {"bus": "yes", "highway": "bus_stop", "name": "Moulin \u00e0 Vent", "public_transport": "platform"}}, {"type": "node", "id": 4970520183, "lat": 46.8116972, "lon": 0.6174718, "tags": {"bus": "yes", "highway": "bus_stop", "name": "Moulin \u00e0 Vent", "public_transport": "platform"}}, {"type": "node", "id": 4970520184, "lat": 46.81839, "lon": 0.5987611, "tags": {"bus": "yes", "highway": "bus_stop", "name": "Sablons", "public_transport": "platform"}}, {"type": "node", "id": 4970523471, "lat": 46.8139421, "lon": 0.623136, "tags": {"bus": "yes", "highway": "bus_stop", "name": "Epinettes", "public_transport": "platform"}}, {"type": "node", "id": 4970523473, "lat": 46.8139974, "lon": 0.6231068, "tags": {"bus": "yes", "highway": "bus_stop", "name": "Epinettes", "public_transport": "platform"}}, {"type": "node", "id": 4970542666, "lat": 46.8184446, "lon": 0.5918789, "tags": {"bus": "yes", "highway": "bus_stop", "name": "Bouss\u00e9e", "public_transport": "platform"}}, {"type": "node", "id": 4970542667, "lat": 46.8193643, "lon": 0.5871539, "tags": {"bus": "yes", "highway": "bus_stop", "name": "Pavillon", "public_transport": "platform"}}, {"type": "node", "id": 4970543914, "lat": 46.8180564, "lon": 0.5798336, "tags": {"bus": "yes", "highway": "bus_stop", "name": "Charnoire", "public_transport": "platform"}}, {"type": "node", "id": 4970543915, "lat": 46.8181322, "lon": 0.5797739, "tags": {"bus": "yes", "highway": "bus_stop", "name": "Charnoire", "public_transport": "platform"}}, {"type": "node", "id": 4970543917, "lat": 46.8193353, "lon": 0.5820766, "tags": {"bus": "yes", "highway": "bus_stop", "name": "Pantis Boutin", "public_transport": "platform"}}, {"type": "node", "id": 4970559884, "lat": 46.8164453, "lon": 0.5779017, "tags": {"bus": "yes", "highway": "bus_stop", "name": "Taudi\u00e8re", "public_transport": "platform"}}, {"type": "node", "id": 4970562084, "lat": 46.8141362, "lon": 0.5761878, "tags": {"bus": "yes", "highway": "bus_stop", "name": "Grand Vau", "public_transport": "platform"}}, {"type": "node", "id": 4970566966, "lat": 46.8187195, "lon": 0.5753402, "tags": {"bus": "yes", "highway": "bus_stop", "name": "Mose", "public_transport": "platform"}}, {"type": "node", "id": 4974820421, "lat": 46.6819387, "lon": 0.569018, "tags": {"bench": "no", "bin": "yes", "bus": "yes", "highway": "bus_stop", "lit": "yes", "name": "Bonneuil-Centre", "public_transport": "platform", "shelter": "yes", "tactile_paving": "no"}}, {"type": "node", "id": 4974863076, "lat": 46.7141662, "lon": 0.5449466, "tags": {"bus": "yes", "highway": "bus_stop", "name": "Coll\u00e8ge Vouneuil", "public_transport": "platform"}}, {"type": "node", "id": 4974873075, "lat": 46.7177723, "lon": 0.5400891, "tags": {"bus": "yes", "highway": "bus_stop", "name": "Vouneuil-Centre", "public_transport": "platform"}}, {"type": "node", "id": 4974876379, "lat": 46.7255669, "lon": 0.5323536, "tags": {"bus": "yes", "highway": "bus_stop", "name": "Pireau", "public_transport": "platform"}}, {"type": "node", "id": 4974886767, "lat": 46.7305093, "lon": 0.518603, "tags": {"bus": "yes", "highway": "bus_stop", "name": "Montgam\u00e9", "public_transport": "platform"}}, {"type": "node", "id": 4974914324, "lat": 46.7574541, "lon": 0.5394213, "tags": {"bus": "yes", "highway": "bus_stop", "name": "Revoute", "public_transport": "platform"}}, {"type": "node", "id": 4974989552, "lat": 46.7717944, "lon": 0.5440534, "tags": {"bus": "yes", "highway": "bus_stop", "name": "Faulcon", "public_transport": "platform"}}, {"type": "node", "id": 4974994817, "lat": 46.7702972, "lon": 0.5433594, "tags": {"bus": "yes", "highway": "bus_stop", "name": "Katz", "public_transport": "platform"}}, {"type": "node", "id": 4974995102, "lat": 46.771049, "lon": 0.5451656, "tags": {"bus": "yes", "highway": "bus_stop", "name": "Corneille", "public_transport": "platform"}}, {"type": "node", "id": 4974998316, "lat": 46.77171, "lon": 0.5476206, "tags": {"bus": "yes", "highway": "bus_stop", "name": "Lamartine", "public_transport": "platform"}}, {"type": "node", "id": 4975266347, "lat": 46.6477767, "lon": 0.5887728, "tags": {"bus": "yes", "highway": "bus_stop", "name": "Bellefonds-Centre", "public_transport": "platform"}}, {"type": "node", "id": 4975276236, "lat": 46.64673, "lon": 0.5917017, "tags": {"bus": "yes", "highway": "bus_stop", "name": "Bellefonds-Haut", "public_transport": "platform"}}, {"type": "node", "id": 4975288489, "lat": 46.6733938, "lon": 0.6482438, "tags": {"bus": "yes", "highway": "bus_stop", "name": "Gazilli\u00e8re", "public_transport": "platform", "shelter": "no"}}, {"type": "node", "id": 4975313396, "lat": 46.7438957, "lon": 0.5937053, "tags": {"bus": "yes", "highway": "bus_stop", "name": "Roches", "public_transport": "platform"}}, {"type": "node", "id": 4975313933, "lat": 46.740856, "lon": 0.5988906, "tags": {"bus": "yes", "highway": "bus_stop", "name": "Tour d'Ani\u00e8res", "public_transport": "platform"}}, {"type": "node", "id": 4975321141, "lat": 46.7448825, "lon": 0.588387, "tags": {"bus": "yes", "highway": "bus_stop", "name": "Thomassini\u00e8re", "public_transport": "platform"}}, {"type": "node", "id": 4975321380, "lat": 46.7449354, "lon": 0.5848371, "tags": {"bus": "yes", "highway": "bus_stop", "name": "Fonbeurs", "public_transport": "platform"}}, {"type": "node", "id": 4975327922, "lat": 46.7447131, "lon": 0.5770855, "tags": {"bus": "yes", "highway": "bus_stop", "name": "Chabonne", "public_transport": "platform"}}, {"type": "node", "id": 4975331183, "lat": 46.743965, "lon": 0.5731188, "tags": {"bus": "yes", "highway": "bus_stop", "name": "Tronces", "public_transport": "platform", "shelter": "yes"}}, {"type": "node", "id": 4975336360, "lat": 46.7446187, "lon": 0.5635578, "tags": {"bus": "yes", "highway": "bus_stop", "name": "Prin\u00e7ay", "public_transport": "platform"}}, {"type": "node", "id": 4975337984, "lat": 46.7530133, "lon": 0.5706249, "tags": {"bus": "yes", "highway": "bus_stop", "name": "Croix Blanche", "public_transport": "platform", "shelter": "yes"}}, {"type": "node", "id": 4975342621, "lat": 46.7518859, "lon": 0.5733835, "tags": {"bus": "yes", "highway": "bus_stop", "name": "Pressoir", "operator": "Keolis", "public_transport": "platform"}}, {"type": "node", "id": 4975344127, "lat": 46.7528239, "lon": 0.5797606, "tags": {"bus": "yes", "highway": "bus_stop", "name": "Savign\u00e9s", "operator": "Keolis", "public_transport": "platform"}}, {"type": "node", "id": 4975351518, "lat": 46.756343, "lon": 0.5790605, "tags": {"bench": "yes", "bus": "yes", "highway": "bus_stop", "name": "Availles-Centre", "public_transport": "platform", "shelter": "yes"}}, {"type": "node", "id": 4975364659, "lat": 46.7621353, "lon": 0.5752882, "tags": {"bus": "yes", "highway": "bus_stop", "name": "Treuille", "public_transport": "platform"}}, {"type": "node", "id": 4977029046, "lat": 46.8346947, "lon": 0.4569846, "tags": {"highway": "bus_stop", "name": "LPA de Thur\u00e9", "public_transport": "platform"}}, {"type": "node", "id": 4979675997, "lat": 46.8244904, "lon": 0.5053672, "tags": {"bus": "yes", "highway": "bus_stop", "name": "Haute-Bercilli\u00e8re", "public_transport": "platform"}}, {"type": "node", "id": 4979682712, "lat": 46.8232097, "lon": 0.5089806, "tags": {"bus": "yes", "highway": "bus_stop", "name": "Pontillon", "public_transport": "platform"}}, {"type": "node", "id": 4982703666, "lat": 46.81979, "lon": 0.5778198, "tags": {"highway": "bus_stop", "name": "Hautes-Perri\u00e8res", "operator": "Keolis", "public_transport": "platform"}}, {"type": "node", "id": 4982759259, "lat": 46.8092815, "lon": 0.5780802, "tags": {"bus": "yes", "highway": "bus_stop", "name": "Chapon", "public_transport": "platform"}}, {"type": "node", "id": 4982761831, "lat": 46.8125811, "lon": 0.5748869, "tags": {"bus": "yes", "highway": "bus_stop", "name": "Alouette", "operator": "Keolis", "public_transport": "platform"}}, {"type": "node", "id": 4982777150, "lat": 46.808551, "lon": 0.5731671, "tags": {"bus": "yes", "highway": "bus_stop", "name": "Martini\u00e8re", "public_transport": "platform"}}, {"type": "node", "id": 4982777153, "lat": 46.8072243, "lon": 0.5774806, "tags": {"bus": "yes", "highway": "bus_stop", "name": "Pouthum\u00e9", "public_transport": "platform"}}, {"type": "node", "id": 4982777154, "lat": 46.8086711, "lon": 0.5732589, "tags": {"bus": "yes", "highway": "bus_stop", "name": "Martini\u00e8re", "public_transport": "platform"}}, {"type": "node", "id": 4982793893, "lat": 46.810303, "lon": 0.5703608, "tags": {"bus": "yes", "highway": "bus_stop", "name": "Tilleuls", "public_transport": "platform"}}, {"type": "node", "id": 4982793894, "lat": 46.810236, "lon": 0.5705056, "tags": {"bus": "yes", "highway": "bus_stop", "name": "Tilleuls", "public_transport": "platform"}}, {"type": "node", "id": 4982800843, "lat": 46.8043199, "lon": 0.5541826, "tags": {"bus": "yes", "highway": "bus_stop", "name": "B\u00e9caud", "public_transport": "platform"}}, {"type": "node", "id": 4982807868, "lat": 46.8068461, "lon": 0.5572648, "tags": {"bus": "yes", "highway": "bus_stop", "name": "Bergerie", "public_transport": "platform"}}, {"type": "node", "id": 4982807869, "lat": 46.8067912, "lon": 0.5571682, "tags": {"bus": "yes", "highway": "bus_stop", "name": "Bergerie", "public_transport": "platform"}}, {"type": "node", "id": 4982807870, "lat": 46.8072959, "lon": 0.5593569, "tags": {"bus": "yes", "highway": "bus_stop", "name": "Serres", "public_transport": "platform"}}, {"type": "node", "id": 4982857136, "lat": 46.8127299, "lon": 0.5490921, "tags": {"bus": "yes", "highway": "bus_stop", "name": "Chevretterie", "operator": "Keolis", "public_transport": "platform"}}, {"type": "node", "id": 4982857137, "lat": 46.8127096, "lon": 0.5489687, "tags": {"bus": "yes", "highway": "bus_stop", "name": "Chevretterie", "operator": "Keolis", "public_transport": "platform"}}, {"type": "node", "id": 5141346325, "lat": 46.8431344, "lon": 0.5748174, "tags": {"bus": "yes", "highway": "bus_stop", "name": "Orangerie", "operator": "Keolis", "public_transport": "platform"}}, {"type": "node", "id": 5141354111, "lat": 46.8445543, "lon": 0.5633429, "tags": {"bus": "yes", "highway": "bus_stop", "name": "Richarderie", "public_transport": "platform"}}, {"type": "node", "id": 5141354112, "lat": 46.840641, "lon": 0.5599043, "tags": {"bus": "yes", "highway": "bus_stop", "name": "Chapelle Rouge", "public_transport": "platform"}}, {"type": "node", "id": 6074128434, "lat": 46.8097675, "lon": 0.5220742, "tags": {"bus": "yes", "highway": "bus_stop", "name": "Tamaris", "public_transport": "platform"}}, {"type": "node", "id": 6461291969, "lat": 46.8445837, "lon": 0.5403433, "tags": {"bench": "yes", "bus": "yes", "highway": "bus_stop", "name": "Tuilerie", "public_transport": "platform", "shelter": "yes"}}, {"type": "node", "id": 6461291970, "lat": 46.8428877, "lon": 0.539891, "tags": {"bench": "no", "bus": "yes", "highway": "bus_stop", "name": "Val\u00e9o", "public_transport": "platform", "shelter": "no"}}, {"type": "node", "id": 6461360958, "lat": 46.8461929, "lon": 0.5410772, "tags": {"bench": "no", "bus": "yes", "highway": "bus_stop", "name": "Restaurant", "public_transport": "platform", "shelter": "no"}}, {"type": "node", "id": 7663389050, "lat": 46.7614233, "lon": 0.4924313, "tags": {"bench": "no", "bin": "no", "bus": "yes", "highway": "bus_stop", "public_transport": "platform", "shelter": "no"}}, {"type": "node", "id": 7944815238, "lat": 46.7631818, "lon": 0.4750316, "tags": {"bench": "no", "bus": "yes", "highway": "bus_stop", "name": "Route de Colombier", "public_transport": "platform", "shelter": "yes", "tactile_paving": "no"}}, {"type": "node", "id": 8459392845, "lat": 46.9492507, "lon": 0.6963925, "tags": {"bus": "yes", "highway": "bus_stop", "public_transport": "platform"}}, {"type": "node", "id": 8868846609, "lat": 46.8387733, "lon": 0.5327636, "tags": {"bus": "yes", "highway": "bus_stop", "name": "Monory", "public_transport": "platform", "shelter": "yes"}}, {"type": "node", "id": 9079163915, "lat": 46.8556235, "lon": 0.5400546, "tags": {"bus": "yes", "highway": "bus_stop", "name": "Normandie", "public_transport": "platform"}}, {"type": "node", "id": 9079163916, "lat": 46.8570078, "lon": 0.5381079, "tags": {"bus": "yes", "highway": "bus_stop", "name": "Poitou", "public_transport": "platform"}}, {"type": "node", "id": 9079211917, "lat": 46.8626186, "lon": 0.54359, "tags": {"bus": "yes", "highway": "bus_stop", "name": "Pouples", "public_transport": "platform"}}, {"type": "node", "id": 9079211918, "lat": 46.8570967, "lon": 0.546157, "tags": {"bus": "yes", "highway": "bus_stop", "name": "Lavoir", "public_transport": "platform"}}, {"type": "node", "id": 9079211919, "lat": 46.8547931, "lon": 0.5447317, "tags": {"bus": "yes", "highway": "bus_stop", "name": "Touraine", "public_transport": "platform"}}, {"type": "node", "id": 9079211920, "lat": 46.8528719, "lon": 0.5425571, "tags": {"bus": "yes", "highway": "bus_stop", "name": "Antran Centre", "public_transport": "platform", "shelter": "yes"}}, {"type": "node", "id": 9079211921, "lat": 46.8537602, "lon": 0.5372061, "tags": {"bus": "yes", "highway": "bus_stop", "name": "Maine", "public_transport": "platform"}}, {"type": "node", "id": 9079346317, "lat": 46.8511051, "lon": 0.5356189, "tags": {"bus": "yes", "highway": "bus_stop", "name": "Monory 2", "public_transport": "platform"}}, {"type": "node", "id": 9079346318, "lat": 46.8273725, "lon": 0.5391552, "tags": {"bus": "yes", "highway": "bus_stop", "name": "Ateliers Municipaux", "public_transport": "platform"}}, {"type": "node", "id": 9094153985, "lat": 46.8489228, "lon": 0.5440785, "tags": {"bus": "yes", "highway": "bus_stop", "name": "Boulle", "public_transport": "platform"}}, {"type": "node", "id": 9094440393, "lat": 46.8112624, "lon": 0.5443108, "tags": {"bus": "yes", "highway": "bus_stop", "name": "3 Pigeons", "public_transport": "platform"}}, {"type": "node", "id": 9094440394, "lat": 46.8113565, "lon": 0.544517, "tags": {"bus": "yes", "highway": "bus_stop", "name": "3 Pigeons", "public_transport": "platform"}}, {"type": "node", "id": 9095017171, "lat": 46.6732139, "lon": 0.6533407, "tags": {"bus": "yes", "highway": "bus_stop", "name": "Archigny-Centre", "public_transport": "platform"}}, {"type": "node", "id": 10021422053, "lat": 46.8102985, "lon": 0.4126677, "tags": {"bus": "yes", "highway": "bus_stop", "name": "Scorb\u00e9-Clairvaux - Halle aux Grains", "public_transport": "platform"}}, {"type": "node", "id": 10021422054, "lat": 46.814293, "lon": 0.4288894, "tags": {"bus": "yes", "highway": "bus_stop", "name": "Scorb\u00e9-Clairvaux - Champsin", "public_transport": "platform", "shelter": "yes"}}, {"type": "node", "id": 10021422055, "lat": 46.8145693, "lon": 0.4294671, "tags": {"bus": "yes", "highway": "bus_stop", "name": "Scorb\u00e9-Clairvaux - Champsin", "public_transport": "platform", "shelter": "yes"}}, {"type": "node", "id": 10021422056, "lat": 46.8175355, "lon": 0.4950489, "tags": {"bus": "yes", "highway": "bus_stop", "name": "Besse", "public_transport": "platform"}}, {"type": "node", "id": 10021422057, "lat": 46.8176457, "lon": 0.4950064, "tags": {"bus": "yes", "highway": "bus_stop", "name": "Besse", "public_transport": "platform"}}, {"type": "node", "id": 10200661339, "lat": 46.8274257, "lon": 0.5392718, "tags": {"bus": "yes", "fixme": "Position \u00e0 corriger ?", "highway": "bus_stop", "name": "Ateliers Municipaux", "public_transport": "platform"}}, {"type": "node", "id": 10219686701, "lat": 46.9446635, "lon": 0.8944033, "tags": {"bus": "yes", "highway": "bus_stop", "public_transport": "platform", "ref": "La Celle-Guenand - Centre"}}, {"type": "node", "id": 10291214338, "lat": 46.7058295, "lon": 0.9567476, "tags": {"bus": "yes", "highway": "bus_stop", "name": "Transport Scolaire - Lurais", "network": "R\u00e9mi", "network:wikidata": "Q39075313", "public_transport": "platform"}}, {"type": "node", "id": 10699652698, "lat": 46.8750824, "lon": 0.5641391, "tags": {"bench": "yes", "bus": "yes", "departures_board": "yes", "highway": "bus_stop", "name": "Ingrandes Centre", "public_transport": "platform", "shelter": "yes"}}, {"type": "node", "id": 10699652699, "lat": 46.8749859, "lon": 0.5643659, "tags": {"bus": "yes", "highway": "bus_stop", "name": "Ingrandes Centre", "public_transport": "platform"}}, {"type": "node", "id": 10699692849, "lat": 46.8804564, "lon": 0.5684127, "tags": {"bus": "yes", "highway": "bus_stop", "name": "Ingrandes Battreau", "public_transport": "platform", "shelter": "yes"}}, {"type": "node", "id": 10699692850, "lat": 46.9017952, "lon": 0.5760899, "tags": {"bus": "yes", "highway": "bus_stop", "name": "ZI St-Ustre Sud", "public_transport": "platform"}}, {"type": "node", "id": 10699692858, "lat": 46.9056196, "lon": 0.5791751, "tags": {"bus": "yes", "highway": "bus_stop", "name": "ZI St-Ustre Nord", "public_transport": "platform"}}, {"type": "node", "id": 10699731670, "lat": 46.9161541, "lon": 0.590843, "tags": {"bus": "yes", "highway": "bus_stop", "name": "Lafayette", "public_transport": "platform"}}, {"type": "node", "id": 10699731672, "lat": 46.9310002, "lon": 0.6024255, "tags": {"bus": "yes", "highway": "bus_stop", "name": "Dang\u00e9-St-Romain Bellevue", "public_transport": "platform"}}, {"type": "node", "id": 10704277887, "lat": 46.8077771, "lon": 0.7399491, "tags": {"bus": "yes", "highway": "bus_stop", "name": "Coussay-les-Bois - Centre", "public_transport": "platform"}}, {"type": "node", "id": 10704277891, "lat": 46.7859226, "lon": 0.8115928, "tags": {"bus": "yes", "highway": "bus_stop", "name": "La Roche-Posay - Office de Tourisme", "public_transport": "platform"}}, {"type": "node", "id": 10704295041, "lat": 46.7382212, "lon": 0.7651318, "tags": {"bench": "yes", "bus": "yes", "highway": "bus_stop", "name": "Pleumartin - Halles", "public_transport": "platform", "shelter": "yes"}}, {"type": "node", "id": 10704295042, "lat": 46.738345, "lon": 0.7649758, "tags": {"bus": "yes", "highway": "bus_stop", "name": "Pleumartin - Halles", "public_transport": "platform"}}, {"type": "node", "id": 10704411683, "lat": 46.8129982, "lon": 0.4163347, "tags": {"bus": "yes", "highway": "bus_stop", "name": "Scorb\u00e9-Clairvaux - Mairie", "public_transport": "platform", "shelter": "yes"}}, {"type": "node", "id": 10704411684, "lat": 46.8123535, "lon": 0.416067, "tags": {"bus": "yes", "highway": "bus_stop", "name": "Scorb\u00e9-Clairvaux - Mairie", "public_transport": "platform"}}, {"type": "node", "id": 10706275291, "lat": 46.7962598, "lon": 0.5247422, "tags": {"bus": "yes", "highway": "bus_stop", "name": "Hamilton", "public_transport": "platform"}}, {"type": "node", "id": 10706518334, "lat": 46.7646989, "lon": 0.4794721, "tags": {"bus": "yes", "highway": "bus_stop", "name": "Chaplin", "public_transport": "platform"}}, {"type": "node", "id": 10706798739, "lat": 46.8510537, "lon": 0.5357692, "tags": {"bus": "yes", "highway": "bus_stop", "name": "Monory 2", "public_transport": "platform"}}, {"type": "node", "id": 10706798740, "lat": 46.8535087, "lon": 0.5377515, "tags": {"bus": "yes", "highway": "bus_stop", "name": "Maine", "public_transport": "platform"}}, {"type": "node", "id": 10706798741, "lat": 46.8530481, "lon": 0.5429969, "tags": {"bus": "yes", "highway": "bus_stop", "name": "Antran Centre", "public_transport": "platform", "shelter": "no"}}, {"type": "node", "id": 10707308596, "lat": 46.8179241, "lon": 0.4954178, "tags": {"bus": "yes", "highway": "bus_stop", "name": "Place de Besse", "public_transport": "platform"}}, {"type": "node", "id": 10707308597, "lat": 46.8212547, "lon": 0.4933862, "tags": {"bus": "yes", "highway": "bus_stop", "name": "Joseph", "public_transport": "platform"}}, {"type": "node", "id": 10707308598, "lat": 46.8233633, "lon": 0.4925176, "tags": {"bus": "yes", "highway": "bus_stop", "name": "Brenusson", "public_transport": "platform"}}, {"type": "node", "id": 10707308599, "lat": 46.8269755, "lon": 0.4930355, "tags": {"bus": "yes", "highway": "bus_stop", "name": "Gruges", "public_transport": "platform"}}, {"type": "node", "id": 10707308600, "lat": 46.8277938, "lon": 0.4906271, "tags": {"bus": "yes", "highway": "bus_stop", "name": "Ch\u00e2taigneraie", "public_transport": "platform"}}, {"type": "node", "id": 10707308601, "lat": 46.8288433, "lon": 0.4657374, "tags": {"bus": "yes", "highway": "bus_stop", "name": "Pierre", "public_transport": "platform"}}, {"type": "node", "id": 10707308602, "lat": 46.8322284, "lon": 0.4661546, "tags": {"bus": "yes", "highway": "bus_stop", "name": "Vitet", "public_transport": "platform"}}, {"type": "node", "id": 10707308603, "lat": 46.8319158, "lon": 0.4576434, "tags": {"bus": "yes", "highway": "bus_stop", "name": "Thur\u00e9-Centre", "public_transport": "platform"}}, {"type": "node", "id": 10707308604, "lat": 46.8351643, "lon": 0.4570244, "tags": {"highway": "bus_stop", "name": "LPA de Thur\u00e9", "public_transport": "platform"}}, {"type": "node", "id": 10710953712, "lat": 46.8027894, "lon": 0.5511326, "tags": {"bus": "yes", "highway": "bus_stop", "name": "Eiffel", "public_transport": "platform"}}, {"type": "node", "id": 10719394661, "lat": 46.9533594, "lon": 0.6952261, "tags": {"bus": "yes", "highway": "bus_stop", "public_transport": "platform"}}, {"type": "node", "id": 10728470279, "lat": 46.8588834, "lon": 0.3864747, "tags": {"bus": "yes", "highway": "bus_stop", "public_transport": "platform"}}, {"type": "node", "id": 10728470280, "lat": 46.858895, "lon": 0.3865827, "tags": {"bus": "yes", "highway": "bus_stop", "public_transport": "platform"}}, {"type": "node", "id": 10728489014, "lat": 46.8595757, "lon": 0.4905788, "tags": {"bus": "yes", "highway": "bus_stop", "public_transport": "platform"}}, {"type": "node", "id": 10728489015, "lat": 46.8597605, "lon": 0.4905834, "tags": {"bus": "yes", "highway": "bus_stop", "public_transport": "platform"}}, {"type": "node", "id": 10731125299, "lat": 46.7378919, "lon": 0.7727679, "tags": {"bus": "yes", "highway": "bus_stop", "public_transport": "platform"}}, {"type": "node", "id": 10731174138, "lat": 46.7183929, "lon": 0.5379619, "tags": {"bus": "yes", "highway": "bus_stop", "public_transport": "platform"}}, {"type": "node", "id": 11037331177, "lat": 46.7518647, "lon": 0.5274222, "tags": {"bus": "yes", "highway": "bus_stop", "name": "Sabli\u00e8re", "public_transport": "platform"}}, {"type": "node", "id": 11158690035, "lat": 46.8287455, "lon": 0.5045013, "tags": {"bus": "yes", "highway": "bus_stop", "name": "Romarins", "public_transport": "platform"}}, {"type": "node", "id": 11163063028, "lat": 46.8188077, "lon": 0.5247135, "tags": {"bus": "yes", "highway": "bus_stop", "name": "Route de Lenclo\u00eetre", "public_transport": "platform"}}, {"type": "node", "id": 11163063029, "lat": 46.8186471, "lon": 0.5252634, "tags": {"bus": "yes", "highway": "bus_stop", "name": "Route de Lenclo\u00eetre", "public_transport": "platform"}}, {"type": "node", "id": 11163077416, "lat": 46.8231652, "lon": 0.5265525, "tags": {"bus": "yes", "highway": "bus_stop", "name": "Croix Rouge", "public_transport": "platform"}}, {"type": "node", "id": 11163077417, "lat": 46.8262854, "lon": 0.5105857, "tags": {"bus": "yes", "highway": "bus_stop", "name": "Perdrige", "public_transport": "platform"}}, {"type": "node", "id": 11243624631, "lat": 46.5627284, "lon": 0.561006, "tags": {"bench": "yes", "bus": "yes", "highway": "bus_stop", "name": "Jardres Terena", "public_transport": "platform", "shelter": "yes"}}, {"type": "node", "id": 11243624632, "lat": 46.562677, "lon": 0.5625668, "tags": {"bus": "yes", "highway": "bus_stop", "name": "Jardres Terena", "public_transport": "platform"}}, {"type": "node", "id": 11243715957, "lat": 46.5697657, "lon": 0.6438921, "tags": {"bus": "yes", "highway": "bus_stop", "name": "Chauvigny - Mairie", "network": "Vitalis", "public_transport": "platform"}}, {"type": "node", "id": 11243715958, "lat": 46.569619, "lon": 0.6441096, "tags": {"bus": "yes", "highway": "bus_stop", "name": "Chauvigny - Mairie", "network": "Transports Nouvelle Aquitaine", "public_transport": "platform"}}, {"type": "node", "id": 11251116385, "lat": 46.562224, "lon": 0.6468273, "tags": {"bus": "yes", "highway": "bus_stop", "name": "MFR", "network": "Transports Nouvelle Aquitaine", "public_transport": "platform"}}, {"type": "node", "id": 11251116386, "lat": 46.5622232, "lon": 0.6469697, "tags": {"bus": "yes", "highway": "bus_stop", "name": "MFR", "public_transport": "platform"}}, {"type": "node", "id": 11252612471, "lat": 46.53819, "lon": 0.6549025, "tags": {"bus": "yes", "highway": "bus_stop", "name": "Chauvigny - Villeneuve", "network": "Transports Nouvelle Aquitaine", "public_transport": "platform"}}, {"type": "node", "id": 11252612472, "lat": 46.507346, "lon": 0.6364444, "tags": {"bus": "yes", "highway": "bus_stop", "name": "Valdivienne - Mairie", "network": "Transports Nouvelle Aquitaine", "public_transport": "platform"}}, {"type": "node", "id": 11252834063, "lat": 46.5198834, "lon": 0.6419108, "tags": {"bench": "yes", "bus": "yes", "highway": "bus_stop", "name": "Valdivienne - Moulin Brault", "public_transport": "platform", "shelter": "yes", "tactile_paving": "yes"}}, {"type": "node", "id": 11253087768, "lat": 46.5658932, "lon": 0.8640049, "tags": {"bus": "yes", "highway": "bus_stop", "name": "Saint-Savin - Centre", "network": "Transports Nouvelle Aquitaine", "public_transport": "platform"}}, {"type": "node", "id": 11253087769, "lat": 46.5657158, "lon": 0.8635813, "tags": {"bus": "yes", "highway": "bus_stop", "name": "Saint-Savin - Centre", "network": "Transports Nouvelle Aquitaine", "public_transport": "platform"}}, {"type": "node", "id": 11253091969, "lat": 46.5765709, "lon": 0.7759293, "tags": {"bus": "yes", "highway": "bus_stop", "name": "Paizay-le-Sec - Centre", "network": "Transports Nouvelle Aquitaine", "public_transport": "platform"}}, {"type": "node", "id": 11253091970, "lat": 46.5765606, "lon": 0.7778467, "tags": {"bus": "yes", "highway": "bus_stop", "name": "Paizay-le-Sec - Centre", "network": "Transports Nouvelle Aquitaine", "public_transport": "platform"}}, {"type": "node", "id": 11253098445, "lat": 46.573172, "lon": 0.7088379, "tags": {"bus": "yes", "highway": "bus_stop", "name": "Chauvigny - L'Espinasse", "network": "Transports Nouvelle Aquitaine", "public_transport": "platform"}}, {"type": "node", "id": 11253098446, "lat": 46.572947, "lon": 0.7093246, "tags": {"bus": "yes", "highway": "bus_stop", "name": "Chauvigny - L'Espinasse", "network": "Transports Nouvelle Aquitaine", "public_transport": "platform"}}, {"type": "node", "id": 11254963863, "lat": 46.5686675, "lon": 0.5647085, "tags": {"bench": "no", "bin": "yes", "bus": "yes", "highway": "bus_stop", "lit": "yes", "name": "JARDRES Mairie", "public_transport": "platform", "shelter": "yes", "source": "survey", "tactile_paving": "no"}}, {"type": "node", "id": 11277608888, "lat": 46.8333341, "lon": 0.5343292, "tags": {"bus": "yes", "highway": "bus_stop", "name": "Einstein", "public_transport": "platform"}}, {"type": "node", "id": 11348276274, "lat": 46.8005303, "lon": 0.5289397, "tags": {"bus": "yes", "highway": "bus_stop", "name": "Cartier", "public_transport": "platform"}}, {"type": "node", "id": 11350641453, "lat": 46.8124156, "lon": 0.5232597, "tags": {"bus": "yes", "highway": "bus_stop", "name": "Tavernier", "public_transport": "platform"}}, {"type": "node", "id": 11350677036, "lat": 46.8120749, "lon": 0.5213696, "tags": {"bus": "yes", "highway": "bus_stop", "name": "Vlaminck", "public_transport": "platform"}}, {"type": "node", "id": 11350677037, "lat": 46.81103, "lon": 0.51933, "tags": {"bus": "yes", "highway": "bus_stop", "name": "Lautrec", "public_transport": "platform"}}, {"type": "node", "id": 11355226142, "lat": 46.8253564, "lon": 0.5386167, "tags": {"bus": "yes", "highway": "bus_stop", "name": "Sutter", "public_transport": "platform"}}, {"type": "node", "id": 11355226143, "lat": 46.8254248, "lon": 0.5388052, "tags": {"bus": "yes", "highway": "bus_stop", "name": "Sutter", "public_transport": "platform"}}, {"type": "node", "id": 11355858882, "lat": 46.8196976, "lon": 0.5134132, "tags": {"bus": "yes", "highway": "bus_stop", "name": "Bonali\u00e8re", "public_transport": "platform"}}, {"type": "node", "id": 11355858883, "lat": 46.818605, "lon": 0.5194357, "tags": {"bus": "yes", "highway": "bus_stop", "name": "Milet", "public_transport": "platform"}}, {"type": "node", "id": 11355872340, "lat": 46.8194391, "lon": 0.5099441, "tags": {"bus": "yes", "highway": "bus_stop", "name": "Pi\u00e9tard", "public_transport": "platform"}}, {"type": "node", "id": 11357749821, "lat": 46.7940395, "lon": 0.5296254, "tags": {"bus": "yes", "highway": "bus_stop", "name": "Mar\u00e9chal Juin", "public_transport": "platform"}}, {"type": "node", "id": 11357987826, "lat": 46.7910177, "lon": 0.5827758, "tags": {"bus": "yes", "highway": "bus_stop", "name": "Stade", "public_transport": "platform"}}, {"type": "node", "id": 11358023025, "lat": 46.8063544, "lon": 0.6246289, "tags": {"bus": "yes", "highway": "bus_stop", "name": "Croix du Bourg", "public_transport": "platform"}}, {"type": "node", "id": 11358040110, "lat": 46.8186335, "lon": 0.6084035, "tags": {"bus": "yes", "highway": "bus_stop", "name": "Machine", "public_transport": "platform"}}, {"type": "node", "id": 11358040111, "lat": 46.8187046, "lon": 0.6081169, "tags": {"bus": "yes", "highway": "bus_stop", "name": "Machine", "public_transport": "platform"}}, {"type": "node", "id": 11358040113, "lat": 46.8183497, "lon": 0.5989283, "tags": {"bus": "yes", "highway": "bus_stop", "name": "Sablons", "public_transport": "platform"}}, {"type": "node", "id": 11358040116, "lat": 46.8183972, "lon": 0.5918431, "tags": {"bus": "yes", "highway": "bus_stop", "name": "Bouss\u00e9e", "public_transport": "platform"}}, {"type": "node", "id": 11358040117, "lat": 46.8192458, "lon": 0.5873067, "tags": {"bus": "yes", "highway": "bus_stop", "name": "Pavillon", "public_transport": "platform"}}, {"type": "node", "id": 11358042438, "lat": 46.8164585, "lon": 0.5781358, "tags": {"bus": "yes", "highway": "bus_stop", "name": "Taudi\u00e8re", "public_transport": "platform"}}, {"type": "node", "id": 11358156262, "lat": 46.8269512, "lon": 0.5091317, "tags": {"bus": "yes", "highway": "bus_stop", "name": "Charloterie", "public_transport": "platform"}}, {"type": "node", "id": 11358266213, "lat": 46.8103732, "lon": 0.4126065, "tags": {"bus": "yes", "highway": "bus_stop", "name": "Scorb\u00e9-Clairvaux - Halle aux Grains", "public_transport": "platform"}}, {"type": "node", "id": 11358501387, "lat": 46.7880296, "lon": 0.5468463, "tags": {"bus": "yes", "highway": "bus_stop", "name": "Mermoz", "public_transport": "platform", "shelter": "no"}}, {"type": "node", "id": 11775674603, "lat": 46.7765115, "lon": 0.5348622, "tags": {"bus": "yes", "highway": "bus_stop", "name": "Forclan", "public_transport": "platform"}}, {"type": "node", "id": 11775674604, "lat": 46.7765263, "lon": 0.5349487, "tags": {"bus": "yes", "highway": "bus_stop", "name": "Forclan", "public_transport": "platform"}}, {"type": "node", "id": 12144247141, "lat": 46.8326218, "lon": 0.5365526, "tags": {"bus": "yes", "fixme": "Position \u00e0 confirmer", "highway": "bus_stop", "name": "Pompidou", "public_transport": "platform"}}, {"type": "node", "id": 12144247142, "lat": 46.8327032, "lon": 0.5364148, "tags": {"bus": "yes", "fixme": "Position \u00e0 confirmer", "highway": "bus_stop", "name": "Pompidou", "public_transport": "platform"}}, {"type": "node", "id": 12146416025, "lat": 46.8021468, "lon": 0.5437941, "tags": {"bus": "yes", "fixme": "Position \u00e0 v\u00e9rifier", "highway": "bus_stop", "name": "Branly", "public_transport": "platform", "shelter": "no"}}, {"type": "node", "id": 12146416026, "lat": 46.8020856, "lon": 0.5437279, "tags": {"bus": "yes", "fixme": "Position \u00e0 v\u00e9rifier", "highway": "bus_stop", "name": "Branly", "public_transport": "platform", "shelter": "no"}}, {"type": "node", "id": 12146940029, "lat": 46.8442221, "lon": 0.4891677, "tags": {"bus": "yes", "highway": "bus_stop", "name": "Bardini\u00e8res", "public_transport": "platform"}}, {"type": "node", "id": 12146940030, "lat": 46.8497507, "lon": 0.4937558, "tags": {"bus": "yes", "highway": "bus_stop", "name": "Genauraye", "public_transport": "platform"}}, {"type": "node", "id": 12146940031, "lat": 46.85062, "lon": 0.5018873, "tags": {"bus": "yes", "highway": "bus_stop", "name": "Blanchards", "public_transport": "platform"}}, {"type": "node", "id": 12146940032, "lat": 46.850978, "lon": 0.5069991, "tags": {"bus": "yes", "highway": "bus_stop", "name": "Clan\u00e9", "public_transport": "platform"}}, {"type": "node", "id": 12146940033, "lat": 46.8498283, "lon": 0.5128698, "tags": {"bus": "yes", "highway": "bus_stop", "name": "Tapisserie", "public_transport": "platform"}}, {"type": "node", "id": 12146940034, "lat": 46.8414197, "lon": 0.5174987, "tags": {"bus": "yes", "highway": "bus_stop", "name": "Plessis", "public_transport": "platform"}}, {"type": "node", "id": 12146940035, "lat": 46.8367384, "lon": 0.5192207, "tags": {"bus": "yes", "highway": "bus_stop", "name": "Fonteveille", "public_transport": "platform"}}, {"type": "node", "id": 12146940036, "lat": 46.8367201, "lon": 0.5193551, "tags": {"bus": "yes", "highway": "bus_stop", "name": "Fonteveille", "public_transport": "platform"}}, {"type": "node", "id": 12146940037, "lat": 46.8337311, "lon": 0.5201899, "tags": {"bus": "yes", "highway": "bus_stop", "name": "Moury", "public_transport": "platform"}}, {"type": "node", "id": 12146960089, "lat": 46.7815441, "lon": 0.5305192, "tags": {"bus": "yes", "highway": "bus_stop", "name": "Bordes", "public_transport": "platform"}}, {"type": "node", "id": 12146960090, "lat": 46.7792513, "lon": 0.5281125, "tags": {"bus": "yes", "highway": "bus_stop", "name": "Bouchot Marin", "public_transport": "platform"}}, {"type": "node", "id": 12146960091, "lat": 46.7761808, "lon": 0.5317075, "tags": {"bus": "yes", "highway": "bus_stop", "name": "Maine", "public_transport": "platform"}}, {"type": "node", "id": 12146960092, "lat": 46.7675596, "lon": 0.5130572, "tags": {"bus": "yes", "highway": "bus_stop", "name": "Chezelles", "public_transport": "platform"}}, {"type": "node", "id": 12148534133, "lat": 46.8189564, "lon": 0.5675346, "tags": {"bus": "yes", "highway": "bus_stop", "name": "Peu", "public_transport": "platform"}}, {"type": "node", "id": 12148534134, "lat": 46.8186369, "lon": 0.5751862, "tags": {"bus": "yes", "highway": "bus_stop", "name": "Mose", "public_transport": "platform"}}, {"type": "node", "id": 12148534135, "lat": 46.8137141, "lon": 0.6266482, "tags": {"bus": "yes", "highway": "bus_stop", "name": "Pin", "public_transport": "platform"}}, {"type": "node", "id": 12148534136, "lat": 46.8035971, "lon": 0.6255502, "tags": {"bus": "yes", "highway": "bus_stop", "name": "Saint-Sauveur-Champagne", "public_transport": "platform"}}, {"type": "node", "id": 12149461786, "lat": 46.7913781, "lon": 0.6209754, "tags": {"bus": "yes", "highway": "bus_stop", "name": "Nozilli\u00e8re", "public_transport": "platform"}}, {"type": "node", "id": 12149461787, "lat": 46.792832, "lon": 0.6184673, "tags": {"bus": "yes", "highway": "bus_stop", "name": "Justice", "public_transport": "platform"}}, {"type": "node", "id": 12149493034, "lat": 46.7530433, "lon": 0.496323, "tags": {"bench": "no", "bus": "yes", "highway": "bus_stop", "name": "Domine", "public_transport": "platform", "shelter": "no", "tactile_paving": "no"}}, {"type": "node", "id": 12149493077, "lat": 46.7667214, "lon": 0.4926768, "tags": {"bus": "yes", "highway": "bus_stop", "name": "Marmoure", "public_transport": "platform"}}, {"type": "node", "id": 12149493078, "lat": 46.7719991, "lon": 0.4936118, "tags": {"bench": "no", "bus": "yes", "highway": "bus_stop", "name": "Ferry", "public_transport": "platform", "shelter": "no", "tactile_paving": "no"}}, {"type": "node", "id": 12149511423, "lat": 46.763635, "lon": 0.4937484, "tags": {"bus": "yes", "highway": "bus_stop", "name": "Picasso", "public_transport": "platform"}}, {"type": "node", "id": 12149545463, "lat": 46.7760001, "lon": 0.4907694, "tags": {"bus": "yes", "highway": "bus_stop", "name": "Pont d'Autoroute", "public_transport": "platform"}}, {"type": "node", "id": 12149545464, "lat": 46.7736231, "lon": 0.4827681, "tags": {"bus": "yes", "highway": "bus_stop", "name": "Repousson", "public_transport": "platform"}}, {"type": "node", "id": 12149545465, "lat": 46.7772454, "lon": 0.4841785, "tags": {"bus": "yes", "highway": "bus_stop", "name": "Corset", "public_transport": "platform"}}, {"type": "node", "id": 12149545466, "lat": 46.7813407, "lon": 0.4859172, "tags": {"bus": "yes", "highway": "bus_stop", "name": "Acacias", "public_transport": "platform"}}, {"type": "node", "id": 12156279904, "lat": 46.8195251, "lon": 0.5734108, "tags": {"bus": "yes", "highway": "bus_stop", "name": "Grenadier", "public_transport": "platform"}}, {"type": "node", "id": 12157429150, "lat": 46.7787588, "lon": 0.8081436, "tags": {"bus": "yes", "highway": "bus_stop", "name": "Pavillon Rose", "public_transport": "platform"}}, {"type": "node", "id": 12157431712, "lat": 46.8076704, "lon": 0.7400715, "tags": {"bus": "yes", "highway": "bus_stop", "name": "Coussay-les-Bois - Centre", "public_transport": "platform"}}, {"type": "node", "id": 12157450519, "lat": 46.7902439, "lon": 0.8047188, "tags": {"bus": "yes", "highway": "bus_stop", "name": "Sarrazins", "public_transport": "platform"}}, {"type": "node", "id": 12157450520, "lat": 46.7901168, "lon": 0.8047655, "tags": {"bus": "yes", "highway": "bus_stop", "name": "Sarrazins", "public_transport": "platform"}}, {"type": "node", "id": 12157450521, "lat": 46.7881509, "lon": 0.8087022, "tags": {"bus": "yes", "highway": "bus_stop", "name": "MCL", "public_transport": "platform"}}, {"type": "node", "id": 12157450522, "lat": 46.7882317, "lon": 0.8087443, "tags": {"bus": "yes", "highway": "bus_stop", "name": "MCL", "public_transport": "platform"}}, {"type": "node", "id": 12157450523, "lat": 46.7787733, "lon": 0.8079754, "tags": {"bus": "yes", "highway": "bus_stop", "name": "Pavillon Rose", "public_transport": "platform"}}, {"type": "node", "id": 12157934473, "lat": 46.7721105, "lon": 0.534226, "tags": {"bench": "no", "bin": "no", "bus": "yes", "highway": "bus_stop", "name": "Languedoc", "public_transport": "platform", "shelter": "no", "tactile_paving": "no"}}, {"type": "node", "id": 12157934474, "lat": 46.7716096, "lon": 0.536774, "tags": {"bench": "no", "bin": "no", "bus": "yes", "highway": "bus_stop", "name": "\u00c9cole de Cenon", "public_transport": "platform", "shelter": "no", "tactile_paving": "no"}}, {"type": "node", "id": 12157934475, "lat": 46.7694557, "lon": 0.5365972, "tags": {"bench": "no", "bin": "no", "bus": "yes", "highway": "bus_stop", "name": "Parc", "public_transport": "platform", "shelter": "no", "tactile_paving": "no"}}, {"type": "node", "id": 12157934476, "lat": 46.7666829, "lon": 0.5365687, "tags": {"bench": "no", "bin": "no", "bus": "yes", "highway": "bus_stop", "name": "Alsace", "public_transport": "platform", "shelter": "no", "tactile_paving": "no"}}, {"type": "node", "id": 12157934477, "lat": 46.7574704, "lon": 0.5393277, "tags": {"bus": "yes", "highway": "bus_stop", "name": "Revoute", "public_transport": "platform"}}, {"type": "node", "id": 12157934478, "lat": 46.7563584, "lon": 0.5350796, "tags": {"bus": "yes", "highway": "bus_stop", "name": "Petits Pr\u00e9s", "public_transport": "platform"}}, {"type": "node", "id": 12157934479, "lat": 46.7551129, "lon": 0.530099, "tags": {"bus": "yes", "highway": "bus_stop", "name": "Grippeaux", "public_transport": "platform"}}, {"type": "node", "id": 12157934480, "lat": 46.7557024, "lon": 0.5267527, "tags": {"bus": "yes", "highway": "bus_stop", "name": "Jumeaux", "public_transport": "platform"}}, {"type": "node", "id": 12157934481, "lat": 46.7570269, "lon": 0.5255909, "tags": {"bus": "yes", "highway": "bus_stop", "name": "Croix", "public_transport": "platform"}}, {"type": "node", "id": 12157947357, "lat": 46.7880874, "lon": 0.5466932, "tags": {"bus": "yes", "highway": "bus_stop", "name": "Mermoz", "public_transport": "platform", "shelter": "no"}}, {"type": "node", "id": 12157984740, "lat": 46.7525846, "lon": 0.5256831, "tags": {"bus": "yes", "highway": "bus_stop", "name": "Graillerie", "public_transport": "platform"}}, {"type": "node", "id": 12157984741, "lat": 46.7331403, "lon": 0.5299711, "tags": {"bus": "yes", "highway": "bus_stop", "name": "Pontereau", "public_transport": "platform"}}, {"type": "node", "id": 12157984749, "lat": 46.7213963, "lon": 0.5346754, "tags": {"bus": "yes", "highway": "bus_stop", "name": "Noyer Jaune", "public_transport": "platform"}}, {"type": "node", "id": 12157984750, "lat": 46.721161, "lon": 0.5349718, "tags": {"bus": "yes", "highway": "bus_stop", "name": "Noyer Jaune", "public_transport": "platform"}}, {"type": "node", "id": 12169482836, "lat": 46.6934978, "lon": 0.5626077, "tags": {"bus": "yes", "highway": "bus_stop", "name": "Grands Pr\u00e9s", "public_transport": "platform"}}, {"type": "node", "id": 12169482837, "lat": 46.6870245, "lon": 0.5674248, "tags": {"bus": "yes", "highway": "bus_stop", "name": "11 Novembre 1918", "public_transport": "platform"}}, {"type": "node", "id": 12488044058, "lat": 46.6127692, "lon": 0.5369169, "tags": {"bus": "yes", "highway": "bus_stop", "public_transport": "platform"}}]}