{"version": 0.6, "generator": "Overpass API 0.7.62.5 1bd436f1", "osm3s": {"timestamp_osm_base": "2025-04-09T14:52:29Z", "copyright": "The data included in this document is from www.openstreetmap.org. The data is made available under ODbL."}, "elements": [{"type": "node", "id": 264575614, "lat": 48.1862821, "lon": 1.3862894, "tags": {"name": "Bonneval", "network": "TER Centre \u2212 Val de Loire", "network:wikidata": "Q912775", "official_name": "Bonneval", "operator": "SNCF", "operator:wikidata": "Q13646", "public_transport": "station", "railway": "station", "train": "yes", "uic_ref": "8754573", "wikidata": "Q2315461", "wikipedia": "fr:Gare de Bonneval"}}, {"type": "node", "id": 310279995, "lat": 48.2118888, "lon": 1.1664401, "tags": {"bench": "yes", "fixme": "Wrong location", "highway": "bus_stop", "shelter": "yes"}}, {"type": "node", "id": 313578203, "lat": 48.1974003, "lon": 1.0914606, "tags": {"highway": "bus_stop"}}, {"type": "node", "id": 313578208, "lat": 48.1958949, "lon": 1.0972584, "tags": {"highway": "bus_stop"}}, {"type": "node", "id": 313722199, "lat": 48.211969, "lon": 1.1123282, "tags": {"bus": "yes", "highway": "bus_stop", "public_transport": "platform"}}, {"type": "node", "id": 564160222, "lat": 48.2154555, "lon": 1.1605407, "tags": {"bus": "yes", "highway": "bus_stop", "name": "Brou SNCF", "public_transport": "stop_position", "source": "cadastre-dgi-fr source : Direction G\u00e9n\u00e9rale des Imp\u00f4ts - Cadastre. Mise \u00e0 jour : 2009"}}, {"type": "node", "id": 598676533, "lat": 48.4525236, "lon": 1.4827415, "tags": {"bench": "yes", "highway": "bus_stop", "local_ref": "Filibus", "name": "Parmentier", "operator": "Filibus", "public_transport": "platform", "ref": "8", "shelter": "no", "tactile_paving": "no", "wheelchair": "yes"}}, {"type": "node", "id": 601501492, "lat": 48.4585729, "lon": 1.4936114, "tags": {"crossing": "uncontrolled", "highway": "bus_stop", "local_ref": "Filibus", "name": "Bel Air", "public_transport": "platform"}}, {"type": "node", "id": 1239996573, "lat": 48.0738012, "lon": 1.1272761, "tags": {"bus": "yes", "highway": "bus_stop", "name": "Courtalain Saint-Pellerin SNCF", "public_transport": "stop_position"}}, {"type": "node", "id": 1240659689, "lat": 48.0737595, "lon": 1.126888}, {"type": "node", "id": 1240659691, "lat": 48.0734714, "lon": 1.1272059}, {"type": "node", "id": 1240659692, "lat": 48.0734255, "lon": 1.1271126}, {"type": "node", "id": 1240659695, "lat": 48.0737135, "lon": 1.1267947}, {"type": "node", "id": 1289466052, "lat": 48.1478245, "lon": 1.351082, "tags": {"bench": "no", "bin": "yes", "bus": "yes", "highway": "bus_stop", "name": "Flacey", "network": "R\u00e9mi 28", "public_transport": "platform", "shelter": "yes", "source": "P144-0539", "tactile_paving": "no"}}, {"type": "node", "id": 1289476963, "lat": 48.1689916, "lon": 1.3671968, "tags": {"bench": "yes", "bin": "no", "bus": "yes", "highway": "bus_stop", "public_transport": "platform", "shelter": "yes", "source": "P144-0537", "tactile_paving": "no"}}, {"type": "node", "id": 1359785523, "lat": 48.3169674, "lon": 1.4279001, "tags": {"bench": "no", "bin": "no", "check_date:shelter": "2023-09-10", "highway": "bus_stop", "name": "La Bourdiniere", "shelter": "no", "source": "P144-0529", "tactile_paving": "no"}}, {"type": "node", "id": 1360310311, "lat": 48.4026905, "lon": 1.5516231, "tags": {"highway": "bus_stop", "name": "Lyc\u00e9e de la Saussaye", "shelter": "no"}}, {"type": "node", "id": 1360310312, "lat": 48.4030053, "lon": 1.551297, "tags": {"highway": "bus_stop", "name": "Lyc\u00e9e de la Saussaye", "shelter": "no"}}, {"type": "node", "id": 1382056019, "lat": 48.0998256, "lon": 1.1279563, "tags": {"bus": "yes", "highway": "bus_stop", "name": "Arrou SNCF", "public_transport": "stop_position"}}, {"type": "node", "id": 1405381531, "lat": 48.2409601, "lon": 1.0233195, "tags": {"bench": "yes", "highway": "bus_stop", "shelter": "yes", "source": "cadastre-dgi-fr source : Direction G\u00e9n\u00e9rale des Imp\u00f4ts - Cadastre. Mise \u00e0 jour : 2011"}}, {"type": "node", "id": 1527286021, "lat": 48.1144684, "lon": 1.3302041, "tags": {"bench": "yes", "bin": "no", "highway": "bus_stop", "lit": "no", "local_ref": "Transbeauce (vers Chartres)", "name": "Marbou\u00e9", "public_transport": "platform", "shelter": "yes", "source": "P165-0323", "tactile_paving": "no"}}, {"type": "node", "id": 1704275984, "lat": 48.3667327, "lon": 1.3248814}, {"type": "node", "id": 1704275989, "lat": 48.3667645, "lon": 1.3247966}, {"type": "node", "id": 1704275998, "lat": 48.3668411, "lon": 1.3249735}, {"type": "node", "id": 1704276004, "lat": 48.3668729, "lon": 1.3248887}, {"type": "node", "id": 1738239920, "lat": 48.0621867, "lon": 1.3356151, "tags": {"bench": "no", "bin": "no", "bus": "yes", "departures_board": "timetable", "highway": "bus_stop", "name": "Paulsen", "public_transport": "platform", "shelter": "no", "tactile_paving": "no", "wheelchair": "no"}}, {"type": "node", "id": 1742160857, "lat": 48.1022309, "lon": 1.5654646, "tags": {"highway": "bus_stop", "public_transport": "platform"}}, {"type": "node", "id": 1744731156, "lat": 48.2748516, "lon": 1.6220572}, {"type": "node", "id": 1744731157, "lat": 48.2748923, "lon": 1.6220096}, {"type": "node", "id": 1744731158, "lat": 48.2750661, "lon": 1.6224721}, {"type": "node", "id": 1744731160, "lat": 48.2751297, "lon": 1.6223979}, {"type": "node", "id": 1753106159, "lat": 48.4656483, "lon": 1.5006378, "tags": {"highway": "bus_stop", "public_transport": "platform"}}, {"type": "node", "id": 1755280813, "lat": 48.4659354, "lon": 1.5049182, "tags": {"highway": "bus_stop", "public_transport": "platform"}}, {"type": "node", "id": 1755280865, "lat": 48.4712734, "lon": 1.5034543, "tags": {"bench": "no", "bin": "no", "highway": "bus_stop", "name": "Charles Beauliou", "public_transport": "platform", "shelter": "no", "tactile_paving": "no"}}, {"type": "node", "id": 1755280900, "lat": 48.4721395, "lon": 1.5024762, "tags": {"highway": "bus_stop", "local_ref": "Filibus", "name": "Rougerons", "public_transport": "platform"}}, {"type": "node", "id": 1833729265, "lat": 48.3553817, "lon": 1.4417932, "tags": {"highway": "bus_stop", "source": "Bing"}}, {"type": "node", "id": 1833729266, "lat": 48.3555391, "lon": 1.4415537, "tags": {"highway": "bus_stop", "source": "Bing"}}, {"type": "node", "id": 1879436732, "lat": 48.4827059, "lon": 1.5230874, "tags": {"name": "La Villette - Saint-Prest", "network": "TER Centre \u2212 Val de Loire", "network:wikidata": "Q912775", "operator": "SNCF", "operator:wikidata": "Q13646", "public_transport": "station", "railway": "station", "train": "yes", "uic_ref": "8739417", "wheelchair": "yes", "wikidata": "Q2594740", "wikipedia": "fr:Gare de La Villette-Saint-Prest"}}, {"type": "node", "id": 2134104851, "lat": 48.4453839, "lon": 1.520792, "tags": {"highway": "bus_stop", "local_ref": "Filibus", "name": "102\u00e8 R.I.", "public_transport": "platform"}}, {"type": "node", "id": 2134104852, "lat": 48.4454903, "lon": 1.5209225, "tags": {"highway": "bus_stop", "local_ref": "Filibus", "name": "102\u00e8 R.I.", "public_transport": "platform"}}, {"type": "node", "id": 2134104858, "lat": 48.4475455, "lon": 1.5189235, "tags": {"highway": "bus_stop", "local_ref": "Filibus", "name": "11 Novembre 1918", "public_transport": "platform"}}, {"type": "node", "id": 2134104863, "lat": 48.4476739, "lon": 1.5188131, "tags": {"highway": "bus_stop", "local_ref": "Filibus", "name": "11 Novembre 1918", "public_transport": "platform"}}, {"type": "node", "id": 2134115993, "lat": 48.4550786, "lon": 1.5301733, "tags": {"highway": "bus_stop", "local_ref": "Filibus", "name": "Propyl\u00e9es", "public_transport": "platform"}}, {"type": "node", "id": 2134142950, "lat": 48.4475121, "lon": 1.5265019, "tags": {"bench": "yes", "bus": "yes", "highway": "bus_stop", "local_ref": "Filibus", "name": "Mare aux Moines", "network": "Filibus", "network:wikidata": "Q3456682", "public_transport": "platform", "shelter": "yes", "tactile_paving": "no"}}, {"type": "node", "id": 2134149243, "lat": 48.4445837, "lon": 1.4959567, "tags": {"bench": "yes", "bus": "yes", "highway": "bus_stop", "local_ref": "Filibus", "name": "Morard", "public_transport": "platform", "shelter": "yes", "tactile_paving": "no"}}, {"type": "node", "id": 2134149244, "lat": 48.4447392, "lon": 1.4969582, "tags": {"bench": "yes", "highway": "bus_stop", "local_ref": "Filibus", "name": "Morard", "public_transport": "platform", "shelter": "yes", "tactile_paving": "no"}}, {"type": "node", "id": 2134150697, "lat": 48.456462, "lon": 1.4740998, "tags": {"bench": "yes", "highway": "bus_stop", "local_ref": "Filibus", "name": "R\u00e9publique", "public_transport": "platform", "shelter": "yes", "tactile_paving": "no"}}, {"type": "node", "id": 2134169316, "lat": 48.4212546, "lon": 1.3551725, "tags": {"highway": "bus_stop"}}, {"type": "node", "id": 2137187666, "lat": 48.4206509, "lon": 1.5371605, "tags": {"highway": "bus_stop", "public_transport": "platform"}}, {"type": "node", "id": 2137496635, "lat": 48.4512025, "lon": 1.5392078, "tags": {"bench": "yes", "highway": "bus_stop", "local_ref": "Filibus", "name": "Fourier", "public_transport": "platform", "shelter": "yes", "source": "Bing", "tactile_paving": "no"}}, {"type": "node", "id": 2137496696, "lat": 48.4519336, "lon": 1.5405329, "tags": {"bench": "yes", "highway": "bus_stop", "local_ref": "Filibus", "name": "Blaise Pascal", "public_transport": "platform", "shelter": "yes", "source": "Bing", "tactile_paving": "no"}}, {"type": "node", "id": 2137510766, "lat": 48.4482951, "lon": 1.5295074, "tags": {"highway": "bus_stop", "local_ref": "Filibus", "name": "Ambroise Par\u00e9", "public_transport": "platform"}}, {"type": "node", "id": 2144885933, "lat": 48.3977453, "lon": 1.492881, "tags": {"highway": "bus_stop", "local_ref": "Filibus", "name": "Les Druides", "public_transport": "platform"}}, {"type": "node", "id": 2144885937, "lat": 48.3980251, "lon": 1.49275, "tags": {"highway": "bus_stop", "local_ref": "Filibus", "name": "Les Druides", "public_transport": "platform"}}, {"type": "node", "id": 2144886007, "lat": 48.4130513, "lon": 1.4893275, "tags": {"highway": "bus_stop", "local_ref": "Filibus", "name": "Gourdez", "public_transport": "platform"}}, {"type": "node", "id": 2209270019, "lat": 48.4377531, "lon": 1.4431, "tags": {"highway": "bus_stop", "local_ref": "Filibus", "name": "Gen\u00e8ve", "public_transport": "platform", "source": "imagerie Bing"}}, {"type": "node", "id": 2235028527, "lat": 48.4231066, "lon": 1.4900209, "tags": {"highway": "bus_stop", "public_transport": "platform"}}, {"type": "node", "id": 2235028539, "lat": 48.4248621, "lon": 1.4912815, "tags": {"highway": "bus_stop", "public_transport": "platform"}}, {"type": "node", "id": 2238779071, "lat": 48.44254, "lon": 1.5155473, "tags": {"highway": "bus_stop", "local_ref": "Filibus", "name": "La Gaderie", "public_transport": "platform"}}, {"type": "node", "id": 2242835774, "lat": 48.4480378, "lon": 1.4820928, "tags": {"bench": "yes", "bin": "yes", "check_date:shelter": "2023-10-13", "highway": "bus_stop", "lit": "yes", "name": "Gare F\u00e9libien", "network": "Filibus", "public_transport": "platform", "shelter": "yes", "tactile_paving": "no", "wheelchair": "yes"}}, {"type": "node", "id": 2242835777, "lat": 48.4515265, "lon": 1.4772007, "tags": {"bench": "no", "bin": "no", "bus": "yes", "highway": "bus_stop", "lit": "no", "local_ref": "Filibus", "name": "Foss\u00e9 Gaulois", "network": "Filibus", "public_transport": "platform", "shelter": "no", "tactile_paving": "no", "wheelchair": "yes"}}, {"type": "node", "id": 2242835780, "lat": 48.4493016, "lon": 1.4822329, "tags": {"bench": "no", "bin": "yes", "bus": "yes", "highway": "bus_stop", "lit": "no", "local_ref": "Filibus", "name": "Faubourg Saint-Jean", "public_transport": "platform", "shelter": "no", "tactile_paving": "no"}}, {"type": "node", "id": 2304410635, "lat": 48.4480011, "lon": 1.4818598, "tags": {"bench": "yes", "bin": "yes", "bus": "yes", "check_date:shelter": "2023-10-13", "highway": "bus_stop", "lit": "yes", "local_ref": "Filibus", "name": "Gare F\u00e9libien", "network": "Filibus", "public_transport": "platform", "shelter": "yes", "tactile_paving": "no", "wheelchair": "yes"}}, {"type": "node", "id": 2569071800, "lat": 48.4686512, "lon": 1.4803632, "tags": {"bench": "yes", "bin": "yes", "bus": "yes", "check_date:shelter": "2023-09-01", "highway": "bus_stop", "lit": "yes", "local_ref": "Filibus", "name": "Les Courtilles", "network": "Filibus", "network:wikidata": "Q3456682", "operator": "Filibus", "public_transport": "platform", "shelter": "yes", "tactile_paving": "no"}}, {"type": "node", "id": 2762649741, "lat": 48.4522741, "lon": 1.5129545, "tags": {"highway": "bus_stop", "local_ref": "Filibus", "name": "Chartrexpo", "operator": "Filibus", "public_transport": "platform"}}, {"type": "node", "id": 2762649752, "lat": 48.4525382, "lon": 1.512966, "tags": {"highway": "bus_stop", "local_ref": "Filibus", "name": "Chartrexpo", "operator": "Filibus", "public_transport": "platform"}}, {"type": "node", "id": 2880543122, "lat": 48.4689966, "lon": 1.4802909, "tags": {"bench": "yes", "bin": "yes", "check_date:shelter": "2023-10-30", "highway": "bus_stop", "lit": "yes", "local_ref": "Filibus", "name": "Les Courtilles", "network": "Filibus", "operator": "Filibus", "public_transport": "platform", "shelter": "yes", "tactile_paving": "no"}}, {"type": "node", "id": 2899974869, "lat": 48.4320183, "lon": 1.4547685, "tags": {"highway": "bus_stop", "local_ref": "Filibus", "mapillary": "233880221849728", "name": "Perche", "pole": "yes", "public_transport": "platform", "shelter": "no", "survey:date": "2017-05-26"}}, {"type": "node", "id": 3076291847, "lat": 48.1806694, "lon": 1.3853297, "tags": {"bus": "yes", "highway": "bus_stop", "network": "R\u00e9mi 28", "operator": "CG28", "public_transport": "platform"}}, {"type": "node", "id": 3076292103, "lat": 48.1801619, "lon": 1.3837792, "tags": {"bus": "yes", "highway": "bus_stop", "public_transport": "platform"}}, {"type": "node", "id": 3095421779, "lat": 48.1123449, "lon": 1.3300317, "tags": {"direction": "S", "highway": "bus_stop", "local_ref": "Transbeauce (vers Cloyes)", "name": "Marbou\u00e9", "public_transport": "platform"}}, {"type": "node", "id": 3405146766, "lat": 48.4343542, "lon": 1.4609058, "tags": {"bench": "yes", "covered": "yes", "highway": "bus_stop", "local_ref": "Filibus", "name": "Kennedy", "operator": "Filibus", "public_transport": "platform", "shelter": "yes"}}, {"type": "node", "id": 3405146767, "lat": 48.4341042, "lon": 1.4606978, "tags": {"bench": "yes", "covered": "yes", "highway": "bus_stop", "local_ref": "Filibus", "name": "Kennedy", "operator": "Filibus", "public_transport": "platform", "shelter": "yes"}}, {"type": "node", "id": 3405146768, "lat": 48.4358783, "lon": 1.4618545, "tags": {"bench": "no", "covered": "no", "highway": "bus_stop", "local_ref": "Filibus", "name": "Bellezaizes", "operator": "Filibus", "public_transport": "platform", "shelter": "no"}}, {"type": "node", "id": 3405146769, "lat": 48.4357906, "lon": 1.4617985, "tags": {"bench": "no", "covered": "no", "highway": "bus_stop", "local_ref": "Filibus", "name": "Bellezaizes", "operator": "Filibus", "public_transport": "platform", "shelter": "no"}}, {"type": "node", "id": 3500933242, "lat": 48.0970818, "lon": 1.1234832, "tags": {"bus": "yes", "highway": "bus_stop", "name": "Arrou Centre", "public_transport": "stop_position"}}, {"type": "node", "id": 3500933243, "lat": 48.3667291, "lon": 1.325037, "tags": {"bus": "yes", "highway": "bus_stop", "name": "Bailleau-le-Pin", "public_transport": "stop_position"}}, {"type": "node", "id": 3500933244, "lat": 48.2110019, "lon": 1.1661345, "tags": {"bus": "yes", "highway": "bus_stop", "name": "Brou Centre Ville", "public_transport": "stop_position"}}, {"type": "node", "id": 3500933245, "lat": 48.0794588, "lon": 1.1360164, "tags": {"bus": "yes", "highway": "bus_stop", "name": "Courtalain Place Charles de Gaulle", "public_transport": "stop_position"}}, {"type": "node", "id": 3500933246, "lat": 48.3039852, "lon": 1.2450146, "tags": {"bus": "yes", "highway": "bus_stop", "name": "Illiers-Combray SNCF", "public_transport": "stop_position"}}, {"type": "node", "id": 3500933247, "lat": 48.3999594, "lon": 1.3838882, "tags": {"bus": "yes", "highway": "bus_stop", "name": "Pont-Tranchef\u00eatu", "public_transport": "stop_position"}}, {"type": "node", "id": 3500933248, "lat": 48.0719787, "lon": 1.1417189, "tags": {"bus": "yes", "highway": "bus_stop", "name": "Saint-Pellerin Mairie", "public_transport": "stop_position"}}, {"type": "node", "id": 3500933249, "lat": 48.2635395, "lon": 1.2150042, "tags": {"bus": "yes", "highway": "bus_stop", "name": "Vieuvicq", "public_transport": "stop_position"}}, {"type": "node", "id": 4045610211, "lat": 48.1476527, "lon": 1.3512805, "tags": {"bench": "yes", "bus": "yes", "covered": "yes", "highway": "bus_stop", "name": "Flacey", "network": "R\u00e9mi 28", "public_transport": "platform", "shelter": "yes"}}, {"type": "node", "id": 4086120428, "lat": 48.1861689, "lon": 1.3865376, "tags": {"bus": "yes", "highway": "bus_stop", "name": "Bonneval", "public_transport": "stop_position"}}, {"type": "node", "id": 4086120429, "lat": 48.07345, "lon": 1.3377417, "tags": {"bus": "yes", "highway": "bus_stop", "name": "Ch\u00e2teaudun", "public_transport": "stop_position"}}, {"type": "node", "id": 4086120430, "lat": 48.0735042, "lon": 1.3377483, "tags": {"bus": "yes", "highway": "bus_stop", "name": "Ch\u00e2teaudun", "public_transport": "stop_position"}}, {"type": "node", "id": 4086120431, "lat": 48.0735569, "lon": 1.3377525, "tags": {"bus": "yes", "highway": "bus_stop", "name": "Ch\u00e2teaudun", "public_transport": "stop_position"}}, {"type": "node", "id": 4086120432, "lat": 48.0736075, "lon": 1.3377564, "tags": {"bus": "yes", "highway": "bus_stop", "name": "Ch\u00e2teaudun", "public_transport": "stop_position"}}, {"type": "node", "id": 4213061795, "lat": 48.4514321, "lon": 1.2348341, "tags": {"ele": "174", "name": "Courville-sur-Eure", "network": "TER Centre \u2212 Val de Loire", "network:wikidata": "Q912775", "operator": "SNCF", "operator:wikidata": "Q13646", "public_transport": "station", "railway": "station", "railway:ref:DB": "XFCVB", "train": "yes", "uic_ref": "8739422", "wikidata": "Q3096314", "wikipedia": "fr:Gare de Courville-sur-Eure"}}, {"type": "node", "id": 4290854860, "lat": 48.2158217, "lon": 1.1605318, "tags": {"name": "Brou", "operator": "SNCF", "public_transport": "station", "railway": "station", "railway:ref:DB": "XFBRO", "train": "yes", "uic_ref": "8739445", "wikidata": "Q3096073", "wikipedia": "fr:Gare de Brou"}}, {"type": "node", "id": 4290856993, "lat": 48.3041397, "lon": 1.2448083, "tags": {"name": "Illiers-Combray", "note": "libell\u00e9 conforme au Document de R\u00e9f\u00e9rence des Gares (DRG) 2023", "operator": "SNCF", "public_transport": "station", "railway": "station", "railway:ref:DB": "XFILC", "train": "yes", "uic_ref": "8739443", "wikidata": "Q3095789", "wikipedia": "fr:Gare d'Illiers-Combray"}}, {"type": "node", "id": 4611649625, "lat": 48.3875941, "lon": 1.2969811}, {"type": "node", "id": 4611649626, "lat": 48.3876086, "lon": 1.2970401}, {"type": "node", "id": 4611649627, "lat": 48.3876349, "lon": 1.2970255}, {"type": "node", "id": 4611649628, "lat": 48.3876205, "lon": 1.2969665}, {"type": "node", "id": 4636224509, "lat": 48.4530402, "lon": 1.4562894, "tags": {"highway": "bus_stop", "local_ref": "Filibus", "name": "Anjou", "public_transport": "platform"}}, {"type": "node", "id": 4636224510, "lat": 48.4543317, "lon": 1.4587865, "tags": {"highway": "bus_stop", "local_ref": "Filibus", "name": "Jean Zay", "public_transport": "platform"}}, {"type": "node", "id": 4636224511, "lat": 48.4542606, "lon": 1.4509249, "tags": {"bench": "no", "highway": "bus_stop", "local_ref": "Filibus", "name": "R. Bienfait", "public_transport": "platform", "shelter": "no", "tactile_paving": "no"}}, {"type": "node", "id": 4636224512, "lat": 48.4541056, "lon": 1.450727, "tags": {"bench": "no", "highway": "bus_stop", "local_ref": "Filibus", "name": "R. Bienfait", "public_transport": "platform", "shelter": "no", "tactile_paving": "no"}}, {"type": "node", "id": 4636224513, "lat": 48.4540291, "lon": 1.4590016, "tags": {"highway": "bus_stop", "local_ref": "Filibus", "name": "Jean Zay", "public_transport": "platform"}}, {"type": "node", "id": 4636224514, "lat": 48.454303, "lon": 1.4529988, "tags": {"highway": "bus_stop", "local_ref": "Filibus", "name": "Clinique Saint-Fran\u00e7ois", "public_transport": "platform"}}, {"type": "node", "id": 4636224515, "lat": 48.4542959, "lon": 1.4477979, "tags": {"bench": "yes", "highway": "bus_stop", "local_ref": "Filibus", "name": "Grandes Ruelles", "public_transport": "platform", "shelter": "yes", "tactile_paving": "no"}}, {"type": "node", "id": 4636224516, "lat": 48.4529424, "lon": 1.4561847, "tags": {"highway": "bus_stop", "local_ref": "Filibus", "name": "Anjou", "public_transport": "platform"}}, {"type": "node", "id": 4636224517, "lat": 48.4542677, "lon": 1.4533683, "tags": {"highway": "bus_stop", "local_ref": "Filibus", "name": "Clinique Saint-Fran\u00e7ois", "public_transport": "platform"}}, {"type": "node", "id": 4636272548, "lat": 48.4088043, "lon": 1.4758965, "tags": {"bus": "yes", "highway": "bus_stop", "local_ref": "Filibus", "name": "Pluviers", "public_transport": "platform"}}, {"type": "node", "id": 4636272550, "lat": 48.4064113, "lon": 1.4762801, "tags": {"highway": "bus_stop", "local_ref": "Filibus", "name": "Hotbrou", "public_transport": "platform"}}, {"type": "node", "id": 4636272551, "lat": 48.4101486, "lon": 1.478753, "tags": {"bus": "yes", "highway": "bus_stop", "local_ref": "Filibus", "name": "Saint-Jacques", "public_transport": "platform"}}, {"type": "node", "id": 4636272552, "lat": 48.4037813, "lon": 1.4766904, "tags": {"highway": "bus_stop", "local_ref": "Filibus", "name": "Orme au Chat", "public_transport": "platform"}}, {"type": "node", "id": 4636272553, "lat": 48.405594, "lon": 1.4786028, "tags": {"highway": "bus_stop", "local_ref": "Filibus", "name": "\u00c9mile Roux", "public_transport": "platform"}}, {"type": "node", "id": 4636272554, "lat": 48.4082399, "lon": 1.478863, "tags": {"bus": "yes", "highway": "bus_stop", "local_ref": "Filibus", "name": "Beauce", "public_transport": "platform"}}, {"type": "node", "id": 4638730471, "lat": 48.4563986, "lon": 1.462821, "tags": {"bench": "no", "bin": "no", "highway": "bus_stop", "local_ref": "Filibus", "name": "Berlioz", "public_transport": "platform", "shelter": "no", "tactile_paving": "no"}}, {"type": "node", "id": 4638730472, "lat": 48.4563524, "lon": 1.4627378, "tags": {"bench": "yes", "bin": "yes", "highway": "bus_stop", "local_ref": "Filibus", "name": "Berlioz", "public_transport": "platform", "shelter": "yes", "tactile_paving": "no"}}, {"type": "node", "id": 4638759703, "lat": 48.4556141, "lon": 1.4661603, "tags": {"highway": "bus_stop", "local_ref": "Filibus", "name": "Gaston Cout\u00e9", "public_transport": "platform"}}, {"type": "node", "id": 4638759704, "lat": 48.4540078, "lon": 1.4727076, "tags": {"bench": "no", "bin": "no", "highway": "bus_stop", "local_ref": "Filibus", "name": "Bas Menus", "public_transport": "platform", "shelter": "no"}}, {"type": "node", "id": 4638759705, "lat": 48.4556817, "lon": 1.4696767, "tags": {"bus": "yes", "highway": "bus_stop", "local_ref": "Filibus", "name": "Hauts Menus", "public_transport": "platform"}}, {"type": "node", "id": 4638759706, "lat": 48.4557636, "lon": 1.4696848, "tags": {"bus": "yes", "highway": "bus_stop", "local_ref": "Filibus", "name": "Hauts Menus", "public_transport": "platform"}}, {"type": "node", "id": 4638759707, "lat": 48.4555839, "lon": 1.4654066, "tags": {"highway": "bus_stop", "local_ref": "Filibus", "name": "Gaston Cout\u00e9", "public_transport": "platform"}}, {"type": "node", "id": 4638759708, "lat": 48.4543725, "lon": 1.4722865, "tags": {"bench": "no", "bin": "no", "highway": "bus_stop", "local_ref": "Filibus", "name": "Bas Menus", "public_transport": "platform", "shelter": "no", "tactile_paving": "no"}}, {"type": "node", "id": 4638763948, "lat": 48.4513305, "lon": 1.4702024, "tags": {"bench": "yes", "bin": "yes", "highway": "bus_stop", "lit": "no", "local_ref": "Filibus", "name": "14 Juillet", "public_transport": "platform", "shelter": "yes", "tactile_paving": "no"}}, {"type": "node", "id": 4638763949, "lat": 48.4523926, "lon": 1.4715703, "tags": {"bench": "no", "bin": "no", "highway": "bus_stop", "lit": "no", "local_ref": "Filibus", "name": "Curie", "public_transport": "platform", "shelter": "no", "tactile_paving": "no"}}, {"type": "node", "id": 4638763950, "lat": 48.4513732, "lon": 1.4700764, "tags": {"bench": "yes", "bin": "no", "highway": "bus_stop", "lit": "no", "local_ref": "Filibus", "name": "14 Juillet", "public_transport": "platform", "shelter": "yes", "tactile_paving": "no"}}, {"type": "node", "id": 4638763951, "lat": 48.4524548, "lon": 1.4714336, "tags": {"bench": "no", "bin": "no", "highway": "bus_stop", "lit": "no", "local_ref": "Filibus", "name": "Curie", "public_transport": "platform", "shelter": "no", "tactile_paving": "no"}}, {"type": "node", "id": 4638783433, "lat": 48.4470768, "lon": 1.4758538, "tags": {"bench": "no", "bin": "no", "highway": "bus_stop", "lit": "yes", "local_ref": "Filibus", "name": "Philar\u00e8te Chasles", "public_transport": "platform", "shelter": "no", "tactile_paving": "no"}}, {"type": "node", "id": 4638783434, "lat": 48.4470341, "lon": 1.4690062, "tags": {"bench": "no", "bin": "no", "highway": "bus_stop", "local_ref": "Filibus", "name": "Coubertin", "public_transport": "platform", "shelter": "no", "tactile_paving": "no"}}, {"type": "node", "id": 4638783435, "lat": 48.4469398, "lon": 1.4688962, "tags": {"bench": "no", "bin": "yes", "highway": "bus_stop", "local_ref": "Filibus", "name": "Coubertin", "public_transport": "platform", "shelter": "no", "tactile_paving": "no"}}, {"type": "node", "id": 4638783436, "lat": 48.4470839, "lon": 1.4755883, "tags": {"bench": "no", "bin": "no", "highway": "bus_stop", "lit": "yes", "local_ref": "Filibus", "name": "Philar\u00e8te Chasles", "public_transport": "platform", "shelter": "no", "tactile_paving": "no"}}, {"type": "node", "id": 4638783437, "lat": 48.4467192, "lon": 1.4734023, "tags": {"bench": "yes", "bin": "yes", "highway": "bus_stop", "local_ref": "Filibus", "name": "Anatole France", "public_transport": "platform", "shelter": "yes", "tactile_paving": "no"}}, {"type": "node", "id": 4638783439, "lat": 48.446817, "lon": 1.473354, "tags": {"bench": "no", "bin": "yes", "highway": "bus_stop", "local_ref": "Filibus", "name": "Anatole France", "public_transport": "platform", "shelter": "no", "tactile_paving": "no"}}, {"type": "node", "id": 4638787079, "lat": 48.4461356, "lon": 1.4838388, "tags": {"bench": "yes", "bin": "no", "highway": "bus_stop", "lit": "yes", "local_ref": "Filibus", "name": "Maurice Violette\u2013M\u00e9diath\u00e8que", "public_transport": "platform", "shelter": "yes", "tactile_paving": "no"}}, {"type": "node", "id": 4638787080, "lat": 48.4459061, "lon": 1.483592, "tags": {"bench": "yes", "bin": "yes", "highway": "bus_stop", "local_ref": "Filibus", "name": "Maurice Violette\u2013M\u00e9diath\u00e8que", "public_transport": "platform", "shelter": "yes"}}, {"type": "node", "id": 4638787081, "lat": 48.4475109, "lon": 1.481347, "tags": {"bench": "yes", "bin": "no", "highway": "bus_stop", "lit": "yes", "local_ref": "Filibus", "name": "Gare", "public_transport": "platform", "shelter": "yes", "tactile_paving": "no"}}, {"type": "node", "id": 4638787082, "lat": 48.4464968, "lon": 1.4839085, "tags": {"bench": "yes", "bin": "no", "highway": "bus_stop", "lit": "yes", "local_ref": "Filibus", "name": "Maurice Violette\u2013M\u00e9diath\u00e8que", "public_transport": "platform", "shelter": "yes", "tactile_paving": "no"}}, {"type": "node", "id": 4638787083, "lat": 48.4462619, "lon": 1.4836457, "tags": {"bench": "yes", "bin": "yes", "highway": "bus_stop", "local_ref": "Filibus", "name": "Maurice Violette\u2013M\u00e9diath\u00e8que", "public_transport": "platform", "shelter": "yes"}}, {"type": "node", "id": 4638804858, "lat": 48.4423547, "lon": 1.488428, "tags": {"bench": "yes", "bin": "no", "highway": "bus_stop", "lit": "yes", "local_ref": "Filibus", "name": "Place Saint-Michel\u2013Cin\u00e9ma", "public_transport": "platform", "shelter": "yes", "tactile_paving": "no"}}, {"type": "node", "id": 4638804859, "lat": 48.4430024, "lon": 1.4856412, "tags": {"bench": "yes", "bin": "no", "highway": "bus_stop", "lit": "yes", "local_ref": "Filibus", "name": "Chasles\u2013Th\u00e9\u00e2tre", "public_transport": "platform", "shelter": "yes", "tactile_paving": "no"}}, {"type": "node", "id": 4638804860, "lat": 48.4422178, "lon": 1.4883148, "tags": {"bench": "yes", "bin": "yes", "highway": "bus_stop", "lit": "yes", "local_ref": "Filibus", "name": "Place Saint-Michel\u2013Cin\u00e9ma", "public_transport": "platform", "shelter": "yes", "tactile_paving": "no"}}, {"type": "node", "id": 4638804861, "lat": 48.4429792, "lon": 1.4854012, "tags": {"bench": "yes", "bin": "no", "highway": "bus_stop", "lit": "yes", "local_ref": "Filibus", "name": "Chasles\u2013Th\u00e9\u00e2tre", "public_transport": "platform", "shelter": "yes", "tactile_paving": "no"}}, {"type": "node", "id": 4638810777, "lat": 48.4426447, "lon": 1.4832353, "tags": {"bench": "no", "highway": "bus_stop", "local_ref": "Filibus", "name": "Ch\u00e2teaudun", "public_transport": "platform", "shelter": "no"}}, {"type": "node", "id": 4638810778, "lat": 48.4426661, "lon": 1.4831038, "tags": {"bench": "yes", "highway": "bus_stop", "local_ref": "Filibus", "name": "Ch\u00e2teaudun", "public_transport": "platform", "shelter": "yes"}}, {"type": "node", "id": 4638811362, "lat": 48.4340589, "lon": 1.4835893, "tags": {"highway": "bus_stop", "local_ref": "Filibus", "name": "Husson", "public_transport": "platform"}}, {"type": "node", "id": 4638811363, "lat": 48.4338311, "lon": 1.4829697, "tags": {"highway": "bus_stop", "local_ref": "Filibus", "name": "Husson", "public_transport": "platform"}}, {"type": "node", "id": 4638812075, "lat": 48.4382693, "lon": 1.4886426, "tags": {"bench": "no", "bin": "no", "highway": "bus_stop", "lit": "yes", "local_ref": "Filibus", "name": "Vieux Capucins", "public_transport": "platform", "shelter": "no", "tactile_paving": "no"}}, {"type": "node", "id": 4638812076, "lat": 48.4351391, "lon": 1.485373, "tags": {"highway": "bus_stop", "local_ref": "Filibus", "name": "Comtesses", "public_transport": "platform"}}, {"type": "node", "id": 4638812077, "lat": 48.4354203, "lon": 1.4856117, "tags": {"bench": "no", "highway": "bus_stop", "local_ref": "Filibus", "name": "Comtesses", "public_transport": "platform", "shelter": "no", "tactile_paving": "no"}}, {"type": "node", "id": 4638819901, "lat": 48.4304017, "lon": 1.4752289, "tags": {"highway": "bus_stop", "local_ref": "Filibus", "name": "Mairie", "public_transport": "platform"}}, {"type": "node", "id": 4638819902, "lat": 48.4312133, "lon": 1.4774042, "tags": {"bench": "no", "highway": "bus_stop", "local_ref": "Filibus", "name": "Pol Maunoury", "public_transport": "platform", "shelter": "no"}}, {"type": "node", "id": 4638819903, "lat": 48.4327313, "lon": 1.480832, "tags": {"highway": "bus_stop", "local_ref": "Filibus", "name": "Croix Blanche", "public_transport": "platform"}}, {"type": "node", "id": 4638819904, "lat": 48.4327972, "lon": 1.4813872, "tags": {"highway": "bus_stop", "local_ref": "Filibus", "name": "Croix Blanche", "public_transport": "platform"}}, {"type": "node", "id": 4638819905, "lat": 48.4316404, "lon": 1.4772298, "tags": {"bench": "no", "highway": "bus_stop", "local_ref": "Filibus", "name": "Pol Maunoury", "public_transport": "platform", "shelter": "no"}}, {"type": "node", "id": 4638819906, "lat": 48.4308182, "lon": 1.4753496, "tags": {"highway": "bus_stop", "local_ref": "Filibus", "name": "Mairie", "public_transport": "platform"}}, {"type": "node", "id": 4638827732, "lat": 48.4186765, "lon": 1.4767193, "tags": {"highway": "bus_stop", "local_ref": "Filibus", "name": "Forelles", "public_transport": "platform"}}, {"type": "node", "id": 4638827734, "lat": 48.419311, "lon": 1.472147, "tags": {"bus": "yes", "highway": "bus_stop", "local_ref": "Filibus", "name": "Coll\u00e8ge Jean Monnet", "public_transport": "platform"}}, {"type": "node", "id": 4638827737, "lat": 48.4187963, "lon": 1.476512, "tags": {"highway": "bus_stop", "local_ref": "Filibus", "name": "Forelles", "public_transport": "platform"}}, {"type": "node", "id": 4638829837, "lat": 48.4155773, "lon": 1.4770195, "tags": {"bus": "yes", "highway": "bus_stop", "local_ref": "Filibus", "name": "La Torche", "public_transport": "platform"}}, {"type": "node", "id": 4638829838, "lat": 48.4153875, "lon": 1.4767926, "tags": {"bus": "yes", "highway": "bus_stop", "local_ref": "Filibus", "name": "La Torche", "public_transport": "platform"}}, {"type": "node", "id": 4638829839, "lat": 48.4188073, "lon": 1.4735847, "tags": {"highway": "bus_stop", "local_ref": "Filibus", "name": "Coll\u00e8ge Jean Monnet", "public_transport": "platform"}}, {"type": "node", "id": 4638841662, "lat": 48.411761, "lon": 1.4762079, "tags": {"bus": "yes", "highway": "bus_stop", "local_ref": "Filibus", "name": "Jean Moulin", "public_transport": "platform"}}, {"type": "node", "id": 4638841663, "lat": 48.4111503, "lon": 1.4758699, "tags": {"bus": "yes", "highway": "bus_stop", "local_ref": "Filibus", "name": "Jean Moulin", "public_transport": "platform"}}, {"type": "node", "id": 4650191036, "lat": 48.4692842, "lon": 1.5074118, "tags": {"bus": "yes", "highway": "bus_stop", "local_ref": "Filibus", "name": "La Moufle", "public_transport": "platform"}}, {"type": "node", "id": 4650191037, "lat": 48.4219365, "lon": 1.505702, "tags": {"highway": "bus_stop", "local_ref": "Filibus", "name": "H\u00f4pital Pasteur", "public_transport": "platform"}}, {"type": "node", "id": 4650191038, "lat": 48.4670488, "lon": 1.5057878, "tags": {"highway": "bus_stop", "local_ref": "Filibus", "name": "Grande Rue", "public_transport": "platform"}}, {"type": "node", "id": 4665045742, "lat": 48.4737381, "lon": 1.5039073, "tags": {"highway": "bus_stop", "local_ref": "Filibus", "name": "Frichalliers", "public_transport": "platform"}}, {"type": "node", "id": 4665045744, "lat": 48.4728134, "lon": 1.5092729, "tags": {"highway": "bus_stop", "local_ref": "Filibus", "name": "Supermarch\u00e9", "public_transport": "platform"}}, {"type": "node", "id": 4665045745, "lat": 48.4608239, "lon": 1.502042, "tags": {"highway": "bus_stop", "local_ref": "Filibus", "name": "Croix Bris\u00e9e", "public_transport": "platform"}}, {"type": "node", "id": 4665045746, "lat": 48.4621606, "lon": 1.5053033, "tags": {"bench": "no", "bin": "no", "highway": "bus_stop", "local_ref": "Filibus", "name": "Croix Jouvet", "public_transport": "platform", "shelter": "no", "tactile_paving": "no"}}, {"type": "node", "id": 4665045747, "lat": 48.4651219, "lon": 1.5074651, "tags": {"bench": "yes", "bin": "yes", "highway": "bus_stop", "local_ref": "Filibus", "name": "\u00c9glise de Champhol", "public_transport": "platform", "shelter": "yes", "tactile_paving": "no"}}, {"type": "node", "id": 4665045748, "lat": 48.4692156, "lon": 1.5006396, "tags": {"highway": "bus_stop", "local_ref": "Filibus", "name": "\u00c9coles", "public_transport": "platform"}}, {"type": "node", "id": 4665050062, "lat": 48.4597914, "lon": 1.4994963, "tags": {"highway": "bus_stop", "local_ref": "Filibus", "name": "M\u00e9t\u00e9o", "public_transport": "platform"}}, {"type": "node", "id": 4665050063, "lat": 48.4585623, "lon": 1.4962857, "tags": {"highway": "bus_stop", "local_ref": "Filibus", "name": "Grandes Plantes", "public_transport": "platform", "source": "Bing"}}, {"type": "node", "id": 4665050064, "lat": 48.4608978, "lon": 1.5021302, "tags": {"highway": "bus_stop", "local_ref": "Filibus", "name": "Croix Bris\u00e9e", "public_transport": "platform"}}, {"type": "node", "id": 4665050065, "lat": 48.4585677, "lon": 1.4961194, "tags": {"highway": "bus_stop", "local_ref": "Filibus", "name": "Grandes Plantes", "public_transport": "platform"}}, {"type": "node", "id": 4665050066, "lat": 48.4594784, "lon": 1.4989035, "tags": {"highway": "bus_stop", "local_ref": "Filibus", "name": "M\u00e9t\u00e9o", "public_transport": "platform"}}, {"type": "node", "id": 4665055930, "lat": 48.4608124, "lon": 1.4941399, "tags": {"highway": "bus_stop", "local_ref": "Filibus", "name": "Gabriel Loire", "public_transport": "platform"}}, {"type": "node", "id": 4665055931, "lat": 48.4607323, "lon": 1.4946334, "tags": {"highway": "bus_stop", "local_ref": "Filibus", "name": "Gabriel Loire", "public_transport": "platform"}}, {"type": "node", "id": 4665106936, "lat": 48.4524431, "lon": 1.4924528, "tags": {"bench": "yes", "bin": "yes", "highway": "bus_stop", "local_ref": "Filibus", "name": "B\u00e9thouart", "public_transport": "platform", "shelter": "yes", "tactile_paving": "no"}}, {"type": "node", "id": 4665106937, "lat": 48.4562535, "lon": 1.4946227, "tags": {"highway": "bus_stop", "local_ref": "Filibus", "name": "Filles-Dieu", "public_transport": "platform"}}, {"type": "node", "id": 4665130894, "lat": 48.4524218, "lon": 1.4873378, "tags": {"highway": "bus_stop", "local_ref": "Filibus", "name": "Drouaise", "public_transport": "platform"}}, {"type": "node", "id": 4665130896, "lat": 48.4527117, "lon": 1.4882927, "tags": {"highway": "bus_stop", "local_ref": "Filibus", "name": "Drouaise", "public_transport": "platform"}}, {"type": "node", "id": 4665139607, "lat": 48.4494401, "lon": 1.483521, "tags": {"bench": "no", "bin": "no", "highway": "bus_stop", "lit": "no", "local_ref": "Filibus", "name": "Charles P\u00e9guy", "public_transport": "platform", "shelter": "no", "tactile_paving": "no"}}, {"type": "node", "id": 4665139608, "lat": 48.4495807, "lon": 1.4837946, "tags": {"bench": "yes", "bin": "yes", "highway": "bus_stop", "lit": "yes", "local_ref": "Filibus", "name": "Charles P\u00e9guy", "public_transport": "platform", "shelter": "yes", "tactile_paving": "yes"}}, {"type": "node", "id": 4665158455, "lat": 48.4371596, "lon": 1.4930509, "tags": {"highway": "bus_stop", "local_ref": "Filibus", "name": "Saint-Brice", "public_transport": "platform"}}, {"type": "node", "id": 4665158457, "lat": 48.441932, "lon": 1.4920531, "tags": {"bench": "yes", "highway": "bus_stop", "local_ref": "Filibus", "name": "La Courtille", "public_transport": "platform", "shelter": "yes"}}, {"type": "node", "id": 4665158458, "lat": 48.4412702, "lon": 1.495394, "tags": {"bench": "yes", "bin": "yes", "highway": "bus_stop", "lit": "yes", "local_ref": "Filibus", "name": "Roger Joly", "public_transport": "platform", "shelter": "yes", "tactile_paving": "no"}}, {"type": "node", "id": 4665158459, "lat": 48.4409632, "lon": 1.4954331, "tags": {"highway": "bus_stop", "local_ref": "Filibus", "name": "Roger Joly", "public_transport": "platform"}}, {"type": "node", "id": 4665158460, "lat": 48.4422594, "lon": 1.4940755, "tags": {"highway": "bus_stop", "local_ref": "Filibus", "name": "La Courtille", "public_transport": "platform"}}, {"type": "node", "id": 4665158461, "lat": 48.4375493, "lon": 1.4933835, "tags": {"highway": "bus_stop", "local_ref": "Filibus", "name": "Saint-Brice", "public_transport": "platform"}}, {"type": "node", "id": 4665190169, "lat": 48.4248654, "lon": 1.500714, "tags": {"highway": "bus_stop", "local_ref": "Filibus", "name": "Saint-Exup\u00e9ry", "public_transport": "platform"}}, {"type": "node", "id": 4665190170, "lat": 48.428733, "lon": 1.4931421, "tags": {"highway": "bus_stop", "local_ref": "Filibus", "name": "Cit\u00e9 Jaur\u00e8s", "public_transport": "platform"}}, {"type": "node", "id": 4665190171, "lat": 48.4275388, "lon": 1.4997806, "tags": {"highway": "bus_stop", "local_ref": "Filibus", "name": "Les Larris", "public_transport": "platform"}}, {"type": "node", "id": 4665190172, "lat": 48.4250986, "lon": 1.4945422, "tags": {"highway": "bus_stop", "local_ref": "Filibus", "name": "La Vall\u00e9e", "public_transport": "platform"}}, {"type": "node", "id": 4665190173, "lat": 48.4228537, "lon": 1.4977538, "tags": {"highway": "bus_stop", "local_ref": "Filibus", "name": "Village", "public_transport": "platform"}}, {"type": "node", "id": 4665190174, "lat": 48.4263748, "lon": 1.4968784, "tags": {"highway": "bus_stop", "local_ref": "Filibus", "name": "Gages", "public_transport": "platform"}}, {"type": "node", "id": 4665190175, "lat": 48.4344761, "lon": 1.4932601, "tags": {"bench": "yes", "highway": "bus_stop", "local_ref": "Filibus", "name": "Perriers", "public_transport": "platform", "shelter": "yes", "tactile_paving": "no"}}, {"type": "node", "id": 4665190176, "lat": 48.4251538, "lon": 1.4987131, "tags": {"highway": "bus_stop", "local_ref": "Filibus", "name": "Jules Verne", "public_transport": "platform"}}, {"type": "node", "id": 4665190177, "lat": 48.42761, "lon": 1.4995982, "tags": {"highway": "bus_stop", "local_ref": "Filibus", "name": "Les Larris", "public_transport": "platform"}}, {"type": "node", "id": 4665190178, "lat": 48.4230071, "lon": 1.5027203, "tags": {"highway": "bus_stop", "local_ref": "Filibus", "name": "Europe", "public_transport": "platform"}}, {"type": "node", "id": 4665190179, "lat": 48.4244489, "lon": 1.501583, "tags": {"highway": "bus_stop", "local_ref": "Filibus", "name": "Saint-Exup\u00e9ry", "public_transport": "platform"}}, {"type": "node", "id": 4665190180, "lat": 48.4255418, "lon": 1.4943464, "tags": {"highway": "bus_stop", "local_ref": "Filibus", "name": "La Vall\u00e9e", "public_transport": "platform"}}, {"type": "node", "id": 4665190181, "lat": 48.4288558, "lon": 1.4931743, "tags": {"highway": "bus_stop", "local_ref": "Filibus", "name": "Cit\u00e9 Jaur\u00e8s", "public_transport": "platform"}}, {"type": "node", "id": 4665190182, "lat": 48.434444, "lon": 1.4930295, "tags": {"bench": "yes", "highway": "bus_stop", "local_ref": "Filibus", "name": "Perriers", "public_transport": "platform", "shelter": "yes", "tactile_paving": "no"}}, {"type": "node", "id": 4665190184, "lat": 48.4249669, "lon": 1.4986836, "tags": {"highway": "bus_stop", "local_ref": "Filibus", "name": "Jules Verne", "public_transport": "platform"}}, {"type": "node", "id": 4665190185, "lat": 48.4265207, "lon": 1.4968275, "tags": {"highway": "bus_stop", "local_ref": "Filibus", "name": "Gages", "public_transport": "platform"}}, {"type": "node", "id": 4665190186, "lat": 48.4231584, "lon": 1.5027686, "tags": {"highway": "bus_stop", "local_ref": "Filibus", "name": "Europe", "public_transport": "platform"}}, {"type": "node", "id": 4665831518, "lat": 48.4747559, "lon": 1.484586, "tags": {"highway": "bus_stop", "local_ref": "Filibus", "name": "Le Mousseau", "public_transport": "platform"}}, {"type": "node", "id": 4665831519, "lat": 48.4827037, "lon": 1.4792189, "tags": {"highway": "bus_stop", "local_ref": "Filibus", "name": "Moulin \u00e0 Vent", "public_transport": "platform"}}, {"type": "node", "id": 4665831520, "lat": 48.4768736, "lon": 1.4805359, "tags": {"highway": "bus_stop", "local_ref": "Filibus", "name": "Vallain", "public_transport": "platform"}}, {"type": "node", "id": 4665831521, "lat": 48.4791958, "lon": 1.4801174, "tags": {"highway": "bus_stop", "local_ref": "Filibus", "name": "3 Maisons", "public_transport": "platform"}}, {"type": "node", "id": 4665840012, "lat": 48.4843483, "lon": 1.4765313, "tags": {"highway": "bus_stop", "local_ref": "Filibus", "name": "Pointe \u00e0 l'Hermine", "public_transport": "platform"}}, {"type": "node", "id": 4665840013, "lat": 48.4779494, "lon": 1.4779019, "tags": {"highway": "bus_stop", "local_ref": "Filibus", "name": "Bailleau", "public_transport": "platform"}}, {"type": "node", "id": 4665840014, "lat": 48.4842593, "lon": 1.4732295, "tags": {"highway": "bus_stop", "local_ref": "Filibus", "name": "Butte Celtique", "public_transport": "platform"}}, {"type": "node", "id": 4665840015, "lat": 48.4757054, "lon": 1.4795354, "tags": {"highway": "bus_stop", "local_ref": "Filibus", "name": "Jean Moulin", "public_transport": "platform"}}, {"type": "node", "id": 4665840016, "lat": 48.4817809, "lon": 1.4767781, "tags": {"highway": "bus_stop", "local_ref": "Filibus", "name": "Bois de L\u00e8ves", "public_transport": "platform"}}, {"type": "node", "id": 4665878765, "lat": 48.4188777, "lon": 1.4584833, "tags": {"bench": "no", "bin": "yes", "highway": "bus_stop", "lit": "no", "local_ref": "Filibus", "name": "Lyc\u00e9e Sylvia Monfort", "public_transport": "platform", "shelter": "yes", "tactile_paving": "no"}}, {"type": "node", "id": 4665878766, "lat": 48.4188253, "lon": 1.4584356, "tags": {"bench": "no", "bin": "yes", "highway": "bus_stop", "lit": "no", "local_ref": "Filibus", "name": "Lyc\u00e9e Sylvia Monfort", "public_transport": "platform", "shelter": "yes", "tactile_paving": "no"}}, {"type": "node", "id": 4665878767, "lat": 48.4189323, "lon": 1.4581617, "tags": {"bench": "no", "bin": "yes", "highway": "bus_stop", "lit": "no", "local_ref": "Filibus", "name": "Lyc\u00e9e Sylvia Monfort", "public_transport": "platform", "shelter": "yes", "tactile_paving": "no"}}, {"type": "node", "id": 4665878768, "lat": 48.4189873, "lon": 1.4582487, "tags": {"bench": "yes", "bin": "no", "highway": "bus_stop", "lit": "no", "local_ref": "Filibus", "name": "Lyc\u00e9e Sylvia Monfort", "public_transport": "platform", "shelter": "yes", "tactile_paving": "no"}}, {"type": "node", "id": 4665933930, "lat": 48.4241307, "lon": 1.4645579, "tags": {"bench": "no", "bin": "no", "highway": "bus_stop", "local_ref": "Filibus", "name": "De Gaulle", "public_transport": "platform", "shelter": "no", "tactile_paving": "no"}}, {"type": "node", "id": 4665933931, "lat": 48.4288206, "lon": 1.4708424, "tags": {"highway": "bus_stop", "local_ref": "Filibus", "name": "Schuman", "public_transport": "platform"}}, {"type": "node", "id": 4665933932, "lat": 48.4343341, "lon": 1.4779824, "tags": {"highway": "bus_stop", "local_ref": "Filibus", "name": "Courtois", "public_transport": "platform"}}, {"type": "node", "id": 4665933933, "lat": 48.4289096, "lon": 1.4707082, "tags": {"highway": "bus_stop", "local_ref": "Filibus", "name": "Schuman", "public_transport": "platform"}}, {"type": "node", "id": 4665933934, "lat": 48.4345974, "lon": 1.4783633, "tags": {"highway": "bus_stop", "local_ref": "Filibus", "name": "Courtois", "public_transport": "platform"}}, {"type": "node", "id": 4665933935, "lat": 48.4286497, "lon": 1.4684337, "tags": {"highway": "bus_stop", "local_ref": "Filibus", "name": "L\u00e9pine", "public_transport": "platform"}}, {"type": "node", "id": 4665933936, "lat": 48.4287031, "lon": 1.468246, "tags": {"highway": "bus_stop", "local_ref": "Filibus", "name": "L\u00e9pine", "public_transport": "platform"}}, {"type": "node", "id": 4665933937, "lat": 48.4242446, "lon": 1.4646813, "tags": {"bench": "no", "bin": "no", "highway": "bus_stop", "local_ref": "Filibus", "name": "De Gaulle", "public_transport": "platform", "shelter": "no", "tactile_paving": "no"}}, {"type": "node", "id": 4665933938, "lat": 48.4259933, "lon": 1.468496, "tags": {"highway": "bus_stop", "local_ref": "Filibus", "name": "Victor Hugo", "public_transport": "platform"}}, {"type": "node", "id": 4665933939, "lat": 48.4261206, "lon": 1.4683694, "tags": {"highway": "bus_stop", "local_ref": "Filibus", "name": "Victor Hugo", "public_transport": "platform"}}, {"type": "node", "id": 4665947434, "lat": 48.464763, "lon": 1.480796, "tags": {"bench": "no", "highway": "bus_stop", "local_ref": "Filibus", "name": "Petit Orme", "public_transport": "platform", "shelter": "no", "tactile_paving": "no"}}, {"type": "node", "id": 4665947435, "lat": 48.4602578, "lon": 1.4832449, "tags": {"bench": "no", "highway": "bus_stop", "local_ref": "Filibus", "name": "Grands Pr\u00e9s", "public_transport": "platform", "shelter": "no", "tactile_paving": "no"}}, {"type": "node", "id": 4665947436, "lat": 48.4642036, "lon": 1.4809898, "tags": {"bench": "yes", "highway": "bus_stop", "local_ref": "Filibus", "name": "Petit Orme", "public_transport": "platform", "shelter": "yes", "tactile_paving": "no"}}, {"type": "node", "id": 4665947437, "lat": 48.4607025, "lon": 1.4829767, "tags": {"bench": "no", "highway": "bus_stop", "local_ref": "Filibus", "name": "Grands Pr\u00e9s", "public_transport": "platform", "shelter": "no", "tactile_paving": "no"}}, {"type": "node", "id": 4665958293, "lat": 48.4571397, "lon": 1.4858386, "tags": {"bench": "yes", "bin": "yes", "highway": "bus_stop", "local_ref": "Filibus", "name": "Beaurepaire", "public_transport": "platform", "shelter": "yes", "tactile_paving": "no"}}, {"type": "node", "id": 4665958294, "lat": 48.4580756, "lon": 1.4850605, "tags": {"highway": "bus_stop", "local_ref": "Filibus", "name": "Beaurepaire", "public_transport": "platform"}}, {"type": "node", "id": 4665958295, "lat": 48.440612, "lon": 1.4826414, "tags": {"highway": "bus_stop", "local_ref": "Filibus", "name": "H\u00f4tel-Dieu", "public_transport": "platform"}}, {"type": "node", "id": 4665960510, "lat": 48.4368361, "lon": 1.4800128, "tags": {"highway": "bus_stop", "local_ref": "Filibus", "name": "Saint-Vincent", "public_transport": "platform"}}, {"type": "node", "id": 4665960511, "lat": 48.4370781, "lon": 1.4800772, "tags": {"highway": "bus_stop", "local_ref": "Filibus", "name": "Saint-Vincent", "public_transport": "platform"}}, {"type": "node", "id": 4665960512, "lat": 48.4405053, "lon": 1.4824671, "tags": {"highway": "bus_stop", "local_ref": "Filibus", "name": "H\u00f4tel-Dieu", "public_transport": "platform"}}, {"type": "node", "id": 4665982823, "lat": 48.4218202, "lon": 1.4569136, "tags": {"highway": "bus_stop", "local_ref": "Filibus", "name": "Bergers", "public_transport": "platform"}}, {"type": "node", "id": 4665982824, "lat": 48.4234133, "lon": 1.4608028, "tags": {"bench": "no", "bin": "no", "highway": "bus_stop", "local_ref": "Filibus", "name": "Les Graviers", "public_transport": "platform", "shelter": "no", "tactile_paving": "no"}}, {"type": "node", "id": 4665982825, "lat": 48.4219288, "lon": 1.4568734, "tags": {"highway": "bus_stop", "local_ref": "Filibus", "name": "Bergers", "public_transport": "platform"}}, {"type": "node", "id": 4665982826, "lat": 48.4232887, "lon": 1.4608082, "tags": {"bench": "yes", "bin": "yes", "highway": "bus_stop", "local_ref": "Filibus", "name": "Les Graviers", "public_transport": "platform", "shelter": "yes", "tactile_paving": "no"}}, {"type": "node", "id": 4665989759, "lat": 48.4190718, "lon": 1.4638257, "tags": {"highway": "bus_stop", "local_ref": "Filibus", "name": "Les Ribouches", "public_transport": "platform"}}, {"type": "node", "id": 4665989760, "lat": 48.4199031, "lon": 1.4546204, "tags": {"highway": "bus_stop", "local_ref": "Filibus", "name": "Fosses Blanches", "public_transport": "platform"}}, {"type": "node", "id": 4665989761, "lat": 48.418997, "lon": 1.4679027, "tags": {"bench": "no", "bin": "no", "highway": "bus_stop", "local_ref": "Filibus", "name": "\u00c9rables", "public_transport": "platform", "shelter": "no", "tactile_paving": "no"}}, {"type": "node", "id": 4665989762, "lat": 48.4198942, "lon": 1.4544594, "tags": {"highway": "bus_stop", "local_ref": "Filibus", "name": "Fosses Blanches", "public_transport": "platform"}}, {"type": "node", "id": 4665989763, "lat": 48.4191173, "lon": 1.4678856, "tags": {"bench": "no", "bin": "no", "highway": "bus_stop", "local_ref": "Filibus", "name": "\u00c9rables", "public_transport": "platform", "shelter": "no", "tactile_paving": "no"}}, {"type": "node", "id": 4665989764, "lat": 48.4191341, "lon": 1.4637774, "tags": {"highway": "bus_stop", "local_ref": "Filibus", "name": "Les Ribouches", "public_transport": "platform"}}, {"type": "node", "id": 4670173732, "lat": 48.4295181, "lon": 1.4365515, "tags": {"bench": "no", "bin": "yes", "highway": "bus_stop", "local_ref": "Filibus", "name": "Les Carreaux", "public_transport": "platform", "shelter": "yes", "tactile_paving": "no"}}, {"type": "node", "id": 4670195608, "lat": 48.4424909, "lon": 1.5209663, "tags": {"bus": "yes", "highway": "bus_stop", "local_ref": "Filibus", "name": "La Madeleine", "public_transport": "platform"}}, {"type": "node", "id": 4670195609, "lat": 48.4428752, "lon": 1.5208107, "tags": {"bus": "yes", "highway": "bus_stop", "local_ref": "Filibus", "name": "La Madeleine", "public_transport": "platform"}}, {"type": "node", "id": 4679237371, "lat": 48.4301335, "lon": 1.4388901, "tags": {"highway": "bus_stop", "local_ref": "Filibus", "name": "Anatole France", "public_transport": "platform"}}, {"type": "node", "id": 4679237372, "lat": 48.430671, "lon": 1.4399737, "tags": {"highway": "bus_stop", "local_ref": "Filibus", "name": "Anatole France", "public_transport": "platform"}}, {"type": "node", "id": 4679246837, "lat": 48.4383338, "lon": 1.4474732, "tags": {"highway": "bus_stop", "local_ref": "Filibus", "name": "Bonn", "public_transport": "platform"}}, {"type": "node", "id": 4679246838, "lat": 48.4383641, "lon": 1.4463976, "tags": {"highway": "bus_stop", "local_ref": "Filibus", "mapillary": "504338150749376", "name": "Bonn", "pole": "no", "public_transport": "platform", "shelter": "no", "survey:date": "2017-05-26"}}, {"type": "node", "id": 4679249853, "lat": 48.4301798, "lon": 1.4422053, "tags": {"highway": "bus_stop", "local_ref": "Filibus", "name": "George Sand", "public_transport": "platform"}}, {"type": "node", "id": 4679249854, "lat": 48.4281552, "lon": 1.4462799, "tags": {"highway": "bus_stop", "local_ref": "Filibus", "name": "La Taye", "public_transport": "platform"}}, {"type": "node", "id": 4679249855, "lat": 48.4300587, "lon": 1.4422107, "tags": {"highway": "bus_stop", "local_ref": "Filibus", "name": "George Sand", "public_transport": "platform"}}, {"type": "node", "id": 4679249856, "lat": 48.4243112, "lon": 1.4530773, "tags": {"bench": "no", "highway": "bus_stop", "local_ref": "Filibus", "name": "Tourneballets", "pole": "yes", "public_transport": "platform", "shelter": "no", "survey:date": "2019-09-22"}}, {"type": "node", "id": 4679252813, "lat": 48.4303043, "lon": 1.4450055, "tags": {"highway": "bus_stop", "local_ref": "Filibus", "name": "Gascogne", "public_transport": "platform"}}, {"type": "node", "id": 4679252814, "lat": 48.4305482, "lon": 1.4449707, "tags": {"highway": "bus_stop", "local_ref": "Filibus", "name": "Gascogne", "public_transport": "platform"}}, {"type": "node", "id": 4679252815, "lat": 48.4257808, "lon": 1.4471241, "tags": {"highway": "bus_stop", "local_ref": "Filibus", "name": "Fontenay", "public_transport": "platform"}}, {"type": "node", "id": 4679257409, "lat": 48.4325877, "lon": 1.444689, "tags": {"highway": "bus_stop", "local_ref": "Filibus", "name": "B\u00e9guines", "public_transport": "platform"}}, {"type": "node", "id": 4679257410, "lat": 48.4348353, "lon": 1.4431575, "tags": {"bench": "no", "bin": "yes", "highway": "bus_stop", "local_ref": "Filibus", "name": "Centre Commercial", "public_transport": "platform", "shelter": "no", "tactile_paving": "yes"}}, {"type": "node", "id": 4679257411, "lat": 48.4325023, "lon": 1.4445925, "tags": {"highway": "bus_stop", "local_ref": "Filibus", "name": "B\u00e9guines", "public_transport": "platform"}}, {"type": "node", "id": 4679257412, "lat": 48.4351058, "lon": 1.4432111, "tags": {"bench": "yes", "bin": "yes", "highway": "bus_stop", "local_ref": "Filibus", "name": "Centre Commercial", "public_transport": "platform", "shelter": "yes", "tactile_paving": "yes"}}, {"type": "node", "id": 4679260991, "lat": 48.4382698, "lon": 1.4429966, "tags": {"highway": "bus_stop", "local_ref": "Filibus", "name": "Gen\u00e8ve", "public_transport": "platform"}}, {"type": "node", "id": 4679276108, "lat": 48.4384246, "lon": 1.4497075, "tags": {"highway": "bus_stop", "local_ref": "Filibus", "name": "Bruxelles", "public_transport": "platform"}}, {"type": "node", "id": 4679287694, "lat": 48.4386986, "lon": 1.4505899, "tags": {"highway": "bus_stop", "local_ref": "Filibus", "mapillary": "301647201452079", "name": "Herriot", "pole": "yes", "public_transport": "platform", "shelter": "no", "survey:date": "2017-05-26"}}, {"type": "node", "id": 4679287695, "lat": 48.4388979, "lon": 1.4503056, "tags": {"highway": "bus_stop", "local_ref": "Filibus", "mapillary": "908292726687609", "name": "Herriot", "pole": "yes", "public_transport": "platform", "shelter": "no", "survey:date": "2017-05-26"}}, {"type": "node", "id": 4679293877, "lat": 48.4387818, "lon": 1.4572488, "tags": {"bus": "yes", "highway": "bus_stop", "local_ref": "Filibus", "name": "Gambetta", "public_transport": "platform", "shelter": "no"}}, {"type": "node", "id": 4679293878, "lat": 48.438905, "lon": 1.4586687, "tags": {"bench": "yes", "highway": "bus_stop", "local_ref": "Filibus", "mapillary": "458564458581781", "name": "Gambetta", "public_transport": "platform", "shelter": "yes", "survey:date": "2017-05-26"}}, {"type": "node", "id": 4679295389, "lat": 48.4395243, "lon": 1.4623353, "tags": {"highway": "bus_stop", "local_ref": "Filibus", "name": "Mairie", "public_transport": "platform"}}, {"type": "node", "id": 4679295390, "lat": 48.4396613, "lon": 1.4623273, "tags": {"highway": "bus_stop", "local_ref": "Filibus", "name": "Mairie", "public_transport": "platform"}}, {"type": "node", "id": 4679296615, "lat": 48.4401257, "lon": 1.4673618, "tags": {"highway": "bus_stop", "local_ref": "Filibus", "mapillary": "3363607590406033", "name": "\u00c9glise", "public_transport": "platform", "shelter": "yes", "survey:date": "2017-05-26"}}, {"type": "node", "id": 4679296616, "lat": 48.4402467, "lon": 1.4673269, "tags": {"highway": "bus_stop", "local_ref": "Filibus", "name": "\u00c9glise", "public_transport": "platform"}}, {"type": "node", "id": 4679300869, "lat": 48.4407503, "lon": 1.4714173, "tags": {"highway": "bus_stop", "local_ref": "Filibus", "mapillary": "475592180391749", "name": "Le Parc", "public_transport": "platform", "shelter": "yes", "survey:date": "2017-05-26"}}, {"type": "node", "id": 4679300870, "lat": 48.4408241, "lon": 1.4723292, "tags": {"bench": "yes", "bin": "yes", "covered": "yes", "highway": "bus_stop", "local_ref": "Filibus", "mapillary": "931063904361033", "name": "Le Parc", "public_transport": "platform", "shelter": "yes", "survey:date": "2017-05-26"}}, {"type": "node", "id": 4679301913, "lat": 48.4432289, "lon": 1.4795631, "tags": {"bench": "no", "highway": "bus_stop", "local_ref": "Filibus", "name": "14 Juillet", "public_transport": "platform", "shelter": "no"}}, {"type": "node", "id": 4679303526, "lat": 48.4419762, "lon": 1.4765483, "tags": {"highway": "bus_stop", "local_ref": "Filibus", "name": "Jeanne d'Arc", "public_transport": "platform"}}, {"type": "node", "id": 4679303527, "lat": 48.4417396, "lon": 1.4759797, "tags": {"bench": "yes", "bin": "yes", "highway": "bus_stop", "local_ref": "Filibus", "name": "Jeanne d'Arc", "public_transport": "platform", "shelter": "yes", "tactile_paving": "no"}}, {"type": "node", "id": 4679306641, "lat": 48.4399798, "lon": 1.5119669, "tags": {"highway": "bus_stop", "local_ref": "Filibus", "name": "Sours", "public_transport": "platform"}}, {"type": "node", "id": 4679306642, "lat": 48.4400332, "lon": 1.5122271, "tags": {"highway": "bus_stop", "local_ref": "Filibus", "name": "Sours", "public_transport": "platform"}}, {"type": "node", "id": 4679307875, "lat": 48.4414656, "lon": 1.5045452, "tags": {"highway": "bus_stop", "local_ref": "Filibus", "name": "Passage de Sours", "public_transport": "platform", "shelter": "no"}}, {"type": "node", "id": 4679307876, "lat": 48.4432326, "lon": 1.4991831, "tags": {"bus": "yes", "highway": "bus_stop", "local_ref": "Filibus", "name": "Marais", "public_transport": "platform"}}, {"type": "node", "id": 4679307877, "lat": 48.4415723, "lon": 1.5039176, "tags": {"highway": "bus_stop", "local_ref": "Filibus", "name": "Passage de Sours", "public_transport": "platform", "shelter": "yes"}}, {"type": "node", "id": 4679307878, "lat": 48.4430082, "lon": 1.4990011, "tags": {"highway": "bus_stop", "local_ref": "Filibus", "name": "Marais", "public_transport": "platform"}}, {"type": "node", "id": 4679312158, "lat": 48.4406293, "lon": 1.5076619, "tags": {"highway": "bus_stop", "local_ref": "Filibus", "name": "Picassiette", "public_transport": "platform", "shelter": "yes"}}, {"type": "node", "id": 4679312159, "lat": 48.4408392, "lon": 1.5071443, "tags": {"highway": "bus_stop", "local_ref": "Filibus", "name": "Picassiette", "public_transport": "platform", "shelter": "yes"}}, {"type": "node", "id": 4679318349, "lat": 48.4464528, "lon": 1.5154967, "tags": {"highway": "bus_stop", "local_ref": "Filibus", "name": "Moquet", "public_transport": "platform", "wikimedia_commons": "File:Arr\u00eat Moquet vers La Madeleine.jpg"}}, {"type": "node", "id": 4679318350, "lat": 48.4424015, "lon": 1.5154457, "tags": {"highway": "bus_stop", "local_ref": "Filibus", "name": "La Gaderie", "public_transport": "platform"}}, {"type": "node", "id": 4679318351, "lat": 48.4416026, "lon": 1.5144426, "tags": {"highway": "bus_stop", "local_ref": "Filibus", "name": "Victor Hugo", "public_transport": "platform"}}, {"type": "node", "id": 4679318352, "lat": 48.4441701, "lon": 1.515545, "tags": {"highway": "bus_stop", "local_ref": "Filibus", "name": "Hetzel", "public_transport": "platform"}}, {"type": "node", "id": 4679318353, "lat": 48.4463638, "lon": 1.5153384, "tags": {"highway": "bus_stop", "local_ref": "Filibus", "name": "Moquet", "public_transport": "platform"}}, {"type": "node", "id": 4679318354, "lat": 48.4440562, "lon": 1.5153921, "tags": {"highway": "bus_stop", "local_ref": "Filibus", "name": "Hetzel", "public_transport": "platform"}}, {"type": "node", "id": 4679319458, "lat": 48.4475363, "lon": 1.5164998, "tags": {"bus": "yes", "highway": "bus_stop", "local_ref": "Filibus", "name": "\u00c9tampes", "public_transport": "platform", "wikimedia_commons": "File:Arr\u00eat \u00c9tampes vers La Madeleine ou Mare aux moines.jpg"}}, {"type": "node", "id": 4679319459, "lat": 48.4476181, "lon": 1.5166474, "tags": {"bus": "yes", "highway": "bus_stop", "local_ref": "Filibus", "name": "\u00c9tampes", "public_transport": "platform", "wikimedia_commons": "File:Arr\u00eat \u00c9tampes vers Les Carreaux ou Briand.jpg"}}, {"type": "node", "id": 4679378084, "lat": 48.4475024, "lon": 1.4496066, "tags": {"bench": "no", "bin": "yes", "highway": "bus_stop", "local_ref": "Filibus", "name": "Z.A. Le Vallier", "public_transport": "platform", "shelter": "no", "tactile_paving": "no"}}, {"type": "node", "id": 4680422285, "lat": 48.4325549, "lon": 1.4487008, "tags": {"highway": "bus_stop", "local_ref": "Filibus", "name": "Bourgogne", "public_transport": "platform"}}, {"type": "node", "id": 4680422286, "lat": 48.432457, "lon": 1.4485936, "tags": {"highway": "bus_stop", "local_ref": "Filibus", "mapillary": "293778549011221", "name": "Bourgogne", "public_transport": "platform", "shelter": "yes", "survey:date": "2017-05-26"}}, {"type": "node", "id": 4680456880, "lat": 48.4311853, "lon": 1.5104781, "tags": {"highway": "bus_stop", "local_ref": "Filibus", "name": "Mac\u00e9", "public_transport": "platform", "wheelchair": "yes"}}, {"type": "node", "id": 4680456881, "lat": 48.4337188, "lon": 1.5120796, "tags": {"highway": "bus_stop", "local_ref": "Filibus", "name": "Edmond Poillot", "public_transport": "platform"}}, {"type": "node", "id": 4681482310, "lat": 48.4701543, "lon": 1.4740109, "tags": {"bench": "no", "bin": "yes", "highway": "bus_stop", "lit": "no", "local_ref": "Filibus", "name": "Chacati\u00e8re", "public_transport": "platform", "shelter": "yes", "tactile_paving": "no"}}, {"type": "node", "id": 4681525500, "lat": 48.4319218, "lon": 1.4917028, "tags": {"bench": "yes", "highway": "bus_stop", "local_ref": "Filibus", "name": "3 Ponts", "public_transport": "platform", "shelter": "yes", "tactile_paving": "no"}}, {"type": "node", "id": 4681525501, "lat": 48.4323329, "lon": 1.4923304, "tags": {"bench": "yes", "highway": "bus_stop", "local_ref": "Filibus", "name": "3 Ponts", "public_transport": "platform", "shelter": "yes", "tactile_paving": "no"}}, {"type": "node", "id": 4681531505, "lat": 48.3955038, "lon": 1.4943474, "tags": {"highway": "bus_stop", "local_ref": "Filibus", "name": "\u00c9glise", "public_transport": "platform"}}, {"type": "node", "id": 4681566898, "lat": 48.454469, "lon": 1.5107974, "tags": {"highway": "bus_stop", "local_ref": "Filibus", "name": "L'Odyss\u00e9e", "public_transport": "platform"}}, {"type": "node", "id": 4681597291, "lat": 48.4445112, "lon": 1.4509461, "tags": {"bus": "yes", "highway": "bus_stop", "local_ref": "Filibus", "mapillary": "2219098704897992", "name": "Poiffonds", "pole": "yes", "public_transport": "platform", "shelter": "no", "survey:date": "2017-05-26"}}, {"type": "node", "id": 4681597292, "lat": 48.4448744, "lon": 1.4512467, "tags": {"bus": "yes", "highway": "bus_stop", "local_ref": "Filibus", "mapillary": "172263168106730", "name": "Poiffonds", "pole": "yes", "public_transport": "platform", "shelter": "no", "survey:date": "2017-05-26"}}, {"type": "node", "id": 4681633724, "lat": 48.4584523, "lon": 1.4734467, "tags": {"bus": "yes", "highway": "bus_stop", "local_ref": "Filibus", "name": "Rech\u00e8vres", "public_transport": "platform"}}, {"type": "node", "id": 4691428134, "lat": 48.4485053, "lon": 1.4515341, "tags": {"bus": "yes", "highway": "bus_stop", "local_ref": "Filibus", "name": "J. Rostand", "public_transport": "platform"}}, {"type": "node", "id": 4691428135, "lat": 48.448475, "lon": 1.4518103, "tags": {"bus": "yes", "highway": "bus_stop", "local_ref": "Filibus", "name": "J. Rostand", "public_transport": "platform"}}, {"type": "node", "id": 4691428136, "lat": 48.4500744, "lon": 1.4539615, "tags": {"bench": "no", "bin": "no", "highway": "bus_stop", "local_ref": "Filibus", "name": "Ch\u00e2teau d'Eau", "public_transport": "platform", "shelter": "no", "tactile_paving": "no"}}, {"type": "node", "id": 4691428137, "lat": 48.4500726, "lon": 1.4530334, "tags": {"bench": "no", "bin": "yes", "bus": "yes", "highway": "bus_stop", "local_ref": "Filibus", "name": "Ch\u00e2teau d'Eau", "note": "bus 5 (Filibus) et 165 (jaune)", "operator": "Filibus & REMI", "public_transport": "platform", "shelter": "no", "tactile_paving": "no"}}, {"type": "node", "id": 4691454564, "lat": 48.4485942, "lon": 1.464245, "tags": {"highway": "bus_stop", "local_ref": "Filibus", "name": "Victor Hugo", "public_transport": "platform"}}, {"type": "node", "id": 4691454565, "lat": 48.4499926, "lon": 1.4641699, "tags": {"bench": "yes", "bin": "yes", "highway": "bus_stop", "lit": "no", "local_ref": "Filibus", "name": "Salle des F\u00eates", "public_transport": "platform", "shelter": "no", "tactile_paving": "no"}}, {"type": "node", "id": 4691454566, "lat": 48.4477438, "lon": 1.4664418, "tags": {"highway": "bus_stop", "local_ref": "Filibus", "name": "Jean Mac\u00e9", "public_transport": "platform"}}, {"type": "node", "id": 4691454567, "lat": 48.4500104, "lon": 1.4639956, "tags": {"bench": "no", "bin": "no", "highway": "bus_stop", "lit": "no", "local_ref": "Filibus", "name": "Salle des F\u00eates", "public_transport": "platform", "shelter": "no", "tactile_paving": "yes"}}, {"type": "node", "id": 4691454568, "lat": 48.4476353, "lon": 1.466474, "tags": {"highway": "bus_stop", "local_ref": "Filibus", "name": "Jean Mac\u00e9", "public_transport": "platform"}}, {"type": "node", "id": 4691454569, "lat": 48.4486174, "lon": 1.4640761, "tags": {"highway": "bus_stop", "local_ref": "Filibus", "name": "Victor Hugo", "public_transport": "platform"}}, {"type": "node", "id": 4691455677, "lat": 48.4508785, "lon": 1.4616862, "tags": {"highway": "bus_stop", "local_ref": "Filibus", "name": "Place du March\u00e9", "public_transport": "platform"}}, {"type": "node", "id": 4691455678, "lat": 48.4509604, "lon": 1.4618311, "tags": {"highway": "bus_stop", "local_ref": "Filibus", "name": "Place du March\u00e9", "public_transport": "platform"}}, {"type": "node", "id": 4691455679, "lat": 48.450569, "lon": 1.456582, "tags": {"bench": "no", "highway": "bus_stop", "local_ref": "Filibus", "name": "Aquitaine", "public_transport": "platform", "shelter": "no", "tactile_paving": "no"}}, {"type": "node", "id": 4691455680, "lat": 48.4507077, "lon": 1.4567751, "tags": {"highway": "bus_stop", "local_ref": "Filibus", "name": "Aquitaine", "public_transport": "platform"}}, {"type": "node", "id": 4691455681, "lat": 48.4526006, "lon": 1.4600259, "tags": {"highway": "bus_stop", "local_ref": "Filibus", "name": "R\u00e9sistance", "public_transport": "platform"}}, {"type": "node", "id": 4691455682, "lat": 48.4524921, "lon": 1.4599884, "tags": {"highway": "bus_stop", "local_ref": "Filibus", "name": "R\u00e9sistance", "public_transport": "platform"}}, {"type": "node", "id": 4691468385, "lat": 48.4454683, "lon": 1.4975634, "tags": {"highway": "bus_stop", "local_ref": "Filibus", "name": "Morard", "public_transport": "platform"}}, {"type": "node", "id": 4691468386, "lat": 48.4459451, "lon": 1.4977136, "tags": {"highway": "bus_stop", "local_ref": "Filibus", "name": "Ablis", "public_transport": "platform"}}, {"type": "node", "id": 4691468387, "lat": 48.4492863, "lon": 1.5038505, "tags": {"highway": "bus_stop", "local_ref": "Filibus", "name": "Jean Gallet", "public_transport": "platform"}}, {"type": "node", "id": 4691468388, "lat": 48.4490568, "lon": 1.5036091, "tags": {"highway": "bus_stop", "local_ref": "Filibus", "name": "Jean Gallet", "public_transport": "platform"}}, {"type": "node", "id": 4691468489, "lat": 48.4462974, "lon": 1.4979175, "tags": {"highway": "bus_stop", "local_ref": "Filibus", "name": "Ablis", "public_transport": "platform", "shelter": "no"}}, {"type": "node", "id": 4691473207, "lat": 48.4463721, "lon": 1.5034133, "tags": {"highway": "bus_stop", "local_ref": "Filibus", "name": "Saint-Ch\u00e9ron", "public_transport": "platform", "shelter": "no"}}, {"type": "node", "id": 4691473208, "lat": 48.4463846, "lon": 1.5065837, "tags": {"highway": "bus_stop", "local_ref": "Filibus", "name": "Fulbert", "public_transport": "platform"}}, {"type": "node", "id": 4691473209, "lat": 48.4464504, "lon": 1.5067768, "tags": {"highway": "bus_stop", "local_ref": "Filibus", "name": "Fulbert", "public_transport": "platform"}}, {"type": "node", "id": 4691473210, "lat": 48.4462725, "lon": 1.5036172, "tags": {"highway": "bus_stop", "local_ref": "Filibus", "name": "Saint-Ch\u00e9ron", "public_transport": "platform", "shelter": "no"}}, {"type": "node", "id": 4691473211, "lat": 48.4458277, "lon": 1.4997816, "tags": {"highway": "bus_stop", "local_ref": "Filibus", "name": "Cimeti\u00e8re", "public_transport": "platform"}}, {"type": "node", "id": 4691473212, "lat": 48.4463988, "lon": 1.5008867, "tags": {"highway": "bus_stop", "local_ref": "Filibus", "name": "Cimeti\u00e8re", "public_transport": "platform", "shelter": "no"}}, {"type": "node", "id": 4691496605, "lat": 48.4486174, "lon": 1.5207833, "tags": {"highway": "bus_stop", "local_ref": "Filibus", "name": "Salvador Allende", "public_transport": "platform"}}, {"type": "node", "id": 4691496606, "lat": 48.4494606, "lon": 1.5234736, "tags": {"highway": "bus_stop", "local_ref": "Filibus", "name": "Florent d'Illiers", "public_transport": "platform"}}, {"type": "node", "id": 4691496607, "lat": 48.4495389, "lon": 1.5231705, "tags": {"highway": "bus_stop", "local_ref": "Filibus", "name": "Florent d'Illiers", "public_transport": "platform"}}, {"type": "node", "id": 4691496608, "lat": 48.4471265, "lon": 1.5131846, "tags": {"highway": "bus_stop", "local_ref": "Filibus", "name": "Cerisiers", "public_transport": "platform"}}, {"type": "node", "id": 4691496609, "lat": 48.4467635, "lon": 1.5123022, "tags": {"highway": "bus_stop", "local_ref": "Filibus", "name": "Cerisiers", "public_transport": "platform"}}, {"type": "node", "id": 4691496610, "lat": 48.4488469, "lon": 1.5208906, "tags": {"highway": "bus_stop", "local_ref": "Filibus", "name": "Salvador Allende", "public_transport": "platform"}}, {"type": "node", "id": 4691505329, "lat": 48.4498698, "lon": 1.5264052, "tags": {"highway": "bus_stop", "local_ref": "Filibus", "name": "Gounod", "public_transport": "platform"}}, {"type": "node", "id": 4691505330, "lat": 48.4489874, "lon": 1.5300048, "tags": {"highway": "bus_stop", "local_ref": "Filibus", "name": "Ambroise Par\u00e9", "public_transport": "platform"}}, {"type": "node", "id": 4691505331, "lat": 48.4505263, "lon": 1.5304285, "tags": {"highway": "bus_stop", "local_ref": "Filibus", "name": "Marcel Proust", "public_transport": "platform"}}, {"type": "node", "id": 4691505332, "lat": 48.4509426, "lon": 1.5276042, "tags": {"highway": "bus_stop", "local_ref": "Filibus", "name": "Sully", "public_transport": "platform"}}, {"type": "node", "id": 4691505333, "lat": 48.4507558, "lon": 1.5290928, "tags": {"highway": "bus_stop", "local_ref": "Filibus", "name": "Marcel Proust", "public_transport": "platform"}}, {"type": "node", "id": 4691505334, "lat": 48.450327, "lon": 1.5265098, "tags": {"highway": "bus_stop", "local_ref": "Filibus", "name": "Sully", "public_transport": "platform"}}, {"type": "node", "id": 4691518465, "lat": 48.4334057, "lon": 1.5080375, "tags": {"highway": "bus_stop", "local_ref": "Filibus", "name": "Allonnes", "public_transport": "platform"}}, {"type": "node", "id": 4691518466, "lat": 48.433726, "lon": 1.5080267, "tags": {"highway": "bus_stop", "local_ref": "Filibus", "name": "Allonnes", "public_transport": "platform"}}, {"type": "node", "id": 4691518467, "lat": 48.4389542, "lon": 1.5157622, "tags": {"highway": "bus_stop", "local_ref": "Filibus", "name": "Angerville", "public_transport": "platform"}}, {"type": "node", "id": 4691518469, "lat": 48.4370413, "lon": 1.515427, "tags": {"highway": "bus_stop", "local_ref": "Filibus", "name": "Charles Coulomb", "public_transport": "platform"}}, {"type": "node", "id": 4691518470, "lat": 48.4312612, "lon": 1.5100518, "tags": {"highway": "bus_stop", "local_ref": "Filibus", "mapillary": "370670571007537", "name": "Mac\u00e9", "public_transport": "platform", "shelter": "yes", "survey:date": "2018-05-02", "wheelchair": "yes"}}, {"type": "node", "id": 4691519476, "lat": 48.4355946, "lon": 1.5061116, "tags": {"highway": "bus_stop", "local_ref": "Filibus", "name": "Les Clos", "public_transport": "platform"}}, {"type": "node", "id": 4691519477, "lat": 48.4360288, "lon": 1.5058863, "tags": {"highway": "bus_stop", "local_ref": "Filibus", "name": "Les Clos", "public_transport": "platform"}}, {"type": "node", "id": 4691526091, "lat": 48.4395772, "lon": 1.5024528, "tags": {"highway": "bus_stop", "local_ref": "Filibus", "name": "La Grappe", "public_transport": "platform"}}, {"type": "node", "id": 4691526092, "lat": 48.4394599, "lon": 1.502485, "tags": {"highway": "bus_stop", "local_ref": "Filibus", "name": "La Grappe", "public_transport": "platform"}}, {"type": "node", "id": 4691528418, "lat": 48.4294583, "lon": 1.5050522, "tags": {"highway": "bus_stop", "local_ref": "Filibus", "name": "Les Chaises", "public_transport": "platform"}}, {"type": "node", "id": 4691528419, "lat": 48.4308642, "lon": 1.5047258, "tags": {"highway": "bus_stop", "local_ref": "Filibus", "name": "Camille Marcille", "public_transport": "platform"}}, {"type": "node", "id": 4691528420, "lat": 48.4297555, "lon": 1.505087, "tags": {"highway": "bus_stop", "local_ref": "Filibus", "name": "Les Chaises", "public_transport": "platform"}}, {"type": "node", "id": 4691528423, "lat": 48.4308839, "lon": 1.5049583, "tags": {"highway": "bus_stop", "local_ref": "Filibus", "name": "Camille Marcille", "public_transport": "platform"}}, {"type": "node", "id": 4691528442, "lat": 48.4274632, "lon": 1.5062216, "tags": {"highway": "bus_stop", "local_ref": "Filibus", "name": "Arsenal", "public_transport": "platform"}}, {"type": "node", "id": 4691528443, "lat": 48.4271998, "lon": 1.5065998, "tags": {"highway": "bus_stop", "local_ref": "Filibus", "name": "Arsenal", "public_transport": "platform"}}, {"type": "node", "id": 4691532263, "lat": 48.4246065, "lon": 1.5098238, "tags": {"highway": "bus_stop", "local_ref": "Filibus", "name": "Claude Bernard", "public_transport": "platform"}}, {"type": "node", "id": 4691532264, "lat": 48.4252081, "lon": 1.5051568, "tags": {"highway": "bus_stop", "local_ref": "Filibus", "name": "G. Loire", "public_transport": "platform"}}, {"type": "node", "id": 4691532265, "lat": 48.4262119, "lon": 1.5109182, "tags": {"highway": "bus_stop", "local_ref": "Filibus", "name": "Grand S\u00e9minaire", "public_transport": "platform"}}, {"type": "node", "id": 4691893085, "lat": 48.4270535, "lon": 1.4894053, "tags": {"highway": "bus_stop", "local_ref": "Filibus", "name": "Le Parc", "public_transport": "platform"}}, {"type": "node", "id": 4691893086, "lat": 48.4296555, "lon": 1.4905077, "tags": {"highway": "bus_stop", "local_ref": "Filibus", "name": "Le Gord", "public_transport": "platform"}}, {"type": "node", "id": 4691893087, "lat": 48.4296164, "lon": 1.4906471, "tags": {"highway": "bus_stop", "local_ref": "Filibus", "name": "Le Gord", "public_transport": "platform"}}, {"type": "node", "id": 4691893088, "lat": 48.4271015, "lon": 1.4892712, "tags": {"highway": "bus_stop", "local_ref": "Filibus", "name": "Le Parc", "public_transport": "platform"}}, {"type": "node", "id": 4691903817, "lat": 48.4212687, "lon": 1.4887401, "tags": {"highway": "bus_stop", "local_ref": "Filibus", "name": "Gaudini\u00e8res", "public_transport": "platform"}}, {"type": "node", "id": 4691903818, "lat": 48.4212348, "lon": 1.4889091, "tags": {"highway": "bus_stop", "local_ref": "Filibus", "name": "Gaudini\u00e8res", "public_transport": "platform"}}, {"type": "node", "id": 4691903819, "lat": 48.4183144, "lon": 1.4891169, "tags": {"highway": "bus_stop", "local_ref": "Filibus", "name": "S\u00e9minaire des Barbel\u00e9s", "public_transport": "platform"}}, {"type": "node", "id": 4691903820, "lat": 48.4169857, "lon": 1.4890378, "tags": {"highway": "bus_stop", "local_ref": "Filibus", "name": "S\u00e9minaire des Barbel\u00e9s", "public_transport": "platform"}}, {"type": "node", "id": 4691910326, "lat": 48.4118905, "lon": 1.4895072, "tags": {"highway": "bus_stop", "local_ref": "Filibus", "name": "Gourdez", "public_transport": "platform"}}, {"type": "node", "id": 4691915930, "lat": 48.4060434, "lon": 1.4945471, "tags": {"highway": "bus_stop", "local_ref": "Filibus", "name": "Chavannes", "public_transport": "platform"}}, {"type": "node", "id": 4691915931, "lat": 48.4062963, "lon": 1.4916771, "tags": {"highway": "bus_stop", "local_ref": "Filibus", "name": "Vauf\u00e9ry", "public_transport": "platform"}}, {"type": "node", "id": 4691915932, "lat": 48.4090863, "lon": 1.4898077, "tags": {"highway": "bus_stop", "local_ref": "Filibus", "name": "Graviers", "public_transport": "platform"}}, {"type": "node", "id": 4691915933, "lat": 48.4062856, "lon": 1.4949655, "tags": {"highway": "bus_stop", "local_ref": "Filibus", "name": "Chavannes", "public_transport": "platform"}}, {"type": "node", "id": 4691915934, "lat": 48.4091095, "lon": 1.4896359, "tags": {"highway": "bus_stop", "local_ref": "Filibus", "name": "Graviers", "public_transport": "platform"}}, {"type": "node", "id": 4691915935, "lat": 48.4064708, "lon": 1.4909154, "tags": {"highway": "bus_stop", "local_ref": "Filibus", "name": "Vauf\u00e9ry", "public_transport": "platform"}}, {"type": "node", "id": 4691916665, "lat": 48.4062696, "lon": 1.4982941, "tags": {"highway": "bus_stop", "local_ref": "Filibus", "name": "Marini\u00e8res", "public_transport": "platform"}}, {"type": "node", "id": 4691916666, "lat": 48.4063426, "lon": 1.4982593, "tags": {"highway": "bus_stop", "local_ref": "Filibus", "name": "Marini\u00e8res", "public_transport": "platform"}}, {"type": "node", "id": 4691921383, "lat": 48.4032603, "lon": 1.4975485, "tags": {"highway": "bus_stop", "local_ref": "Filibus", "name": "Artisans", "public_transport": "platform"}}, {"type": "node", "id": 4691921384, "lat": 48.4011662, "lon": 1.4925756, "tags": {"highway": "bus_stop", "local_ref": "Filibus", "name": "Arsenal", "public_transport": "platform"}}, {"type": "node", "id": 4691921385, "lat": 48.4031944, "lon": 1.4976477, "tags": {"highway": "bus_stop", "local_ref": "Filibus", "name": "Artisans", "public_transport": "platform"}}, {"type": "node", "id": 4691921386, "lat": 48.4031232, "lon": 1.4949038, "tags": {"highway": "bus_stop", "local_ref": "Filibus", "name": "Garenne Centre", "public_transport": "platform"}}, {"type": "node", "id": 4691921387, "lat": 48.4014546, "lon": 1.4926643, "tags": {"highway": "bus_stop", "local_ref": "Filibus", "name": "Arsenal", "public_transport": "platform"}}, {"type": "node", "id": 4691921388, "lat": 48.3954337, "lon": 1.4934259, "tags": {"highway": "bus_stop", "local_ref": "Filibus", "name": "\u00c9glise", "public_transport": "platform"}}, {"type": "node", "id": 4691924989, "lat": 48.4031143, "lon": 1.4946383, "tags": {"highway": "bus_stop", "local_ref": "Filibus", "name": "Garenne Centre", "public_transport": "platform"}}, {"type": "node", "id": 4691931906, "lat": 48.4407179, "lon": 1.4759105, "tags": {"bench": "no", "bin": "no", "bus": "yes", "highway": "bus_stop", "lit": "yes", "local_ref": "Filibus", "name": "Mar\u00e9chal Leclerc", "public_transport": "platform", "shelter": "yes", "tactile_paving": "yes"}}, {"type": "node", "id": 4691931907, "lat": 48.4409699, "lon": 1.4763644, "tags": {"highway": "bus_stop", "local_ref": "Filibus", "mapillary": "293659872370390", "name": "Mar\u00e9chal Leclerc", "pole": "yes", "public_transport": "platform", "shelter": "no", "survey:date": "2017-05-26"}}, {"type": "node", "id": 4691940195, "lat": 48.4371549, "lon": 1.4718878, "tags": {"highway": "bus_stop", "local_ref": "Filibus", "mapillary": "476590156789194", "name": "Jean Moulin", "public_transport": "platform", "shelter": "yes", "survey:date": "2017-05-26"}}, {"type": "node", "id": 4691940196, "lat": 48.4387048, "lon": 1.4735695, "tags": {"highway": "bus_stop", "local_ref": "Filibus", "mapillary": "308228637333249", "name": "Mithouard", "public_transport": "platform", "shelter": "yes", "survey:date": "2017-05-26"}}, {"type": "node", "id": 4691940197, "lat": 48.4372741, "lon": 1.4722445, "tags": {"highway": "bus_stop", "local_ref": "Filibus", "mapillary": "300983858134634", "name": "Jean Moulin", "public_transport": "platform", "shelter": "yes", "survey:date": "2017-05-26"}}, {"type": "node", "id": 4691940198, "lat": 48.4384663, "lon": 1.4734435, "tags": {"highway": "bus_stop", "local_ref": "Filibus", "mapillary": "115219797282258", "name": "Mithouard", "public_transport": "platform", "shelter": "yes", "survey:date": "2017-05-26"}}, {"type": "node", "id": 4691940199, "lat": 48.4352828, "lon": 1.464509, "tags": {"highway": "bus_stop", "local_ref": "Filibus", "mapillary": "938793523583145", "name": "Vieux Puits", "public_transport": "platform", "shelter": "yes", "survey:date": "2017-05-26"}}, {"type": "node", "id": 4691940200, "lat": 48.4354358, "lon": 1.464155, "tags": {"highway": "bus_stop", "local_ref": "Filibus", "name": "Vieux Puits", "public_transport": "platform"}}, {"type": "node", "id": 4691940201, "lat": 48.4348575, "lon": 1.4695811, "tags": {"highway": "bus_stop", "local_ref": "Filibus", "mapillary": "188546696418920", "name": "Paradis", "public_transport": "platform", "shelter": "yes", "survey:date": "2017-05-26"}}, {"type": "node", "id": 4691940202, "lat": 48.4347756, "lon": 1.4683794, "tags": {"highway": "bus_stop", "local_ref": "Filibus", "name": "Paradis", "public_transport": "platform"}}, {"type": "node", "id": 4691946328, "lat": 48.4347738, "lon": 1.4561808, "tags": {"bench": "yes", "highway": "bus_stop", "line": "6", "local_ref": "Filibus", "mapillary": "549203459402694", "name": "De Lattre de Tassigny", "network": "Filibus", "operator": "Filibus", "public_transport": "platform", "shelter": "yes", "survey:date": "2017-05-26"}}, {"type": "node", "id": 4691946329, "lat": 48.4350176, "lon": 1.455993, "tags": {"bench": "no", "highway": "bus_stop", "line": "6", "local_ref": "Filibus", "mapillary": "835306380430423", "name": "De Lattre de Tassigny", "network": "Filibus", "operator": "Filibus", "pole": "yes", "public_transport": "platform", "shelter": "no", "survey:date": "2017-05-26"}}, {"type": "node", "id": 4691948521, "lat": 48.4358523, "lon": 1.4538553, "tags": {"bench": "yes", "highway": "bus_stop", "line": "6", "local_ref": "Filibus", "mapillary": "120999720012443", "name": "Flandres", "network": "Filibus", "operator": "Filibus", "public_transport": "platform", "shelter": "yes", "survey:date": "2017-05-26"}}, {"type": "node", "id": 4691948522, "lat": 48.435596, "lon": 1.4542388, "tags": {"bench": "yes", "highway": "bus_stop", "line": "6", "local_ref": "Filibus", "mapillary": "3814407778688806", "name": "Flandres", "network": "Filibus", "operator": "Filibus", "public_transport": "platform", "shelter": "yes", "survey:date": "2017-05-26"}}, {"type": "node", "id": 4691952746, "lat": 48.4340674, "lon": 1.4497488, "tags": {"highway": "bus_stop", "local_ref": "Filibus", "mapillary": "145238804175857", "name": "Normandie", "pole": "yes", "public_transport": "platform", "shelter": "no", "survey:date": "2017-05-26"}}, {"type": "node", "id": 4691952747, "lat": 48.4352846, "lon": 1.4479356, "tags": {"highway": "bus_stop", "local_ref": "Filibus", "mapillary": "4222071117811341", "name": "Les Arcades", "public_transport": "platform", "shelter": "yes", "survey:date": "2017-05-26"}}, {"type": "node", "id": 4691952748, "lat": 48.4337826, "lon": 1.4456021, "tags": {"highway": "bus_stop", "local_ref": "Filibus", "name": "Alsace", "public_transport": "platform"}}, {"type": "node", "id": 4691952749, "lat": 48.4359661, "lon": 1.4512991, "tags": {"bench": "yes", "highway": "bus_stop", "line": "6", "local_ref": "Filibus", "mapillary": "801317287456280", "name": "Bretagne", "operator": "Filibus", "public_transport": "platform", "shelter": "yes", "survey:date": "2017-05-26"}}, {"type": "node", "id": 4691952750, "lat": 48.435838, "lon": 1.4509907, "tags": {"bench": "no", "highway": "bus_stop", "line": "6", "local_ref": "Filibus", "mapillary": "736547257042463", "name": "Bretagne", "operator": "Filibus", "pole": "yes", "public_transport": "platform", "shelter": "no", "survey:date": "2017-05-26"}}, {"type": "node", "id": 4691971738, "lat": 48.4521824, "lon": 1.4748347, "tags": {"bench": "no", "bin": "no", "bus": "yes", "highway": "bus_stop", "lit": "no", "local_ref": "Filibus", "name": "Jean Moulin", "public_transport": "platform", "shelter": "no", "tactile_paving": "no"}}, {"type": "node", "id": 4691975948, "lat": 48.4532869, "lon": 1.4789527, "tags": {"bench": "yes", "highway": "bus_stop", "local_ref": "Filibus", "name": "Paix", "public_transport": "platform", "shelter": "no", "tactile_paving": "no"}}, {"type": "node", "id": 4691975949, "lat": 48.4528386, "lon": 1.4726629, "tags": {"bench": "no", "bin": "no", "highway": "bus_stop", "lit": "no", "local_ref": "Filibus", "name": "Gambetta", "public_transport": "platform", "shelter": "no", "tactile_paving": "no"}}, {"type": "node", "id": 4691975950, "lat": 48.4534773, "lon": 1.4738324, "tags": {"highway": "bus_stop", "local_ref": "Filibus", "name": "Verdun", "public_transport": "platform"}}, {"type": "node", "id": 4691990359, "lat": 48.4518602, "lon": 1.4861008, "tags": {"bench": "no", "bin": "no", "highway": "bus_stop", "lit": "no", "local_ref": "Filibus", "name": "Alsace-Lorraine", "network": "Filibus", "operator": "Filibus", "public_transport": "platform", "shelter": "no", "tactile_paving": "no"}}, {"type": "node", "id": 4691992678, "lat": 48.4597986, "lon": 1.4759502, "tags": {"bench": "no", "bin": "no", "bus": "yes", "highway": "bus_stop", "local_ref": "Filibus", "name": "Chesne", "network": "Filibus", "public_transport": "platform", "shelter": "no", "tactile_paving": "no"}}, {"type": "node", "id": 4691992679, "lat": 48.4598185, "lon": 1.4758494, "tags": {"bench": "no", "bin": "no", "bus": "yes", "highway": "bus_stop", "local_ref": "Filibus", "name": "Chesne", "network": "Filibus", "public_transport": "platform", "shelter": "no", "tactile_paving": "no"}}, {"type": "node", "id": 4691997547, "lat": 48.4664563, "lon": 1.4730787, "tags": {"highway": "bus_stop", "local_ref": "Filibus", "name": "Louise Michel", "public_transport": "platform"}}, {"type": "node", "id": 4691997548, "lat": 48.4691578, "lon": 1.4707452, "tags": {"highway": "bus_stop", "local_ref": "Filibus", "name": "Victor Schoelcher", "public_transport": "platform"}}, {"type": "node", "id": 4691997549, "lat": 48.464066, "lon": 1.4738994, "tags": {"highway": "bus_stop", "local_ref": "Filibus", "name": "Simone de Beauvoir", "public_transport": "platform"}}, {"type": "node", "id": 4691997550, "lat": 48.4693712, "lon": 1.4707586, "tags": {"highway": "bus_stop", "local_ref": "Filibus", "name": "Victor Schoelcher", "public_transport": "platform"}}, {"type": "node", "id": 4691997551, "lat": 48.4662767, "lon": 1.4732181, "tags": {"highway": "bus_stop", "local_ref": "Filibus", "name": "Louise Michel", "public_transport": "platform"}}, {"type": "node", "id": 4691997552, "lat": 48.4638615, "lon": 1.4743152, "tags": {"highway": "bus_stop", "local_ref": "Filibus", "name": "Simone de Beauvoir", "public_transport": "platform"}}, {"type": "node", "id": 4691998273, "lat": 48.4715051, "lon": 1.4689829, "tags": {"bench": "yes", "highway": "bus_stop", "local_ref": "Filibus", "name": "Soutine", "public_transport": "platform", "shelter": "yes"}}, {"type": "node", "id": 4691998274, "lat": 48.4758475, "lon": 1.4659225, "tags": {"highway": "bus_stop", "local_ref": "Filibus", "name": "Hauts de Fresnay", "public_transport": "platform"}}, {"type": "node", "id": 4691998275, "lat": 48.4722325, "lon": 1.4667272, "tags": {"highway": "bus_stop", "local_ref": "Filibus", "name": "Bleuets", "public_transport": "platform"}}, {"type": "node", "id": 4691998276, "lat": 48.4737493, "lon": 1.4655846, "tags": {"highway": "bus_stop", "local_ref": "Filibus", "name": "Iris", "public_transport": "platform"}}, {"type": "node", "id": 4691998277, "lat": 48.4752732, "lon": 1.4685565, "tags": {"highway": "bus_stop", "local_ref": "Filibus", "name": "Chavannes", "public_transport": "platform"}}, {"type": "node", "id": 4691998691, "lat": 48.4714838, "lon": 1.4738753, "tags": {"bench": "yes", "bin": "yes", "highway": "bus_stop", "lit": "yes", "local_ref": "Filibus", "name": "G\u00e9rard Philipe", "public_transport": "platform", "shelter": "yes", "tactile_paving": "no"}}, {"type": "node", "id": 4691998692, "lat": 48.4729544, "lon": 1.4739638, "tags": {"bench": "yes", "bin": "yes", "check_date:shelter": "2023-11-19", "highway": "bus_stop", "lit": "no", "local_ref": "Filibus", "name": "Jumentier", "public_transport": "platform", "shelter": "yes", "tactile_paving": "no"}}, {"type": "node", "id": 4691998693, "lat": 48.4712193, "lon": 1.4790557, "tags": {"bench": "no", "bin": "no", "highway": "bus_stop", "local_ref": "Filibus", "name": "Allart", "public_transport": "platform", "shelter": "no"}}, {"type": "node", "id": 4691998694, "lat": 48.4715763, "lon": 1.4777484, "tags": {"bench": "yes", "bin": "yes", "bus": "yes", "highway": "bus_stop", "lit": "no", "local_ref": "Filibus", "name": "Bois Lion", "public_transport": "platform", "shelter": "yes", "tactile_paving": "no"}}, {"type": "node", "id": 4692023496, "lat": 48.451314, "lon": 1.4660432, "tags": {"bench": "no", "bin": "no", "highway": "bus_stop", "local_ref": "Filibus", "name": "Acacias", "public_transport": "platform", "shelter": "no", "tactile_paving": "no"}}, {"type": "node", "id": 4692023497, "lat": 48.4513817, "lon": 1.4658661, "tags": {"bench": "no", "bin": "no", "highway": "bus_stop", "local_ref": "Filibus", "name": "Acacias", "public_transport": "platform", "shelter": "no", "tactile_paving": "no"}}, {"type": "node", "id": 4692023498, "lat": 48.4320635, "lon": 1.4523988, "tags": {"highway": "bus_stop", "local_ref": "Filibus", "mapillary": "366231368104382", "name": "Dunkerque", "public_transport": "platform", "shelter": "yes", "survey:date": "2017-05-26"}}, {"type": "node", "id": 4692023499, "lat": 48.4319514, "lon": 1.4525008, "tags": {"highway": "bus_stop", "local_ref": "Filibus", "mapillary": "877592716157880", "name": "Dunkerque", "pole": "yes", "public_transport": "platform", "shelter": "no", "survey:date": "2017-05-26"}}, {"type": "node", "id": 4692030690, "lat": 48.4296217, "lon": 1.4591231, "tags": {"highway": "bus_stop", "local_ref": "Filibus", "mapillary": "502779584238349", "network": "Filibus", "public_transport": "platform", "shelter": "yes", "survey:date": "2017-05-26"}}, {"type": "node", "id": 4692030691, "lat": 48.4320617, "lon": 1.4572, "tags": {"highway": "bus_stop", "local_ref": "Filibus", "mapillary": "3036775516551284", "name": "Beauce", "pole": "yes", "public_transport": "platform", "shelter": "no", "survey:date": "2017-05-26"}}, {"type": "node", "id": 4692030692, "lat": 48.431494, "lon": 1.457538, "tags": {"highway": "bus_stop", "local_ref": "Filibus", "mapillary": "835746797299406", "name": "Beauce", "public_transport": "platform", "shelter": "yes", "survey:date": "2017-05-26"}}, {"type": "node", "id": 4692030693, "lat": 48.4321507, "lon": 1.4553546, "tags": {"highway": "bus_stop", "local_ref": "Filibus", "mapillary": "2888664854708660", "name": "Perche", "pole": "yes", "public_transport": "platform", "shelter": "no", "survey:date": "2017-05-26"}}, {"type": "node", "id": 4692030694, "lat": 48.4295701, "lon": 1.4593511, "tags": {"highway": "bus_stop", "local_ref": "Filibus", "mapillary": "150060670400399", "network": "Filibus", "public_transport": "platform", "shelter": "yes", "survey:date": "2017-05-26"}}, {"type": "node", "id": 4692037427, "lat": 48.4276177, "lon": 1.4622694, "tags": {"highway": "bus_stop", "local_ref": "Filibus", "name": "Vausevin", "public_transport": "platform"}}, {"type": "node", "id": 4692037428, "lat": 48.4278615, "lon": 1.4619073, "tags": {"highway": "bus_stop", "local_ref": "Filibus", "mapillary": "149974603751259", "name": "Vausevin", "pole": "yes", "public_transport": "platform", "shelter": "no", "survey:date": "2017-05-26"}}, {"type": "node", "id": 4692323094, "lat": 48.4249538, "lon": 1.471079, "tags": {"highway": "bus_stop", "local_ref": "Filibus", "name": "Fraternit\u00e9", "public_transport": "platform"}}, {"type": "node", "id": 4692323095, "lat": 48.4247706, "lon": 1.4707544, "tags": {"highway": "bus_stop", "local_ref": "Filibus", "name": "Fraternit\u00e9", "public_transport": "platform"}}, {"type": "node", "id": 4692344137, "lat": 48.4152287, "lon": 1.4738373, "tags": {"bus": "yes", "highway": "bus_stop", "local_ref": "Filibus", "name": "Pierres Missigault", "public_transport": "platform"}}, {"type": "node", "id": 4692344138, "lat": 48.4151369, "lon": 1.4738473, "tags": {"bus": "yes", "highway": "bus_stop", "local_ref": "Filibus", "name": "Pierres Missigault", "public_transport": "platform"}}, {"type": "node", "id": 4692344139, "lat": 48.4197494, "lon": 1.4672102, "tags": {"highway": "bus_stop", "local_ref": "Filibus", "name": "La Cav\u00e9e", "public_transport": "platform"}}, {"type": "node", "id": 4692344140, "lat": 48.4130506, "lon": 1.464341, "tags": {"bus": "yes", "highway": "bus_stop", "local_ref": "Filibus", "name": "Parc Commercial", "public_transport": "platform"}}, {"type": "node", "id": 4692344141, "lat": 48.4147349, "lon": 1.4681554, "tags": {"bus": "yes", "highway": "bus_stop", "local_ref": "Filibus", "name": "Les Orvilles", "public_transport": "platform"}}, {"type": "node", "id": 4692344142, "lat": 48.4197107, "lon": 1.4668895, "tags": {"highway": "bus_stop", "local_ref": "Filibus", "name": "La Cav\u00e9e", "public_transport": "platform", "shelter": "yes"}}, {"type": "node", "id": 4692344143, "lat": 48.4148026, "lon": 1.4680266, "tags": {"bus": "yes", "highway": "bus_stop", "local_ref": "Filibus", "name": "Les Orvilles", "public_transport": "platform"}}, {"type": "node", "id": 4692344144, "lat": 48.4129555, "lon": 1.4635794, "tags": {"bus": "yes", "highway": "bus_stop", "local_ref": "Filibus", "name": "Parc Commercial", "public_transport": "platform"}}, {"type": "node", "id": 4692355689, "lat": 48.4218184, "lon": 1.4492705, "tags": {"bus": "yes", "departures_board": "no", "highway": "bus_stop", "local_ref": "Filibus", "name": "Euroval", "public_transport": "platform", "shelter": "no"}}, {"type": "node", "id": 4692398185, "lat": 48.4477598, "lon": 1.537788, "tags": {"highway": "bus_stop", "local_ref": "Filibus", "name": "Jardin d'Entreprises 2", "public_transport": "platform"}}, {"type": "node", "id": 4692398186, "lat": 48.4478167, "lon": 1.5380079, "tags": {"highway": "bus_stop", "local_ref": "Filibus", "name": "Jardin d'Entreprises 2", "public_transport": "platform"}}, {"type": "node", "id": 4692411745, "lat": 48.4524209, "lon": 1.5431202, "tags": {"highway": "bus_stop", "local_ref": "Filibus", "name": "Nicolas Cont\u00e9", "public_transport": "platform"}}, {"type": "node", "id": 4692411746, "lat": 48.4519405, "lon": 1.5400974, "tags": {"highway": "bus_stop", "local_ref": "Filibus", "name": "Blaise Pascal", "public_transport": "platform"}}, {"type": "node", "id": 4692411747, "lat": 48.4510777, "lon": 1.539231, "tags": {"highway": "bus_stop", "local_ref": "Filibus", "name": "Fourier", "public_transport": "platform"}}, {"type": "node", "id": 4692411748, "lat": 48.4526752, "lon": 1.5427715, "tags": {"highway": "bus_stop", "local_ref": "Filibus", "name": "Nicolas Cont\u00e9", "public_transport": "platform"}}, {"type": "node", "id": 4692416252, "lat": 48.4461995, "lon": 1.5257502, "tags": {"highway": "bus_stop", "local_ref": "Filibus", "name": "Mare aux Moines", "note": "emplacement \u00e0 confirmer", "public_transport": "platform"}}, {"type": "node", "id": 4692416253, "lat": 48.4462351, "lon": 1.5255893, "tags": {"highway": "bus_stop", "local_ref": "Filibus", "name": "Mare aux Moines", "note": "emplacement \u00e0 confirmer", "public_transport": "platform"}}, {"type": "node", "id": 4692425030, "lat": 48.4467421, "lon": 1.5365086, "tags": {"highway": "bus_stop", "local_ref": "Filibus", "name": "Eiffel", "public_transport": "platform"}}, {"type": "node", "id": 4692425031, "lat": 48.4470517, "lon": 1.5452257, "tags": {"highway": "bus_stop", "local_ref": "Filibus", "name": "Centre \u00c9questre", "public_transport": "platform"}}, {"type": "node", "id": 4692425032, "lat": 48.4466585, "lon": 1.5367929, "tags": {"highway": "bus_stop", "local_ref": "Filibus", "name": "Eiffel", "public_transport": "platform"}}, {"type": "node", "id": 4692425033, "lat": 48.4471869, "lon": 1.5452257, "tags": {"highway": "bus_stop", "local_ref": "Filibus", "name": "Centre \u00c9questre", "public_transport": "platform"}}, {"type": "node", "id": 4693436589, "lat": 48.4283808, "lon": 1.5141398, "tags": {"highway": "bus_stop", "local_ref": "Filibus", "name": "Orl\u00e9ans", "public_transport": "platform"}}, {"type": "node", "id": 4693436590, "lat": 48.4284663, "lon": 1.513673, "tags": {"highway": "bus_stop", "local_ref": "Filibus", "mapillary": "507031473667432", "name": "Orl\u00e9ans", "pole": "yes", "public_transport": "platform", "shelter": "no", "survey:date": "2018-05-02"}}, {"type": "node", "id": 4693438708, "lat": 48.4164869, "lon": 1.5369573, "tags": {"highway": "bus_stop", "local_ref": "Filibus", "name": "Le Grand Marchais", "note": "emplacement \u00e0 confirmer", "public_transport": "platform"}}, {"type": "node", "id": 4693438709, "lat": 48.4175461, "lon": 1.5350288, "tags": {"highway": "bus_stop", "local_ref": "Filibus", "name": "Biblioth\u00e8que", "public_transport": "platform"}}, {"type": "node", "id": 4693443557, "lat": 48.4158887, "lon": 1.5335268, "tags": {"highway": "bus_stop", "local_ref": "Filibus", "mapillary": "883082219213036", "name": "Mairie", "public_transport": "platform", "shelter": "yes", "survey:date": "2017-05-25"}}, {"type": "node", "id": 4693454330, "lat": 48.4264622, "lon": 1.521033, "tags": {"highway": "bus_stop", "local_ref": "Filibus", "name": "Cugnot", "public_transport": "platform"}}, {"type": "node", "id": 4693454331, "lat": 48.4297263, "lon": 1.5256223, "tags": {"highway": "bus_stop", "local_ref": "Filibus", "name": "Louis Lumi\u00e8re", "public_transport": "platform"}}, {"type": "node", "id": 4693454332, "lat": 48.4298047, "lon": 1.5255016, "tags": {"highway": "bus_stop", "local_ref": "Filibus", "name": "Louis Lumi\u00e8re", "public_transport": "platform"}}, {"type": "node", "id": 4693454333, "lat": 48.4263269, "lon": 1.5206146, "tags": {"highway": "bus_stop", "local_ref": "Filibus", "name": "Cugnot", "public_transport": "platform"}}, {"type": "node", "id": 4693457175, "lat": 48.4341505, "lon": 1.5290206, "tags": {"highway": "bus_stop", "local_ref": "Filibus", "name": "Pasteur", "public_transport": "platform"}}, {"type": "node", "id": 4693457176, "lat": 48.4342236, "lon": 1.528908, "tags": {"highway": "bus_stop", "local_ref": "Filibus", "name": "Pasteur", "public_transport": "platform"}}, {"type": "node", "id": 4693457177, "lat": 48.4322037, "lon": 1.5275615, "tags": {"highway": "bus_stop", "local_ref": "Filibus", "name": "Bl\u00e9riot", "public_transport": "platform"}}, {"type": "node", "id": 4693457178, "lat": 48.4316911, "lon": 1.5270036, "tags": {"highway": "bus_stop", "local_ref": "Filibus", "name": "Bl\u00e9riot", "public_transport": "platform"}}, {"type": "node", "id": 4693474762, "lat": 48.4401937, "lon": 1.5393767, "tags": {"bus": "yes", "highway": "bus_stop", "local_ref": "Filibus", "name": "R\u00e9aumur", "public_transport": "platform"}}, {"type": "node", "id": 4693474763, "lat": 48.4381972, "lon": 1.5315527, "tags": {"highway": "bus_stop", "local_ref": "Filibus", "name": "Jardins d'Entreprises 1", "public_transport": "platform"}}, {"type": "node", "id": 4693474764, "lat": 48.4411599, "lon": 1.5336528, "tags": {"highway": "bus_stop", "local_ref": "Filibus", "name": "Becquerel", "public_transport": "platform"}}, {"type": "node", "id": 4693474765, "lat": 48.4380745, "lon": 1.5312791, "tags": {"highway": "bus_stop", "local_ref": "Filibus", "name": "Jardins d'Entreprises 1", "public_transport": "platform"}}, {"type": "node", "id": 4693474766, "lat": 48.4413859, "lon": 1.5340686, "tags": {"highway": "bus_stop", "local_ref": "Filibus", "name": "Becquerel", "public_transport": "platform"}}, {"type": "node", "id": 4693474767, "lat": 48.4443253, "lon": 1.5368996, "tags": {"bus": "yes", "highway": "bus_stop", "local_ref": "Filibus", "name": "Guerlain", "public_transport": "platform"}}, {"type": "node", "id": 5069679875, "lat": 48.1783181, "lon": 1.3778438, "tags": {"bench": "yes", "bin": "yes", "bus": "yes", "highway": "bus_stop", "public_transport": "platform", "shelter": "yes"}}, {"type": "node", "id": 5303046032, "lat": 48.4817041, "lon": 1.5249579, "tags": {"bus": "yes", "highway": "bus_stop", "public_transport": "platform"}}, {"type": "node", "id": 5305187440, "lat": 48.4711381, "lon": 1.5383817, "tags": {"highway": "bus_stop", "public_transport": "platform"}}, {"type": "node", "id": 5876421033, "lat": 48.4465517, "lon": 1.4829908, "tags": {"highway": "bus_stop", "name": "Charles Brune"}}, {"type": "node", "id": 6248784086, "lat": 48.3775722, "lon": 1.4880365, "tags": {"highway": "bus_stop", "name": "Arret de Bus - Houdouenne", "name:en": "Bus Stop - Houdouenne"}}, {"type": "node", "id": 6696510211, "lat": 48.2778566, "lon": 1.6182682, "tags": {"bench": "yes", "highway": "bus_stop", "shelter": "yes"}}, {"type": "node", "id": 6761814533, "lat": 48.4247961, "lon": 1.5098107, "tags": {"highway": "bus_stop", "local_ref": "Filibus", "name": "Claude Bernard", "public_transport": "platform"}}, {"type": "node", "id": 6761814534, "lat": 48.4260604, "lon": 1.5108836, "tags": {"highway": "bus_stop", "local_ref": "Filibus", "name": "Grand S\u00e9minaire", "public_transport": "platform"}}, {"type": "node", "id": 6761814535, "lat": 48.4252121, "lon": 1.5052867, "tags": {"highway": "bus_stop", "local_ref": "Filibus", "name": "G. Loire", "public_transport": "platform"}}, {"type": "node", "id": 6761814536, "lat": 48.4391809, "lon": 1.5159639, "tags": {"highway": "bus_stop", "local_ref": "Filibus", "name": "Angerville", "public_transport": "platform"}}, {"type": "node", "id": 6761814537, "lat": 48.4370057, "lon": 1.5156496, "tags": {"highway": "bus_stop", "local_ref": "Filibus", "name": "Charles Coulomb", "public_transport": "platform"}}, {"type": "node", "id": 6761814538, "lat": 48.4335466, "lon": 1.5123416, "tags": {"highway": "bus_stop", "local_ref": "Filibus", "name": "Edmond Poillot", "public_transport": "platform"}}, {"type": "node", "id": 6761814539, "lat": 48.4288317, "lon": 1.5122945, "tags": {"highway": "bus_stop", "local_ref": "Filibus", "name": "Le Forum", "shelter": "yes", "survey:date": "2018-05-02", "wheelchair": "yes"}}, {"type": "node", "id": 6761814540, "lat": 48.4279566, "lon": 1.4464267, "tags": {"highway": "bus_stop", "local_ref": "Filibus", "name": "La Taye", "public_transport": "platform"}}, {"type": "node", "id": 6761814541, "lat": 48.42564, "lon": 1.4468503, "tags": {"highway": "bus_stop", "local_ref": "Filibus", "name": "Fontenay", "public_transport": "platform"}}, {"type": "node", "id": 6761814542, "lat": 48.4242146, "lon": 1.452991, "tags": {"bench": "no", "highway": "bus_stop", "local_ref": "Filibus", "name": "Tourneballets", "pole": "yes", "public_transport": "platform", "shelter": "no", "survey:date": "2019-09-22"}}, {"type": "node", "id": 6761814543, "lat": 48.422757, "lon": 1.4978038, "tags": {"highway": "bus_stop", "local_ref": "Filibus", "name": "Village", "public_transport": "platform"}}, {"type": "node", "id": 6761953917, "lat": 48.438435, "lon": 1.4548741, "tags": {"bench": "yes", "highway": "bus_stop", "local_ref": "Filibus", "name": "Foreau", "network": "Filibus", "public_transport": "platform", "shelter": "yes"}}, {"type": "node", "id": 6761953918, "lat": 48.4384673, "lon": 1.4559125, "tags": {"bench": "yes", "highway": "bus_stop", "local_ref": "Filibus", "name": "Foreau", "network": "Filibus", "public_transport": "platform", "shelter": "yes"}}, {"type": "node", "id": 6761953919, "lat": 48.4380178, "lon": 1.4517722, "tags": {"bench": "yes", "highway": "bus_stop", "local_ref": "Filibus", "name": "Europe", "network": "Filibus", "public_transport": "platform", "shelter": "yes"}}, {"type": "node", "id": 6761953920, "lat": 48.4378459, "lon": 1.451707, "tags": {"bench": "yes", "highway": "bus_stop", "local_ref": "Filibus", "name": "Europe", "network": "Filibus", "public_transport": "platform", "shelter": "yes"}}, {"type": "node", "id": 6790230036, "lat": 48.2750068, "lon": 1.6224669, "tags": {"highway": "bus_stop", "public_transport": "platform"}}, {"type": "node", "id": 6790230037, "lat": 48.274953, "lon": 1.6221269}, {"type": "node", "id": 6790230038, "lat": 48.2750801, "lon": 1.6222681}, {"type": "node", "id": 6790230039, "lat": 48.2749867, "lon": 1.6220875}, {"type": "node", "id": 6790230040, "lat": 48.2750692, "lon": 1.6222808}, {"type": "node", "id": 6790244763, "lat": 48.3343253, "lon": 1.2808152, "tags": {"highway": "bus_stop", "public_transport": "platform"}}, {"type": "node", "id": 6790244764, "lat": 48.4509731, "lon": 1.234767, "tags": {"highway": "bus_stop", "public_transport": "platform"}}, {"type": "node", "id": 6790244767, "lat": 48.4479042, "lon": 1.3325509, "tags": {"highway": "bus_stop", "public_transport": "platform", "shelter": "yes"}}, {"type": "node", "id": 6790244768, "lat": 48.4383557, "lon": 1.3893756, "tags": {"bus": "yes", "highway": "bus_stop", "public_transport": "platform"}}, {"type": "node", "id": 6790244769, "lat": 48.4069824, "lon": 1.3731194, "tags": {"highway": "bus_stop", "public_transport": "platform"}}, {"type": "node", "id": 6919869262, "lat": 48.4383618, "lon": 1.4484855, "tags": {"bench": "yes", "highway": "bus_stop", "local_ref": "Filibus", "name": "Bruxelles", "public_transport": "platform", "shelter": "yes"}}, {"type": "node", "id": 7494823525, "lat": 48.4878907, "lon": 1.3939056, "tags": {"highway": "bus_stop"}}, {"type": "node", "id": 7494823533, "lat": 48.4850425, "lon": 1.3950369, "tags": {"highway": "bus_stop"}}, {"type": "node", "id": 7494828737, "lat": 48.4897091, "lon": 1.3964164, "tags": {"highway": "bus_stop"}}, {"type": "node", "id": 7965903451, "lat": 48.458295, "lon": 1.4950472, "tags": {"highway": "bus_stop"}}, {"type": "node", "id": 7967034340, "lat": 48.412505, "lon": 1.4697412, "tags": {"bus": "yes", "highway": "bus_stop", "public_transport": "platform"}}, {"type": "node", "id": 7967034343, "lat": 48.4127648, "lon": 1.4700584, "tags": {"bus": "yes", "highway": "bus_stop", "public_transport": "platform"}}, {"type": "node", "id": 8035753371, "lat": 48.2499183, "lon": 1.2741583, "tags": {"bus": "yes", "highway": "bus_stop", "public_transport": "platform", "shelter": "yes"}}, {"type": "node", "id": 8040087051, "lat": 48.1118185, "lon": 1.3724254, "tags": {"bus": "yes", "highway": "bus_stop", "public_transport": "platform", "shelter": "yes"}}, {"type": "node", "id": 8040156750, "lat": 48.1086819, "lon": 1.3119784, "tags": {"bus": "yes", "highway": "bus_stop", "public_transport": "platform"}}, {"type": "node", "id": 8040338407, "lat": 48.0674761, "lon": 1.2895661, "tags": {"bus": "yes", "highway": "bus_stop", "public_transport": "platform", "shelter": "yes"}}, {"type": "node", "id": 8040338410, "lat": 48.0676497, "lon": 1.2922716, "tags": {"bus": "yes", "highway": "bus_stop", "public_transport": "platform"}}, {"type": "node", "id": 8303862255, "lat": 48.4484362, "lon": 1.480857, "tags": {"ele": "143", "name": "Chartres", "operator": "SNCF", "railway": "station", "train": "yes", "uic_ref": "8739400", "wheelchair": "yes", "wikidata": "Q2087872", "wikipedia": "fr:Gare de Chartres"}}, {"type": "node", "id": 8422420557, "lat": 48.0660485, "lon": 1.4792912}, {"type": "node", "id": 8422420558, "lat": 48.0659689, "lon": 1.4792842}, {"type": "node", "id": 8422420559, "lat": 48.0659643, "lon": 1.4794149}, {"type": "node", "id": 8422420560, "lat": 48.0660423, "lon": 1.4794219}, {"type": "node", "id": 8440979338, "lat": 48.0889075, "lon": 1.3361348, "tags": {"bench": "yes", "bin": "yes", "bus": "yes", "departures_board": "timetable", "highway": "bus_stop", "name": "Les Garennes", "public_transport": "platform", "shelter": "yes", "wheelchair": "no"}}, {"type": "node", "id": 8857301698, "lat": 48.0706666, "lon": 1.3291873, "tags": {"bench": "no", "bus": "yes", "departures_board": "timetable", "highway": "bus_stop", "name": "Place du 18 Octobre", "public_transport": "platform", "shelter": "no", "wheelchair": "no"}}, {"type": "node", "id": 8857301702, "lat": 48.073658, "lon": 1.3374744, "tags": {"bench": "no", "bus": "yes", "departures_board": "timetable", "highway": "bus_stop", "name": "Gare SNCF", "public_transport": "platform", "shelter": "yes", "wheelchair": "no"}}, {"type": "node", "id": 8857301703, "lat": 48.0833572, "lon": 1.3379281, "tags": {"bench": "no", "bus": "yes", "departures_board": "timetable", "highway": "bus_stop", "name": "Rue de Donnemain", "public_transport": "platform", "shelter": "no", "wheelchair": "no"}}, {"type": "node", "id": 8857301706, "lat": 48.0788302, "lon": 1.3153708, "tags": {"bench": "yes", "bus": "yes", "departures_board": "timetable", "highway": "bus_stop", "name": "Dreyfus", "public_transport": "platform", "shelter": "yes", "wheelchair": "no"}}, {"type": "node", "id": 8857301707, "lat": 48.0775775, "lon": 1.3138026, "tags": {"bench": "yes", "bus": "yes", "departures_board": "timetable", "highway": "bus_stop", "name": "Dreyfus", "public_transport": "platform", "shelter": "yes", "wheelchair": "no"}}, {"type": "node", "id": 8857561631, "lat": 48.0804391, "lon": 1.3228905, "tags": {"bench": "no", "bus": "yes", "departures_board": "timetable", "highway": "bus_stop", "name": "Tarragon", "public_transport": "platform", "shelter": "no", "wheelchair": "no"}}, {"type": "node", "id": 8857561632, "lat": 48.0785634, "lon": 1.3219145, "tags": {"bench": "yes", "bus": "yes", "departures_board": "timetable", "highway": "bus_stop", "name": "M\u00e9ret", "public_transport": "platform", "shelter": "yes", "wheelchair": "no"}}, {"type": "node", "id": 8857561638, "lat": 48.0768769, "lon": 1.3197289, "tags": {"bench": "yes", "bin": "no", "bus": "yes", "departures_board": "timetable", "highway": "bus_stop", "lit": "yes", "name": "\u00c9glise St Jean", "public_transport": "platform", "shelter": "yes", "tactile_paving": "no", "wheelchair": "no"}}, {"type": "node", "id": 8857561640, "lat": 48.0745858, "lon": 1.3208275, "tags": {"bench": "yes", "bin": "no", "bus": "yes", "departures_board": "timetable", "highway": "bus_stop", "lit": "yes", "name": "Carrefour St Jean", "public_transport": "platform", "shelter": "yes", "tactile_paving": "yes", "wheelchair": "no"}}, {"type": "node", "id": 8857561645, "lat": 48.0734219, "lon": 1.3219437, "tags": {"bench": "yes", "bin": "no", "bus": "yes", "departures_board": "timetable", "highway": "bus_stop", "lit": "yes", "name": "\u00cele de Chemars", "public_transport": "platform", "shelter": "yes", "tactile_paving": "no", "wheelchair": "no"}}, {"type": "node", "id": 8874737613, "lat": 48.0706126, "lon": 1.3223382, "tags": {"bench": "yes", "bus": "yes", "departures_board": "timetable", "highway": "bus_stop", "name": "Saint-M\u00e9dard", "public_transport": "platform", "shelter": "yes", "wheelchair": "no"}}, {"type": "node", "id": 8874737615, "lat": 48.0684845, "lon": 1.3142853, "tags": {"bench": "no", "bus": "yes", "departures_board": "timetable", "highway": "bus_stop", "name": "Griffon", "public_transport": "platform", "shelter": "no", "wheelchair": "no"}}, {"type": "node", "id": 8874828517, "lat": 48.0672037, "lon": 1.3195332, "tags": {"bench": "yes", "bus": "yes", "departures_board": "timetable", "highway": "bus_stop", "name": "Belv\u00e9d\u00e8re", "public_transport": "platform", "shelter": "yes", "wheelchair": "no"}}, {"type": "node", "id": 8874828519, "lat": 48.0679365, "lon": 1.3246649, "tags": {"bench": "no", "bus": "yes", "departures_board": "timetable", "highway": "bus_stop", "name": "Rue du Val 35", "public_transport": "platform", "shelter": "no", "wheelchair": "no"}}, {"type": "node", "id": 8874828520, "lat": 48.0682263, "lon": 1.3270756, "tags": {"bench": "no", "bus": "yes", "departures_board": "timetable", "highway": "bus_stop", "name": "Rue du Val 13", "public_transport": "platform", "shelter": "no", "wheelchair": "no"}}, {"type": "node", "id": 8874828522, "lat": 48.0679644, "lon": 1.3320699, "tags": {"bench": "yes", "bus": "yes", "departures_board": "timetable", "highway": "bus_stop", "name": "Foyer L\u00e9o Lagrange", "public_transport": "platform", "shelter": "yes", "wheelchair": "no"}}, {"type": "node", "id": 8874828527, "lat": 48.0675247, "lon": 1.3344234, "tags": {"bench": "yes", "bus": "yes", "departures_board": "timetable", "highway": "bus_stop", "name": "Halte Routi\u00e8re Piscine", "public_transport": "platform", "shelter": "yes", "wheelchair": "no"}}, {"type": "node", "id": 8874828529, "lat": 48.0718841, "lon": 1.3372016, "tags": {"bench": "yes", "bin": "no", "bus": "yes", "departures_board": "timetable", "highway": "bus_stop", "name": "Maison M\u00e9dicale", "public_transport": "platform", "shelter": "yes", "wheelchair": "no"}}, {"type": "node", "id": 8874828531, "lat": 48.0707082, "lon": 1.3323542, "tags": {"bench": "no", "bin": "no", "bus": "yes", "fixme": "V\u00e9rifier emplacement", "highway": "bus_stop", "name": "R\u00e9publique", "public_transport": "platform", "shelter": "no"}}, {"type": "node", "id": 8874828546, "lat": 48.0730099, "lon": 1.3534489, "tags": {"bench": "yes", "bus": "yes", "departures_board": "timetable", "highway": "bus_stop", "name": "Commerces Vilsain", "public_transport": "platform", "shelter": "yes", "wheelchair": "no"}}, {"type": "node", "id": 8874828548, "lat": 48.0738254, "lon": 1.3588218, "tags": {"bench": "yes", "bus": "yes", "departures_board": "timetable", "highway": "bus_stop", "name": "Long S\u00e9jour", "public_transport": "platform", "shelter": "yes", "wheelchair": "no"}}, {"type": "node", "id": 8874828550, "lat": 48.0743357, "lon": 1.3570463, "tags": {"bench": "no", "bus": "yes", "departures_board": "timetable", "highway": "bus_stop", "name": "H\u00f4pital", "public_transport": "platform", "shelter": "no", "wheelchair": "no"}}, {"type": "node", "id": 8874828553, "lat": 48.0717117, "lon": 1.3409199, "tags": {"bench": "yes", "bus": "yes", "departures_board": "timetable", "highway": "bus_stop", "name": "Kellermann", "public_transport": "platform", "shelter": "yes", "wheelchair": "yes"}}, {"type": "node", "id": 8880411443, "lat": 48.0649174, "lon": 1.3401112, "tags": {"bench": "no", "bus": "yes", "departures_board": "timetable", "highway": "bus_stop", "name": "Route de Meung", "public_transport": "platform", "shelter": "no", "wheelchair": "no"}}, {"type": "node", "id": 8880411444, "lat": 48.0647313, "lon": 1.3389886, "tags": {"bench": "yes", "bus": "yes", "departures_board": "timetable", "highway": "bus_stop", "name": "Cimeti\u00e8re Croix Rousseau", "public_transport": "platform", "shelter": "yes", "wheelchair": "no"}}, {"type": "node", "id": 8880411446, "lat": 48.0672253, "lon": 1.3422264, "tags": {"bench": "yes", "bus": "yes", "departures_board": "timetable", "highway": "bus_stop", "name": "Square Anne Franck", "public_transport": "platform", "shelter": "yes", "wheelchair": "no"}}, {"type": "node", "id": 8880411448, "lat": 48.0684379, "lon": 1.3430383, "tags": {"bench": "no", "bus": "yes", "departures_board": "timetable", "highway": "bus_stop", "name": "Saint-\u00c9loi", "public_transport": "platform", "shelter": "no", "wheelchair": "no"}}, {"type": "node", "id": 8880411450, "lat": 48.0685704, "lon": 1.3461367, "tags": {"bench": "no", "bus": "yes", "departures_board": "timetable", "highway": "bus_stop", "name": "Jean Jaur\u00e8s", "public_transport": "platform", "shelter": "no", "wheelchair": "no"}}, {"type": "node", "id": 8880411452, "lat": 48.0709204, "lon": 1.3447583, "tags": {"bench": "yes", "bus": "yes", "departures_board": "timetable", "highway": "bus_stop", "name": "Les Martineaux", "public_transport": "platform", "shelter": "yes", "wheelchair": "no"}}, {"type": "node", "id": 8887370972, "lat": 48.0725978, "lon": 1.345083, "tags": {"bench": "yes", "bus": "yes", "departures_board": "timetable", "highway": "bus_stop", "name": "Lieutenant Beau", "public_transport": "platform", "shelter": "yes", "wheelchair": "no"}}, {"type": "node", "id": 8887370974, "lat": 48.0744644, "lon": 1.3451155, "tags": {"bench": "yes", "bus": "yes", "departures_board": "timetable", "highway": "bus_stop", "name": "Libert\u00e9", "public_transport": "platform", "shelter": "yes", "wheelchair": "no"}}, {"type": "node", "id": 8887370976, "lat": 48.0764922, "lon": 1.3490154, "tags": {"bench": "yes", "bus": "yes", "departures_board": "timetable", "highway": "bus_stop", "name": "De Gaulle", "public_transport": "platform", "shelter": "yes", "wheelchair": "no"}}, {"type": "node", "id": 8887370991, "lat": 48.0787425, "lon": 1.3490601, "tags": {"bench": "yes", "bus": "yes", "departures_board": "timetable", "highway": "bus_stop", "name": "Beauvoir", "public_transport": "platform", "shelter": "yes", "wheelchair": "no"}}, {"type": "node", "id": 8887370992, "lat": 48.0821554, "lon": 1.3493035, "tags": {"bench": "yes", "bus": "yes", "departures_board": "timetable", "highway": "bus_stop", "name": "Schweitzer", "public_transport": "platform", "shelter": "yes", "wheelchair": "no"}}, {"type": "node", "id": 8887370993, "lat": 48.0848123, "lon": 1.3510332, "tags": {"bench": "no", "bus": "yes", "departures_board": "timetable", "highway": "bus_stop", "name": "Louis Appert", "public_transport": "platform", "shelter": "no", "wheelchair": "no"}}, {"type": "node", "id": 8887370996, "lat": 48.082088, "lon": 1.34709, "tags": {"bench": "no", "bus": "yes", "departures_board": "timetable", "highway": "bus_stop", "name": "Rodin", "public_transport": "platform", "shelter": "no", "wheelchair": "no"}}, {"type": "node", "id": 8887370998, "lat": 48.0800856, "lon": 1.3446771, "tags": {"bench": "yes", "bus": "yes", "departures_board": "timetable", "highway": "bus_stop", "name": "Hardouin", "public_transport": "platform", "shelter": "yes", "wheelchair": "no"}}, {"type": "node", "id": 8887371000, "lat": 48.0784731, "lon": 1.3438467, "tags": {"bench": "yes", "bus": "yes", "departures_board": "timetable", "highway": "bus_stop", "name": "Sancheville", "public_transport": "platform", "shelter": "yes", "wheelchair": "no"}}, {"type": "node", "id": 9064173654, "lat": 48.4622091, "lon": 1.5054284, "tags": {"bench": "no", "bin": "no", "highway": "bus_stop", "local_ref": "Filibus", "name": "Croix Jouvet", "public_transport": "platform", "shelter": "no", "tactile_paving": "no"}}, {"type": "node", "id": 9064173655, "lat": 48.4650395, "lon": 1.5075511, "tags": {"bench": "no", "bin": "no", "highway": "bus_stop", "local_ref": "Filibus", "name": "\u00c9glise de Champhol", "public_transport": "platform", "shelter": "no", "tactile_paving": "no"}}, {"type": "node", "id": 9064173656, "lat": 48.4673506, "lon": 1.5061754, "tags": {"highway": "bus_stop", "local_ref": "Filibus", "name": "Grande Rue", "public_transport": "platform"}}, {"type": "node", "id": 9064173657, "lat": 48.4735484, "lon": 1.5036262, "tags": {"highway": "bus_stop", "local_ref": "Filibus", "name": "Frichalliers", "public_transport": "platform"}}, {"type": "node", "id": 9064173658, "lat": 48.4722142, "lon": 1.5024209, "tags": {"highway": "bus_stop", "local_ref": "Filibus", "name": "Rougerons", "public_transport": "platform"}}, {"type": "node", "id": 9064272695, "lat": 48.4366181, "lon": 1.5425507, "tags": {"highway": "bus_stop", "local_ref": "Filibus", "name": "Chemin du Tuvet", "public_transport": "platform"}}, {"type": "node", "id": 9124166589, "lat": 48.4400912, "lon": 1.5392959, "tags": {"bus": "yes", "highway": "bus_stop", "local_ref": "Filibus", "name": "R\u00e9aumur", "public_transport": "platform"}}, {"type": "node", "id": 9124166590, "lat": 48.4443236, "lon": 1.5366983, "tags": {"bus": "yes", "highway": "bus_stop", "local_ref": "Filibus", "name": "Guerlain", "public_transport": "platform"}}, {"type": "node", "id": 9124205940, "lat": 48.4572265, "lon": 1.4743687, "tags": {"bench": "yes", "bin": "yes", "bus": "yes", "highway": "bus_stop", "local_ref": "Filibus", "name": "R\u00e9publique", "public_transport": "platform", "shelter": "yes", "tactile_paving": "no"}}, {"type": "node", "id": 9769689298, "lat": 48.073417, "lon": 1.3383879, "tags": {"name": "Ch\u00e2teaudun", "operator": "SNCF", "public_transport": "station", "railway": "station", "train": "yes", "uic_ref": "8754575", "wikidata": "Q2782753", "wikipedia": "fr:Gare de Ch\u00e2teaudun"}}, {"type": "node", "id": 10788879617, "lat": 48.4472366, "lon": 1.4809174, "tags": {"bench": "no", "bin": "no", "bus": "yes", "departures_board": "yes", "highway": "bus_stop", "lit": "no", "name": "Nicole - Gare", "network": "R\u00e9mi", "network:wikidata": "Q39075313", "network:wikipedia": "fr:R\u00e9seau de mobilit\u00e9 interurbaine", "public_transport": "platform", "shelter": "no", "tactile_paving": "no"}}, {"type": "node", "id": 10788879622, "lat": 48.4474393, "lon": 1.4808717, "tags": {"bench": "yes", "bin": "yes", "bus": "yes", "departures_board": "yes", "highway": "bus_stop", "name": "Nicole - Gare", "network": "R\u00e9mi", "network:wikidata": "Q39075313", "network:wikipedia": "fr:R\u00e9seau de mobilit\u00e9 interurbaine", "public_transport": "platform", "shelter": "yes"}}, {"type": "node", "id": 10789740341, "lat": 48.4466243, "lon": 1.4769327, "tags": {"bus": "yes", "departures_board": "yes", "highway": "bus_stop", "name": "P\u00f4le d'\u00e9changes - Compa", "network": "R\u00e9mi", "network:wikidata": "Q39075313", "network:wikipedia": "fr:R\u00e9seau de mobilit\u00e9 interurbaine", "public_transport": "platform", "shelter": "yes", "wheelchair": "yes"}}, {"type": "node", "id": 10804783800, "lat": 48.1459379, "lon": 1.2652044, "tags": {"bus": "yes", "highway": "bus_stop", "public_transport": "platform"}}, {"type": "node", "id": 10804805806, "lat": 48.1468754, "lon": 1.2643942, "tags": {"bus": "yes", "highway": "bus_stop", "public_transport": "platform"}}, {"type": "node", "id": 10804805858, "lat": 48.2054784, "lon": 1.1916464, "tags": {"bench": "yes", "bin": "no", "bus": "yes", "highway": "bus_stop", "public_transport": "platform", "shelter": "yes"}}, {"type": "node", "id": 10804866969, "lat": 48.3038737, "lon": 1.2465948, "tags": {"bus": "yes", "highway": "bus_stop", "public_transport": "platform"}}, {"type": "node", "id": 10804866970, "lat": 48.3039418, "lon": 1.2466375, "tags": {"bus": "yes", "highway": "bus_stop", "public_transport": "platform"}}, {"type": "node", "id": 11140024703, "lat": 48.3037378, "lon": 1.5904615, "tags": {"bus": "yes", "highway": "bus_stop", "public_transport": "platform"}}, {"type": "node", "id": 11367479991, "lat": 48.4382588, "lon": 1.3893306, "tags": {"name": "Amilly Ouerray", "public_transport": "station", "railway": "station", "uic_ref": "8739420"}}, {"type": "node", "id": 11540581681, "lat": 48.1374567, "lon": 1.6083877, "tags": {"bus": "yes", "highway": "bus_stop", "public_transport": "platform"}}, {"type": "node", "id": 11540581682, "lat": 48.1373578, "lon": 1.6083856, "tags": {"bus": "yes", "highway": "bus_stop", "public_transport": "platform"}}, {"type": "node", "id": 11930561109, "lat": 48.0794866, "lon": 1.1360215, "tags": {"bench": "yes", "bin": "yes", "departures_board": "timetable", "highway": "bus_stop", "name": "Courtalain Place Charles de Gaulle", "public_transport": "platform", "shelter": "yes", "shelter_type": "public_transport"}}, {"type": "node", "id": 11930561110, "lat": 48.0794229, "lon": 1.136004, "tags": {"bench": "yes", "bin": "yes", "departures_board": "timetable", "highway": "bus_stop", "name": "Courtalain Place Charles de Gaulle", "public_transport": "platform", "shelter": "yes", "shelter_type": "public_transport"}}, {"type": "node", "id": 12119753081, "lat": 48.2241804, "lon": 1.639373, "tags": {"bench": "yes", "highway": "bus_stop"}}, {"type": "node", "id": 12205325316, "lat": 48.2749924, "lon": 1.622251, "tags": {"name": "Voves", "network": "SNCF R\u00e9seau", "public_transport": "station", "railway": "station", "train": "yes"}}, {"type": "node", "id": 12243847101, "lat": 48.4703033, "lon": 1.4791975, "tags": {"bus": "yes", "highway": "bus_stop", "public_transport": "platform"}}, {"type": "node", "id": 12292209020, "lat": 48.3924626, "lon": 1.0226221, "tags": {"bus": "yes", "highway": "bus_stop", "name": "Montandon - Eglise", "public_transport": "platform"}}, {"type": "node", "id": 12296301567, "lat": 48.3688301, "lon": 1.5136519, "tags": {"bus": "yes", "highway": "bus_stop", "public_transport": "platform"}}, {"type": "way", "id": 108073780, "nodes": [1240659689, 1240659695, 1240659692, 1240659691, 1240659689], "tags": {"building": "yes", "name": "Courtalain Saint-Pellerin", "operator": "SNCF", "public_transport": "station", "railway": "station", "source": "cadastre-dgi-fr source : Direction G\u00e9n\u00e9rale des Imp\u00f4ts - Cadastre. Mise \u00e0 jour : 2011", "train": "yes", "uic_ref": "8739449", "wikidata": "Q2314948", "wikipedia": "fr:Gare de Courtalain - Saint-Pellerin"}}, {"type": "way", "id": 158196455, "nodes": [1704276004, 1704275989, 1704275984, 1704275998, 1704276004], "tags": {"building": "train_station", "name": "Bailleau-le-Pin", "operator": "SNCF", "public_transport": "station", "railway": "station", "train": "yes", "uic_ref": "8739441", "wikidata": "Q3095889", "wikipedia": "fr:Gare de Bailleau-le-Pin"}}, {"type": "way", "id": 162611243, "nodes": [1744731157, 1744731156, 1744731158, 1744731160, 6790230040, 6790230038, 6790230039, 6790230037, 1744731157], "tags": {"building": "yes", "name": "Voves", "official_name": "Voves", "operator": "SNCF", "public_transport": "station", "railway": "station", "ref:FR:STIF": "411448", "source": "Bing", "train": "yes", "uic_ref": "8754570", "wikidata": "Q2155896", "wikipedia": "fr:Gare de Voves"}}, {"type": "way", "id": 466355573, "nodes": [4611649625, 4611649626, 4611649627, 4611649628, 4611649625], "tags": {"building": "yes", "coach": "yes", "covered": "no", "highway": "bus_stop", "public_transport": "platform", "shelter": "yes", "source": "cadastre-dgi-fr source : Direction G\u00e9n\u00e9rale des Finances Publiques - Cadastre. Mise \u00e0 jour : 2016"}}, {"type": "way", "id": 907016722, "nodes": [8422420557, 8422420558, 8422420559, 8422420560, 8422420557], "tags": {"building": "yes", "public_transport": "station", "railway": "station", "train": "yes"}}]}