{"version": 0.6, "generator": "Overpass API 0.7.62.5 1bd436f1", "osm3s": {"timestamp_osm_base": "2025-04-09T14:29:00Z", "copyright": "The data included in this document is from www.openstreetmap.org. The data is made available under ODbL."}, "elements": [{"type": "node", "id": 2155392412, "lat": 36.2676256, "lon": 1.9691297, "tags": {"name": "A\u00efn Defla", "name:ar": "\u0639\u064a\u0646 \u0627\u0644\u062f\u0641\u0644\u0649", "name:en": "Ain Defla", "name:fr": "A\u00efn Defla", "operator": "SNTF", "public_transport": "station", "railway": "station", "train": "yes", "wikidata": "Q118151854", "wikipedia": "fr:Gare de A\u00efn Defla"}}, {"type": "node", "id": 2168057429, "lat": 36.2884508, "lon": 2.0665292, "tags": {"addr:city": "Arib", "name": "Arib", "name:ar": "\u0639\u0631\u064a\u0628", "name:fr": "Arib", "operator": "SNTF", "public_transport": "station", "railway": "station", "wikidata": "Q118876427", "wikipedia": "fr:Gare d'Arib"}}, {"type": "node", "id": 3028230940, "lat": 36.2677809, "lon": 2.1633886, "tags": {"name": "Sidi Lakhdar", "platforms": "1", "public_transport": "station", "railway": "station", "wikidata": "Q118876415", "wikipedia": "fr:Gare de Sidi Lakhdar"}}, {"type": "node", "id": 3126843175, "lat": 36.3116179, "lon": 2.1654998, "tags": {"bus": "yes", "highway": "bus_stop", "name": "Transport Ben Allel - Miliana", "name:en": "Bus lines", "operator": "Transporteurs priv\u00e9s", "public_transport": "platform", "shelter": "no"}}, {"type": "node", "id": 3126843851, "lat": 36.3114335, "lon": 2.1686619, "tags": {"bus": "yes", "highway": "bus_stop", "operator": "Priv\u00e9s", "public_transport": "platform", "shelter": "no"}}, {"type": "node", "id": 3137410911, "lat": 36.304251, "lon": 2.2197976, "tags": {"bus": "yes", "highway": "bus_stop", "name": "Transport Miliana Ben Allel", "name:ar": "\u0646\u0642\u0644 \u0627\u0644\u0645\u0633\u0627\u0641\u0631\u064a\u0646 \u0625\u0644\u0649 \u0628\u0646 \u0639\u0644\u0627\u0644", "public_transport": "platform", "shelter": "no"}}, {"type": "node", "id": 3138523698, "lat": 36.3051132, "lon": 2.221295, "tags": {"bus": "yes", "highway": "bus_stop", "name": "Transport urbain vers Qorqah", "name:ar": "\u0627\u0644\u0646\u0642\u0644 \u0627\u0644\u062d\u0636\u0631\u064a \u0625\u0644\u0649 \u0642\u0631\u0642\u0627\u062d", "operator": "Priv\u00e9", "public_transport": "platform", "shelter": "no"}}, {"type": "node", "id": 3181603127, "lat": 36.3041519, "lon": 2.2198861, "tags": {"bench": "no", "bus": "yes", "covered": "no", "highway": "bus_stop", "name": "Terminus Ben Allal-Miliana", "name:ar": "\u0645\u0648\u0642\u0641 \u0646\u0642\u0644 \u0627\u0644\u0645\u0633\u0627\u0641\u0631\u064a\u0646", "operator": "Priv\u00e9s", "public_transport": "platform", "shelter": "no"}}, {"type": "node", "id": 3320014491, "lat": 36.2616294, "lon": 2.2234997, "tags": {"bus": "yes", "departures_board": "no", "highway": "bus_stop", "name": "Khemis Miliana <-> Miliana", "operator": "Priv\u00e9s", "public_transport": "platform", "shelter": "no"}}, {"type": "node", "id": 3337061458, "lat": 36.2655091, "lon": 2.1615113, "tags": {"bus": "yes", "highway": "bus_stop", "name": "Sidi Lakhdar <-> Arib", "public_transport": "platform"}}, {"type": "node", "id": 3364576849, "lat": 36.3115095, "lon": 2.1685425, "tags": {"bus": "yes", "highway": "bus_stop", "public_transport": "platform"}}, {"type": "node", "id": 3528549227, "lat": 36.3038779, "lon": 2.1868924, "tags": {"bus": "yes", "highway": "bus_stop", "public_transport": "platform"}}, {"type": "node", "id": 3528549228, "lat": 36.305672, "lon": 2.1972977, "tags": {"bus": "yes", "highway": "bus_stop", "name": "A\u00efn Elkerma", "name:ar": "\u0639\u064a\u0646 \u0627\u0644\u0643\u0631\u0645\u0629", "name:fr": "A\u00efn Elkerma", "public_transport": "platform"}}, {"type": "node", "id": 3528549229, "lat": 36.3109816, "lon": 2.2000255, "tags": {"bus": "yes", "highway": "bus_stop", "public_transport": "platform"}}, {"type": "node", "id": 3528549230, "lat": 36.3094067, "lon": 2.2056339, "tags": {"bus": "yes", "highway": "bus_stop", "public_transport": "platform", "source": "Algerie Mapper Team (Superadlen)"}}, {"type": "node", "id": 3528549231, "lat": 36.3083129, "lon": 2.2072932, "tags": {"bus": "yes", "highway": "bus_stop", "public_transport": "platform"}}, {"type": "node", "id": 3528549232, "lat": 36.3074862, "lon": 2.2092988, "tags": {"bus": "yes", "highway": "bus_stop", "public_transport": "platform"}}, {"type": "node", "id": 3765232456, "lat": 36.256399, "lon": 1.9592386, "tags": {"bus": "yes", "departures_board": "no", "highway": "bus_stop", "name": "Arr\u00eat l'escadron", "public_transport": "platform", "shelter": "yes"}}, {"type": "node", "id": 3765232757, "lat": 36.2567082, "lon": 1.9594861, "tags": {"bus": "yes", "departures_board": "no", "highway": "bus_stop", "name": "Arr\u00eat l'escadron", "public_transport": "platform", "shelter": "yes", "shelter_type": "public_transport"}}, {"type": "node", "id": 4192902790, "lat": 36.216443, "lon": 2.41757, "tags": {"bus": "yes", "highway": "bus_stop", "name": "Boukhatem", "public_transport": "platform"}}, {"type": "node", "id": 4758566269, "lat": 36.5801934, "lon": 2.2435994, "tags": {"alt_name": "Hamidia", "alt_name:fr": "Hamidia", "bus": "yes", "highway": "bus_stop", "name": "El Hamidia", "name:ar": "\u0627\u0644\u062d\u0645\u064a\u062f\u064a\u0629", "name:fr": "El Hamidia", "public_transport": "platform"}}, {"type": "node", "id": 4907182225, "lat": 36.2595244, "lon": 1.9693051, "tags": {"bus": "yes", "highway": "bus_stop", "public_transport": "platform"}}, {"type": "node", "id": 6024992023, "lat": 36.1905089, "lon": 2.2356098, "tags": {"highway": "bus_stop"}}, {"type": "node", "id": 6166676372, "lat": 36.1788728, "lon": 2.2292817, "tags": {"highway": "bus_stop"}}, {"type": "node", "id": 7560677885, "lat": 36.262724, "lon": 2.2362898, "tags": {"highway": "bus_stop"}}, {"type": "node", "id": 7560677985, "lat": 36.2627904, "lon": 2.2361713, "tags": {"highway": "bus_stop"}}, {"type": "node", "id": 8210639145, "lat": 36.2006612, "lon": 2.0793588, "tags": {"highway": "bus_stop", "name": "\u0646\u062d\u0648 \u062c\u0645\u0639\u0629 \u0627\u0648\u0644\u0627\u062f \u0627\u0644\u0634\u064a\u062e", "name:en": "To Djemaa Ouled Cheikh", "name:fr": "Vers Djemaa Ouled Cheikh"}}, {"type": "node", "id": 8210657736, "lat": 36.2010808, "lon": 2.0796629, "tags": {"highway": "bus_stop", "name": "\u0646\u062d\u0648 \u062f\u0648\u0627\u0631 \u0627\u0648\u0644\u0627\u062f \u062a\u0627\u0644\u0648\u0627\u062a", "name:en": "To Ouled Talouat", "name:fr": "Vers Douar Ouled Talouat"}}, {"type": "node", "id": 10949298993, "lat": 36.2431886, "lon": 2.2258546}, {"type": "node", "id": 10949298994, "lat": 36.242988, "lon": 2.225898}, {"type": "node", "id": 10949298995, "lat": 36.2430598, "lon": 2.2264079}, {"type": "node", "id": 10949298996, "lat": 36.2432392, "lon": 2.2263691}, {"type": "node", "id": 10949298997, "lat": 36.2432048, "lon": 2.2261245}, {"type": "node", "id": 10949298998, "lat": 36.2432259, "lon": 2.2261199}, {"type": "node", "id": 11011320019, "lat": 36.2604452, "lon": 1.9687373, "tags": {"bus": "yes", "highway": "bus_stop", "operator": "ETUAD", "public_transport": "platform", "shelter": "no"}}, {"type": "node", "id": 11423478596, "lat": 36.2576179, "lon": 2.2308102, "tags": {"bus": "yes", "departures_board": "no", "highway": "bus_stop", "name": "Bou Djemaa", "network": "ETUSAD", "public_transport": "platform", "shelter": "no"}}, {"type": "node", "id": 11423583201, "lat": 36.2624395, "lon": 2.2053564, "tags": {"bus": "yes", "highway": "bus_stop", "name": "Cit\u00e9 Cadat", "public_transport": "platform", "shelter": "no"}}, {"type": "node", "id": 11423583202, "lat": 36.2624872, "lon": 2.205406, "tags": {"bus": "yes", "highway": "bus_stop", "name": "Cit\u00e9 Cadat", "public_transport": "platform", "shelter": "no"}}, {"type": "node", "id": 11423583203, "lat": 36.2620238, "lon": 2.2081743, "tags": {"bus": "yes", "highway": "bus_stop", "name": "Nakhla - Cit\u00e9 Cadat", "public_transport": "platform", "shelter": "no"}}, {"type": "node", "id": 11423583204, "lat": 36.2621284, "lon": 2.2082516, "tags": {"bus": "yes", "highway": "bus_stop", "name": "Nakhla - Cit\u00e9 Cadat", "public_transport": "platform", "shelter": "no"}}, {"type": "node", "id": 11423583205, "lat": 36.2628063, "lon": 2.2034433, "tags": {"bus": "yes", "highway": "bus_stop", "name": "Lyc\u00e9e", "public_transport": "platform", "shelter": "no"}}, {"type": "node", "id": 11423583206, "lat": 36.2628961, "lon": 2.2012277, "tags": {"bus": "yes", "highway": "bus_stop", "name": "Les pompiers - Cit\u00e9 Cadat", "public_transport": "platform", "shelter": "no"}}, {"type": "node", "id": 11423583207, "lat": 36.2629887, "lon": 2.2008245, "tags": {"bus": "yes", "highway": "bus_stop", "name": "Les pompiers - Cit\u00e9 Cadat", "public_transport": "platform", "shelter": "no"}}, {"type": "node", "id": 11423583208, "lat": 36.2610051, "lon": 2.2147996, "tags": {"bus": "yes", "highway": "bus_stop", "name": "la Banque", "public_transport": "platform"}}, {"type": "node", "id": 11423583209, "lat": 36.2610732, "lon": 2.2148376, "tags": {"bus": "yes", "highway": "bus_stop", "name": "la Banque", "public_transport": "platform", "shelter": "no"}}, {"type": "node", "id": 11423583210, "lat": 36.2604494, "lon": 2.2193183, "tags": {"bus": "yes", "highway": "bus_stop", "name": "La Poste", "operator": "ETUSAB Khemis Miliana", "public_transport": "platform", "shelter": "yes"}}, {"type": "node", "id": 11423583211, "lat": 36.260147, "lon": 2.2196555, "tags": {"bus": "yes", "departures_board": "no", "highway": "bus_stop", "name": "La Poste", "operator": "ETUSAD", "public_transport": "platform", "shelter": "yes"}}, {"type": "node", "id": 11425903163, "lat": 36.2554388, "lon": 2.2369365, "tags": {"bus": "yes", "departures_board": "realtime", "highway": "bus_stop", "name": "Bus universitaire de Khemis Miliana", "public_transport": "platform", "shelter": "yes"}}, {"type": "node", "id": 11425903164, "lat": 36.2604203, "lon": 2.2356594, "tags": {"bus": "yes", "departures_board": "no", "highway": "bus_stop", "name": "Soufay", "public_transport": "platform", "shelter": "no"}}, {"type": "node", "id": 11962610591, "lat": 36.2552853, "lon": 2.2204238, "tags": {"bus": "yes", "highway": "bus_stop", "name": "CIt\u00e9 El-Salam", "public_transport": "platform", "shelter": "yes"}}, {"type": "node", "id": 11962610592, "lat": 36.2563473, "lon": 2.2275652, "tags": {"bus": "yes", "highway": "bus_stop", "name": "Gare routi\u00e8re", "public_transport": "platform"}}, {"type": "node", "id": 11962610593, "lat": 36.2546429, "lon": 2.237307, "tags": {"bus": "yes", "highway": "bus_stop", "name": "Universit\u00e9 de Khemis Miliana", "public_transport": "platform", "shelter": "yes"}}, {"type": "node", "id": 11962610594, "lat": 36.2553567, "lon": 2.2374411, "tags": {"bus": "yes", "highway": "bus_stop", "name": "Universit\u00e9 de Khemis Miliana", "public_transport": "platform", "shelter": "yes"}}, {"type": "node", "id": 11962610595, "lat": 36.2510329, "lon": 2.2387044, "tags": {"bus": "yes", "highway": "bus_stop", "name": "Nouveau pole universitaire", "public_transport": "platform", "shelter": "no"}}, {"type": "node", "id": 11962610596, "lat": 36.2480284, "lon": 2.2395198, "tags": {"bus": "yes", "highway": "bus_stop", "name": "Clinique", "public_transport": "platform"}}, {"type": "node", "id": 11962610604, "lat": 36.2367784, "lon": 2.2434774, "tags": {"bus": "yes", "highway": "bus_stop", "name": "Adjaa", "public_transport": "platform"}}, {"type": "way", "id": 1178617674, "nodes": [10949298993, 10949298994, 10949298995, 10949298996, 10949298997, 10949298998, 10949298993], "tags": {"building": "yes", "public_transport": "station", "railway": "station", "train": "yes"}}]}