{"version": 0.6, "generator": "Overpass API 0.7.62.5 1bd436f1", "osm3s": {"timestamp_osm_base": "2025-04-09T14:31:06Z", "copyright": "The data included in this document is from www.openstreetmap.org. The data is made available under ODbL."}, "elements": [{"type": "node", "id": 3769625517, "lat": 38.985628, "lon": 1.5326619, "tags": {"bus": "yes", "highway": "bus_stop", "name": "Intercity Bus", "public_transport": "platform"}}, {"type": "node", "id": 4328085861, "lat": 39.0174887, "lon": 1.5928194, "tags": {"bus": "yes", "highway": "bus_stop", "public_transport": "platform"}}, {"type": "node", "id": 4328085882, "lat": 39.0196158, "lon": 1.5905362, "tags": {"bus": "yes", "highway": "bus_stop", "public_transport": "platform"}}, {"type": "node", "id": 4428244213, "lat": 39.0758457, "lon": 1.5902771, "tags": {"bus": "yes", "covered": "no", "highway": "bus_stop", "public_transport": "platform", "shelter": "no", "wheelchair": "limited"}}, {"type": "node", "id": 5003247167, "lat": 38.9868065, "lon": 1.5271155, "tags": {"bench": "yes", "bin": "yes", "bus": "yes", "highway": "bus_stop", "lit": "yes", "name": "Can Guasch", "operator": "Transport de les Illes Balears - Eivissa", "public_transport": "platform", "ref": "5035", "shelter": "yes", "tactile_paving": "no", "website": "https://eivissa.tib.org/es/web/cie/parades/-/parada/05035"}}, {"type": "node", "id": 5003247168, "lat": 38.9860357, "lon": 1.5336056, "tags": {"bus": "yes", "highway": "bus_stop", "name": "Santa Eul\u00e0ria", "name:ca": "Santa Eul\u00e0ria", "network": "Transport de les Illes Balears - Eivissa", "public_transport": "platform", "ref": "209", "website": "https://eivissa.tib.org/es/web/cie/parades/-/parada/00209"}}, {"type": "node", "id": 5003247169, "lat": 38.9869459, "lon": 1.5271516, "tags": {"bench": "yes", "bin": "yes", "bus": "yes", "highway": "bus_stop", "lit": "yes", "name": "Ronda Siesta", "public_transport": "platform", "shelter": "yes", "tactile_paving": "no", "website": "https://eivissa.tib.org/es/web/cie/parades/-/parada/05052"}}, {"type": "node", "id": 5003247170, "lat": 38.9847384, "lon": 1.5231187, "tags": {"bench": "yes", "bin": "yes", "bus": "yes", "highway": "bus_stop", "lit": "yes", "name": "Can Nadal", "name:ca": "Can Nadal", "public_transport": "platform", "shelter": "yes", "tactile_paving": "no", "website": "https://eivissa.tib.org/es/web/cie/parades/-/parada/01053"}}, {"type": "node", "id": 5007768523, "lat": 38.9967471, "lon": 1.5440026, "tags": {"bus": "yes", "highway": "bus_stop", "name": "Can Andreuet", "public_transport": "platform", "website": "https://eivissa.tib.org/es/web/cie/parades/-/parada/01022"}}, {"type": "node", "id": 5007768524, "lat": 39.0057437, "lon": 1.5476295, "tags": {"bus": "yes", "highway": "bus_stop", "name": "Can Poll", "name:ca": "Can Poll", "public_transport": "platform", "website": "https://eivissa.tib.org/es/web/cie/parades/-/parada/01054"}}, {"type": "node", "id": 5007768525, "lat": 39.0111665, "lon": 1.5508322, "tags": {"bus": "yes", "highway": "bus_stop", "name": "Can Vinyes", "name:ca": "Can Vinyes", "public_transport": "platform", "website": "https://eivissa.tib.org/es/web/cie/parades/-/parada/05039"}}, {"type": "node", "id": 5007768530, "lat": 39.0241696, "lon": 1.5557894, "tags": {"bus": "yes", "highway": "bus_stop", "name": "Ronda de Ses Mines", "public_transport": "platform", "website": "https://eivissa.tib.org/es/web/cie/parades/-/parada/01102"}}, {"type": "node", "id": 5007768531, "lat": 39.0283583, "lon": 1.5581732, "tags": {"bus": "yes", "highway": "bus_stop", "name": "Las Dalias", "public_transport": "platform", "website": "https://eivissa.tib.org/es/web/cie/parades/-/parada/05041"}}, {"type": "node", "id": 5007768532, "lat": 39.0308169, "lon": 1.5600441, "tags": {"bus": "yes", "highway": "bus_stop", "name": "Creuer Col\u00b7legi", "name:ca": "Creuer Col\u00b7legi", "public_transport": "platform", "website": "https://eivissa.tib.org/es/web/cie/parades/-/parada/01073"}}, {"type": "node", "id": 5007768533, "lat": 39.0344172, "lon": 1.5647175, "tags": {"bus": "yes", "highway": "bus_stop", "name": "Sant Carles", "name:ca": "Sant Carles", "network": "Transport de les Illes Balears - Eivissa", "public_transport": "platform", "website": "https://eivissa.tib.org/es/web/cie/parades/-/parada/01114"}}, {"type": "node", "id": 5007768534, "lat": 39.0308689, "lon": 1.5598917, "tags": {"bus": "yes", "highway": "bus_stop", "name": "Creuer Col\u00b7legi", "name:ca": "Creuer Col\u00b7legi", "public_transport": "platform", "website": "https://eivissa.tib.org/es/web/cie/parades/-/parada/01074"}}, {"type": "node", "id": 5007768535, "lat": 39.0285952, "lon": 1.5580461, "tags": {"bus": "yes", "highway": "bus_stop", "name": "Las Dalias", "public_transport": "platform", "website": "https://eivissa.tib.org/es/web/cie/parades/-/parada/05049"}}, {"type": "node", "id": 5007768536, "lat": 39.0242318, "lon": 1.5556337, "tags": {"bus": "yes", "highway": "bus_stop", "name": "Ronda de Ses Mines", "public_transport": "platform", "website": "https://eivissa.tib.org/es/web/cie/parades/-/parada/01103"}}, {"type": "node", "id": 5007768537, "lat": 39.0113299, "lon": 1.5507303, "tags": {"bus": "yes", "highway": "bus_stop", "name": "Can Vinyes", "name:ca": "Can Vinyes", "public_transport": "platform", "website": "https://eivissa.tib.org/es/web/cie/parades/-/parada/05047"}}, {"type": "node", "id": 5007768538, "lat": 39.0057602, "lon": 1.547484, "tags": {"bus": "yes", "highway": "bus_stop", "name": "Can Poll", "name:ca": "Can Poll", "public_transport": "platform", "website": "https://eivissa.tib.org/es/web/cie/parades/-/parada/01055"}}, {"type": "node", "id": 5007768539, "lat": 38.996945, "lon": 1.543922, "tags": {"bus": "yes", "highway": "bus_stop", "name": "Can Andreuet", "public_transport": "platform", "website": "https://eivissa.tib.org/es/web/cie/parades/-/parada/01023"}}, {"type": "node", "id": 8930692706, "lat": 38.9779092, "lon": 1.5266185, "tags": {"bus": "yes", "highway": "bus_stop", "name": "H. Club Siesta", "public_transport": "stop_position", "ref": "1002"}}, {"type": "node", "id": 8930692707, "lat": 38.9755439, "lon": 1.5276582, "tags": {"bus": "yes", "highway": "bus_stop", "name": "C. de les Margalides", "operator": "Transport de les Illes Balears - Eivissa", "public_transport": "platform", "ref": "6067"}}, {"type": "node", "id": 8939694392, "lat": 38.9879814, "lon": 1.5245494, "tags": {"bus": "yes", "highway": "bus_stop", "name": "Escoleta Blancanieves", "operator": "Transport de les Illes Balears - Eivissa", "public_transport": "platform", "ref": "6069"}}, {"type": "node", "id": 8939694393, "lat": 38.9877007, "lon": 1.5281469, "tags": {"bus": "yes", "highway": "bus_stop", "name": "Pla\u00e7a de Su\u00efssa", "name:ca": "Pla\u00e7a de Su\u00efssa", "operator": "Transport de les Illes Balears - Eivissa", "public_transport": "platform", "ref": "6068"}}, {"type": "node", "id": 8939694394, "lat": 38.9862246, "lon": 1.5284634, "tags": {"bus": "yes", "highway": "bus_stop", "name": "Policia Municipal", "name:ca": "Policia Municipal", "operator": "Transport de les Illes Balears - Eivissa", "public_transport": "platform", "ref": "7070"}}, {"type": "node", "id": 8939694395, "lat": 38.9858233, "lon": 1.5282502, "tags": {"bus": "yes", "highway": "bus_stop", "name": "Policia Municipal", "name:ca": "Policia Municipal", "operator": "Transport de les Illes Balears - Eivissa", "public_transport": "platform", "ref": "6070"}}, {"type": "node", "id": 8939694396, "lat": 38.9854066, "lon": 1.5326059, "tags": {"bus": "yes", "highway": "bus_stop", "name": "Es Mercat", "operator": "Transport de les Illes Balears - Eivissa", "public_transport": "platform", "ref": "7071"}}, {"type": "node", "id": 8939694397, "lat": 38.9876741, "lon": 1.5373657, "tags": {"bus": "yes", "highway": "bus_stop", "name": "Centre M\u00e8dic", "operator": "Transport de les Illes Balears - Eivissa", "public_transport": "platform", "ref": "6072"}}, {"type": "node", "id": 8939694398, "lat": 38.9869716, "lon": 1.5393663, "tags": {"bus": "yes", "highway": "bus_stop", "name": "H. Tres Torres", "operator": "Transport de les Illes Balears - Eivissa", "public_transport": "platform", "ref": "6073"}}, {"type": "node", "id": 8939694399, "lat": 38.9882364, "lon": 1.5422184, "tags": {"bus": "yes", "highway": "bus_stop", "name": "IES Xarc", "operator": "Transport de les Illes Balears - Eivissa", "public_transport": "platform", "ref": "1123"}}, {"type": "node", "id": 8939694400, "lat": 38.989504, "lon": 1.5442454, "tags": {"bus": "yes", "highway": "bus_stop", "name": "Mercadona", "name:ca": "Mercadona", "operator": "Transport de les Illes Balears - Eivissa", "public_transport": "platform", "ref": "6074"}}, {"type": "node", "id": 8939694401, "lat": 38.9908102, "lon": 1.5450764, "tags": {"bench": "no", "bin": "no", "bus": "yes", "highway": "bus_stop", "lit": "yes", "name": "Rest. Es Farall\u00f3", "operator": "Transport de les Illes Balears - Eivissa", "public_transport": "platform", "ref": "5060", "shelter": "no", "tactile_paving": "no"}}, {"type": "node", "id": 8939694402, "lat": 38.9938548, "lon": 1.5376403, "tags": {"bus": "yes", "highway": "bus_stop", "name": "Poliesportiu", "name:ca": "Poliesportiu", "operator": "Transport de les Illes Balears - Eivissa", "public_transport": "platform", "ref": "6075"}}, {"type": "node", "id": 8939694403, "lat": 38.9956067, "lon": 1.5341508, "tags": {"bus": "yes", "highway": "bus_stop", "name": "Punt Groc", "name:ca": "Punt Groc", "operator": "Transport de les Illes Balears - Eivissa", "public_transport": "platform", "ref": "6076"}}, {"type": "node", "id": 9781335132, "lat": 39.0587592, "lon": 1.4939498, "tags": {"bus": "yes", "highway": "bus_stop", "name": "Sa Ferreria", "public_transport": "platform", "ref": "1111"}}, {"type": "node", "id": 9781335134, "lat": 39.0593704, "lon": 1.4943247, "tags": {"bus": "yes", "highway": "bus_stop", "name": "Sa Ferreria", "public_transport": "platform", "ref": "1110"}}, {"type": "node", "id": 11608553174, "lat": 38.9981792, "lon": 1.5588268, "tags": {"bench": "yes", "bin": "yes", "bus": "yes", "highway": "bus_stop", "lit": "yes", "name": "Cala Pada", "public_transport": "platform", "shelter": "yes", "tactile_paving": "no"}}, {"type": "node", "id": 11608553175, "lat": 38.9981876, "lon": 1.5591112, "tags": {"bench": "yes", "bin": "yes", "bus": "yes", "highway": "bus_stop", "lit": "yes", "name": "Cala Pada", "public_transport": "platform", "shelter": "yes", "tactile_paving": "no"}}, {"type": "node", "id": 11608553208, "lat": 38.9905664, "lon": 1.5449402, "tags": {"bench": "yes", "bin": "no", "bus": "yes", "highway": "bus_stop", "lit": "yes", "public_transport": "platform", "shelter": "yes", "tactile_paving": "no"}}, {"type": "node", "id": 11817000669, "lat": 38.9846568, "lon": 1.5219429, "tags": {"bench": "yes", "bin": "yes", "bus": "yes", "highway": "bus_stop", "lit": "yes", "name": "Can Nadal", "public_transport": "platform", "shelter": "yes", "tactile_paving": "no"}}]}