{"version": 0.6, "generator": "Overpass API 0.7.62.5 1bd436f1", "osm3s": {"timestamp_osm_base": "2025-04-09T14:49:30Z", "copyright": "The data included in this document is from www.openstreetmap.org. The data is made available under ODbL."}, "elements": [{"type": "node", "id": 2333679901, "lat": 34.859638, "lon": 5.7252196, "tags": {"addr:city": "\u0628\u0633\u0643\u0631\u0629", "addr:city:ar": "\u0628\u0633\u0643\u0631\u0629", "name": "Biskra", "name:ar": "\u0628\u0633\u0643\u0631\u0629", "name:de": "Biskra", "name:en": "Biskra", "name:fr": "Biskra", "name:kab": "Bessekra", "operator": "\u0627\u0644\u0634\u0631\u0643\u0629 \u0627\u0644\u0648\u0637\u0646\u064a\u0629 \u0644\u0644\u0646\u0642\u0644 \u0628\u0627\u0644\u0633\u0643\u0643 \u0627\u0644\u062d\u062f\u064a\u062f\u064a\u0629", "operator:ar": "\u0627\u0644\u0634\u0631\u0643\u0629 \u0627\u0644\u0648\u0637\u0646\u064a\u0629 \u0644\u0644\u0646\u0642\u0644 \u0628\u0627\u0644\u0633\u0643\u0643 \u0627\u0644\u062d\u062f\u064a\u062f\u064a\u0629", "operator:wikidata": "Q1275038", "operator:wikipedia": "ar:\u0627\u0644\u0634\u0631\u0643\u0629 \u0627\u0644\u0648\u0637\u0646\u064a\u0629 \u0644\u0644\u0646\u0642\u0644 \u0628\u0627\u0644\u0633\u0643\u0643 \u0627\u0644\u062d\u062f\u064a\u062f\u064a\u0629", "operator:wikipedia:ar": "\u0627\u0644\u0634\u0631\u0643\u0629 \u0627\u0644\u0648\u0637\u0646\u064a\u0629 \u0644\u0644\u0646\u0642\u0644 \u0628\u0627\u0644\u0633\u0643\u0643 \u0627\u0644\u062d\u062f\u064a\u062f\u064a\u0629", "public_transport": "station", "railway": "station"}}, {"type": "node", "id": 3423649519, "lat": 34.8517005, "lon": 5.7223718, "tags": {"bus": "yes", "highway": "bus_stop", "public_transport": "platform"}}, {"type": "node", "id": 3423649520, "lat": 34.8506308, "lon": 5.7206203, "tags": {"bus": "yes", "highway": "bus_stop", "public_transport": "platform"}}, {"type": "node", "id": 3423649521, "lat": 34.847952, "lon": 5.7184638, "tags": {"bus": "yes", "highway": "bus_stop", "public_transport": "platform"}}, {"type": "node", "id": 3423649522, "lat": 34.8463517, "lon": 5.7171495, "tags": {"bus": "yes", "highway": "bus_stop", "public_transport": "platform"}}, {"type": "node", "id": 3423649523, "lat": 34.8476702, "lon": 5.7185175, "tags": {"bus": "yes", "highway": "bus_stop", "public_transport": "platform"}}, {"type": "node", "id": 3423651674, "lat": 34.8529838, "lon": 5.7283934, "tags": {"bus": "yes", "highway": "bus_stop", "name": "Arr\u00eat Guendouz", "public_transport": "platform"}}, {"type": "node", "id": 3423651676, "lat": 34.8519955, "lon": 5.7346322, "tags": {"bus": "yes", "highway": "bus_stop", "public_transport": "platform"}}, {"type": "node", "id": 3423651679, "lat": 34.852537, "lon": 5.7361315, "tags": {"bus": "yes", "highway": "bus_stop", "public_transport": "platform"}}, {"type": "node", "id": 3451374471, "lat": 34.8521162, "lon": 5.7421182, "tags": {"bus": "yes", "highway": "bus_stop", "name": "\u0645\u0648\u0642\u0641 \u062d\u0627\u0641\u0644\u0627\u062a3", "public_transport": "platform"}}, {"type": "node", "id": 3451374472, "lat": 34.8519335, "lon": 5.7436333, "tags": {"bus": "yes", "highway": "bus_stop", "name": "\u0645\u0648\u0642\u0641 \u062d\u0627\u0641\u0644\u0627\u062a 4", "public_transport": "platform"}}, {"type": "node", "id": 3453595597, "lat": 34.8570698, "lon": 5.7142778, "tags": {"bus": "yes", "highway": "bus_stop", "public_transport": "platform"}}, {"type": "node", "id": 3453595598, "lat": 34.8568737, "lon": 5.7145343, "tags": {"bus": "yes", "highway": "bus_stop", "public_transport": "platform"}}, {"type": "node", "id": 3454215371, "lat": 34.8559482, "lon": 5.7253025, "tags": {"bench": "no", "bus": "yes", "covered": "yes", "highway": "bus_stop", "name": "Arret Dhal\u00e2a", "public_transport": "platform"}}, {"type": "node", "id": 3465277236, "lat": 34.8514491, "lon": 5.7414528, "tags": {"bench": "yes", "bus": "yes", "highway": "bus_stop", "name": "\u0645\u0648\u0642\u0641 \u062d\u0627\u0641\u0644\u0627\u062a 2", "public_transport": "platform", "shelter": "yes"}}, {"type": "node", "id": 3964088301, "lat": 35.0402141, "lon": 5.5877502, "tags": {"name": "El Outaya", "name:ar": "\u0644\u0648\u0637\u0627\u064a\u0627", "name:en": "El Outaya", "name:fr": "El Outaya", "operator": "SNTF", "public_transport": "station", "railway": "station", "wikidata": "Q116206934", "wikipedia": "fr:Gare d'El Outaya"}}, {"type": "node", "id": 4790622523, "lat": 34.846259, "lon": 5.7175251, "tags": {"bus": "yes", "highway": "bus_stop", "operator": "h\u00f4tel rahmoune", "public_transport": "platform"}}, {"type": "node", "id": 4885424922, "lat": 35.0320481, "lon": 5.5888585, "tags": {"bus": "yes", "highway": "bus_stop", "public_transport": "platform"}}, {"type": "node", "id": 4931107749, "lat": 34.8528929, "lon": 5.7429198, "tags": {"bus": "yes", "highway": "bus_stop", "public_transport": "platform"}}, {"type": "node", "id": 4931110729, "lat": 34.8542811, "lon": 5.7426148, "tags": {"bus": "yes", "highway": "bus_stop", "public_transport": "platform"}}, {"type": "node", "id": 4931111649, "lat": 34.8540485, "lon": 5.7424253, "tags": {"bus": "yes", "highway": "bus_stop", "public_transport": "platform"}}, {"type": "node", "id": 4931274399, "lat": 34.859108, "lon": 5.7415296, "tags": {"bus": "yes", "highway": "bus_stop", "public_transport": "platform"}}, {"type": "node", "id": 6707644096, "lat": 34.8406254, "lon": 5.7842852, "tags": {"highway": "bus_stop", "name": "\u0628\u0627\u0637\u064a\u0645\u0627\u062a \u0634\u062a\u0645\u0629 \u0628\u0633\u0643\u0631\u0629", "name:ar": "\u0628\u0627\u0637\u064a\u0645\u0627\u062a \u0634\u062a\u0645\u0629 \u0628\u0633\u0643\u0631\u0629", "name:en": "Buildings of Chetma Biskra", "name:fr": "B\u00e2timents de Chetma Biskra"}}, {"type": "node", "id": 8384250941, "lat": 34.8514053, "lon": 5.7417631, "tags": {"bench": "no", "bus": "yes", "highway": "bus_stop", "name": "\u0645\u0648\u0642\u0641 \u062d\u0627\u0641\u0644\u0627\u062a", "public_transport": "platform", "shelter": "no"}}, {"type": "node", "id": 8422360157, "lat": 34.8513882, "lon": 5.7414052, "tags": {"bus": "yes", "highway": "bus_stop", "name": "bus sidi okba", "public_transport": "platform"}}, {"type": "node", "id": 8430002052, "lat": 34.8483712, "lon": 5.7460466, "tags": {"bus": "yes", "highway": "bus_stop", "public_transport": "platform"}}, {"type": "node", "id": 8430002053, "lat": 34.8470817, "lon": 5.7500532, "tags": {"bus": "yes", "highway": "bus_stop", "public_transport": "platform"}}, {"type": "node", "id": 8430002054, "lat": 34.8468714, "lon": 5.7500713, "tags": {"bus": "yes", "highway": "bus_stop", "public_transport": "platform"}}, {"type": "node", "id": 9968184587, "lat": 34.7942775, "lon": 5.7181251, "tags": {"name": "Biskra", "name:ar": "\u0645\u062d\u0637\u0629 \u0627\u0644\u0642\u0637\u0627\u0631 \u0627\u0644\u062c\u062f\u064a\u062f\u0629 (\u0637\u0648\u0631 \u0627\u0644\u0627\u0646\u062c\u0627\u0632)", "name:en": "Biskra", "name:fr": "Biskra", "public_transport": "station", "railway": "station", "train": "yes", "wikidata": "Q116198149", "wikipedia": "fr:Gare de Biskra"}}]}