{"version": 0.6, "generator": "Overpass API 0.7.62.5 1bd436f1", "osm3s": {"timestamp_osm_base": "2025-04-09T14:35:15Z", "copyright": "The data included in this document is from www.openstreetmap.org. The data is made available under ODbL."}, "elements": [{"type": "node", "id": 8773144, "lat": 41.2317917, "lon": 1.6905637, "tags": {"bus": "yes", "highway": "bus_stop", "name": "C\u00e0mping Vilanova Park", "name:ca": "C\u00e0mping Vilanova Park", "public_transport": "stop_position", "shelter": "yes"}}, {"type": "node", "id": 8774497, "lat": 41.2350103, "lon": 1.7488953, "tags": {"bus": "yes", "highway": "bus_stop", "name": "Rambla del Garraf amb Osona (Vilanoveta)", "public_transport": "stop_position"}}, {"type": "node", "id": 323998112, "lat": 41.2148507, "lon": 1.7212997, "tags": {"bus": "yes", "highway": "bus_stop", "name": "Pl. Consolat de Mar", "public_transport": "stop_position"}}, {"type": "node", "id": 332127843, "lat": 41.1173999, "lon": 1.2501965, "tags": {"bench": "yes", "bin": "yes", "bus": "yes", "departures_board": "realtime", "highway": "bus_stop", "name": "Pau Casals", "name:ca": "Pau Casals", "name:etymology:wikidata": "Q208537", "operator": "EMT Tarragona", "public_transport": "platform", "ref": "25141", "shelter": "yes", "wheelchair": "yes"}}, {"type": "node", "id": 332307762, "lat": 41.1186733, "lon": 1.2453319, "tags": {"bus": "yes", "highway": "bus_stop", "name": "Pla\u00e7a Imperial T\u00e0rraco", "name:ca": "Pla\u00e7a Imperial T\u00e0rraco", "public_transport": "stop_position"}}, {"type": "node", "id": 386507325, "lat": 41.3393158, "lon": 1.6915306, "tags": {"bus": "yes", "highway": "bus_stop", "name": "Av. Tarragona / Av. Vendrell", "public_transport": "stop_position"}}, {"type": "node", "id": 411825750, "lat": 41.1229051, "lon": 1.2442802, "tags": {"bus": "yes", "highway": "bus_stop", "name": "4 Garrofers", "operator": "EMT Tarragona", "public_transport": "stop_position"}}, {"type": "node", "id": 478839803, "lat": 41.2088041, "lon": 1.6704512, "tags": {"bus": "yes", "highway": "bus_stop", "name": "Raval Torrent", "name:ca": "Raval Torrent", "public_transport": "stop_position"}}, {"type": "node", "id": 489648790, "lat": 41.2271243, "lon": 1.7352261, "tags": {"bus": "yes", "highway": "bus_stop", "name": "av. Eduard Toldr\u00e0 42", "public_transport": "stop_position"}}, {"type": "node", "id": 628213252, "lat": 41.2234008, "lon": 1.6947692, "tags": {"bus": "yes", "highway": "bus_stop", "name": "Av. Torre del Vall\u00e8s - Av. Rocacrespa", "name:ca": "Avinguda Riu Foix - Avinguda de Rocacrespa", "public_transport": "stop_position"}}, {"type": "node", "id": 628213298, "lat": 41.2229688, "lon": 1.709945, "tags": {"bus": "yes", "highway": "bus_stop", "name": "Zamenhof - Torre d'Enveja", "public_transport": "stop_position"}}, {"type": "node", "id": 629883640, "lat": 41.22237, "lon": 1.6962569, "tags": {"bus": "yes", "highway": "bus_stop", "name": "Av. Torre del Vall\u00e8s - Vinyet", "public_transport": "stop_position"}}, {"type": "node", "id": 633689769, "lat": 41.2203636, "lon": 1.7118524, "tags": {"bus": "yes", "highway": "bus_stop", "name": "Dr Zamenhof - Escola Aragai", "public_transport": "stop_position"}}, {"type": "node", "id": 633689771, "lat": 41.2206148, "lon": 1.7149943, "tags": {"bus": "yes", "highway": "bus_stop", "name": "Avinguda Francesc Maci\u00e0 - Men\u00e9ndez y Pelayo", "name:ca": "Avinguda Francesc Maci\u00e0 - Men\u00e9ndez y Pelayo", "public_transport": "stop_position"}}, {"type": "node", "id": 633689772, "lat": 41.2192314, "lon": 1.7216377, "tags": {"bus": "yes", "highway": "bus_stop", "name": "Josep Coroleu - Avinguda Jaume Balmes", "public_transport": "stop_position"}}, {"type": "node", "id": 633689773, "lat": 41.2204766, "lon": 1.7207301, "tags": {"bus": "yes", "highway": "bus_stop", "name": "Josep Coloreu - Ram\u00f3n y Cajal", "public_transport": "stop_position"}}, {"type": "node", "id": 633689774, "lat": 41.2152918, "lon": 1.7278413, "tags": {"bus": "yes", "highway": "bus_stop", "name": "Pg. Carme - Rbla. Pirelli", "public_transport": "stop_position"}}, {"type": "node", "id": 633689806, "lat": 41.2182822, "lon": 1.7317743, "tags": {"bus": "yes", "highway": "bus_stop", "name": "Can\u00e0ries - Immaculada Concepci\u00f3", "public_transport": "stop_position"}}, {"type": "node", "id": 633689812, "lat": 41.2253845, "lon": 1.6923633, "tags": {"bus": "yes", "highway": "bus_stop", "name": "Av. Riu Foix - Riera de Marmellar", "public_transport": "stop_position"}}, {"type": "node", "id": 633689814, "lat": 41.2226553, "lon": 1.710199, "tags": {"bus": "yes", "highway": "bus_stop", "name": "Dr. Zamenhof - Torre de l'Enveja", "public_transport": "stop_position"}}, {"type": "node", "id": 633689815, "lat": 41.2228213, "lon": 1.7100613, "tags": {"bus": "yes", "highway": "bus_stop", "name": "Dr. Zamenhof - Torre de l'Enveja", "public_transport": "stop_position"}}, {"type": "node", "id": 633689817, "lat": 41.2228476, "lon": 1.7154176, "tags": {"bus": "yes", "highway": "bus_stop", "name": "Aigua - Joan Llaverias", "public_transport": "stop_position"}}, {"type": "node", "id": 633689818, "lat": 41.2235644, "lon": 1.7171192, "tags": {"bus": "yes", "highway": "bus_stop", "name": "Carrer de l'Aigua 147 | Aigua - Bruc", "name:ca": "Carrer de l'Aigua 147 | Aigua - Bruc", "public_transport": "stop_position"}}, {"type": "node", "id": 633689821, "lat": 41.2212446, "lon": 1.7200358, "tags": {"bus": "yes", "highway": "bus_stop", "name": "Josep Coroleu - Esportiu Piscina", "public_transport": "stop_position"}}, {"type": "node", "id": 633689827, "lat": 41.2241181, "lon": 1.7204147, "tags": {"bus": "yes", "highway": "bus_stop", "name": "Pl. Catalunya", "name:ca": "Pla\u00e7a Catalunya", "public_transport": "stop_position"}}, {"type": "node", "id": 634581202, "lat": 41.216111, "lon": 1.7314303, "tags": {"bus": "yes", "highway": "bus_stop", "name": "Pg. Mar\u00edtim - Gas", "public_transport": "stop_position"}}, {"type": "node", "id": 634581212, "lat": 41.2177183, "lon": 1.7347103, "tags": {"bus": "yes", "highway": "bus_stop", "name": "Mart\u00ed Torrents", "name:ca": "Mart\u00ed Torrents", "public_transport": "stop_position"}}, {"type": "node", "id": 634581214, "lat": 41.2166932, "lon": 1.7336316, "tags": {"bus": "yes", "highway": "bus_stop", "name": "Pg. Mar\u00edtim - Can\u00e0ries", "public_transport": "stop_position"}}, {"type": "node", "id": 634581244, "lat": 41.2243314, "lon": 1.6978592, "tags": {"bus": "yes", "highway": "bus_stop", "name": "Av. Rocacrespa - Av. Sis Camins", "public_transport": "stop_position"}}, {"type": "node", "id": 634581245, "lat": 41.2229406, "lon": 1.7212394, "tags": {"bus": "yes", "highway": "bus_stop", "name": "Pare Gar\u00ed - Av. Francesc Maci\u00e0", "public_transport": "stop_position"}}, {"type": "node", "id": 819190423, "lat": 41.1115131, "lon": 1.2528772, "tags": {"bus": "yes", "highway": "bus_stop", "name": "Estaci\u00f3 de RENFE", "name:ca": "Estaci\u00f3 de RENFE", "operator": "EMT Tarragona", "public_transport": "stop_position"}}, {"type": "node", "id": 822206591, "lat": 41.1177755, "lon": 1.2727385, "tags": {"bus": "yes", "highway": "bus_stop", "name": "Marenostrum", "operator": "EMT Tarragona", "public_transport": "stop_position"}}, {"type": "node", "id": 823368833, "lat": 41.1227999, "lon": 1.2370484, "tags": {"bus": "yes", "highway": "bus_stop", "name": "Francesc Maci\u00e0", "name:ca": "Francesc Maci\u00e0", "network": "EMT Tarragona", "network:wikidata": "Q28662868", "operator": "EMT Tarragona", "public_transport": "stop_position"}}, {"type": "node", "id": 861022826, "lat": 41.1190475, "lon": 1.2416548, "tags": {"bus": "yes", "highway": "bus_stop", "name": "Oss\u00f3", "operator": "EMT Tarragona", "public_transport": "stop_position"}}, {"type": "node", "id": 861298510, "lat": 41.1139558, "lon": 1.2512079, "tags": {"bus": "yes", "highway": "bus_stop", "name": "Prim", "operator": "EMT Tarragona", "public_transport": "stop_position"}}, {"type": "node", "id": 892702443, "lat": 41.159429, "lon": 1.2685783, "tags": {"bus": "yes", "highway": "bus_stop", "name": "Mas Pastor", "name:ca": "Mas Pastor", "operator": "EMT Tarragona", "public_transport": "stop_position"}}, {"type": "node", "id": 892941160, "lat": 41.1634018, "lon": 1.2442856, "tags": {"bus": "yes", "highway": "bus_stop", "name": "Gaud\u00ed", "name:ca": "Gaud\u00ed", "operator": "EMT Tarragona", "public_transport": "stop_position"}}, {"type": "node", "id": 912172919, "lat": 41.1112245, "lon": 1.2528839}, {"type": "node", "id": 912172963, "lat": 41.1118005, "lon": 1.2534952}, {"type": "node", "id": 912172991, "lat": 41.1116998, "lon": 1.2536096}, {"type": "node", "id": 912173008, "lat": 41.1113221, "lon": 1.2527706}, {"type": "node", "id": 933328547, "lat": 41.340265, "lon": 1.6967169, "tags": {"bench": "yes", "bin": "yes", "bus": "yes", "highway": "bus_stop", "lit": "yes", "name": "Tossa de Mar / Ramon Freixas", "public_transport": "platform", "shelter": "yes", "tactile_paving": "no"}}, {"type": "node", "id": 937874933, "lat": 41.221006, "lon": 1.6597594, "tags": {"bus": "yes", "highway": "bus_stop", "name": "Goya / Gerani (Font)", "public_transport": "stop_position"}}, {"type": "node", "id": 940043081, "lat": 41.2053348, "lon": 1.6876182, "tags": {"bus": "yes", "highway": "bus_stop", "name": "Prat de Vilanova - Nansa 8", "public_transport": "platform"}}, {"type": "node", "id": 950647182, "lat": 41.1205111, "lon": 1.2727576, "tags": {"bus": "yes", "highway": "bus_stop", "name": "Via Augusta (Tuset)", "public_transport": "stop_position"}}, {"type": "node", "id": 1026521665, "lat": 41.1360919, "lon": 1.2493342, "tags": {"bus": "yes", "highway": "bus_stop", "name": "Miramar", "name:ca": "Miramar", "operator": "EMT Tarragona", "public_transport": "stop_position"}}, {"type": "node", "id": 1059960242, "lat": 41.1573445, "lon": 1.2381798, "tags": {"bus": "yes", "highway": "bus_stop", "name": "Siurana", "name:ca": "Siurana", "operator": "EMT Tarragona", "public_transport": "stop_position"}}, {"type": "node", "id": 1059960614, "lat": 41.1557369, "lon": 1.2385806, "tags": {"bus": "yes", "highway": "bus_stop", "name": "Santa Isabel", "operator": "EMT Tarragona", "public_transport": "stop_position"}}, {"type": "node", "id": 1059960756, "lat": 41.1308017, "lon": 1.2398869, "tags": {"bus": "yes", "highway": "bus_stop", "name": "Educacional N-240", "operator": "Transports P\u00fablics de Catalunya", "public_transport": "stop_position"}}, {"type": "node", "id": 1066621422, "lat": 41.1921335, "lon": 1.6048566, "tags": {"bus": "yes", "highway": "bus_stop", "public_transport": "stop_position"}}, {"type": "node", "id": 1134627044, "lat": 41.2262338, "lon": 1.717092, "tags": {"bus": "yes", "highway": "bus_stop", "name": "Carrer de Tarragona - Ord\u00ed", "name:ca": "Carrer de Tarragona - Ord\u00ed", "public_transport": "stop_position"}}, {"type": "node", "id": 1136884106, "lat": 41.2310921, "lon": 1.7277583, "tags": {"bus": "yes", "highway": "bus_stop", "name": "Av. Vilafranca - Cementiri", "public_transport": "stop_position"}}, {"type": "node", "id": 1179458537, "lat": 41.2104425, "lon": 1.6733316, "tags": {"bus": "yes", "highway": "bus_stop", "name": "Pl. Mercat", "public_transport": "stop_position"}}, {"type": "node", "id": 1183194838, "lat": 41.2039113, "lon": 1.6719543, "tags": {"bus": "yes", "highway": "bus_stop", "name": "Pont Adif", "public_transport": "stop_position"}}, {"type": "node", "id": 1194453168, "lat": 41.2004785, "lon": 1.6760014, "tags": {"bus": "yes", "highway": "bus_stop", "name": "Pg. Fluvial / Llevant", "public_transport": "stop_position"}}, {"type": "node", "id": 1220018235, "lat": 41.2046113, "lon": 1.6745306, "tags": {"bus": "yes", "highway": "bus_stop", "name": "Jardins Gaud\u00ed - FFCC", "public_transport": "stop_position"}}, {"type": "node", "id": 1221340961, "lat": 41.2120699, "lon": 1.673544, "tags": {"bus": "yes", "highway": "bus_stop", "name": "CAP", "name:ca": "CAP", "public_transport": "stop_position"}}, {"type": "node", "id": 1222484590, "lat": 41.2188257, "lon": 1.7097035, "tags": {"bus": "yes", "highway": "bus_stop", "name": "Avinguda de l'Aragai - Rambla Arnau de Vilanova", "public_transport": "stop_position"}}, {"type": "node", "id": 1225134312, "lat": 41.2217944, "lon": 1.7020063, "tags": {"bus": "yes", "highway": "bus_stop", "name": "Av. Torre del Vall\u00e8s - Puigmal", "public_transport": "stop_position"}}, {"type": "node", "id": 1226412038, "lat": 41.2190095, "lon": 1.6881231, "tags": {"bus": "yes", "highway": "bus_stop", "name": "Agricultura - Fanga", "public_transport": "stop_position"}}, {"type": "node", "id": 1234654943, "lat": 41.1209701, "lon": 1.261475, "tags": {"bus": "yes", "highway": "bus_stop", "name": "Pg. Torroja, 52", "operator": "EMT Tarragona", "public_transport": "stop_position"}}, {"type": "node", "id": 1235283474, "lat": 41.1984087, "lon": 1.6604985, "tags": {"bus": "yes", "highway": "bus_stop", "name": "Jaume I", "name:ca": "Jaume I", "public_transport": "stop_position"}}, {"type": "node", "id": 1303622811, "lat": 41.2444304, "lon": 1.7237922, "tags": {"bus": "yes", "highway": "bus_stop", "name": "Pol\u00edgon Industrial Marqu\u00e8s / Torre del Veguer", "public_transport": "stop_position"}}, {"type": "node", "id": 1345580747, "lat": 41.1549969, "lon": 1.2441857, "tags": {"bus": "yes", "designation": "Sant Salvador", "highway": "bus_stop", "local_ref": "L85", "name": "Sec\u00e0", "operator": "EMT Tarragona", "public_transport": "platform"}}, {"type": "node", "id": 1345580749, "lat": 41.1529208, "lon": 1.2420104, "tags": {"bus": "yes", "designation": "Sant Salvador", "highway": "bus_stop", "local_ref": "L85", "name": "Comellar", "operator": "EMT Tarragona", "public_transport": "platform"}}, {"type": "node", "id": 1345580750, "lat": 41.1564752, "lon": 1.2460659, "tags": {"bus": "yes", "designation": "Sant Salvador", "highway": "bus_stop", "local_ref": "L85", "name": "Vinyes", "name:ca": "Vinyes", "operator": "EMT Tarragona", "public_transport": "platform"}}, {"type": "node", "id": 1407705757, "lat": 41.1992456, "lon": 1.5586042, "tags": {"bus": "yes", "highway": "bus_stop", "name": "Av. Diagonal Bonanova / Rasa del Meix", "public_transport": "stop_position"}}, {"type": "node", "id": 1407721675, "lat": 41.2275526, "lon": 1.5536422, "tags": {"bus": "yes", "highway": "bus_stop", "name": "Hospital del Vendrell", "public_transport": "stop_position"}}, {"type": "node", "id": 1445278904, "lat": 41.2076261, "lon": 1.5516182, "tags": {"bus": "yes", "highway": "bus_stop", "public_transport": "stop_position", "source": "survey"}}, {"type": "node", "id": 1445278911, "lat": 41.2077214, "lon": 1.5516901, "tags": {"bus": "yes", "highway": "bus_stop", "public_transport": "stop_position", "source": "survey"}}, {"type": "node", "id": 1478861862, "lat": 41.2212502, "lon": 1.5438239, "tags": {"bus": "yes", "highway": "bus_stop", "public_transport": "stop_position"}}, {"type": "node", "id": 1558640678, "lat": 41.2471769, "lon": 1.2976467, "tags": {"bus": "yes", "highway": "bus_stop", "name": "Nulles", "name:ca": "Nulles", "public_transport": "stop_position"}}, {"type": "node", "id": 1634532687, "lat": 41.2208452, "lon": 1.5231675, "tags": {"bus": "yes", "highway": "bus_stop", "public_transport": "platform"}}, {"type": "node", "id": 1644705902, "lat": 41.2183631, "lon": 1.6622062, "tags": {"bus": "yes", "highway": "bus_stop", "name": "Ctra. Corral d'en Cona - Mol\u00ed Nou", "public_transport": "stop_position"}}, {"type": "node", "id": 1644706107, "lat": 41.2249405, "lon": 1.6581762, "tags": {"bus": "yes", "highway": "bus_stop", "name": "Goya (Hostal)", "public_transport": "stop_position"}}, {"type": "node", "id": 1644706110, "lat": 41.224974, "lon": 1.6637486, "tags": {"bus": "yes", "highway": "bus_stop", "name": "Lliri - Mimosa", "public_transport": "stop_position"}}, {"type": "node", "id": 1644706267, "lat": 41.226481, "lon": 1.6600475, "tags": {"bus": "yes", "highway": "bus_stop", "name": "Cam\u00e8lia n\u00ba 38", "public_transport": "stop_position"}}, {"type": "node", "id": 1644706455, "lat": 41.2286269, "lon": 1.6570997, "tags": {"bus": "yes", "highway": "bus_stop", "name": "Goya / Vel\u00e1zquez", "public_transport": "stop_position"}}, {"type": "node", "id": 1644706875, "lat": 41.2313254, "lon": 1.6579542, "tags": {"bus": "yes", "highway": "bus_stop", "name": "Goya / T\u00e0pies", "public_transport": "stop_position"}}, {"type": "node", "id": 1644707188, "lat": 41.2339271, "lon": 1.6553856, "tags": {"bus": "yes", "highway": "bus_stop", "name": "Goya 41", "public_transport": "stop_position"}}, {"type": "node", "id": 1644707384, "lat": 41.2359076, "lon": 1.6512082, "tags": {"bus": "yes", "highway": "bus_stop", "name": "Vel\u00e1zquez / Dal\u00ed", "public_transport": "stop_position"}}, {"type": "node", "id": 1644890242, "lat": 41.2133981, "lon": 1.6165889, "tags": {"bus": "yes", "highway": "bus_stop", "name": "Av. Torre dels Escipions / Autopista", "public_transport": "stop_position"}}, {"type": "node", "id": 1645026828, "lat": 41.1956816, "lon": 1.6187232, "tags": {"bench": "yes", "bus": "yes", "highway": "bus_stop", "name": "La Ponderosa", "name:ca": "La Ponderosa", "public_transport": "stop_position", "shelter": "yes", "wheelchair": "yes"}}, {"type": "node", "id": 1646030428, "lat": 41.2014961, "lon": 1.6173773, "tags": {"bus": "yes", "highway": "bus_stop", "name": "Pl. Jaume I", "network": "Urb\u00e0 de Cunit", "public_transport": "stop_position"}}, {"type": "node", "id": 1647055195, "lat": 41.1957578, "lon": 1.5959723, "tags": {"bus": "yes", "highway": "bus_stop", "name": "Rotonda Col\u00b7legi Moss\u00e8n Cinto / Av. Fran\u00e7a", "name:ca": "Rotonda Col\u00b7legi Moss\u00e8n Cinto / Av. Fran\u00e7a", "public_transport": "stop_position"}}, {"type": "node", "id": 1649599529, "lat": 41.2193098, "lon": 1.5874556, "tags": {"bus": "yes", "highway": "bus_stop", "name": "Isaac Alb\u00e9niz / Enric Granados", "public_transport": "stop_position"}}, {"type": "node", "id": 1649599561, "lat": 41.2199656, "lon": 1.5905035, "tags": {"bus": "yes", "highway": "bus_stop", "name": "Isaac Alb\u00e9niz", "public_transport": "stop_position"}}, {"type": "node", "id": 1655839203, "lat": 41.137767, "lon": 1.2940156, "tags": {"bus": "yes", "highway": "bus_stop", "name": "La Pla\u00e7a", "name:ca": "La Pla\u00e7a", "operator": "EMT Tarragona", "public_transport": "platform"}}, {"type": "node", "id": 1660498606, "lat": 41.1370323, "lon": 1.2578218, "tags": {"bus": "yes", "departures_board": "timetable", "highway": "bus_stop", "name": "Cooperativa T\u00e0rraco", "operator": "EMT Tarragona", "public_transport": "platform", "ref": "25038", "shelter": "yes"}}, {"type": "node", "id": 1662348200, "lat": 41.1390917, "lon": 1.2580987, "tags": {"bus": "yes", "departures_board": "timetable", "highway": "bus_stop", "name": "Violant d'Hongria", "operator": "EMT Tarragona", "public_transport": "platform", "ref": "25202", "shelter": "no"}}, {"type": "node", "id": 1734292117, "lat": 41.2503996, "lon": 1.7192064, "tags": {"bus": "yes", "highway": "bus_stop", "name": "Pol. Ind. Masia d'en Notari (Nord)", "public_transport": "stop_position"}}, {"type": "node", "id": 1746022203, "lat": 41.1333961, "lon": 1.2444895, "tags": {"bench": "no", "bin": "no", "bus": "yes", "highway": "bus_stop", "name": "Comte de Rius", "public_transport": "platform", "shelter": "yes"}}, {"type": "node", "id": 1746022205, "lat": 41.1317247, "lon": 1.2410736, "tags": {"bench": "no", "bus": "yes", "highway": "bus_stop", "name": "Escola d'Art", "name:ca": "Escola d'Art", "public_transport": "platform", "shelter": "no"}}, {"type": "node", "id": 1746022208, "lat": 41.1307073, "lon": 1.2438362, "tags": {"bench": "no", "bus": "yes", "check_date:shelter": "2023-02-15", "highway": "bus_stop", "name": "Joan Molas", "operator": "EMT Tarragona", "public_transport": "platform", "shelter": "no"}}, {"type": "node", "id": 1746022211, "lat": 41.1322946, "lon": 1.2455672, "tags": {"bench": "yes", "bus": "yes", "highway": "bus_stop", "name": "Pa\u00efsos Catalans", "name:ca": "Pa\u00efsos Catalans", "operator": "EMT Tarragona", "public_transport": "platform", "shelter": "yes"}}, {"type": "node", "id": 1746022213, "lat": 41.1338244, "lon": 1.2408592, "tags": {"bench": "no", "bus": "yes", "highway": "bus_stop", "name": "Polit\u00e8cnic", "public_transport": "platform", "shelter": "no"}}, {"type": "node", "id": 1746025372, "lat": 41.1304071, "lon": 1.2404256, "tags": {"bench": "yes", "bus": "yes", "highway": "bus_stop", "name": "Educacional N-240", "operator": "EMT Tarragona", "public_transport": "stop_position", "shelter": "yes"}}, {"type": "node", "id": 1767368354, "lat": 41.229997, "lon": 1.7447969, "tags": {"bus": "yes", "highway": "bus_stop", "name": "Avinguda Catalunya amb Mas d'en Serra (Les Roquetes)", "name:ca": "Avinguda Catalunya amb Mas d'en Serra (Les Roquetes)", "public_transport": "stop_position"}}, {"type": "node", "id": 1767368617, "lat": 41.2302063, "lon": 1.7444303, "tags": {"bus": "yes", "highway": "bus_stop", "name": "Avinguda Catalunya amb Foix (les Roquetes)", "name:ca": "Avinguda Catalunya amb Foix (les Roquetes)", "public_transport": "platform"}}, {"type": "node", "id": 1816051648, "lat": 41.1222664, "lon": 1.2438754, "tags": {"bench": "no", "bus": "yes", "highway": "bus_stop", "name": "Andorra", "public_transport": "platform", "shelter": "no"}}, {"type": "node", "id": 1816051649, "lat": 41.1192995, "lon": 1.2459443, "tags": {"bench": "yes", "bin": "yes", "bus": "yes", "highway": "bus_stop", "lit": "yes", "name": "Pl. Imperial T\u00e0rraco", "public_transport": "platform", "shelter": "no", "tactile_paving": "no"}}, {"type": "node", "id": 1826448112, "lat": 41.138597, "lon": 1.3131157, "tags": {"bus": "yes", "highway": "bus_stop", "name": "Cantallops", "name:ca": "Cantallops", "operator": "EMT Tarragona", "public_transport": "stop_position"}}, {"type": "node", "id": 1837960528, "lat": 41.1369271, "lon": 1.2561467, "tags": {"bench": "no", "bus": "yes", "highway": "bus_stop", "name": "Mas de les Flors", "name:ca": "Mas de les Flors", "operator": "EMT Tarragona", "public_transport": "platform", "shelter": "no"}}, {"type": "node", "id": 1854939160, "lat": 41.1320599, "lon": 1.3068191, "tags": {"bus": "yes", "highway": "bus_stop", "name": "Solmar", "public_transport": "stop_position"}}, {"type": "node", "id": 1877772634, "lat": 41.1229692, "lon": 1.2442427, "tags": {"bus": "yes", "highway": "bus_stop", "name": "4 Garrofers", "operator": "EMT Tarragona", "public_transport": "stop_position"}}, {"type": "node", "id": 1880823896, "lat": 41.1154206, "lon": 1.2570475, "tags": {"bus": "yes", "highway": "bus_stop", "name": "Rambla Vella (Hotel HUSA Imperial Tarraco)", "public_transport": "stop_position"}}, {"type": "node", "id": 1904344576, "lat": 41.2378588, "lon": 1.7549274, "tags": {"bus": "yes", "highway": "bus_stop", "name": "Pol\u00edgon Industrial (Vilanoveta)", "public_transport": "stop_position", "shelter": "yes"}}, {"type": "node", "id": 2043759796, "lat": 41.2330602, "lon": 1.6547106, "tags": {"bus": "yes", "highway": "bus_stop", "name": "Vel\u00e1zquez / Rosales", "public_transport": "stop_position"}}, {"type": "node", "id": 2080093831, "lat": 41.2259056, "lon": 1.7402719, "tags": {"bus": "yes", "highway": "bus_stop", "name": "av. Terrosa - rda. Europa", "public_transport": "stop_position"}}, {"type": "node", "id": 2131502585, "lat": 41.1226756, "lon": 1.2738118, "tags": {"bench": "yes", "bus": "yes", "highway": "bus_stop", "name": "Lloren\u00e7 de Vilalonga", "operator": "EMT Tarragona", "public_transport": "platform", "shelter": "no"}}, {"type": "node", "id": 2242686969, "lat": 41.2207207, "lon": 1.7305609, "tags": {"bus": "yes", "highway": "bus_stop", "name": "Estaci\u00f3 de Vilanova i la Geltr\u00fa | Pl. Eduard Maristany", "name:ca": "Estaci\u00f3 de Vilanova i la Geltr\u00fa | Pl. Eduard Maristany", "operator": "Ajuntament de Vilanova i la Geltr\u00fa", "public_transport": "stop_position", "shelter": "yes"}}, {"type": "node", "id": 2297918016, "lat": 41.2157899, "lon": 1.6766801, "tags": {"bus": "yes", "highway": "bus_stop", "name": "Pl. Ovidi Montllor", "public_transport": "stop_position"}}, {"type": "node", "id": 2357235001, "lat": 41.209091, "lon": 1.6865078, "tags": {"bus": "yes", "highway": "bus_stop", "name": "Parc de Vilanova", "name:ca": "Parc de Vilanova", "public_transport": "stop_position"}}, {"type": "node", "id": 2357235031, "lat": 41.2102787, "lon": 1.6942339, "tags": {"bus": "yes", "highway": "bus_stop", "name": "Mas Escarr\u00e9 (ctra. c-246a PK. 47,8)", "name:ca": "Mas Escarr\u00e9 (ctra. c-246a PK. 47,8)", "public_transport": "stop_position"}}, {"type": "node", "id": 2357235069, "lat": 41.2110241, "lon": 1.7027041, "tags": {"bus": "yes", "destination": "Poble Pescador,Rac\u00f3 de Santa Ll\u00facia;Restaurant la Cucanya", "direction": "forward", "highway": "bus_stop", "name": "Santa Ll\u00facia (ctra. C-246a PK. 47)", "public_transport": "stop_position", "side": "right", "traffic_sign": "ES:S320", "turn:destination": "left"}}, {"type": "node", "id": 2401393805, "lat": 41.2015056, "lon": 1.6731776, "tags": {"bus": "yes", "highway": "bus_stop", "name": "Pla de Sant Pere", "name:ca": "Pla de Sant Pere", "public_transport": "stop_position"}}, {"type": "node", "id": 2404035178, "lat": 41.1213538, "lon": 1.2707089, "tags": {"bus": "yes", "highway": "bus_stop", "name": "Vall de l'Arrabassada", "name:ca": "Vall de l'Arrabassada", "operator": "EMT Tarragona", "public_transport": "stop_position"}}, {"type": "node", "id": 2430646003, "lat": 41.1986631, "lon": 1.6347264, "tags": {"bench": "yes", "bus": "yes", "highway": "bus_stop", "name": "Cunit Poble", "name:ca": "Cunit Poble", "operator": "Monbus", "public_transport": "stop_position", "shelter": "yes", "wheelchair": "yes"}}, {"type": "node", "id": 2430646004, "lat": 41.1988487, "lon": 1.6350575, "tags": {"bench": "yes", "bus": "yes", "highway": "bus_stop", "name": "Cunit Poble", "name:ca": "Cunit Poble", "operator": "Monbus", "public_transport": "stop_position", "shelter": "yes", "wheelchair": "yes"}}, {"type": "node", "id": 2430646027, "lat": 41.1954697, "lon": 1.6188255, "tags": {"bench": "yes", "bus": "yes", "highway": "bus_stop", "name": "La Ponderosa", "name:ca": "La Ponderosa", "public_transport": "stop_position", "shelter": "no", "wheelchair": "yes"}}, {"type": "node", "id": 2431071434, "lat": 41.1969654, "lon": 1.6242897, "tags": {"bench": "yes", "bus": "yes", "highway": "bus_stop", "name": "El Prat de Cunit - C.A.P. Cunit", "public_transport": "stop_position", "shelter": "no", "wheelchair": "yes"}}, {"type": "node", "id": 2431071438, "lat": 41.1971747, "lon": 1.6241066, "tags": {"bench": "yes", "bus": "yes", "highway": "bus_stop", "name": "El Prat de Cunit - C.A.P. Cunit", "public_transport": "stop_position", "shelter": "no", "wheelchair": "yes"}}, {"type": "node", "id": 2431071441, "lat": 41.1945211, "lon": 1.6149986, "tags": {"bench": "no", "bus": "yes", "highway": "bus_stop", "name": "SEGUR - Suma | CUNIT - Av. Barcelona/Av. Mediterrani", "public_transport": "platform", "shelter": "no", "wheelchair": "yes"}}, {"type": "node", "id": 2431071444, "lat": 41.1943261, "lon": 1.6142165, "tags": {"bench": "no", "bus": "yes", "highway": "bus_stop", "name": "SEGUR - Suma | CUNIT - Av. Barcelona/Av. Mediterrani", "public_transport": "stop_position", "shelter": "no", "wheelchair": "yes"}}, {"type": "node", "id": 2431071447, "lat": 41.2000258, "lon": 1.6432156, "tags": {"bus": "yes", "highway": "bus_stop", "name": "Camping La Roda", "public_transport": "stop_position"}}, {"type": "node", "id": 2459113147, "lat": 41.201735, "lon": 1.6496019, "tags": {"bus": "yes", "highway": "bus_stop", "name": "Carrefour - Pol\u00edgon Industrial Les Salines | Lateral C-31 - Zona Comercial", "public_transport": "stop_position", "shelter": "yes"}}, {"type": "node", "id": 2459113148, "lat": 41.2017822, "lon": 1.6480533, "tags": {"bus": "yes", "highway": "bus_stop", "name": "Carrefour - Parc de Cubelles", "public_transport": "stop_position"}}, {"type": "node", "id": 2459113173, "lat": 41.2032513, "lon": 1.6562629, "tags": {"bus": "yes", "highway": "bus_stop", "name": "T\u00e8rmica - La Solana", "public_transport": "stop_position", "shelter": "yes"}}, {"type": "node", "id": 2459113174, "lat": 41.203574, "lon": 1.6563318, "tags": {"bus": "yes", "highway": "bus_stop", "name": "T\u00e8rmica - La Solana", "public_transport": "stop_position", "shelter": "yes"}}, {"type": "node", "id": 2459119555, "lat": 41.2074226, "lon": 1.6731391, "tags": {"bus": "yes", "highway": "bus_stop", "name": "Cubelles Centre | Pg. Bardaj\u00ed - Av. Catalunya", "public_transport": "platform", "shelter": "yes"}}, {"type": "node", "id": 2459130693, "lat": 41.2093084, "lon": 1.6875852, "tags": {"bus": "yes", "highway": "bus_stop", "name": "Parc de Vilanova", "name:ca": "Parc de Vilanova", "public_transport": "stop_position"}}, {"type": "node", "id": 2459139994, "lat": 41.1935464, "lon": 1.6062566, "tags": {"bus": "yes", "highway": "bus_stop", "name": "Segur de Calafell - Centre | Pl. Mediterr\u00e0ni", "public_transport": "stop_position", "shelter": "yes"}}, {"type": "node", "id": 2459139995, "lat": 41.1931647, "lon": 1.6056177, "tags": {"bus": "yes", "highway": "bus_stop", "name": "Segur de Calafell - Centre", "public_transport": "stop_position", "shelter": "no"}}, {"type": "node", "id": 2459146358, "lat": 41.1921353, "lon": 1.5978253, "tags": {"bus": "yes", "highway": "bus_stop", "name": "El Punt de les Pintures | Ctra. Barcelona - Av. Fran\u00e7a", "public_transport": "stop_position"}}, {"type": "node", "id": 2459146359, "lat": 41.1920453, "lon": 1.5975467, "tags": {"bus": "yes", "highway": "bus_stop", "name": "El Punt de les Pintures", "public_transport": "stop_position"}}, {"type": "node", "id": 2459154525, "lat": 41.1919103, "lon": 1.5906745, "tags": {"bus": "yes", "departures_board": "no", "highway": "bus_stop", "name": "Carretera C-31", "public_transport": "platform"}}, {"type": "node", "id": 2459154528, "lat": 41.1913866, "lon": 1.5832572, "tags": {"bus": "yes", "highway": "bus_stop", "name": "Bellamar", "name:ca": "Bellamar", "public_transport": "stop_position"}}, {"type": "node", "id": 2459154531, "lat": 41.1911956, "lon": 1.5821628, "tags": {"bus": "yes", "highway": "bus_stop", "name": "Bellamar | Ctra. Barcelona - Bellamar", "public_transport": "platform"}}, {"type": "node", "id": 2459154534, "lat": 41.1914038, "lon": 1.5771682, "tags": {"bus": "yes", "highway": "bus_stop", "name": "Alorda Parc", "name:ca": "Alorda Parc", "public_transport": "stop_position"}}, {"type": "node", "id": 2460776350, "lat": 41.1899187, "lon": 1.5747719, "tags": {"bus": "yes", "highway": "bus_stop", "name": "Platja de Calafell - Estaci\u00f3 de Calafell", "name:ca": "Platja de Calafell - Estaci\u00f3 de Calafell", "public_transport": "platform"}}, {"type": "node", "id": 2460779529, "lat": 41.19737, "lon": 1.5687928, "tags": {"bus": "yes", "highway": "bus_stop", "name": "Calafell Poble | Av. Moss\u00e8n Jaume Tobella / Pg. de la Uni\u00f3", "public_transport": "stop_position", "shelter": "yes"}}, {"type": "node", "id": 2460779531, "lat": 41.19843, "lon": 1.5679376, "tags": {"bus": "yes", "highway": "bus_stop", "name": "Calafell Poble | Av. Moss\u00e8n Jaume Tobella / M\u00e0rtirs", "public_transport": "stop_position", "public_transport:version": "2"}}, {"type": "node", "id": 2460822747, "lat": 41.221968, "lon": 1.7214531, "tags": {"bus": "yes", "highway": "bus_stop", "name": "Pelegr\u00ed Ballester - Pl. Pobles d'Espanya", "public_transport": "stop_position"}}, {"type": "node", "id": 2654366167, "lat": 41.1246251, "lon": 1.2746718, "tags": {"bus": "yes", "highway": "bus_stop", "name": "Estadi", "name:ca": "Estadi", "operator": "EMT Tarragona", "public_transport": "platform", "shelter": "no"}}, {"type": "node", "id": 2656774488, "lat": 41.2542718, "lon": 1.7658061, "tags": {"bus": "yes", "highway": "bus_stop", "name": "Hospital Sant Camil", "public_transport": "stop_position", "shelter": "yes"}}, {"type": "node", "id": 2713026494, "lat": 41.1921725, "lon": 1.2735682, "tags": {"name": "Camp de Tarragona", "name:ca": "Camp de Tarragona", "name:es": "Campo de Tarragona", "network": "AVE", "operator": "Adif", "public_transport": "station", "railway": "station", "train": "yes", "website": "https://www.adif.es/-/04104-camp-de-tarragona", "wheelchair": "yes", "wikidata": "Q3096129", "wikipedia": "ca:Estaci\u00f3 del Camp de Tarragona"}}, {"type": "node", "id": 2714956877, "lat": 41.255807, "lon": 1.6524973, "tags": {"bus": "yes", "highway": "bus_stop", "name": "BV-2115 Pant\u00e0 del Foix", "public_transport": "stop_position"}}, {"type": "node", "id": 2772257888, "lat": 41.2137566, "lon": 1.6734724, "tags": {"bus": "yes", "highway": "bus_stop", "name": "Cementiri", "name:ca": "Cementiri", "public_transport": "stop_position"}}, {"type": "node", "id": 2772257892, "lat": 41.2057895, "lon": 1.6704089, "tags": {"bus": "yes", "highway": "bus_stop", "name": "Av. Riera", "public_transport": "stop_position"}}, {"type": "node", "id": 2780450266, "lat": 41.2022301, "lon": 1.6738235, "tags": {"bus": "yes", "highway": "bus_stop", "name": "Pg. Fluvial / Lleida", "public_transport": "platform"}}, {"type": "node", "id": 2780450268, "lat": 41.2004703, "lon": 1.6601247, "tags": {"bus": "yes", "highway": "bus_stop", "name": "Poliesportiu Municipal", "name:ca": "Poliesportiu Municipal", "public_transport": "stop_position"}}, {"type": "node", "id": 2780505946, "lat": 41.2005529, "lon": 1.6684123, "tags": {"bus": "yes", "highway": "bus_stop", "name": "Pompeu Fabra - IES", "public_transport": "stop_position"}}, {"type": "node", "id": 2780505948, "lat": 41.1988404, "lon": 1.6589281, "tags": {"bus": "yes", "highway": "bus_stop", "name": "Pompeu Fabra", "name:ca": "Pompeu Fabra", "public_transport": "stop_position"}}, {"type": "node", "id": 2780505950, "lat": 41.19807, "lon": 1.6544858, "tags": {"bus": "yes", "highway": "bus_stop", "name": "Pau Clar\u00eds", "public_transport": "stop_position"}}, {"type": "node", "id": 2780505955, "lat": 41.1979344, "lon": 1.654511, "tags": {"bus": "yes", "highway": "bus_stop", "name": "Pau Clar\u00eds", "public_transport": "stop_position"}}, {"type": "node", "id": 2780505960, "lat": 41.1993399, "lon": 1.669721, "tags": {"bus": "yes", "highway": "bus_stop", "name": "Jaume I - IES", "public_transport": "stop_position"}}, {"type": "node", "id": 2780505965, "lat": 41.2014414, "lon": 1.6773135, "tags": {"bus": "yes", "highway": "bus_stop", "name": "Pl. del Mar", "public_transport": "stop_position"}}, {"type": "node", "id": 2780505967, "lat": 41.202659, "lon": 1.6796531, "tags": {"bus": "yes", "highway": "bus_stop", "name": "C. Mallorca / Bruc 7", "public_transport": "stop_position"}}, {"type": "node", "id": 2780505968, "lat": 41.2038994, "lon": 1.6758447, "tags": {"bus": "yes", "highway": "bus_stop", "name": "11 de Setembre - Renfe Mar", "public_transport": "platform"}}, {"type": "node", "id": 2780505969, "lat": 41.2073772, "lon": 1.6732772, "tags": {"bus": "yes", "highway": "bus_stop", "name": "Cubelles Centre | Pg. Bardaj\u00ed - Av. Catalunya", "public_transport": "platform"}}, {"type": "node", "id": 2780505971, "lat": 41.2088705, "lon": 1.6744277, "tags": {"bus": "yes", "highway": "bus_stop", "name": "C. \u00c0ngel Guimer\u00e0 (Pl. de la Font)", "public_transport": "platform"}}, {"type": "node", "id": 2780505973, "lat": 41.2102843, "lon": 1.6748933, "tags": {"bus": "yes", "highway": "bus_stop", "name": "Pg. Vilanova - C/ Rocacrespa", "public_transport": "stop_position"}}, {"type": "node", "id": 2780505974, "lat": 41.2115377, "lon": 1.675263, "tags": {"bus": "yes", "highway": "bus_stop", "name": "Pg. Vilanova - Escola", "public_transport": "stop_position"}}, {"type": "node", "id": 2780512794, "lat": 41.2211346, "lon": 1.6601532, "tags": {"bus": "yes", "highway": "bus_stop", "name": "Font Mas Trader", "public_transport": "stop_position"}}, {"type": "node", "id": 2780512795, "lat": 41.2237159, "lon": 1.6618938, "tags": {"bus": "yes", "highway": "bus_stop", "name": "Clavell", "public_transport": "stop_position"}}, {"type": "node", "id": 2780512800, "lat": 41.2272465, "lon": 1.6636196, "tags": {"bus": "yes", "highway": "bus_stop", "name": "Begonia / Assutzena", "public_transport": "stop_position"}}, {"type": "node", "id": 2780512802, "lat": 41.2287766, "lon": 1.6576121, "tags": {"bus": "yes", "highway": "bus_stop", "name": "Goya / Vel\u00e1zquez", "public_transport": "stop_position"}}, {"type": "node", "id": 2800855205, "lat": 41.1985031, "lon": 1.5992082, "tags": {"bus": "yes", "highway": "bus_stop", "name": "Pl. Espanya / Poliesportiu Jaume Vilamajor", "public_transport": "stop_position"}}, {"type": "node", "id": 2808661745, "lat": 41.2183184, "lon": 1.5363071, "tags": {"bus": "yes", "highway": "bus_stop", "name": "Estaci\u00f3 d'Autobusos d'El Vendrell", "operator": "Ajuntament d'El Vendrell", "public_transport": "stop_position", "shelter": "yes"}}, {"type": "node", "id": 2817743384, "lat": 41.228533, "lon": 1.6921678, "tags": {"bus": "yes", "highway": "bus_stop", "name": "Margall\u00f3 - Av. Riu Foix", "public_transport": "stop_position"}}, {"type": "node", "id": 2817743386, "lat": 41.2258395, "lon": 1.694475, "tags": {"bus": "yes", "highway": "bus_stop", "name": "Av. Sis Camins - Cam\u00ed Mas Palau", "public_transport": "stop_position"}}, {"type": "node", "id": 2817743387, "lat": 41.2237528, "lon": 1.6942972, "tags": {"bus": "yes", "highway": "bus_stop", "name": "Pla\u00e7a dels Sis Camins", "name:ca": "Pla\u00e7a dels Sis Camins", "public_transport": "stop_position"}}, {"type": "node", "id": 2817743388, "lat": 41.224714, "lon": 1.7012149, "tags": {"bus": "yes", "highway": "bus_stop", "name": "Av. Rocacrespa - Cad\u00ed", "public_transport": "stop_position"}}, {"type": "node", "id": 2817743389, "lat": 41.2251373, "lon": 1.7052318, "tags": {"bus": "yes", "highway": "bus_stop", "name": "Av. Rocacrespa - Riu Segura", "public_transport": "stop_position"}}, {"type": "node", "id": 2817743390, "lat": 41.2199023, "lon": 1.7121232, "tags": {"bus": "yes", "highway": "bus_stop", "name": "Dr Zamenhof - Jardins Mol\u00ed de Vent", "public_transport": "stop_position"}}, {"type": "node", "id": 2817743396, "lat": 41.2130856, "lon": 1.7204919, "tags": {"bus": "yes", "highway": "bus_stop", "name": "Pg. Ribes Roges - Roger de Ll\u00faria", "public_transport": "stop_position"}}, {"type": "node", "id": 2817743502, "lat": 41.2126227, "lon": 1.7180788, "tags": {"bus": "yes", "highway": "bus_stop", "name": "Pg. Ribes Roges - Rda. Mar Mediterr\u00e0nia", "public_transport": "stop_position"}}, {"type": "node", "id": 2817743503, "lat": 41.2143379, "lon": 1.7244784, "tags": {"bus": "yes", "highway": "bus_stop", "name": "Pg. Ribes Roges - Torre Ribes Roges", "public_transport": "stop_position"}}, {"type": "node", "id": 2817743504, "lat": 41.2151877, "lon": 1.7278449, "tags": {"bus": "yes", "highway": "bus_stop", "name": "Pg. Carme - Rbla. Pirelli", "public_transport": "stop_position"}}, {"type": "node", "id": 2817743505, "lat": 41.2158976, "lon": 1.7308982, "tags": {"bus": "yes", "highway": "bus_stop", "name": "Pg. Mar\u00edtim - Gas", "public_transport": "stop_position"}}, {"type": "node", "id": 2817743506, "lat": 41.2170482, "lon": 1.7349796, "tags": {"bus": "yes", "highway": "bus_stop", "name": "Passeig Mar\u00edtim - Fassina", "name:ca": "Passeig Mar\u00edtim - Fassina", "public_transport": "stop_position"}}, {"type": "node", "id": 2817743507, "lat": 41.2191814, "lon": 1.7302837, "tags": {"bus": "yes", "highway": "bus_stop", "name": "\u00c0ncora - Mercat de Mar", "public_transport": "platform"}}, {"type": "node", "id": 2817743508, "lat": 41.2190035, "lon": 1.7297123, "tags": {"bus": "yes", "highway": "bus_stop", "name": "\u00c0ncora - Mercat de Mar", "public_transport": "platform"}}, {"type": "node", "id": 2817743509, "lat": 41.2203721, "lon": 1.7282841, "tags": {"bus": "yes", "highway": "bus_stop", "name": "Llibertat - Forn de Vidre", "public_transport": "stop_position"}}, {"type": "node", "id": 2817743510, "lat": 41.2210702, "lon": 1.7268719, "tags": {"bus": "yes", "highway": "bus_stop", "name": "Rbla. J. Ventosa - Rbla. Pau", "public_transport": "stop_position"}}, {"type": "node", "id": 2817743511, "lat": 41.2225349, "lon": 1.7247516, "tags": {"bus": "yes", "highway": "bus_stop", "name": "Llanza - CAP Jaume I", "public_transport": "stop_position"}}, {"type": "node", "id": 2817743512, "lat": 41.2233582, "lon": 1.7269416, "tags": {"bus": "yes", "highway": "bus_stop", "name": "Pl. Soler i Gustems", "public_transport": "stop_position"}}, {"type": "node", "id": 2817743513, "lat": 41.2242376, "lon": 1.7284369, "tags": {"bus": "yes", "highway": "bus_stop", "name": "Uni\u00f3 - Provid\u00e8ncia", "public_transport": "stop_position"}}, {"type": "node", "id": 2817743515, "lat": 41.2268028, "lon": 1.7271754, "tags": {"bus": "yes", "highway": "bus_stop", "name": "Pla\u00e7a del Pou", "public_transport": "platform"}}, {"type": "node", "id": 2817743516, "lat": 41.2292657, "lon": 1.7282988, "tags": {"bus": "yes", "highway": "bus_stop", "name": "Raval de Santa Magdalena", "name:ca": "Raval de Santa Magdalena", "public_transport": "stop_position"}}, {"type": "node", "id": 2817743518, "lat": 41.2320695, "lon": 1.7276091, "tags": {"bus": "yes", "highway": "bus_stop", "name": "Av. Vilafranca - Escola Ginesta", "public_transport": "stop_position"}}, {"type": "node", "id": 2817743519, "lat": 41.2342653, "lon": 1.7277087, "tags": {"bus": "yes", "highway": "bus_stop", "name": "Pl. Sol", "public_transport": "stop_position"}}, {"type": "node", "id": 2817743520, "lat": 41.2358027, "lon": 1.7270057, "tags": {"bus": "yes", "highway": "bus_stop", "name": "Val\u00e8ncia - Saragossa", "public_transport": "stop_position"}}, {"type": "node", "id": 2817743521, "lat": 41.2350988, "lon": 1.7265358, "tags": {"bus": "yes", "highway": "bus_stop", "name": "Av. Vilafranca", "public_transport": "stop_position"}}, {"type": "node", "id": 2817743522, "lat": 41.2412989, "lon": 1.7266824, "tags": {"bus": "yes", "highway": "bus_stop", "name": "Cal\u00e7 / Multicinemes", "name:2021": "Vila Lauren", "public_transport": "stop_position"}}, {"type": "node", "id": 2817743523, "lat": 41.2419743, "lon": 1.7245381, "tags": {"bus": "yes", "highway": "bus_stop", "name": "Cal\u00e7", "public_transport": "stop_position"}}, {"type": "node", "id": 2817743524, "lat": 41.2444681, "lon": 1.723801, "tags": {"bus": "yes", "highway": "bus_stop", "name": "Pol\u00edgon Industrial Marqu\u00e8s / Torre del Veguer", "public_transport": "platform"}}, {"type": "node", "id": 2817743526, "lat": 41.2477801, "lon": 1.7195959, "tags": {"bus": "yes", "highway": "bus_stop", "name": "Pol. Ind. Masia d'en Notari (sud)", "public_transport": "stop_position"}}, {"type": "node", "id": 2817743527, "lat": 41.2442201, "lon": 1.7227029, "tags": {"bus": "yes", "highway": "bus_stop", "name": "Coll d'en Ferran - Cam\u00ed Ral", "public_transport": "stop_position"}}, {"type": "node", "id": 2817743528, "lat": 41.2432679, "lon": 1.7215432, "tags": {"bus": "yes", "highway": "bus_stop", "name": "Pol. Ind. Masia d'en Frederic", "public_transport": "stop_position"}}, {"type": "node", "id": 2817743529, "lat": 41.2397171, "lon": 1.7254746, "tags": {"bus": "yes", "highway": "bus_stop", "name": "Pol\u00edgon Industrial Masia d'en Barreres", "name:ca": "Pol\u00edgon Industrial Masia d'en Barreres", "public_transport": "stop_position"}}, {"type": "node", "id": 2817743530, "lat": 41.229983, "lon": 1.7260439, "tags": {"bus": "yes", "highway": "bus_stop", "name": "Pl. Moixiganga", "public_transport": "platform"}}, {"type": "node", "id": 2817743531, "lat": 41.2283922, "lon": 1.7251024, "tags": {"bus": "yes", "highway": "bus_stop", "name": "Pl. Casernes", "public_transport": "stop_position"}}, {"type": "node", "id": 2817743532, "lat": 41.2286634, "lon": 1.722917, "tags": {"bus": "yes", "highway": "bus_stop", "name": "Sant Josep - Hospital", "public_transport": "stop_position"}}, {"type": "node", "id": 2817743533, "lat": 41.2268496, "lon": 1.7192871, "tags": {"bus": "yes", "highway": "bus_stop", "name": "Tarragona - Pl. Cubilot", "public_transport": "stop_position"}}, {"type": "node", "id": 2817743534, "lat": 41.2261821, "lon": 1.7182777, "tags": {"bus": "yes", "highway": "bus_stop", "name": "Pare Gar\u00ed - Pl. F\u00e0brica Nova", "public_transport": "stop_position"}}, {"type": "node", "id": 2817743535, "lat": 41.2242367, "lon": 1.7219182, "tags": {"bus": "yes", "highway": "bus_stop", "name": "Rbla. Salvador Sam\u00e0 - Jard\u00ed", "public_transport": "stop_position"}}, {"type": "node", "id": 2817743536, "lat": 41.2221099, "lon": 1.7232435, "tags": {"bus": "yes", "highway": "bus_stop", "name": "Rambla Salvador Sam\u00e0 - Escola Pompeu Fabra", "public_transport": "stop_position"}}, {"type": "node", "id": 2817743537, "lat": 41.219192, "lon": 1.7250606, "tags": {"bus": "yes", "highway": "bus_stop", "name": "Parc Gum\u00e0 i Ferran", "name:ca": "Parc Gum\u00e0 i Ferran", "public_transport": "stop_position"}}, {"type": "node", "id": 2817743538, "lat": 41.2197497, "lon": 1.7274296, "tags": {"bus": "yes", "highway": "bus_stop", "name": "Can Pahissa", "public_transport": "stop_position"}}, {"type": "node", "id": 2817743539, "lat": 41.2174597, "lon": 1.7313087, "tags": {"bus": "yes", "highway": "bus_stop", "name": "Balears - Pl. Marina", "public_transport": "stop_position"}}, {"type": "node", "id": 2817743540, "lat": 41.213772, "lon": 1.7181193, "tags": {"bus": "yes", "highway": "bus_stop", "name": "Alexandre de Cabanyes - Rda. Mar Mediterr\u00e0nia", "public_transport": "stop_position"}}, {"type": "node", "id": 2817743541, "lat": 41.2153669, "lon": 1.7217259, "tags": {"bus": "yes", "highway": "bus_stop", "name": "Pl. Consolat de Mar", "public_transport": "stop_position"}}, {"type": "node", "id": 2817743542, "lat": 41.2284564, "lon": 1.6919033, "tags": {"bus": "yes", "highway": "bus_stop", "name": "Av. Riu Foix - Margall\u00f3", "public_transport": "stop_position"}}, {"type": "node", "id": 2817794610, "lat": 41.2174642, "lon": 1.6910673, "tags": {"bus": "yes", "highway": "bus_stop", "name": "Avinguda de Somella - Ronda Am\u00e8rica", "name:ca": "Avinguda de Somella - Ronda Am\u00e8rica", "public_transport": "stop_position"}}, {"type": "node", "id": 2817794611, "lat": 41.220453, "lon": 1.6916261, "tags": {"bus": "yes", "highway": "bus_stop", "name": "Av. Somella - Estaca", "public_transport": "stop_position"}}, {"type": "node", "id": 2817794612, "lat": 41.2219495, "lon": 1.6933302, "tags": {"bus": "yes", "highway": "bus_stop", "name": "Av. Somella - Aixada", "public_transport": "stop_position"}}, {"type": "node", "id": 2817794613, "lat": 41.2234402, "lon": 1.6947086, "tags": {"bus": "yes", "highway": "bus_stop", "name": "Av. Torre del Vall\u00e8s - Av. Somella", "public_transport": "stop_position"}}, {"type": "node", "id": 2817794615, "lat": 41.2225001, "lon": 1.6989184, "tags": {"bus": "yes", "highway": "bus_stop", "name": "Av. Torre del Vall\u00e8s - Rosers", "public_transport": "stop_position"}}, {"type": "node", "id": 2817794616, "lat": 41.2221515, "lon": 1.6979923, "tags": {"bus": "yes", "highway": "bus_stop", "name": "Av. Torre del Vall\u00e8s - Av. Sis Camins", "public_transport": "stop_position"}}, {"type": "node", "id": 2817794619, "lat": 41.2222423, "lon": 1.704981, "tags": {"bus": "yes", "highway": "bus_stop", "name": "Rbla. Arnau de Vilanova - Escola \u00cdtaca", "public_transport": "stop_position"}}, {"type": "node", "id": 2817794620, "lat": 41.2224138, "lon": 1.7048295, "tags": {"bus": "yes", "highway": "bus_stop", "name": "Rbla. Arnau de Vilanova - Av. Collada", "public_transport": "stop_position"}}, {"type": "node", "id": 2817794621, "lat": 41.2200656, "lon": 1.7039226, "tags": {"bus": "yes", "highway": "bus_stop", "name": "Av. Torre del Vall\u00e8s - Rda. Ib\u00e8rica", "public_transport": "stop_position"}}, {"type": "node", "id": 2817794622, "lat": 41.2167624, "lon": 1.7067725, "tags": {"bus": "yes", "highway": "bus_stop", "name": "Av. Torre del Vall\u00e8s - Av. Aragai", "public_transport": "stop_position"}}, {"type": "node", "id": 2817794623, "lat": 41.2188013, "lon": 1.7097209, "tags": {"bus": "yes", "highway": "bus_stop", "name": "Avinguda de l'Aragai - Rambla Arnau de Vilanova", "public_transport": "platform"}}, {"type": "node", "id": 2817794624, "lat": 41.2261416, "lon": 1.7140924, "tags": {"bus": "yes", "highway": "bus_stop", "name": "Rda. Ib\u00e8rica - Lepant", "public_transport": "stop_position"}}, {"type": "node", "id": 2817794625, "lat": 41.2259809, "lon": 1.7157078, "tags": {"bus": "yes", "highway": "bus_stop", "name": "Josep Coroleu - Torre d'Enveja", "public_transport": "stop_position"}}, {"type": "node", "id": 2817794626, "lat": 41.2232606, "lon": 1.7186094, "tags": {"bus": "yes", "highway": "bus_stop", "name": "Pla\u00e7a Xoriguer (Carrer Jard\u00ed)", "name:ca": "Pla\u00e7a Xoriguer", "public_transport": "stop_position"}}, {"type": "node", "id": 2817794627, "lat": 41.2232946, "lon": 1.7343749, "tags": {"bus": "yes", "highway": "bus_stop", "name": "Rbla. Exposici\u00f3 - Ventosa i Roig", "public_transport": "stop_position"}}, {"type": "node", "id": 2817794628, "lat": 41.2278057, "lon": 1.7308624, "tags": {"bus": "yes", "highway": "bus_stop", "name": "Rbla. Sant Jordi - Escola Sant Jordi", "public_transport": "platform"}}, {"type": "node", "id": 2817794629, "lat": 41.2277425, "lon": 1.7306327, "tags": {"bus": "yes", "highway": "bus_stop", "name": "Rbla. Sant Jordi - Mare Isabel Ventosa", "public_transport": "stop_position"}}, {"type": "node", "id": 2817794630, "lat": 41.2301887, "lon": 1.7298369, "tags": {"bus": "yes", "highway": "bus_stop", "name": "Rbla. Sant Jordi - Rda. Ib\u00e8rica (Aldi)", "public_transport": "stop_position"}}, {"type": "node", "id": 2817794631, "lat": 41.2299362, "lon": 1.7296803, "tags": {"bus": "yes", "highway": "bus_stop", "name": "Rbla. Sant Jordi - Creu de Xirivia", "public_transport": "stop_position"}}, {"type": "node", "id": 2817794632, "lat": 41.2309719, "lon": 1.7321191, "tags": {"bus": "yes", "highway": "bus_stop", "name": "Rda. Ib\u00e8rica - CEM Parc del Garraf", "public_transport": "stop_position"}}, {"type": "node", "id": 2817794633, "lat": 41.2308827, "lon": 1.7325574, "tags": {"bus": "yes", "highway": "bus_stop", "name": "Rda. Ib\u00e8rica - CEM Parc del Garraf", "public_transport": "stop_position"}}, {"type": "node", "id": 2817794634, "lat": 41.2315053, "lon": 1.7355039, "tags": {"bus": "yes", "highway": "bus_stop", "name": "Rda. Ib\u00e8rica - Ronda Europa", "public_transport": "stop_position"}}, {"type": "node", "id": 2817794635, "lat": 41.2317797, "lon": 1.7392627, "tags": {"bus": "yes", "highway": "bus_stop", "name": "Tanatori", "name:ca": "Tanatori", "public_transport": "stop_position"}}, {"type": "node", "id": 2817794636, "lat": 41.2326364, "lon": 1.7384458, "tags": {"bus": "yes", "highway": "bus_stop", "name": "Rda. Ib\u00e8rica - Guillem Rovirosa", "public_transport": "stop_position"}}, {"type": "node", "id": 2817794637, "lat": 41.2207277, "lon": 1.7227935, "tags": {"bus": "yes", "direction": "forward", "highway": "bus_stop", "name": "Pare Gar\u00ed - Avinguda de Cubelles", "public_transport": "stop_position", "side": "right"}}, {"type": "node", "id": 2817794639, "lat": 41.2253498, "lon": 1.7151136, "tags": {"bus": "yes", "highway": "bus_stop", "name": "Torre d'Enveja - Bruc", "public_transport": "stop_position"}}, {"type": "node", "id": 2817794640, "lat": 41.2242451, "lon": 1.713625, "tags": {"bus": "yes", "highway": "bus_stop", "name": "Torre de l'Enveja - Ermita de St. Joan", "public_transport": "stop_position"}}, {"type": "node", "id": 2817794641, "lat": 41.2225993, "lon": 1.6921483, "tags": {"bus": "yes", "highway": "bus_stop", "name": "Agricultura - Aixada", "public_transport": "stop_position"}}, {"type": "node", "id": 2817794642, "lat": 41.220957, "lon": 1.6876919, "tags": {"bus": "yes", "highway": "bus_stop", "name": "Agricultura - Estaca", "public_transport": "stop_position"}}, {"type": "node", "id": 2817947203, "lat": 41.2273206, "lon": 1.6042537, "tags": {"bus": "yes", "highway": "bus_stop", "name": "Ginesta / Violeta", "public_transport": "stop_position"}}, {"type": "node", "id": 2817947204, "lat": 41.2305489, "lon": 1.6043791, "tags": {"bus": "yes", "highway": "bus_stop", "name": "Ginesta / Clavell", "public_transport": "platform"}}, {"type": "node", "id": 2817947205, "lat": 41.2319722, "lon": 1.6075819, "tags": {"bus": "yes", "highway": "bus_stop", "name": "Mas\u00eda Valldemar", "public_transport": "platform"}}, {"type": "node", "id": 2817947206, "lat": 41.2290495, "lon": 1.6128316, "tags": {"bus": "yes", "highway": "bus_stop", "name": "Carrer de la Rosa", "name:ca": "Carrer de la Rosa", "public_transport": "platform"}}, {"type": "node", "id": 2817947207, "lat": 41.2271719, "lon": 1.6137573, "tags": {"bus": "yes", "highway": "bus_stop", "name": "Rosa / Margarita", "public_transport": "platform"}}, {"type": "node", "id": 2817947208, "lat": 41.2276143, "lon": 1.6113449, "tags": {"bus": "yes", "highway": "bus_stop", "name": "Narc\u00eds", "public_transport": "platform"}}, {"type": "node", "id": 2817947209, "lat": 41.2262586, "lon": 1.6084426, "tags": {"bus": "yes", "highway": "bus_stop", "name": "Narc\u00eds / Av. Sta. Mar\u00eda de Montserrat", "public_transport": "platform"}}, {"type": "node", "id": 2817947211, "lat": 41.2255583, "lon": 1.6125052, "tags": {"bus": "yes", "highway": "bus_stop", "name": "Av. Marca Hisp\u00e0nica / Molina", "public_transport": "platform"}}, {"type": "node", "id": 2817947212, "lat": 41.2252969, "lon": 1.615937, "tags": {"bus": "yes", "highway": "bus_stop", "name": "Av. Marca Hisp\u00e0nica / Cadaqu\u00e9s", "public_transport": "platform"}}, {"type": "node", "id": 2817947213, "lat": 41.2239086, "lon": 1.6185013, "tags": {"bus": "yes", "highway": "bus_stop", "name": "Av. Marca Hisp\u00e0nica / Devesa de Girona", "public_transport": "platform"}}, {"type": "node", "id": 2817947214, "lat": 41.2186746, "lon": 1.6178797, "tags": {"bus": "yes", "highway": "bus_stop", "name": "Av. Marca Hisp\u00e0nica / Av. Torre dels Escipions", "public_transport": "platform"}}, {"type": "node", "id": 2817947216, "lat": 41.2101915, "lon": 1.6114306, "tags": {"bus": "yes", "highway": "bus_stop", "name": "Av. Marca Hisp\u00e0nica / Av. Tibidabo", "public_transport": "platform"}}, {"type": "node", "id": 2817947217, "lat": 41.2135742, "lon": 1.6156762, "tags": {"bus": "yes", "highway": "bus_stop", "name": "Av. Marca Hisp\u00e0nica / M\u00e8dol / Garb\u00ed", "public_transport": "platform"}}, {"type": "node", "id": 2817947218, "lat": 41.2075542, "lon": 1.6103309, "tags": {"bus": "yes", "highway": "bus_stop", "name": "Av. Marca Hisp\u00e0nica / Cau Ferrat-Can Papiol", "public_transport": "platform"}}, {"type": "node", "id": 2817947219, "lat": 41.2052202, "lon": 1.6087102, "tags": {"bus": "yes", "highway": "bus_stop", "name": "Av. Espanya / Antilles", "public_transport": "platform"}}, {"type": "node", "id": 2817947220, "lat": 41.2026767, "lon": 1.6057851, "tags": {"bus": "yes", "highway": "bus_stop", "name": "Pl. del Cano", "public_transport": "stop_position"}}, {"type": "node", "id": 2817947221, "lat": 41.2020346, "lon": 1.6024627, "tags": {"bus": "yes", "highway": "bus_stop", "name": "Av. Alemanya / Av. Brasil", "public_transport": "platform"}}, {"type": "node", "id": 2817947222, "lat": 41.2022948, "lon": 1.6021099, "tags": {"bus": "yes", "highway": "bus_stop", "name": "Av. Alemanya / Av. Brasil", "public_transport": "platform"}}, {"type": "node", "id": 2817947223, "lat": 41.2055067, "lon": 1.6017643, "tags": {"bus": "yes", "highway": "bus_stop", "name": "Av. Espanya / Av. Alemanya", "public_transport": "platform"}}, {"type": "node", "id": 2817947224, "lat": 41.2043089, "lon": 1.5989254, "tags": {"bus": "yes", "highway": "bus_stop", "name": "Av. Espanya / Filipines", "public_transport": "platform"}}, {"type": "node", "id": 2817947228, "lat": 41.1954641, "lon": 1.6047822, "tags": {"bus": "yes", "highway": "bus_stop", "name": "Pl. Pau Casals (CAP-Dep. Municipals de Segur)", "name:etymology:wikidata": "Q208537", "public_transport": "platform"}}, {"type": "node", "id": 2817947229, "lat": 41.1964143, "lon": 1.6079594, "tags": {"bus": "yes", "highway": "bus_stop", "name": "Joan Maragall / Av. Espanya", "public_transport": "platform"}}, {"type": "node", "id": 2817947230, "lat": 41.1991587, "lon": 1.607484, "tags": {"bus": "yes", "highway": "bus_stop", "name": "Av. Espanya / Rep\u00f3s - IES SEGUR (TALAIA)", "public_transport": "platform"}}, {"type": "node", "id": 2817947231, "lat": 41.2025528, "lon": 1.6065168, "tags": {"bus": "yes", "highway": "bus_stop", "name": "Pl. del Cano (FINAL)", "public_transport": "platform"}}, {"type": "node", "id": 2817947233, "lat": 41.1928839, "lon": 1.6031369, "tags": {"bus": "yes", "highway": "bus_stop", "name": "Carretera Barcelona / Correus", "public_transport": "platform"}}, {"type": "node", "id": 2817947234, "lat": 41.1929743, "lon": 1.6022438, "tags": {"bus": "yes", "highway": "bus_stop", "name": "Av. Espanya / Pont Carme Desvalls", "public_transport": "platform"}}, {"type": "node", "id": 2817947235, "lat": 41.1945153, "lon": 1.5997851, "tags": {"bus": "yes", "highway": "bus_stop", "name": "Av. Espanya / Portugal", "public_transport": "platform"}}, {"type": "node", "id": 2817947236, "lat": 41.2046681, "lon": 1.6092174, "tags": {"bus": "yes", "highway": "bus_stop", "name": "Paraguai", "public_transport": "platform"}}, {"type": "node", "id": 2819463891, "lat": 41.2024505, "lon": 1.6062261, "tags": {"bus": "yes", "highway": "bus_stop", "name": "Pl. del Cano (INICI)", "public_transport": "platform"}}, {"type": "node", "id": 2819502955, "lat": 41.1924946, "lon": 1.5727833, "tags": {"bus": "yes", "highway": "bus_stop", "name": "Ctra. Estaci\u00f3 / Depend\u00e8ncies", "public_transport": "platform"}}, {"type": "node", "id": 2819502956, "lat": 41.1904282, "lon": 1.569234, "tags": {"bus": "yes", "highway": "bus_stop", "name": "Ctra. del Sanatori / Pg. de la Uni\u00f3", "public_transport": "platform"}}, {"type": "node", "id": 2819502957, "lat": 41.1929779, "lon": 1.5694148, "tags": {"bus": "yes", "highway": "bus_stop", "name": "CAP Calafell / Piscines CAR", "public_transport": "platform"}}, {"type": "node", "id": 2819502958, "lat": 41.194218, "lon": 1.5693495, "tags": {"bus": "yes", "highway": "bus_stop", "name": "Pg. de la Uni\u00f3 / Poliesportiu Joan Ortoll / IES Cam\u00ed de Mar / CEIP Santa Creu", "public_transport": "platform"}}, {"type": "node", "id": 2819502959, "lat": 41.1941029, "lon": 1.5689605, "tags": {"bus": "yes", "highway": "bus_stop", "name": "Pg. de la Uni\u00f3 / Poliesportiu Joan Ortoll / IES Cam\u00ed de Mar / CEIP Santa Creu", "public_transport": "platform"}}, {"type": "node", "id": 2819502960, "lat": 41.1929499, "lon": 1.5691798, "tags": {"bus": "yes", "highway": "bus_stop", "name": "CAP Calafell / Piscines CAR", "public_transport": "platform"}}, {"type": "node", "id": 2819502961, "lat": 41.1904395, "lon": 1.5690619, "tags": {"bus": "yes", "highway": "bus_stop", "name": "Ctra. del Sanatori / Pg. de la Uni\u00f3", "public_transport": "platform"}}, {"type": "node", "id": 2819502962, "lat": 41.201602, "lon": 1.5657219, "tags": {"bus": "yes", "highway": "bus_stop", "name": "Alfons Ma\u00f1\u00e9 / Ctra. del Vendrell", "public_transport": "stop_position"}}, {"type": "node", "id": 2819502964, "lat": 41.2040032, "lon": 1.5641908, "tags": {"bus": "yes", "highway": "bus_stop", "name": "Masia de la Font", "name:ca": "Masia de la Font", "public_transport": "stop_position"}}, {"type": "node", "id": 2819502965, "lat": 41.2114183, "lon": 1.5687727, "tags": {"bus": "yes", "highway": "bus_stop", "name": "Parc Empresarial / Centre Comercial / Diposit de Vehicles", "name:ca": "Parc Empresarial / Centre Comercial / Diposit de Vehicles", "public_transport": "stop_position"}}, {"type": "node", "id": 2819502966, "lat": 41.212772, "lon": 1.5894321, "tags": {"bus": "yes", "highway": "bus_stop", "name": "Pl. de Ricardo / Ferran Sor", "public_transport": "stop_position"}}, {"type": "node", "id": 2819502967, "lat": 41.2110367, "lon": 1.593249, "tags": {"bus": "yes", "highway": "bus_stop", "name": "Joaqu\u00edn Rodrigo / Xavier Montsalvatge", "public_transport": "platform"}}, {"type": "node", "id": 2819502968, "lat": 41.2124835, "lon": 1.5951708, "tags": {"bus": "yes", "highway": "bus_stop", "name": "Joaqu\u00edn Rodrigo / Tom\u00e1s Bret\u00f3n", "public_transport": "platform"}}, {"type": "node", "id": 2819502969, "lat": 41.2134641, "lon": 1.5953485, "tags": {"bus": "yes", "highway": "bus_stop", "name": "Tom\u00e1s Bret\u00f3n / Ruperto Chap\u00ed", "public_transport": "platform"}}, {"type": "node", "id": 2819502970, "lat": 41.2170893, "lon": 1.5933542, "tags": {"bus": "yes", "highway": "bus_stop", "name": "Amadeus Vives / Llu\u00eds Millet", "public_transport": "platform"}}, {"type": "node", "id": 2819502971, "lat": 41.2216739, "lon": 1.5931238, "tags": {"bus": "yes", "highway": "bus_stop", "name": "Amadeus Vives / Ferran Sor", "public_transport": "stop_position"}}, {"type": "node", "id": 2819502972, "lat": 41.2252919, "lon": 1.5932486, "tags": {"bus": "yes", "highway": "bus_stop", "name": "Llesu\u00ed / Alp", "public_transport": "platform"}}, {"type": "node", "id": 2819502973, "lat": 41.229087, "lon": 1.5917953, "tags": {"bus": "yes", "highway": "bus_stop", "name": "Bellavista", "name:ca": "Bellavista", "public_transport": "platform"}}, {"type": "node", "id": 2819502974, "lat": 41.2316984, "lon": 1.5944286, "tags": {"bus": "yes", "highway": "bus_stop", "name": "Central / Montpa\u00f3", "public_transport": "platform"}}, {"type": "node", "id": 2819502975, "lat": 41.2293388, "lon": 1.5956189, "tags": {"bus": "yes", "highway": "bus_stop", "name": "Montpa\u00f3", "name:ca": "Montpa\u00f3", "public_transport": "platform"}}, {"type": "node", "id": 2819502976, "lat": 41.2280276, "lon": 1.593136, "tags": {"bus": "yes", "highway": "bus_stop", "name": "Av. Central - Casal", "public_transport": "platform"}}, {"type": "node", "id": 2819502979, "lat": 41.2164767, "lon": 1.5864309, "tags": {"bus": "yes", "highway": "bus_stop", "name": "Manuel de Falla", "public_transport": "platform"}}, {"type": "node", "id": 2819502980, "lat": 41.2169311, "lon": 1.5930425, "tags": {"bus": "yes", "highway": "bus_stop", "name": "Llu\u00eds Millet", "name:ca": "Llu\u00eds Millet", "public_transport": "stop_position"}}, {"type": "node", "id": 2819502981, "lat": 41.2141144, "lon": 1.591221, "tags": {"bus": "yes", "highway": "bus_stop", "name": "Pep Ventura - Piscina", "public_transport": "platform"}}, {"type": "node", "id": 2819563668, "lat": 41.2011606, "lon": 1.6074498, "tags": {"bus": "yes", "highway": "bus_stop", "name": "Av. Argentina / Costa Rica", "public_transport": "platform"}}, {"type": "node", "id": 2819563669, "lat": 41.1941629, "lon": 1.6003376, "tags": {"bus": "yes", "highway": "bus_stop", "name": "It\u00e0lia / Av. Espanya", "name:ca": "It\u00e0lia / Av. Espanya", "public_transport": "platform"}}, {"type": "node", "id": 2819563671, "lat": 41.1952269, "lon": 1.5919662, "tags": {"bus": "yes", "highway": "bus_stop", "name": "Josep Llu\u00eds de la Rosa / Marinada", "public_transport": "platform"}}, {"type": "node", "id": 2819563672, "lat": 41.1926843, "lon": 1.5887672, "tags": {"bus": "yes", "highway": "bus_stop", "name": "Urb. Mas Mel / Mestral / Marinada", "public_transport": "platform"}}, {"type": "node", "id": 2819563673, "lat": 41.1976397, "lon": 1.5729238, "tags": {"bus": "yes", "highway": "bus_stop", "name": "Carrer del Pou", "public_transport": "platform"}}, {"type": "node", "id": 2819563674, "lat": 41.1992455, "lon": 1.5695216, "tags": {"bus": "yes", "highway": "bus_stop", "name": "Jes\u00fas / Mare de D\u00e9u de la Cova", "public_transport": "platform"}}, {"type": "node", "id": 2819563675, "lat": 41.199699, "lon": 1.5688194, "tags": {"bus": "yes", "highway": "bus_stop", "name": "Josep Barg\u00e9s i Barba / Carrer Principal", "public_transport": "platform"}}, {"type": "node", "id": 2819563677, "lat": 41.2012473, "lon": 1.560626, "tags": {"bus": "yes", "highway": "bus_stop", "name": "Cam\u00ed de Miramar / Bonanova", "name:ca": "Cam\u00ed de Miramar / Bonanova", "public_transport": "platform"}}, {"type": "node", "id": 2819563678, "lat": 41.1992562, "lon": 1.5585741, "tags": {"bus": "yes", "highway": "bus_stop", "name": "Carrer de l'Antistiana / Rasa del Meix", "public_transport": "platform"}}, {"type": "node", "id": 2819563679, "lat": 41.195437, "lon": 1.5606785, "tags": {"bus": "yes", "highway": "bus_stop", "name": "Ctra. d'en Ralet / Torredembarra", "public_transport": "platform"}}, {"type": "node", "id": 2819563680, "lat": 41.1934552, "lon": 1.5664548, "tags": {"bus": "yes", "highway": "bus_stop", "name": "Giron\u00e8s / Rambla Nova", "name:ca": "Giron\u00e8s / Rambla Nova", "public_transport": "stop_position"}}, {"type": "node", "id": 2819563681, "lat": 41.188783, "lon": 1.5696608, "tags": {"bus": "yes", "highway": "bus_stop", "name": "Av. Moss\u00e8n Jaume Soler / Sant Pere", "public_transport": "platform"}}, {"type": "node", "id": 2819563682, "lat": 41.1894303, "lon": 1.5768937, "tags": {"bus": "yes", "highway": "bus_stop", "name": "Av. Moss\u00e8n Jaume Soler / Pintor Mir", "public_transport": "platform"}}, {"type": "node", "id": 2819563683, "lat": 41.1881448, "lon": 1.5809714, "tags": {"bus": "yes", "highway": "bus_stop", "name": "Benet Ortiz / Pl. Pa\u00efsos Catalans", "name:ca": "Benet Ortiz / Pl. Pa\u00efsos Catalans", "public_transport": "platform"}}, {"type": "node", "id": 2819563684, "lat": 41.1886993, "lon": 1.5883624, "tags": {"bus": "yes", "highway": "bus_stop", "lit": "yes", "name": "Av. Sant Joan de D\u00e9u / Santiago Russinyol", "public_transport": "platform", "shelter": "no", "tactile_paving": "no"}}, {"type": "node", "id": 2819563685, "lat": 41.1889063, "lon": 1.5926467, "tags": {"bus": "yes", "highway": "bus_stop", "lit": "yes", "name": "Av. Sant Joan de D\u00e9u / Pl. del Mil\u00b7lenari", "public_transport": "platform", "tactile_paving": "no"}}, {"type": "node", "id": 2819563686, "lat": 41.1893173, "lon": 1.5967653, "tags": {"bus": "yes", "highway": "bus_stop", "lit": "yes", "name": "Av. Sant Joan de D\u00e9u / Tajo", "public_transport": "platform", "tactile_paving": "yes"}}, {"type": "node", "id": 2819563688, "lat": 41.1902234, "lon": 1.6046543, "tags": {"bus": "yes", "highway": "bus_stop", "name": "Rin - Port de Segur", "public_transport": "platform"}}, {"type": "node", "id": 2819563689, "lat": 41.1922753, "lon": 1.6063005, "tags": {"bus": "yes", "highway": "bus_stop", "name": "Llu\u00eds Companys / Estaci\u00f3 de Segur de Calafell", "name:ca": "Llu\u00eds Companys / Estaci\u00f3 de Segur de Calafell", "public_transport": "platform", "shelter": "yes"}}, {"type": "node", "id": 2819563690, "lat": 41.1924846, "lon": 1.6097262, "tags": {"bus": "yes", "highway": "bus_stop", "name": "Llu\u00eds Companys / Loria", "public_transport": "platform", "shelter": "no"}}, {"type": "node", "id": 2819563691, "lat": 41.1906057, "lon": 1.6102089, "tags": {"bus": "yes", "highway": "bus_stop", "name": "Loria / Av. Sant Joan de D\u00e9u", "public_transport": "platform", "shelter": "no"}}, {"type": "node", "id": 2819563692, "lat": 41.1921154, "lon": 1.6150704, "tags": {"bench": "no", "bin": "no", "bus": "yes", "highway": "bus_stop", "name": "Carrer del Po", "name:ca": "Carrer del Po", "public_transport": "platform", "shelter": "no", "tactile_paving": "no"}}, {"type": "node", "id": 2819563693, "lat": 41.1915285, "lon": 1.6001116, "tags": {"bus": "yes", "highway": "bus_stop", "name": "Tamesis / Llu\u00eds Companys", "public_transport": "platform"}}, {"type": "node", "id": 2819563694, "lat": 41.1900635, "lon": 1.6028221, "tags": {"bus": "yes", "highway": "bus_stop", "name": "Carme Desvalls / Av. Sant Joan de D\u00e9u", "public_transport": "platform", "shelter": "yes"}}, {"type": "node", "id": 2820304017, "lat": 41.3393672, "lon": 1.7017601, "tags": {"bus": "yes", "highway": "bus_stop", "name": "Rbla. La Giralda / Josep Tarradelles", "public_transport": "stop_position"}}, {"type": "node", "id": 2820304018, "lat": 41.3371464, "lon": 1.7017554, "tags": {"bus": "yes", "highway": "bus_stop", "name": "Rbla. Giralda", "public_transport": "stop_position"}}, {"type": "node", "id": 2820304019, "lat": 41.3385364, "lon": 1.7022373, "tags": {"bus": "yes", "highway": "bus_stop", "name": "Llu\u00eds Companys / Rbla. Giralda", "public_transport": "stop_position"}}, {"type": "node", "id": 2820304020, "lat": 41.3357933, "lon": 1.7072041, "tags": {"bus": "yes", "highway": "bus_stop", "name": "Resid\u00e8ncia Mare R\u00e0fols", "name:ca": "Resid\u00e8ncia Mare R\u00e0fols", "public_transport": "stop_position"}}, {"type": "node", "id": 2820304021, "lat": 41.3395322, "lon": 1.7048966, "tags": {"bus": "yes", "highway": "bus_stop", "name": "Av. Vilanova (Resid. Mare R\u00e0fols: Ricard Fortuny)", "public_transport": "stop_position", "public_transport:version": "2"}}, {"type": "node", "id": 2820304022, "lat": 41.3411038, "lon": 1.704209, "tags": {"bus": "yes", "highway": "bus_stop", "name": "General Vall\u00e8s / Doctor Fleming", "public_transport": "stop_position"}}, {"type": "node", "id": 2820304023, "lat": 41.3420044, "lon": 1.7040123, "tags": {"bus": "yes", "highway": "bus_stop", "name": "Meli\u00f3 / Mare R\u00e0fols", "public_transport": "stop_position"}}, {"type": "node", "id": 2820304025, "lat": 41.3433057, "lon": 1.7018832, "tags": {"bus": "yes", "highway": "bus_stop", "name": "Santa Digna / Camp Rolls", "public_transport": "platform", "public_transport:version": "2"}}, {"type": "node", "id": 2820304029, "lat": 41.3415652, "lon": 1.6955736, "tags": {"bus": "yes", "highway": "bus_stop", "name": "Tossa de Mar / Mestre Recasens", "public_transport": "stop_position"}}, {"type": "node", "id": 2820336528, "lat": 41.3399651, "lon": 1.6948597, "tags": {"bus": "yes", "highway": "bus_stop", "name": "Moja / Am\u00e0lia Soler", "public_transport": "stop_position"}}, {"type": "node", "id": 2820336548, "lat": 41.3411271, "lon": 1.693797, "tags": {"bus": "yes", "highway": "bus_stop", "name": "Parc Sant Salvador", "name:ca": "Parc Sant Salvador", "public_transport": "platform"}}, {"type": "node", "id": 2820336549, "lat": 41.3392982, "lon": 1.6952821, "tags": {"bus": "yes", "highway": "bus_stop", "name": "Moja / Ramon Freixes", "public_transport": "stop_position"}}, {"type": "node", "id": 2820336550, "lat": 41.3390752, "lon": 1.6964466, "tags": {"bus": "yes", "highway": "bus_stop", "name": "Ignasi Iglesias / Montblanc", "public_transport": "stop_position"}}, {"type": "node", "id": 2820336551, "lat": 41.3421333, "lon": 1.698468, "tags": {"bus": "yes", "highway": "bus_stop", "name": "Am\u00e0ia Soler / Bisbe Morgades", "public_transport": "stop_position"}}, {"type": "node", "id": 2820427539, "lat": 41.2271903, "lon": 1.7555244, "tags": {"bus": "yes", "highway": "bus_stop", "name": "Mas d'en Serra (av. Montseny 44-51)", "name:ca": "Mas d'en Serra (av. Montseny 44-51)", "public_transport": "stop_position"}}, {"type": "node", "id": 2820427540, "lat": 41.2302522, "lon": 1.7594942, "tags": {"bus": "yes", "highway": "bus_stop", "name": "Av. Mas d'en Serra - C. Puigsacalm", "public_transport": "stop_position"}}, {"type": "node", "id": 2820427542, "lat": 41.2375134, "lon": 1.7659269, "tags": {"bus": "yes", "highway": "bus_stop", "name": "Mas d'en Serra (La Vaqueta)", "name:ca": "Mas d'en Serra (La Vaqueta)", "public_transport": "stop_position"}}, {"type": "node", "id": 2820427551, "lat": 41.2272853, "lon": 1.7476848, "tags": {"bus": "yes", "highway": "bus_stop", "name": "Les Roquetes (av. Miguel Servet - ajuntament)", "public_transport": "stop_position"}}, {"type": "node", "id": 2820489352, "lat": 41.2175252, "lon": 1.6796107, "tags": {"bus": "yes", "highway": "bus_stop", "name": "Santa Maria (Pg. Salzes)", "public_transport": "stop_position"}}, {"type": "node", "id": 2820489353, "lat": 41.2147543, "lon": 1.6787604, "tags": {"bus": "yes", "highway": "bus_stop", "name": "Carrer Terme - Carrer Magn\u00f2lies (Santa Maria)", "name:ca": "Carrer Terme - Carrer Magn\u00f2lies (Santa Maria)", "public_transport": "stop_position"}}, {"type": "node", "id": 2820489357, "lat": 41.2051062, "lon": 1.6854081, "tags": {"bus": "yes", "highway": "bus_stop", "name": "Prat de Vilanova - Gavines 13", "public_transport": "stop_position"}}, {"type": "node", "id": 2820489358, "lat": 41.2156698, "lon": 1.7271597, "tags": {"bench": "no", "bin": "no", "bus": "yes", "highway": "bus_stop", "lit": "yes", "name": "CAPI Baix a Mar", "name:ca": "CAPI Baix a Mar", "public_transport": "platform", "shelter": "no", "tactile_paving": "no"}}, {"type": "node", "id": 2820564077, "lat": 41.2625734, "lon": 1.6340471, "tags": {"bus": "yes", "highway": "bus_stop", "name": "BV-2115 Cal Perretet", "public_transport": "stop_position"}}, {"type": "node", "id": 2820564078, "lat": 41.2683099, "lon": 1.6048733, "tags": {"bus": "yes", "highway": "bus_stop", "name": "Pl. Badalota", "public_transport": "stop_position"}}, {"type": "node", "id": 2828839656, "lat": 41.2259156, "lon": 1.7337984, "tags": {"bus": "yes", "highway": "bus_stop", "name": "av. Eduard Toldr\u00e0 - Carrefour", "public_transport": "stop_position"}}, {"type": "node", "id": 2828839660, "lat": 41.2266057, "lon": 1.7408273, "tags": {"bus": "yes", "highway": "bus_stop", "name": "Avinguda de la Terrosa", "name:ca": "Avinguda de la Terrosa", "public_transport": "stop_position"}}, {"type": "node", "id": 2828839662, "lat": 41.2270307, "lon": 1.7431972, "tags": {"bus": "yes", "highway": "bus_stop", "name": "Miquel Servet amb Magallanes (Les Roquetes)", "public_transport": "stop_position"}}, {"type": "node", "id": 2828900565, "lat": 41.2826789, "lon": 1.7499597, "tags": {"bus": "yes", "highway": "bus_stop", "name": "urb. Can Roca (c. Nicaragua - c. Sant Joan)", "public_transport": "platform"}}, {"type": "node", "id": 2828993027, "lat": 41.2870022, "lon": 1.741971, "tags": {"bus": "yes", "highway": "bus_stop", "name": "Urb. Vora Sitges", "public_transport": "platform"}}, {"type": "node", "id": 2828993028, "lat": 41.2817662, "lon": 1.723399, "tags": {"bus": "yes", "highway": "bus_stop", "name": "Canyelles - C-15z PK.6", "public_transport": "stop_position"}}, {"type": "node", "id": 2828993029, "lat": 41.2853468, "lon": 1.7237785, "tags": {"bus": "yes", "highway": "bus_stop", "name": "Canyelles - Can Navalet (c. Nou)", "public_transport": "platform"}}, {"type": "node", "id": 2828993030, "lat": 41.3058725, "lon": 1.7368094, "tags": {"bus": "yes", "highway": "bus_stop", "name": "Viladellops", "name:ca": "Viladellops", "public_transport": "stop_position"}}, {"type": "node", "id": 2828993031, "lat": 41.321369, "lon": 1.7213361, "tags": {"bus": "yes", "highway": "bus_stop", "name": "Ol\u00e8rdola - Av. Catalunya (Ajuntament)", "public_transport": "stop_position"}}, {"type": "node", "id": 2829009533, "lat": 41.339379, "lon": 1.7037675, "tags": {"bus": "yes", "highway": "bus_stop", "name": "av. Mediterr\u00e0nia - c. B\u00fchl", "public_transport": "platform"}}, {"type": "node", "id": 2829092299, "lat": 41.2465075, "lon": 1.7202752, "tags": {"bus": "yes", "highway": "bus_stop", "name": "Masia d'en Notari", "name:ca": "Masia d'en Notari", "public_transport": "platform"}}, {"type": "node", "id": 2829686028, "lat": 41.2238483, "lon": 1.7362173, "tags": {"bus": "yes", "highway": "bus_stop", "name": "Rbla. Exposici\u00f3 103", "public_transport": "stop_position"}}, {"type": "node", "id": 2833490002, "lat": 41.211742, "lon": 1.7149203, "tags": {"bus": "yes", "highway": "bus_stop", "name": "Pla\u00e7a Adarr\u00f3", "name:ca": "Pla\u00e7a Adarr\u00f3", "public_transport": "stop_position", "ref": "28"}}, {"type": "node", "id": 2834526492, "lat": 41.2206436, "lon": 1.7302657, "tags": {"bus": "yes", "highway": "bus_stop", "name": "Vilanova i la Geltr\u00fa (Estaci\u00f3)", "name:ca": "Vilanova i la Geltr\u00fa (Estaci\u00f3)", "public_transport": "stop_position"}}, {"type": "node", "id": 2871343484, "lat": 41.2286998, "lon": 1.7391568, "tags": {"bus": "yes", "highway": "bus_stop", "name": "Ronda Europa n\u00ba 54", "public_transport": "stop_position"}}, {"type": "node", "id": 2992172537, "lat": 41.1132159, "lon": 1.2508805, "tags": {"bus": "yes", "highway": "bus_stop", "name": "Prim", "operator": "EMT Tarragona", "public_transport": "platform", "shelter": "no"}}, {"type": "node", "id": 3089095503, "lat": 41.1181513, "lon": 1.2439989, "tags": {"bus": "yes", "highway": "bus_stop", "name": "Estaci\u00f3 d'autobusos de Tarragona", "name:ca": "Estaci\u00f3 d'autobusos de Tarragona", "public_transport": "stop_position", "shelter": "yes"}}, {"type": "node", "id": 3089101256, "lat": 41.1251485, "lon": 1.2425033, "tags": {"bus": "yes", "highway": "bus_stop", "name": "C. Josep Maria Vives Sales (cam\u00ed de l'\u00c0ngel)", "operator": "Transports P\u00fablics de Catalunya", "public_transport": "stop_position"}}, {"type": "node", "id": 3089101257, "lat": 41.1252666, "lon": 1.2427179, "tags": {"bus": "yes", "highway": "bus_stop", "name": "C. Josep Maria Vives Sales (cam\u00ed de l'\u00c0ngel)", "operator": "Transports P\u00fablics de Catalunya", "public_transport": "platform"}}, {"type": "node", "id": 3089145680, "lat": 41.2296516, "lon": 1.7219164, "tags": {"bus": "yes", "highway": "bus_stop", "name": "Hospital de Sant Antoni Abat", "operator": "Transports P\u00fablics de Catalunya", "public_transport": "stop_position"}}, {"type": "node", "id": 3089145681, "lat": 41.2296923, "lon": 1.7218411, "tags": {"bus": "yes", "highway": "bus_stop", "name": "Hospital de Sant Antoni Abat", "operator": "Transports P\u00fablics de Catalunya", "public_transport": "stop_position"}}, {"type": "node", "id": 3399607900, "lat": 41.1181923, "lon": 1.2449166, "tags": {"bus": "yes", "departures_board": "timetable", "highway": "bus_stop", "name": "Pere Martell", "name:ca": "Pere Martell", "name:ru": "\u0412\u043e\u043a\u0437\u0430\u043b", "network": "EMT Tarragona", "network:wikidata": "Q28662868", "operator": "EMT Tarragona", "public_transport": "platform", "shelter": "no"}}, {"type": "node", "id": 3399607901, "lat": 41.1162121, "lon": 1.2400698, "tags": {"bus": "yes", "highway": "bus_stop", "name": "Parc", "name:ca": "Parc", "operator": "EMT Tarragona", "public_transport": "platform"}}, {"type": "node", "id": 3399658176, "lat": 41.1104806, "lon": 1.2502361, "tags": {"bench": "yes", "bin": "no", "bus": "yes", "highway": "bus_stop", "name": "Pl. dels Carros", "operator": "EMT Tarragona", "public_transport": "platform", "shelter": "yes", "tactile_paving": "no"}}, {"type": "node", "id": 3399658177, "lat": 41.1115301, "lon": 1.2450802, "tags": {"bench": "yes", "bus": "yes", "highway": "bus_stop", "name": "Reial", "name:ca": "Reial", "operator": "EMT Tarragona", "public_transport": "platform", "shelter": "yes"}}, {"type": "node", "id": 3399658178, "lat": 41.1118686, "lon": 1.2431382, "tags": {"bus": "yes", "highway": "bus_stop", "name": "Jaume I", "name:ca": "Jaume I", "operator": "EMT Tarragona", "public_transport": "stop_position"}}, {"type": "node", "id": 3399658179, "lat": 41.1125613, "lon": 1.243114, "tags": {"bus": "yes", "highway": "bus_stop", "name": "Pere Martell 51-52", "operator": "EMT Tarragona", "public_transport": "platform"}}, {"type": "node", "id": 3399658180, "lat": 41.1125334, "lon": 1.243107, "tags": {"bus": "yes", "highway": "bus_stop", "name": "Pere Martell 51-52", "operator": "EMT Tarragona", "public_transport": "platform"}}, {"type": "node", "id": 3399658181, "lat": 41.1148095, "lon": 1.2437424, "tags": {"bus": "yes", "highway": "bus_stop", "name": "Pere Martell 33-34", "operator": "EMT Tarragona", "public_transport": "platform"}}, {"type": "node", "id": 3399658182, "lat": 41.1147708, "lon": 1.2437313, "tags": {"bus": "yes", "highway": "bus_stop", "name": "Pere Martell 33-34", "operator": "EMT Tarragona", "public_transport": "platform"}}, {"type": "node", "id": 3399658183, "lat": 41.1161575, "lon": 1.2459815, "tags": {"bench": "yes", "bin": "no", "bus": "yes", "departures_board": "timetable", "highway": "bus_stop", "lit": "yes", "name": "Ram\u00f3n y Cajal, 40", "operator": "EMT Tarragona", "public_transport": "platform", "ref": "25675", "shelter": "no", "tactile_paving": "no"}}, {"type": "node", "id": 3399658185, "lat": 41.120684, "lon": 1.246709, "tags": {"bus": "yes", "highway": "bus_stop", "name": "Claret", "name:ca": "Claret", "operator": "EMT Tarragona", "public_transport": "stop_position"}}, {"type": "node", "id": 3399658186, "lat": 41.1225595, "lon": 1.2481313, "tags": {"bus": "yes", "highway": "bus_stop", "name": "Marqu\u00e8s de Montoliu", "name:ca": "Marqu\u00e8s de Montoliu", "public_transport": "stop_position"}}, {"type": "node", "id": 3399729499, "lat": 41.1161505, "lon": 1.2483222, "tags": {"bus": "yes", "highway": "bus_stop", "name": "Colom", "name:ca": "Colom", "operator": "EMT Tarragona", "public_transport": "stop_position"}}, {"type": "node", "id": 3399729502, "lat": 41.1186611, "lon": 1.2458818, "tags": {"bus": "yes", "highway": "bus_stop", "name": "Pl. Imperial T\u00e0rraco", "operator": "EMT Tarragona", "public_transport": "stop_position"}}, {"type": "node", "id": 3402520994, "lat": 41.1234704, "lon": 1.237907, "tags": {"bus": "yes", "highway": "bus_stop", "name": "Hospital Joan XXIII", "network": "EMT Tarragona", "network:wikidata": "Q28662868", "operator": "EMT Tarragona", "public_transport": "platform"}}, {"type": "node", "id": 3402520996, "lat": 41.1212511, "lon": 1.2404109, "tags": {"bench": "yes", "bin": "no", "bus": "yes", "highway": "bus_stop", "lit": "yes", "name": "Pl. Generalitat", "operator": "EMT Tarragona", "public_transport": "platform", "shelter": "yes", "tactile_paving": "no"}}, {"type": "node", "id": 3402520997, "lat": 41.1201287, "lon": 1.2428282, "tags": {"bus": "yes", "highway": "bus_stop", "name": "Llu\u00eds Companys", "name:ca": "Llu\u00eds Companys", "operator": "EMT Tarragona", "public_transport": "stop_position"}}, {"type": "node", "id": 3402520998, "lat": 41.1463028, "lon": 1.2397534, "tags": {"bench": "yes", "bin": "no", "bus": "yes", "highway": "bus_stop", "name": "Pont del Diable", "name:ca": "Pont del Diable", "operator": "EMT Tarragona", "public_transport": "platform", "shelter": "yes"}}, {"type": "node", "id": 3402521000, "lat": 41.1578409, "lon": 1.2410301, "tags": {"bench": "yes", "bus": "yes", "highway": "bus_stop", "name": "L'Olivera", "name:ca": "L'Olivera", "operator": "EMT Tarragona", "public_transport": "platform", "shelter": "yes"}}, {"type": "node", "id": 3402521001, "lat": 41.160686, "lon": 1.2410923, "tags": {"bus": "yes", "highway": "bus_stop", "name": "Les Botigues", "name:ca": "Les Botigues", "operator": "EMT Tarragona", "public_transport": "stop_position"}}, {"type": "node", "id": 3402521002, "lat": 41.1635682, "lon": 1.2415422, "tags": {"bus": "yes", "highway": "bus_stop", "name": "Pallaresos", "operator": "EMT Tarragona", "public_transport": "stop_position"}}, {"type": "node", "id": 3402521003, "lat": 41.1643177, "lon": 1.2439996, "tags": {"bus": "yes", "highway": "bus_stop", "name": "Sant Salvador", "name:ca": "Sant Salvador", "operator": "EMT Tarragona", "public_transport": "stop_position"}}, {"type": "node", "id": 3402521004, "lat": 41.1664662, "lon": 1.2469767, "tags": {"bus": "yes", "highway": "bus_stop", "name": "Part Alta", "name:ca": "Part Alta", "operator": "EMT Tarragona", "public_transport": "stop_position"}}, {"type": "node", "id": 3402521005, "lat": 41.1642491, "lon": 1.2466279, "tags": {"bus": "yes", "highway": "bus_stop", "name": "Els Pins", "name:ca": "Els Pins", "operator": "EMT Tarragona", "public_transport": "stop_position"}}, {"type": "node", "id": 3402521008, "lat": 41.1557975, "lon": 1.2434317, "tags": {"bus": "yes", "highway": "bus_stop", "name": "L'Alzina del Mas", "operator": "EMT Tarragona", "public_transport": "stop_position"}}, {"type": "node", "id": 3402521009, "lat": 41.1538477, "lon": 1.2390352, "tags": {"bus": "yes", "highway": "bus_stop", "name": "Ebre", "operator": "EMT Tarragona", "public_transport": "stop_position"}}, {"type": "node", "id": 3402631315, "lat": 41.1173372, "lon": 1.2445633, "tags": {"bus": "yes", "departures_board": "timetable", "highway": "bus_stop", "name": "Pere Martell", "name:ca": "Pere Martell", "network": "EMT Tarragona", "network:wikidata": "Q28662868", "operator": "EMT Tarragona", "public_transport": "platform", "ref": "25597", "shelter": "yes"}}, {"type": "node", "id": 3402631317, "lat": 41.1188006, "lon": 1.252676, "tags": {"bench": "no", "bin": "no", "bus": "yes", "departures_board": "timetable", "highway": "bus_stop", "lit": "yes", "name": "Creu Roja", "name:ca": "Creu Roja", "operator": "EMT Tarragona", "public_transport": "platform", "ref": "25039", "shelter": "yes", "tactile_paving": "yes"}}, {"type": "node", "id": 3402631318, "lat": 41.1201452, "lon": 1.2527383, "tags": {"bench": "yes", "bin": "yes", "bus": "yes", "departures_board": "timetable", "highway": "bus_stop", "lit": "yes", "name": "Catalunya", "name:ca": "Catalunya", "operator": "EMT Tarragona", "public_transport": "platform", "ref": "25028", "shelter": "no", "tactile_paving": "no"}}, {"type": "node", "id": 3402631320, "lat": 41.1223059, "lon": 1.2519917, "tags": {"bus": "yes", "highway": "bus_stop", "name": "Catalunya", "name:ca": "Catalunya", "operator": "EMT Tarragona", "public_transport": "stop_position"}}, {"type": "node", "id": 3402631321, "lat": 41.1227317, "lon": 1.2522674, "tags": {"bench": "yes", "bin": "no", "bus": "yes", "departures_board": "timetable", "highway": "bus_stop", "lit": "yes", "name": "Fra Antoni Cardona i Grau", "operator": "EMT Tarragona", "public_transport": "platform", "ref": "25663", "shelter": "no", "tactile_paving": "no"}}, {"type": "node", "id": 3402631322, "lat": 41.1241855, "lon": 1.2528377, "tags": {"bus": "yes", "departures_board": "timetable", "highway": "bus_stop", "name": "Aq\u00fceducte", "name:ca": "Aq\u00fceducte", "operator": "EMT Tarragona", "public_transport": "platform", "ref": "25003", "shelter": "no"}}, {"type": "node", "id": 3402631323, "lat": 41.1298748, "lon": 1.2539191, "tags": {"bench": "yes", "bin": "no", "bus": "yes", "departures_board": "timetable", "highway": "bus_stop", "lit": "yes", "name": "Muntanyeta de l'Oliva", "name:ca": "Muntanyeta de l'Oliva", "operator": "EMT Tarragona", "public_transport": "platform", "ref": "25127", "shelter": "no", "tactile_paving": "no"}}, {"type": "node", "id": 3402631324, "lat": 41.1323825, "lon": 1.2516992, "tags": {"bus": "yes", "highway": "bus_stop", "name": "Muntanyeta", "name:ca": "Muntanyeta", "operator": "EMT Tarragona", "public_transport": "stop_position"}}, {"type": "node", "id": 3402631325, "lat": 41.133892, "lon": 1.2526954, "tags": {"bus": "yes", "highway": "bus_stop", "name": "Pedrol", "name:ca": "Pedrol", "operator": "EMT Tarragona", "public_transport": "stop_position"}}, {"type": "node", "id": 3402631326, "lat": 41.1367395, "lon": 1.2535786, "tags": {"bus": "yes", "departures_board": "timetable", "highway": "bus_stop", "name": "Sant Jordi", "name:ca": "Sant Jordi", "operator": "EMT Tarragona", "public_transport": "platform", "ref": "25182", "shelter": "no"}}, {"type": "node", "id": 3402631327, "lat": 41.1381193, "lon": 1.2529353, "tags": {"bus": "yes", "departures_board": "timetable", "highway": "bus_stop", "name": "Europa", "name:ca": "Europa", "operator": "EMT Tarragona", "public_transport": "platform", "ref": "25063", "shelter": "no"}}, {"type": "node", "id": 3402631328, "lat": 41.1393132, "lon": 1.2505486, "tags": {"bench": "no", "bus": "yes", "departures_board": "timetable", "highway": "bus_stop", "name": "Equador", "operator": "EMT Tarragona", "public_transport": "platform", "ref": "25056", "shelter": "no"}}, {"type": "node", "id": 3402631329, "lat": 41.1389505, "lon": 1.2521802, "tags": {"bus": "yes", "departures_board": "timetable", "highway": "bus_stop", "name": "Sant Bartolomeu", "operator": "EMT Tarragona", "public_transport": "platform", "ref": "25179", "shelter": "no"}}, {"type": "node", "id": 3402631330, "lat": 41.1390904, "lon": 1.252031, "tags": {"bus": "yes", "departures_board": "timetable", "highway": "bus_stop", "name": "Sant Bartolomeu", "operator": "EMT Tarragona", "public_transport": "platform", "shelter": "yes"}}, {"type": "node", "id": 3402631331, "lat": 41.1384468, "lon": 1.2544345, "tags": {"bus": "yes", "departures_board": "timetable", "highway": "bus_stop", "name": "Esgl\u00e9sia", "operator": "EMT Tarragona", "public_transport": "platform", "ref": "25058", "shelter": "no"}}, {"type": "node", "id": 3402631332, "lat": 41.1383234, "lon": 1.2560638, "tags": {"bench": "yes", "bus": "yes", "departures_board": "timetable", "highway": "bus_stop", "name": "Sant Pere i Sant Pau", "name:ca": "Sant Pere i Sant Pau", "operator": "EMT Tarragona", "public_transport": "platform", "ref": "25634", "shelter": "no"}}, {"type": "node", "id": 3402631334, "lat": 41.1379347, "lon": 1.2568286, "tags": {"bus": "yes", "highway": "bus_stop", "name": "Violant d'Hongria", "operator": "EMT Tarragona", "public_transport": "stop_position"}}, {"type": "node", "id": 3410444147, "lat": 41.1264459, "lon": 1.2370058, "tags": {"bench": "no", "bin": "no", "bus": "yes", "highway": "bus_stop", "lit": "yes", "name": "Escola Tarragona", "name:ca": "Escola Tarragona", "network": "EMT Tarragona", "network:wikidata": "Q28662868", "operator": "EMT Tarragona", "public_transport": "platform", "shelter": "no", "tactile_paving": "no"}}, {"type": "node", "id": 3410444148, "lat": 41.1251132, "lon": 1.2395649, "tags": {"bus": "yes", "highway": "bus_stop", "name": "Socio Sanitari Francol\u00ed", "network": "EMT Tarragona", "network:wikidata": "Q28662868", "operator": "EMT Tarragona", "public_transport": "platform"}}, {"type": "node", "id": 3410444149, "lat": 41.1229172, "lon": 1.2376621, "tags": {"bus": "yes", "highway": "bus_stop", "name": "Francesc Maci\u00e0", "name:ca": "Francesc Maci\u00e0", "network": "EMT Tarragona", "network:wikidata": "Q28662868", "operator": "EMT Tarragona", "public_transport": "platform"}}, {"type": "node", "id": 3410444150, "lat": 41.1215379, "lon": 1.2406354, "tags": {"bench": "yes", "bin": "yes", "bus": "yes", "highway": "bus_stop", "lit": "yes", "name": "Pl. Generalitat", "operator": "EMT Tarragona", "public_transport": "platform", "shelter": "yes", "tactile_paving": "no"}}, {"type": "node", "id": 3410444151, "lat": 41.1200344, "lon": 1.239935, "tags": {"bus": "yes", "highway": "bus_stop", "name": "Vidal i Barraquer", "operator": "EMT Tarragona", "public_transport": "platform"}}, {"type": "node", "id": 3410444152, "lat": 41.1189473, "lon": 1.2440951, "tags": {"bench": "no", "bin": "no", "bus": "yes", "highway": "bus_stop", "lit": "yes", "name": "Pl. Imperial T\u00e0rraco", "operator": "EMT Tarragona", "public_transport": "platform", "shelter": "no", "tactile_paving": "no"}}, {"type": "node", "id": 3410444153, "lat": 41.116504, "lon": 1.2511162, "tags": {"bus": "yes", "departures_board": "timetable", "highway": "bus_stop", "name": "Rambla Nova", "name:ca": "Rambla Nova", "name:ru": "\u0420\u0430\u043c\u0431\u043b\u0430 \u041d\u043e\u0432\u0430", "network": "EMT Tarragona", "network:wikidata": "Q28662868", "operator": "EMT Tarragona", "public_transport": "platform", "shelter": "yes"}}, {"type": "node", "id": 3410444155, "lat": 41.1168954, "lon": 1.2536003, "tags": {"bus": "yes", "highway": "bus_stop", "name": "Sant Francesc", "name:ca": "Sant Francesc", "operator": "EMT Tarragona", "public_transport": "platform"}}, {"type": "node", "id": 3410444158, "lat": 41.1163528, "lon": 1.2581426, "tags": {"bench": "no", "bin": "no", "bus": "yes", "highway": "bus_stop", "lit": "yes", "name": "Pilats", "operator": "EMT Tarragona", "public_transport": "platform", "shelter": "no"}}, {"type": "node", "id": 3410444159, "lat": 41.1162978, "lon": 1.2581634, "tags": {"bench": "no", "bin": "no", "bus": "yes", "highway": "bus_stop", "lit": "yes", "name": "Pilats", "operator": "EMT Tarragona", "public_transport": "platform", "shelter": "no", "tactile_paving": "no"}}, {"type": "node", "id": 3410444160, "lat": 41.1182033, "lon": 1.2605964, "tags": {"bus": "yes", "highway": "bus_stop", "name": "Sant Antoni / CN Tarraco", "operator": "EMT Tarragona", "public_transport": "stop_position"}}, {"type": "node", "id": 3410444162, "lat": 41.1201392, "lon": 1.2631328, "tags": {"bus": "yes", "highway": "bus_stop", "name": "Diputaci\u00f3", "operator": "EMT Tarragona", "public_transport": "platform"}}, {"type": "node", "id": 3410444163, "lat": 41.1202964, "lon": 1.2668659, "tags": {"bus": "yes", "highway": "bus_stop", "name": "Cam\u00ed de la Cuixa", "name:ca": "Cam\u00ed de la Cuixa", "operator": "EMT Tarragona", "public_transport": "platform"}}, {"type": "node", "id": 3410444164, "lat": 41.1224512, "lon": 1.263412, "tags": {"bus": "yes", "highway": "bus_stop", "name": "Mozart", "operator": "EMT Tarragona", "public_transport": "platform"}}, {"type": "node", "id": 3410444177, "lat": 41.1221682, "lon": 1.2677426, "tags": {"bus": "yes", "highway": "bus_stop", "name": "Santa Tecla Llevant", "public_transport": "platform"}}, {"type": "node", "id": 3410444179, "lat": 41.1210059, "lon": 1.2707278, "tags": {"bus": "yes", "highway": "bus_stop", "name": "Vall de l'Arrabassada", "name:ca": "Vall de l'Arrabassada", "operator": "EMT Tarragona", "public_transport": "platform"}}, {"type": "node", "id": 3410444180, "lat": 41.1220402, "lon": 1.2748403, "tags": {"bus": "yes", "highway": "bus_stop", "name": "Salvador Espriu", "operator": "EMT Tarragona", "public_transport": "platform"}}, {"type": "node", "id": 3410449487, "lat": 41.121886, "lon": 1.2760423, "tags": {"bus": "yes", "highway": "bus_stop", "name": "Arrabassada", "operator": "EMT Tarragona", "public_transport": "stop_position"}}, {"type": "node", "id": 3410450799, "lat": 41.1196884, "lon": 1.2754079, "tags": {"bench": "no", "bin": "no", "bus": "yes", "highway": "bus_stop", "lit": "yes", "name": "Platja", "operator": "EMT Tarragona", "public_transport": "platform", "shelter": "no", "tactile_paving": "no"}}, {"type": "node", "id": 3410450800, "lat": 41.1182886, "lon": 1.2730685, "tags": {"bench": "yes", "bin": "no", "bus": "yes", "highway": "bus_stop", "lit": "yes", "name": "Marenostrum", "operator": "EMT Tarragona", "public_transport": "platform", "shelter": "yes", "tactile_paving": "no"}}, {"type": "node", "id": 3410450801, "lat": 41.1144011, "lon": 1.2701311, "tags": {"bench": "no", "bin": "no", "bus": "yes", "highway": "bus_stop", "lit": "yes", "name": "Casanova", "name:ca": "Casanova", "operator": "EMT Tarragona", "public_transport": "platform", "shelter": "no", "tactile_paving": "no"}}, {"type": "node", "id": 3410450802, "lat": 41.115225, "lon": 1.270907, "tags": {"bench": "no", "bin": "no", "bus": "yes", "highway": "bus_stop", "lit": "yes", "name": "Escola Arrabassada", "name:ca": "Escola Arrabassada", "operator": "EMT Tarragona", "public_transport": "platform", "shelter": "no", "tactile_paving": "no"}}, {"type": "node", "id": 3411284034, "lat": 41.117604, "lon": 1.2488287, "tags": {"bench": "yes", "bin": "no", "bus": "yes", "departures_board": "timetable", "highway": "bus_stop", "name": "Rambla Nova, 105", "network": "EMT Tarragona", "network:wikidata": "Q28662868", "operator": "EMT Tarragona", "public_transport": "platform", "ref": "25453", "shelter": "yes", "tactile_paving": "no"}}, {"type": "node", "id": 3411284035, "lat": 41.1177984, "lon": 1.2515541, "tags": {"bus": "yes", "highway": "bus_stop", "name": "Estanislau Figueres", "name:ca": "Estanislau Figueres", "operator": "EMT Tarragona", "public_transport": "stop_position"}}, {"type": "node", "id": 3411284036, "lat": 41.1155688, "lon": 1.2580383, "tags": {"bus": "yes", "highway": "bus_stop", "name": "Via Augusta / Balc\u00f3 del Mediterrani", "operator": "EMT Tarragona", "public_transport": "stop_position"}}, {"type": "node", "id": 3411284050, "lat": 41.1318268, "lon": 1.3040974, "tags": {"bus": "yes", "highway": "bus_stop", "name": "Monnars", "name:ca": "Monnars", "operator": "EMT Tarragona", "public_transport": "platform"}}, {"type": "node", "id": 3411284051, "lat": 41.1339823, "lon": 1.3022473, "tags": {"bus": "yes", "highway": "bus_stop", "name": "Bon Sol", "name:ca": "Bon Sol", "operator": "EMT Tarragona", "public_transport": "platform"}}, {"type": "node", "id": 3411284052, "lat": 41.1350891, "lon": 1.3011256, "tags": {"bus": "yes", "highway": "bus_stop", "name": "Jaume Pahissa, 31", "operator": "EMT Tarragona", "public_transport": "platform"}}, {"type": "node", "id": 3411284053, "lat": 41.1378473, "lon": 1.2976281, "tags": {"bus": "yes", "highway": "bus_stop", "name": "Amadeu Vives, 4", "name:ca": "Amadeu Vives, 4", "operator": "EMT Tarragona", "public_transport": "platform"}}, {"type": "node", "id": 3411284054, "lat": 41.1374592, "lon": 1.2963406, "tags": {"bus": "yes", "highway": "bus_stop", "name": "Monnars Residencial", "name:ca": "Monnars Residencial", "operator": "EMT Tarragona", "public_transport": "platform", "shelter": "no"}}, {"type": "node", "id": 3411284055, "lat": 41.1379928, "lon": 1.2949443, "tags": {"bus": "yes", "highway": "bus_stop", "name": "La Pla\u00e7a", "name:ca": "La Pla\u00e7a", "operator": "EMT Tarragona", "public_transport": "platform", "public_transport:version": "2"}}, {"type": "node", "id": 3411284056, "lat": 41.1385032, "lon": 1.2916139, "tags": {"bus": "yes", "highway": "bus_stop", "name": "Els Boscos", "name:ca": "Els Boscos", "operator": "EMT Tarragona", "public_transport": "platform"}}, {"type": "node", "id": 3411284057, "lat": 41.1345715, "lon": 1.29741, "tags": {"bus": "yes", "highway": "bus_stop", "name": "Pinnars", "public_transport": "platform", "shelter": "yes"}}, {"type": "node", "id": 3411284058, "lat": 41.1339847, "lon": 1.2988243, "tags": {"bus": "yes", "highway": "bus_stop", "name": "Llevantina 1", "name:ca": "Llevantina 1", "operator": "EMT Tarragona", "public_transport": "platform"}}, {"type": "node", "id": 3411284059, "lat": 41.1344233, "lon": 1.299622, "tags": {"bus": "yes", "highway": "bus_stop", "name": "Llevantina 2", "name:ca": "Llevantina 2", "operator": "EMT Tarragona", "public_transport": "platform"}}, {"type": "node", "id": 3411284060, "lat": 41.1346951, "lon": 1.3012533, "tags": {"bus": "yes", "highway": "bus_stop", "name": "Florimar", "name:ca": "Florimar", "operator": "EMT Tarragona", "public_transport": "platform"}}, {"type": "node", "id": 3412470757, "lat": 41.1375831, "lon": 1.3460264, "tags": {"bus": "yes", "highway": "bus_stop", "name": "El Pont", "name:ca": "El Pont", "operator": "EMT Tarragona", "public_transport": "platform"}}, {"type": "node", "id": 3412470759, "lat": 41.1320429, "lon": 1.3452048, "tags": {"bus": "yes", "highway": "bus_stop", "name": "Osona", "operator": "EMT Tarragona", "public_transport": "platform"}}, {"type": "node", "id": 3412470760, "lat": 41.1298465, "lon": 1.3456277, "tags": {"bench": "yes", "bin": "yes", "bus": "yes", "highway": "bus_stop", "name": "La Mora", "name:ca": "La Mora", "operator": "EMT Tarragona", "public_transport": "platform", "shelter": "yes", "tactile_paving": "no", "url": "http://emtanemambtu.cat/detalldelineas/?linecode=12"}}, {"type": "node", "id": 3412470761, "lat": 41.1304608, "lon": 1.3463992, "tags": {"bus": "yes", "highway": "bus_stop", "name": "La Mora", "name:ca": "La Mora", "operator": "EMT Tarragona", "public_transport": "platform", "shelter": "no", "url": "http://emtanemambtu.cat/detalldelineas/?linecode=12"}}, {"type": "node", "id": 3412470762, "lat": 41.1294744, "lon": 1.3491185, "tags": {"bench": "no", "bin": "no", "bus": "yes", "highway": "bus_stop", "lit": "no", "name": "Conca de Barber\u00e0", "name:ca": "Conca de Barber\u00e0", "operator": "EMT Tarragona", "public_transport": "platform", "shelter": "no", "tactile_paving": "no", "url": "http://emtanemambtu.cat/detalldelineas/?linecode=12"}}, {"type": "node", "id": 3412470763, "lat": 41.1320824, "lon": 1.3560099, "tags": {"bench": "yes", "bin": "yes", "bus": "yes", "highway": "bus_stop", "lit": "yes", "name": "Blauet", "operator": "EMT Tarragona", "public_transport": "platform", "shelter": "no", "tactile_paving": "no", "url": "http://emtanemambtu.cat/detalldelineas/?linecode=12"}}, {"type": "node", "id": 3412470765, "lat": 41.1371712, "lon": 1.3512828, "tags": {"bus": "yes", "highway": "bus_stop", "name": "Guineu", "name:ca": "Guineu", "operator": "EMT Tarragona", "public_transport": "platform"}}, {"type": "node", "id": 3412491664, "lat": 41.1216009, "lon": 1.2579161, "tags": {"bus": "yes", "highway": "bus_stop", "name": "Pg. Torroja, 1", "operator": "EMT Tarragona", "public_transport": "stop_position"}}, {"type": "node", "id": 3412491666, "lat": 41.1220938, "lon": 1.2498071, "tags": {"bus": "yes", "highway": "bus_stop", "name": "Campus Catalunya", "operator": "EMT Tarragona", "public_transport": "stop_position"}}, {"type": "node", "id": 3412491667, "lat": 41.1224886, "lon": 1.2480859, "tags": {"bus": "yes", "highway": "bus_stop", "name": "Marqu\u00e8s de Montoliu", "name:ca": "Marqu\u00e8s de Montoliu", "operator": "EMT Tarragona", "public_transport": "stop_position"}}, {"type": "node", "id": 3412491668, "lat": 41.1207338, "lon": 1.2467496, "tags": {"bus": "yes", "highway": "bus_stop", "name": "Claret", "name:ca": "Claret", "operator": "EMT Tarragona", "public_transport": "stop_position"}}, {"type": "node", "id": 3412491669, "lat": 41.1162488, "lon": 1.2509455, "tags": {"bus": "yes", "highway": "bus_stop", "name": "Rambla Nova", "name:ca": "Rambla Nova", "operator": "EMT Tarragona", "public_transport": "platform"}}, {"type": "node", "id": 3412491670, "lat": 41.1155703, "lon": 1.2523749, "tags": {"bus": "yes", "highway": "bus_stop", "name": "Rambla Nova, 64", "operator": "EMT Tarragona", "public_transport": "stop_position"}}, {"type": "node", "id": 3412491671, "lat": 41.1117714, "lon": 1.250465, "tags": {"bus": "yes", "highway": "bus_stop", "name": "Apodaca, 11", "operator": "EMT Tarragona", "public_transport": "stop_position"}}, {"type": "node", "id": 3418523493, "lat": 41.1433868, "lon": 1.3185358, "tags": {"bus": "yes", "highway": "bus_stop", "name": "L'Escorp\u00ed", "operator": "EMT Tarragona", "public_transport": "stop_position"}}, {"type": "node", "id": 3418523494, "lat": 41.1409776, "lon": 1.3115682, "tags": {"bus": "yes", "highway": "bus_stop", "name": "El Pinatell", "operator": "EMT Tarragona", "public_transport": "stop_position"}}, {"type": "node", "id": 3418523496, "lat": 41.1395652, "lon": 1.3110584, "tags": {"bus": "yes", "highway": "bus_stop", "name": "Entrepins", "name:ca": "Entrepins", "operator": "EMT Tarragona", "public_transport": "stop_position"}}, {"type": "node", "id": 3418523497, "lat": 41.1345015, "lon": 1.305985, "tags": {"bus": "yes", "highway": "bus_stop", "name": "El Catllar", "name:ca": "El Catllar", "operator": "EMT Tarragona", "public_transport": "stop_position"}}, {"type": "node", "id": 3418523519, "lat": 41.1335876, "lon": 1.3071267, "tags": {"bus": "yes", "highway": "bus_stop", "name": "M\u00fcller", "operator": "EMT Tarragona", "public_transport": "platform"}}, {"type": "node", "id": 3418523523, "lat": 41.1350919, "lon": 1.3013043, "tags": {"bus": "yes", "highway": "bus_stop", "name": "\u00d2scar Espi\u00e0", "name:ca": "\u00d2scar Espi\u00e0", "operator": "EMT Tarragona", "public_transport": "platform"}}, {"type": "node", "id": 3418523524, "lat": 41.138024, "lon": 1.3007616, "tags": {"bus": "yes", "highway": "bus_stop", "name": "Lamote Grignon", "operator": "EMT Tarragona", "public_transport": "platform"}}, {"type": "node", "id": 3418523525, "lat": 41.1396698, "lon": 1.301586, "tags": {"bus": "yes", "highway": "bus_stop", "name": "Isaac Alb\u00e8niz", "operator": "EMT Tarragona", "public_transport": "platform"}}, {"type": "node", "id": 3418523526, "lat": 41.1395301, "lon": 1.2971445, "tags": {"bus": "yes", "highway": "bus_stop", "name": "Antoni Nicolau", "name:ca": "Antoni Nicolau", "operator": "EMT Tarragona", "public_transport": "platform"}}, {"type": "node", "id": 3418523527, "lat": 41.1407031, "lon": 1.2935145, "tags": {"bus": "yes", "highway": "bus_stop", "name": "Oreneta 13-14", "operator": "EMT Tarragona", "public_transport": "stop_position"}}, {"type": "node", "id": 3418523528, "lat": 41.1434181, "lon": 1.2925047, "tags": {"bus": "yes", "highway": "bus_stop", "name": "Cingonya, 16", "operator": "EMT Tarragona", "public_transport": "stop_position"}}, {"type": "node", "id": 3418523529, "lat": 41.1456587, "lon": 1.2923691, "tags": {"bus": "yes", "highway": "bus_stop", "name": "Cigonya, 40", "name:ca": "Cigonya, 40", "operator": "EMT Tarragona", "public_transport": "stop_position"}}, {"type": "node", "id": 3418523530, "lat": 41.1268161, "lon": 1.2919668, "tags": {"bench": "yes", "bin": "yes", "bus": "yes", "highway": "bus_stop", "name": "Ctra. Tennis, 12", "operator": "EMT Tarragona", "public_transport": "stop_position", "shelter": "yes"}}, {"type": "node", "id": 3418523531, "lat": 41.1287907, "lon": 1.293564, "tags": {"bus": "yes", "highway": "bus_stop", "name": "Cota, 5-8", "operator": "EMT Tarragona", "public_transport": "stop_position"}}, {"type": "node", "id": 3418523532, "lat": 41.1270996, "lon": 1.2911126, "tags": {"bus": "yes", "highway": "bus_stop", "name": "Sol, 9", "operator": "EMT Tarragona", "public_transport": "stop_position"}}, {"type": "node", "id": 3418523533, "lat": 41.1257851, "lon": 1.2893887, "tags": {"bus": "yes", "highway": "bus_stop", "name": "Sol, 4", "operator": "EMT Tarragona", "public_transport": "stop_position"}}, {"type": "node", "id": 3418523534, "lat": 41.1274706, "lon": 1.2909194, "tags": {"bus": "yes", "highway": "bus_stop", "name": "Terra Ferma, 7", "operator": "EMT Tarragona", "public_transport": "stop_position"}}, {"type": "node", "id": 3418523535, "lat": 41.1299601, "lon": 1.291213, "tags": {"bus": "yes", "highway": "bus_stop", "name": "Terra Ferma, 20", "operator": "EMT Tarragona", "public_transport": "stop_position"}}, {"type": "node", "id": 3418523536, "lat": 41.1207192, "lon": 1.2712255, "tags": {"bus": "yes", "highway": "bus_stop", "name": "Joan Fuster, 3", "operator": "EMT Tarragona", "public_transport": "stop_position"}}, {"type": "node", "id": 3420176509, "lat": 41.1257966, "lon": 1.2358903, "tags": {"bench": "no", "bus": "yes", "highway": "bus_stop", "name": "Pont i Gol, 41", "network": "EMT Tarragona", "network:wikidata": "Q28662868", "operator": "EMT Tarragona", "public_transport": "platform", "shelter": "no"}}, {"type": "node", "id": 3420176511, "lat": 41.123834, "lon": 1.2394548, "tags": {"bus": "yes", "highway": "bus_stop", "name": "Doctor Mallafr\u00e9, 7", "network": "EMT Tarragona", "network:wikidata": "Q28662868", "operator": "EMT Tarragona", "public_transport": "stop_position"}}, {"type": "node", "id": 3420176512, "lat": 41.1228208, "lon": 1.240981, "tags": {"bus": "yes", "highway": "bus_stop", "name": "Goya", "name:ca": "Goya", "operator": "EMT Tarragona", "public_transport": "stop_position"}}, {"type": "node", "id": 3420176513, "lat": 41.1217862, "lon": 1.2418474, "tags": {"bus": "yes", "highway": "bus_stop", "name": "Argentina", "operator": "EMT Tarragona", "public_transport": "platform"}}, {"type": "node", "id": 3420176514, "lat": 41.1225115, "lon": 1.2426868, "tags": {"bus": "yes", "highway": "bus_stop", "name": "Argentina", "operator": "EMT Tarragona", "public_transport": "stop_position"}}, {"type": "node", "id": 3420176515, "lat": 41.1220387, "lon": 1.249769, "tags": {"bus": "yes", "highway": "bus_stop", "name": "Campus Catalunya", "operator": "EMT Tarragona", "public_transport": "stop_position"}}, {"type": "node", "id": 3420176516, "lat": 41.1200969, "lon": 1.2526086, "tags": {"bus": "yes", "highway": "bus_stop", "name": "Catalunya", "name:ca": "Catalunya", "operator": "EMT Tarragona", "public_transport": "stop_position"}}, {"type": "node", "id": 3420176517, "lat": 41.1184579, "lon": 1.2545358, "tags": {"bus": "yes", "highway": "bus_stop", "name": "Portal del Roser", "name:ca": "Portal del Roser", "operator": "EMT Tarragona", "public_transport": "stop_position"}}, {"type": "node", "id": 3420176518, "lat": 41.1183686, "lon": 1.2546593, "tags": {"bus": "yes", "highway": "bus_stop", "name": "Portal del Roser", "name:ca": "Portal del Roser", "operator": "EMT Tarragona", "public_transport": "stop_position"}}, {"type": "node", "id": 3420176519, "lat": 41.117558, "lon": 1.2531605, "tags": {"bus": "yes", "highway": "bus_stop", "name": "Imperi Rom\u00e0", "name:ca": "Imperi Rom\u00e0", "operator": "EMT Tarragona", "public_transport": "stop_position"}}, {"type": "node", "id": 3420176522, "lat": 41.1153387, "lon": 1.2423353, "tags": {"bus": "yes", "highway": "bus_stop", "name": "Mallorca", "name:ca": "Mallorca", "operator": "EMT Tarragona", "public_transport": "stop_position"}}, {"type": "node", "id": 3420176523, "lat": 41.1122213, "lon": 1.241076, "tags": {"bus": "yes", "departures_board": "no", "highway": "bus_stop", "name": "Bastos", "operator": "EMT Tarragona", "public_transport": "platform"}}, {"type": "node", "id": 3420176526, "lat": 41.1100836, "lon": 1.2432401, "tags": {"bench": "yes", "bin": "no", "bus": "yes", "highway": "bus_stop", "lit": "yes", "name": "el Serrallo", "name:ca": "el Serrallo", "operator": "EMT Tarragona", "public_transport": "platform", "shelter": "yes", "tactile_paving": "no"}}, {"type": "node", "id": 3420176527, "lat": 41.1095643, "lon": 1.2467548, "tags": {"bench": "no", "bin": "no", "bus": "yes", "highway": "bus_stop", "lit": "yes", "name": "Moll de Costa", "name:ca": "Moll de Costa", "operator": "EMT Tarragona", "public_transport": "platform", "shelter": "no", "tactile_paving": "no"}}, {"type": "node", "id": 3420176528, "lat": 41.1092056, "lon": 1.2515001, "tags": {"bench": "no", "bin": "no", "bus": "yes", "highway": "bus_stop", "lit": "yes", "name": "Port Esportiu - Miracle", "operator": "EMT Tarragona", "public_transport": "platform", "shelter": "no", "tactile_paving": "no"}}, {"type": "node", "id": 3420198710, "lat": 41.1140685, "lon": 1.2488288, "tags": {"bus": "yes", "highway": "bus_stop", "name": "F\u00f2rum", "operator": "EMT Tarragona", "public_transport": "platform"}}, {"type": "node", "id": 3420198712, "lat": 41.1190943, "lon": 1.2419335, "tags": {"bus": "yes", "highway": "bus_stop", "name": "Oss\u00f3", "operator": "EMT Tarragona", "public_transport": "stop_position"}}, {"type": "node", "id": 3420198713, "lat": 41.116026, "lon": 1.2401109, "tags": {"bus": "yes", "highway": "bus_stop", "name": "Necr\u00f2polis", "operator": "EMT Tarragona", "public_transport": "platform"}}, {"type": "node", "id": 3420198714, "lat": 41.1127319, "lon": 1.2416256, "tags": {"bus": "yes", "highway": "bus_stop", "name": "Vidal i Barranquer, 25", "operator": "EMT Tarragona", "public_transport": "platform"}}, {"type": "node", "id": 3420198716, "lat": 41.1115155, "lon": 1.2451562, "tags": {"bench": "yes", "bus": "yes", "highway": "bus_stop", "name": "Reial", "name:ca": "Reial", "operator": "EMT Tarragona", "public_transport": "platform", "shelter": "yes"}}, {"type": "node", "id": 3420198717, "lat": 41.1107694, "lon": 1.2493019, "tags": {"bus": "yes", "highway": "bus_stop", "name": "Pl. dels Carros", "operator": "EMT Tarragona", "public_transport": "platform"}}, {"type": "node", "id": 3423277810, "lat": 41.1196979, "lon": 1.2443768, "tags": {"bus": "yes", "highway": "bus_stop", "name": "Llu\u00eds Companys", "name:ca": "Llu\u00eds Companys", "operator": "EMT Tarragona", "public_transport": "stop_position"}}, {"type": "node", "id": 3423277811, "lat": 41.1346688, "lon": 1.2483858, "tags": {"bus": "yes", "highway": "bus_stop", "name": "Pa\u00efsos Catalans, 41", "name:ca": "Pa\u00efsos Catalans, 41", "operator": "EMT Tarragona", "public_transport": "stop_position"}}, {"type": "node", "id": 3423277812, "lat": 41.1347096, "lon": 1.2483059, "tags": {"bus": "yes", "highway": "bus_stop", "name": "Pa\u00efsos Catalans, 41", "name:ca": "Pa\u00efsos Catalans, 41", "operator": "EMT Tarragona", "public_transport": "stop_position"}}, {"type": "node", "id": 3423277813, "lat": 41.1364252, "lon": 1.2503467, "tags": {"bus": "yes", "highway": "bus_stop", "name": "Miramar", "name:ca": "Miramar", "operator": "EMT Tarragona", "public_transport": "stop_position"}}, {"type": "node", "id": 3423277815, "lat": 41.1384245, "lon": 1.2495301, "tags": {"bus": "yes", "highway": "bus_stop", "name": "Guatemala", "operator": "EMT Tarragona", "public_transport": "stop_position"}}, {"type": "node", "id": 3423310470, "lat": 41.1577866, "lon": 1.2441282, "tags": {"bus": "yes", "highway": "bus_stop", "name": "Mas d'en Garrot", "name:ca": "Mas d'en Garrot", "operator": "EMT Tarragona", "public_transport": "platform"}}, {"type": "node", "id": 3423310471, "lat": 41.1578414, "lon": 1.2410939, "tags": {"bus": "yes", "highway": "bus_stop", "name": "L'Olivera", "name:ca": "L'Olivera", "operator": "EMT Tarragona", "public_transport": "stop_position"}}, {"type": "node", "id": 3423310472, "lat": 41.1560289, "lon": 1.2411501, "tags": {"bus": "yes", "highway": "bus_stop", "name": "Prefabricats", "operator": "EMT Tarragona", "public_transport": "stop_position"}}, {"type": "node", "id": 3423312694, "lat": 41.1394407, "lon": 1.2490533, "tags": {"bench": "no", "bus": "yes", "departures_board": "timetable", "highway": "bus_stop", "name": "Vene\u00e7uela", "name:ca": "Vene\u00e7uela", "operator": "EMT Tarragona", "public_transport": "platform", "ref": "25199", "shelter": "no"}}, {"type": "node", "id": 3423407845, "lat": 41.1500939, "lon": 1.2692106, "tags": {"bus": "yes", "highway": "bus_stop", "name": "Rodolat del Moro", "name:ca": "Rodolat del Moro", "operator": "EMT Tarragona", "public_transport": "platform"}}, {"type": "node", "id": 3423407873, "lat": 41.1481334, "lon": 1.2776294, "tags": {"bus": "yes", "highway": "bus_stop", "name": "Tarragon\u00e8s, 5", "name:ca": "Tarragon\u00e8s, 5", "operator": "EMT Tarragona", "public_transport": "stop_position"}}, {"type": "node", "id": 3463537241, "lat": 41.1962468, "lon": 1.5268138, "tags": {"bus": "yes", "highway": "bus_stop", "name": "Torreblanca - K\u00e0rting Vendrell", "public_transport": "stop_position"}}, {"type": "node", "id": 3463537243, "lat": 41.1896395, "lon": 1.5203807, "tags": {"bus": "yes", "highway": "bus_stop", "name": "Els Garrofers - Cru\u00eflla Coma-ruga", "public_transport": "platform"}}, {"type": "node", "id": 3463537244, "lat": 41.1896518, "lon": 1.5196263, "tags": {"bench": "yes", "bus": "yes", "highway": "bus_stop", "name": "Els Garrofers - Cru\u00eflla Coma-ruga", "public_transport": "platform", "shelter": "yes"}}, {"type": "node", "id": 3463537245, "lat": 41.1793444, "lon": 1.50018, "tags": {"bus": "yes", "highway": "bus_stop", "name": "El Franc\u00e0s - La Masia B. Ctra N-340", "public_transport": "stop_position"}}, {"type": "node", "id": 3463537246, "lat": 41.1783352, "lon": 1.4925172, "tags": {"bus": "yes", "highway": "bus_stop", "name": "El Franc\u00e0s - La Tenalla - Gal\u00b7la - Pl\u00e0cida", "public_transport": "stop_position"}}, {"type": "node", "id": 3592103272, "lat": 41.2233947, "lon": 1.3765911, "tags": {"name": "Salom\u00f3", "name:ca": "Salom\u00f3", "operator": "Adif", "public_transport": "station", "railway": "station", "wikidata": "Q8841681", "wikipedia": "ca:Estaci\u00f3 de Salom\u00f3"}}, {"type": "node", "id": 3596522144, "lat": 41.1998494, "lon": 1.6502124, "tags": {"bus": "yes", "highway": "bus_stop", "name": "Zona Comercial", "public_transport": "stop_position"}}, {"type": "node", "id": 4029050125, "lat": 41.1444189, "lon": 1.408065, "tags": {"bench": "yes", "bin": "yes", "bus": "yes", "check_date:bench": "2023-03-04", "covered": "yes", "highway": "bus_stop", "name": "Tropic", "operator": "Autocars del Pened\u00e8s", "public_transport": "stop_position", "shelter": "yes"}}, {"type": "node", "id": 4029050126, "lat": 41.1447288, "lon": 1.4079507, "tags": {"bench": "yes", "bin": "yes", "bus": "yes", "check_date:bench": "2023-03-04", "covered": "yes", "highway": "bus_stop", "name": "Tropic", "operator": "Autocars del Pened\u00e8s", "public_transport": "stop_position", "shelter": "yes"}}, {"type": "node", "id": 4029050127, "lat": 41.1511611, "lon": 1.4170166, "tags": {"bench": "no", "bus": "yes", "covered": "no", "highway": "bus_stop", "name": "Clar\u00e0", "name:ca": "Clar\u00e0", "operator": "Autocars del Pened\u00e8s", "public_transport": "platform"}}, {"type": "node", "id": 4029050128, "lat": 41.1512896, "lon": 1.4168814, "tags": {"bench": "no", "bus": "yes", "covered": "no", "highway": "bus_stop", "name": "Clar\u00e0", "name:ca": "Clar\u00e0", "operator": "Autocars del Pened\u00e8s", "public_transport": "platform"}}, {"type": "node", "id": 4029093927, "lat": 41.1703419, "lon": 1.4152837, "tags": {"bench": "no", "bus": "yes", "covered": "no", "highway": "bus_stop", "name": "Poblamar", "name:ca": "Poblamar", "operator": "Autocars del Pened\u00e8s", "public_transport": "platform", "public_transport:version": "2"}}, {"type": "node", "id": 4029093928, "lat": 41.1695377, "lon": 1.4156162, "tags": {"bus": "yes", "covered": "yes", "highway": "bus_stop", "name": "Poblamar", "name:ca": "Poblamar", "operator": "Autocars del Pened\u00e8s", "public_transport": "platform"}}, {"type": "node", "id": 4029093929, "lat": 41.1774132, "lon": 1.4158358, "tags": {"bench": "yes", "bus": "yes", "covered": "yes", "highway": "bus_stop", "name": "Poble / Escola", "name:ca": "Poble / Escola", "operator": "Autocars del Pened\u00e8s", "public_transport": "platform"}}, {"type": "node", "id": 4029093930, "lat": 41.1784115, "lon": 1.4156229, "tags": {"bench": "no", "bus": "yes", "covered": "no", "highway": "bus_stop", "name": "Poble / Escola", "name:ca": "Poble / Escola", "operator": "Autocars del Pened\u00e8s", "public_transport": "platform"}}, {"type": "node", "id": 4029093931, "lat": 41.1796691, "lon": 1.4151995, "tags": {"bench": "no", "bus": "yes", "covered": "no", "highway": "bus_stop", "name": "Noves escoles", "operator": "Autocars del Pened\u00e8s", "public_transport": "platform"}}, {"type": "node", "id": 4029093932, "lat": 41.1795188, "lon": 1.4150907, "tags": {"bench": "no", "bus": "yes", "covered": "no", "highway": "bus_stop", "name": "Noves escoles", "operator": "Autocars del Pened\u00e8s", "public_transport": "platform"}}, {"type": "node", "id": 4029093933, "lat": 41.1898244, "lon": 1.4070356, "tags": {"bench": "no", "bus": "yes", "covered": "no", "highway": "bus_stop", "name": "Mas Sol\u00e9 / T\u00e9", "name:ca": "Mas Sol\u00e9 / T\u00e9", "operator": "Autocars del Pened\u00e8s", "public_transport": "platform", "shelter": "no"}}, {"type": "node", "id": 4029093934, "lat": 41.1926703, "lon": 1.4049577, "tags": {"bench": "no", "bus": "yes", "covered": "no", "highway": "bus_stop", "name": "Poblado", "operator": "Autocars del Pened\u00e8s", "public_transport": "platform", "shelter": "no"}}, {"type": "node", "id": 4029093935, "lat": 41.1947008, "lon": 1.4019206, "tags": {"bench": "no", "bus": "yes", "covered": "no", "highway": "bus_stop", "name": "Magraner pla\u00e7a", "name:ca": "Magraner pla\u00e7a", "operator": "Autocars del Pened\u00e8s", "public_transport": "platform", "shelter": "no"}}, {"type": "node", "id": 4029093937, "lat": 41.1945918, "lon": 1.4055684, "tags": {"bench": "no", "bus": "yes", "covered": "no", "highway": "bus_stop", "name": "Torrent / Cirerer", "name:ca": "Torrent / Cirerer", "operator": "Autocars del Pened\u00e8s", "public_transport": "platform", "shelter": "no"}}, {"type": "node", "id": 4029093938, "lat": 41.1918737, "lon": 1.4097966, "tags": {"bench": "yes", "bus": "yes", "covered": "no", "highway": "bus_stop", "name": "Torrent / Paniol", "operator": "Autocars del Pened\u00e8s", "public_transport": "platform", "shelter": "no"}}, {"type": "node", "id": 4029093939, "lat": 41.1900412, "lon": 1.4118791, "tags": {"bench": "yes", "bus": "yes", "covered": "no", "highway": "bus_stop", "name": "Torrent / Pont nou", "name:ca": "Torrent / Pont nou", "operator": "Autocars del Pened\u00e8s", "public_transport": "platform", "shelter": "no"}}, {"type": "node", "id": 4029093940, "lat": 41.1902918, "lon": 1.4030017, "tags": {"bench": "yes", "bus": "yes", "covered": "no", "highway": "bus_stop", "name": "Llimones - Palmeres", "operator": "Autocars del Pened\u00e8s", "public_transport": "platform", "shelter": "no"}}, {"type": "node", "id": 4029093941, "lat": 41.1907923, "lon": 1.4004322, "tags": {"bench": "yes", "bus": "yes", "covered": "yes", "highway": "bus_stop", "name": "Flor d'Ametller", "operator": "Autocars del Pened\u00e8s", "public_transport": "platform", "shelter": "yes"}}, {"type": "node", "id": 4029093942, "lat": 41.1891353, "lon": 1.4009788, "tags": {"bench": "no", "bus": "yes", "covered": "no", "highway": "bus_stop", "name": "Eucaliptus / Transformador", "operator": "Autocars del Pened\u00e8s", "public_transport": "platform"}}, {"type": "node", "id": 4029093943, "lat": 41.1885679, "lon": 1.4033603, "tags": {"bench": "no", "bus": "yes", "covered": "no", "highway": "bus_stop", "name": "Magnolies / Palmeres", "operator": "Autocars del Pened\u00e8s", "public_transport": "platform", "shelter": "no"}}, {"type": "node", "id": 4029093944, "lat": 41.1864234, "lon": 1.400888, "tags": {"bench": "no", "bus": "yes", "covered": "no", "highway": "bus_stop", "name": "Desmais / Oms", "name:ca": "Desmais / Oms", "operator": "Autocars del Pened\u00e8s", "public_transport": "platform", "shelter": "no"}}, {"type": "node", "id": 4029093945, "lat": 41.184519, "lon": 1.4034693, "tags": {"bench": "no", "bus": "yes", "covered": "no", "highway": "bus_stop", "name": "Ac\u00e0cies / Roures", "name:ca": "Ac\u00e0cies / Roures", "operator": "Autocars del Pened\u00e8s", "public_transport": "platform", "shelter": "no"}}, {"type": "node", "id": 4029093946, "lat": 41.1856045, "lon": 1.4050471, "tags": {"bench": "yes", "bus": "yes", "covered": "no", "highway": "bus_stop", "name": "Estadi / Violes", "name:ca": "Estadi / Violes", "operator": "Autocars del Pened\u00e8s", "public_transport": "platform", "shelter": "no"}}, {"type": "node", "id": 4029093947, "lat": 41.1885823, "lon": 1.407593, "tags": {"bench": "yes", "bus": "yes", "covered": "yes", "highway": "bus_stop", "name": "Mas Sol\u00e9", "name:ca": "Mas Sol\u00e9", "operator": "Autocars del Pened\u00e8s", "public_transport": "platform", "shelter": "yes"}}, {"type": "node", "id": 4029093948, "lat": 41.1869174, "lon": 1.4093727, "tags": {"bench": "no", "bus": "yes", "covered": "no", "highway": "bus_stop", "name": "Mas Sol\u00e9 / Farigola", "name:ca": "Mas Sol\u00e9 / Farigola", "operator": "Autocars del Pened\u00e8s", "public_transport": "platform", "shelter": "no"}}, {"type": "node", "id": 4029093949, "lat": 41.1432883, "lon": 1.3991986, "tags": {"bench": "yes", "bus": "yes", "covered": "yes", "highway": "bus_stop", "name": "Passeig de la Sort", "name:ca": "Passeig de la Sort", "operator": "Autocars del Pened\u00e8s", "public_transport": "stop_position"}}, {"type": "node", "id": 4029095637, "lat": 41.1435978, "lon": 1.3986653, "tags": {"bench": "yes", "bus": "yes", "covered": "yes", "highway": "bus_stop", "name": "Passeig de la Sort", "name:ca": "Passeig de la Sort", "operator": "Autocars del Pened\u00e8s", "public_transport": "stop_position"}}, {"type": "node", "id": 4734578413, "lat": 41.1115541, "lon": 1.2531188, "tags": {"access": "permissive", "entrance": "yes"}}, {"type": "node", "id": 4958486852, "lat": 41.1978546, "lon": 1.4031974, "tags": {"bench": "no", "bus": "yes", "highway": "bus_stop", "name": "Perera final", "name:ca": "Perera final", "operator": "Autocars del Pened\u00e8s", "public_transport": "platform", "shelter": "no"}}, {"type": "node", "id": 5026128725, "lat": 41.1689372, "lon": 1.4579222, "tags": {"bus": "yes", "highway": "bus_stop", "operator": "Pened\u00e8s", "public_transport": "platform"}}, {"type": "node", "id": 5038941195, "lat": 41.1656309, "lon": 1.4511006, "tags": {"bench": "yes", "bin": "no", "bus": "yes", "highway": "bus_stop", "name": "Creixell Les Sinies", "operator": "Pened\u00e8s", "public_transport": "platform", "shelter": "yes"}}, {"type": "node", "id": 5038941210, "lat": 41.1624369, "lon": 1.4401131, "tags": {"bench": "yes", "bin": "no", "bus": "yes", "highway": "bus_stop", "lit": "yes", "name": "Creixell Cru\u00eflla", "name:ca": "Creixell Cru\u00eflla", "operator": "Pened\u00e8s", "public_transport": "stop_position", "shelter": "yes", "tactile_paving": "no"}}, {"type": "node", "id": 5074170615, "lat": 41.1734749, "lon": 1.4697753, "tags": {"bench": "yes", "bin": "no", "bus": "yes", "check_date:shelter": "2022-12-05", "highway": "bus_stop", "public_transport": "stop_position", "shelter": "yes"}}, {"type": "node", "id": 5080036200, "lat": 41.1781396, "lon": 1.4911003, "tags": {"bench": "yes", "bin": "no", "bus": "yes", "check_date:shelter": "2023-03-04", "highway": "bus_stop", "lit": "no", "public_transport": "stop_position", "shelter": "yes", "tactile_paving": "no"}}, {"type": "node", "id": 5412049453, "lat": 41.2259495, "lon": 1.6110136, "tags": {"bus": "yes", "highway": "bus_stop", "name": "Av. Marca Hisp\u00e0nica / Gard\u00e8nia", "public_transport": "stop_position"}}, {"type": "node", "id": 5435193227, "lat": 41.1113559, "lon": 1.2528197, "tags": {"operator": "Adif", "wheelchair": "yes", "wikidata": "Q3754797", "wikipedia": "ca:Estaci\u00f3 de Tarragona"}}, {"type": "node", "id": 5435480586, "lat": 41.1366062, "lon": 1.3732969, "tags": {"name": "Altafulla - Tamarit", "name:ca": "Altafulla - Tamarit", "public_transport": "station", "railway": "station", "wheelchair": "yes", "wikidata": "Q507041", "wikipedia": "ca:Estaci\u00f3 d'Altafulla-Tamarit"}}, {"type": "node", "id": 5435487464, "lat": 41.1427507, "lon": 1.4056175, "tags": {"name": "Torredembarra", "name:ca": "Torredembarra", "platforms": "2", "public_transport": "station", "railway": "station", "train": "yes", "wikidata": "Q8842076", "wikipedia": "ca:Estaci\u00f3 de Torredembarra"}}, {"type": "node", "id": 5435603688, "lat": 41.2204776, "lon": 1.7308133, "tags": {"bus": "yes", "highway": "bus_stop", "name": "Vilanova i la Geltr\u00fa (Estaci\u00f3)", "name:ca": "Vilanova i la Geltr\u00fa (Estaci\u00f3)", "public_transport": "stop_position"}}, {"type": "node", "id": 5435603689, "lat": 41.2204065, "lon": 1.730538, "tags": {"bus": "yes", "highway": "bus_stop", "name": "Vilanova i la Geltr\u00fa (Estaci\u00f3)", "name:ca": "Vilanova i la Geltr\u00fa (Estaci\u00f3)", "public_transport": "stop_position"}}, {"type": "node", "id": 5435603690, "lat": 41.2205075, "lon": 1.7304434, "tags": {"bus": "yes", "highway": "bus_stop", "name": "Pla\u00e7a Eduard Maristany", "name:ca": "Pla\u00e7a Eduard Maristany", "public_transport": "stop_position"}}, {"type": "node", "id": 5435603691, "lat": 41.2205674, "lon": 1.7306655, "tags": {"bus": "yes", "highway": "bus_stop", "name": "Vilanova i la Geltr\u00fa (Estaci\u00f3)", "name:ca": "Vilanova i la Geltr\u00fa (Estaci\u00f3)", "public_transport": "stop_position"}}, {"type": "node", "id": 5435603692, "lat": 41.2205979, "lon": 1.7307789, "tags": {"bus": "yes", "highway": "bus_stop", "name": "Pla\u00e7a Eduard Maristany (Renfe-Adif)", "name:ca": "Pla\u00e7a Eduard Maristany (Renfe-Adif)", "public_transport": "stop_position"}}, {"type": "node", "id": 5435603693, "lat": 41.2206157, "lon": 1.730677, "tags": {"bus": "yes", "highway": "bus_stop", "name": "Vilanova i la Geltr\u00fa (Estaci\u00f3)", "name:ca": "Vilanova i la Geltr\u00fa (Estaci\u00f3)", "public_transport": "stop_position"}}, {"type": "node", "id": 5435603694, "lat": 41.2205512, "lon": 1.7304475, "tags": {"bus": "yes", "highway": "bus_stop", "name": "Vilanova i la Geltr\u00fa (Estaci\u00f3)", "name:ca": "Vilanova i la Geltr\u00fa (Estaci\u00f3)", "public_transport": "stop_position"}}, {"type": "node", "id": 5435603696, "lat": 41.2207585, "lon": 1.73071, "tags": {"bus": "yes", "highway": "bus_stop", "name": "Vilanova i la Geltr\u00fa (Estaci\u00f3)", "name:ca": "Vilanova i la Geltr\u00fa (Estaci\u00f3)", "public_transport": "stop_position"}}, {"type": "node", "id": 5435604026, "lat": 41.2201812, "lon": 1.7308241, "tags": {"building": "yes", "check_date": "2024-08-03", "name": "Vilanova i la Geltr\u00fa", "name:ca": "Vilanova i la Geltr\u00fa", "operator": "Adif", "public_transport": "station", "railway": "station", "wheelchair": "yes", "wikidata": "Q1994013", "wikipedia": "ca:Estaci\u00f3 de Vilanova i la Geltr\u00fa"}}, {"type": "node", "id": 5440906745, "lat": 41.2345948, "lon": 1.727528, "tags": {"bus": "yes", "highway": "bus_stop", "name": "Pla\u00e7a de la Cucanya", "name:ca": "Pla\u00e7a de la Cucanya", "public_transport": "stop_position"}}, {"type": "node", "id": 5440906746, "lat": 41.2190472, "lon": 1.7217601, "tags": {"bus": "yes", "highway": "bus_stop", "name": "Pla\u00e7a de les Danses de Vilanova", "name:ca": "Pla\u00e7a de les Danses de Vilanova", "public_transport": "stop_position"}}, {"type": "node", "id": 5440906747, "lat": 41.2282205, "lon": 1.693915, "tags": {"bus": "yes", "highway": "bus_stop", "name": "Margall\u00f3 - Avinguda dels Sis Camins", "public_transport": "stop_position"}}, {"type": "node", "id": 5443873391, "lat": 41.2394972, "lon": 1.3174786, "tags": {"name": "Vilabella", "name:ca": "Vilabella", "operator": "Adif", "public_transport": "station", "railway": "station", "wikidata": "Q8842212", "wikipedia": "ca:Estaci\u00f3 de Vilabella"}}, {"type": "node", "id": 5454449478, "lat": 41.2290019, "lon": 1.7389268, "tags": {"bus": "yes", "highway": "bus_stop", "name": "Ronda Europa n\u00ba 56", "public_transport": "stop_position"}}, {"type": "node", "id": 5454449479, "lat": 41.2313475, "lon": 1.7366944, "tags": {"bus": "yes", "highway": "bus_stop", "name": "Ronda Europa - Ronda Ib\u00e8rica (McDonalds)", "public_transport": "stop_position"}}, {"type": "node", "id": 5454449481, "lat": 41.2253695, "lon": 1.732631, "tags": {"bus": "yes", "highway": "bus_stop", "name": "Rambla de Sant Jordi - Km. 43", "public_transport": "stop_position"}}, {"type": "node", "id": 5454449482, "lat": 41.2232347, "lon": 1.7328105, "tags": {"bus": "yes", "highway": "bus_stop", "name": "Cru\u00eflla de l'Esperan\u00e7a - Ne\u00e0polis", "public_transport": "stop_position"}}, {"type": "node", "id": 5454449483, "lat": 41.2219369, "lon": 1.7219009, "tags": {"bus": "yes", "highway": "bus_stop", "name": "Pare Gar\u00ed - Escola Pompeu Fabra", "public_transport": "stop_position"}}, {"type": "node", "id": 5455145280, "lat": 41.2212609, "lon": 1.7115838, "tags": {"bus": "yes", "highway": "bus_stop", "name": "Carrer de l'Aigua - Dr. Zamenhof", "name:ca": "Carrer de l'Aigua - Dr. Zamenhof", "public_transport": "stop_position"}}, {"type": "node", "id": 5455264935, "lat": 41.2263005, "lon": 1.7409604, "tags": {"bus": "yes", "highway": "bus_stop", "name": "Avinguda de la Terrosa", "name:ca": "Avinguda de la Terrosa", "public_transport": "stop_position"}}, {"type": "node", "id": 5457912905, "lat": 41.2349394, "lon": 1.7490082, "tags": {"bus": "yes", "highway": "bus_stop", "name": "Rambla del Garraf amb Guifr\u00e9 el Pil\u00f2s (Vilanoveta)", "public_transport": "stop_position"}}, {"type": "node", "id": 5457912907, "lat": 41.2275249, "lon": 1.7459571, "tags": {"bus": "yes", "highway": "bus_stop", "name": "Eugeni d'Ors amb Miquel Servet (Les Roquetes)", "name:ca": "Eugeni d'Ors amb Miquel Servet (Les Roquetes)", "public_transport": "stop_position"}}, {"type": "node", "id": 5457912965, "lat": 41.2376959, "lon": 1.7551424, "tags": {"bus": "yes", "highway": "bus_stop", "name": "Pol\u00edgon Industrial (Vilanoveta)", "public_transport": "stop_position"}}, {"type": "node", "id": 5457912966, "lat": 41.2313891, "lon": 1.7437404, "tags": {"bus": "yes", "highway": "bus_stop", "name": "Av. Catalunya amb Rambla del Garraf", "public_transport": "stop_position"}}, {"type": "node", "id": 5460138472, "lat": 41.2302923, "lon": 1.7445332, "tags": {"bus": "yes", "highway": "bus_stop", "name": "Avinguda Catalunya amb Foix (les Roquetes)", "name:ca": "Avinguda Catalunya amb Foix (les Roquetes)", "public_transport": "stop_position"}}, {"type": "node", "id": 5460138473, "lat": 41.2318115, "lon": 1.7429883, "tags": {"bus": "yes", "highway": "bus_stop", "name": "Avinguda Catalunya amb Eduard Toldr\u00e0 (les Roquetes)", "name:ca": "Avinguda Catalunya amb Eduard Toldr\u00e0 (les Roquetes)", "public_transport": "stop_position"}}, {"type": "node", "id": 5465201557, "lat": 41.1918051, "lon": 1.6017482, "tags": {"bus": "yes", "highway": "bus_stop", "name": "Av. Moss\u00e8n Jaume Soler / V\u00edctor Catal\u00e0", "public_transport": "platform"}}, {"type": "node", "id": 5465201558, "lat": 41.1918435, "lon": 1.6017456, "tags": {"bus": "yes", "highway": "bus_stop", "name": "Av. Moss\u00e8n Jaume Soler / V\u00edctor Catal\u00e0", "public_transport": "stop_position"}}, {"type": "node", "id": 5465201559, "lat": 41.1901051, "lon": 1.5832576, "tags": {"bus": "yes", "highway": "bus_stop", "name": "Av. Moss\u00e8n Jaume Soler / Carles Barral", "public_transport": "stop_position"}}, {"type": "node", "id": 5480924446, "lat": 41.2007061, "lon": 1.5989246, "tags": {"bus": "yes", "highway": "bus_stop", "name": "Av. Espanya / Av. Anglaterra", "public_transport": "stop_position"}}, {"type": "node", "id": 5480924447, "lat": 41.189922, "lon": 1.5747707, "tags": {"bus": "yes", "highway": "bus_stop", "name": "Platja de Calafell - Estaci\u00f3 de Calafell", "name:ca": "Platja de Calafell - Estaci\u00f3 de Calafell", "public_transport": "stop_position"}}, {"type": "node", "id": 5487300024, "lat": 41.339253, "lon": 1.7004292, "tags": {"bus": "yes", "highway": "bus_stop", "name": "Av. Europa / El Parquet", "public_transport": "stop_position"}}, {"type": "node", "id": 5487300025, "lat": 41.3428194, "lon": 1.6997246, "tags": {"bus": "yes", "highway": "bus_stop", "name": "Am\u00e0ia Soler / General Cortijo", "public_transport": "stop_position"}}, {"type": "node", "id": 5489601681, "lat": 41.2074901, "lon": 1.6731566, "tags": {"bus": "yes", "highway": "bus_stop", "name": "Cubelles Centre | Pg. Bardaj\u00ed - Av. Catalunya", "public_transport": "stop_position"}}, {"type": "node", "id": 5498510851, "lat": 41.2088566, "lon": 1.6744312, "tags": {"bus": "yes", "highway": "bus_stop", "name": "C. \u00c0ngel Guimer\u00e0 (Pl. de la Font)", "public_transport": "stop_position"}}, {"type": "node", "id": 5498510852, "lat": 41.2073748, "lon": 1.6732671, "tags": {"bus": "yes", "highway": "bus_stop", "name": "Cubelles Centre | Pg. Bardaj\u00ed - Av. Catalunya", "public_transport": "stop_position"}}, {"type": "node", "id": 5498510853, "lat": 41.2012127, "lon": 1.6713839, "tags": {"bus": "yes", "highway": "bus_stop", "name": "Poliesportiu Municipal", "name:ca": "Poliesportiu Municipal", "public_transport": "stop_position"}}, {"type": "node", "id": 5498510854, "lat": 41.2038568, "lon": 1.6758737, "tags": {"bus": "yes", "highway": "bus_stop", "name": "11 de Setembre - Renfe Mar", "public_transport": "stop_position"}}, {"type": "node", "id": 5498510855, "lat": 41.2022857, "lon": 1.67385, "tags": {"bus": "yes", "highway": "bus_stop", "name": "Pg. Fluvial / Lleida", "public_transport": "stop_position"}}, {"type": "node", "id": 5570054429, "lat": 41.2297328, "lon": 1.7217978, "tags": {"bus": "yes", "highway": "bus_stop", "name": "Hospital de Sant Antoni Abat", "operator": "Transports P\u00fablics de Catalunya", "public_transport": "platform"}}, {"type": "node", "id": 5572211690, "lat": 41.2301993, "lon": 1.7298888, "tags": {"bus": "yes", "highway": "bus_stop", "name": "Rbla. Sant Jordi - Rda. Ib\u00e8rica", "public_transport": "platform"}}, {"type": "node", "id": 5599779599, "lat": 41.1182532, "lon": 1.2442365, "tags": {"bus": "yes", "highway": "bus_stop", "name": "Estaci\u00f3 d'autobusos de Tarragona", "name:ca": "Estaci\u00f3 d'autobusos de Tarragona", "public_transport": "stop_position", "shelter": "yes"}}, {"type": "node", "id": 5599780095, "lat": 41.1186209, "lon": 1.2453282, "tags": {"bus": "yes", "highway": "bus_stop", "name": "Pla\u00e7a Imperial T\u00e0rraco", "name:ca": "Pla\u00e7a Imperial T\u00e0rraco", "public_transport": "platform", "shelter": "yes"}}, {"type": "node", "id": 5599793892, "lat": 41.1200591, "lon": 1.2716669, "tags": {"bus": "yes", "highway": "bus_stop", "name": "Via Augusta (CAP Llevant)", "public_transport": "stop_position"}}, {"type": "node", "id": 5599793951, "lat": 41.1156364, "lon": 1.2580124, "tags": {"bench": "yes", "bin": "no", "bus": "yes", "highway": "bus_stop", "name": "Via Augusta / Balc\u00f3 del Mediterrani", "operator": "EMT Tarragona", "public_transport": "platform", "shelter": "no"}}, {"type": "node", "id": 5599794200, "lat": 41.1201061, "lon": 1.2716393, "tags": {"bench": "yes", "bin": "yes", "bus": "yes", "highway": "bus_stop", "lit": "yes", "name": "Via Augusta (CAP Llevant)", "public_transport": "platform", "shelter": "no", "tactile_paving": "no"}}, {"type": "node", "id": 5599794202, "lat": 41.1204728, "lon": 1.2727779, "tags": {"bench": "yes", "bin": "yes", "bus": "yes", "highway": "bus_stop", "lit": "yes", "name": "Via Augusta (Tuset)", "public_transport": "platform", "shelter": "no", "tactile_paving": "no"}}, {"type": "node", "id": 5599794617, "lat": 41.1153888, "lon": 1.2570025, "tags": {"bench": "no", "bin": "no", "bus": "yes", "highway": "bus_stop", "lit": "yes", "name": "Rambla Vella (Hotel HUSA Imperial Tarraco)", "public_transport": "platform", "shelter": "yes"}}, {"type": "node", "id": 5599856594, "lat": 41.2183956, "lon": 1.5362367, "tags": {"bus": "yes", "highway": "bus_stop", "name": "Estaci\u00f3 d'Autobusos d'El Vendrell", "operator": "Ajuntament d'El Vendrell", "public_transport": "stop_position", "shelter": "yes"}}, {"type": "node", "id": 5600896993, "lat": 41.1119191, "lon": 1.243106, "tags": {"bench": "no", "bin": "no", "bus": "yes", "highway": "bus_stop", "lit": "yes", "name": "Jaume I", "name:ca": "Jaume I", "operator": "EMT Tarragona", "public_transport": "platform", "shelter": "no", "tactile_paving": "no"}}, {"type": "node", "id": 5600897650, "lat": 41.1304164, "lon": 1.2404975, "tags": {"bench": "yes", "bin": "no", "bus": "yes", "highway": "bus_stop", "name": "Educacional N-240", "operator": "EMT Tarragona", "public_transport": "platform", "shelter": "yes"}}, {"type": "node", "id": 5600897651, "lat": 41.1242775, "lon": 1.2431154, "tags": {"bus": "yes", "highway": "bus_stop", "name": "Cam\u00ed de l'\u00c0ngel", "name:ca": "Cam\u00ed de l'\u00c0ngel", "public_transport": "stop_position"}}, {"type": "node", "id": 5600897653, "lat": 41.111815, "lon": 1.2431395, "tags": {"bench": "no", "bin": "no", "bus": "yes", "highway": "bus_stop", "lit": "yes", "name": "Jaume I", "name:ca": "Jaume I", "operator": "EMT Tarragona", "public_transport": "platform", "shelter": "no", "tactile_paving": "no"}}, {"type": "node", "id": 5600897654, "lat": 41.1130488, "lon": 1.2432025, "tags": {"bus": "yes", "highway": "bus_stop", "name": "Carrer de Pere Martell, 47", "name:ca": "Carrer de Pere Martell, 47", "public_transport": "stop_position"}}, {"type": "node", "id": 5600898011, "lat": 41.1251432, "lon": 1.2424715, "tags": {"bus": "yes", "highway": "bus_stop", "name": "C. Josep Maria Vives Sales (cam\u00ed de l'\u00c0ngel)", "operator": "Transports P\u00fablics de Catalunya", "public_transport": "platform"}}, {"type": "node", "id": 5600898251, "lat": 41.1308184, "lon": 1.2397807, "tags": {"bench": "yes", "bin": "no", "bus": "yes", "highway": "bus_stop", "name": "Educacional N-240", "operator": "Transports P\u00fablics de Catalunya", "public_transport": "platform", "shelter": "yes", "tactile_paving": "no"}}, {"type": "node", "id": 5600898256, "lat": 41.1242876, "lon": 1.2431677, "tags": {"bus": "yes", "highway": "bus_stop", "name": "Cam\u00ed de l'\u00c0ngel", "name:ca": "Cam\u00ed de l'\u00c0ngel", "public_transport": "platform"}}, {"type": "node", "id": 5600898260, "lat": 41.113069, "lon": 1.243114, "tags": {"bus": "yes", "highway": "bus_stop", "name": "Carrer de Pere Martell, 47", "name:ca": "Carrer de Pere Martell, 47", "public_transport": "platform"}}, {"type": "node", "id": 5600898261, "lat": 41.1114584, "lon": 1.2529309, "tags": {"bench": "no", "bin": "no", "bus": "yes", "highway": "bus_stop", "lit": "yes", "name": "Estaci\u00f3 de RENFE", "name:ca": "Estaci\u00f3 de RENFE", "operator": "EMT Tarragona", "public_transport": "platform", "shelter": "no", "tactile_paving": "no"}}, {"type": "node", "id": 5600915366, "lat": 41.1599318, "lon": 1.2400682, "tags": {"bus": "yes", "highway": "bus_stop", "name": "N-240 (Barri de Sant Salvador)", "public_transport": "stop_position"}}, {"type": "node", "id": 5600917847, "lat": 41.1595433, "lon": 1.2401091, "tags": {"bus": "yes", "highway": "bus_stop", "name": "N-240 (Barri de Sant Salvador)", "public_transport": "stop_position"}}, {"type": "node", "id": 5648137310, "lat": 41.2260577, "lon": 1.7399532, "tags": {"bus": "yes", "highway": "bus_stop", "name": "Aparcament disuasori", "public_transport": "stop_position"}}, {"type": "node", "id": 5648137703, "lat": 41.2170527, "lon": 1.7364824, "tags": {"bus": "yes", "highway": "bus_stop", "name": "Platja del Far", "name:ca": "Platja del Far", "public_transport": "stop_position"}}, {"type": "node", "id": 5822287418, "lat": 41.1151248, "lon": 1.2668423, "tags": {"bench": "no", "bus": "yes", "highway": "bus_stop", "name": "Fort\u00ed", "name:ca": "Fort\u00ed", "operator": "EMT Tarragona", "passenger_information_display": "no", "public_transport": "platform", "shelter": "no"}}, {"type": "node", "id": 5890212297, "lat": 41.3411224, "lon": 1.7042237, "tags": {"bus": "yes", "highway": "bus_stop", "name": "General Vall\u00e8s / Doctor Fleming", "public_transport": "platform"}}, {"type": "node", "id": 5890212298, "lat": 41.3395038, "lon": 1.7049686, "tags": {"bus": "yes", "highway": "bus_stop", "name": "Av. Vilanova (Resid. Mare R\u00e0fols: Ricard Fortuny)", "public_transport": "platform", "public_transport:version": "2"}}, {"type": "node", "id": 5890212299, "lat": 41.3384932, "lon": 1.702241, "tags": {"bus": "yes", "highway": "bus_stop", "name": "Llu\u00eds Companys / Rbla. Giralda", "public_transport": "platform"}}, {"type": "node", "id": 5890212300, "lat": 41.337144, "lon": 1.7016888, "tags": {"bus": "yes", "highway": "bus_stop", "name": "Rbla. Giralda", "public_transport": "platform"}}, {"type": "node", "id": 5890212301, "lat": 41.3392732, "lon": 1.700361, "tags": {"bus": "yes", "highway": "bus_stop", "name": "Av. Europa / El Parquet", "public_transport": "platform"}}, {"type": "node", "id": 5890212302, "lat": 41.3427869, "lon": 1.6997624, "tags": {"bus": "yes", "highway": "bus_stop", "name": "Am\u00e0ia Soler / General Cortijo", "public_transport": "platform"}}, {"type": "node", "id": 5890212303, "lat": 41.3420954, "lon": 1.698506, "tags": {"bus": "yes", "highway": "bus_stop", "name": "Am\u00e0ia Soler / Bisbe Morgades", "public_transport": "platform"}}, {"type": "node", "id": 5890212304, "lat": 41.3390432, "lon": 1.6964825, "tags": {"bus": "yes", "highway": "bus_stop", "name": "Ignasi Iglesias / Montblanc", "public_transport": "platform"}}, {"type": "node", "id": 5890212305, "lat": 41.3392687, "lon": 1.6916003, "tags": {"bus": "yes", "highway": "bus_stop", "name": "Av. Tarragona / Av. Vendrell", "public_transport": "platform"}}, {"type": "node", "id": 5890212306, "lat": 41.3411291, "lon": 1.6938464, "tags": {"bus": "yes", "highway": "bus_stop", "name": "Parc Sant Salvador", "name:ca": "Parc Sant Salvador", "public_transport": "stop_position"}}, {"type": "node", "id": 5993920238, "lat": 41.1158021, "lon": 1.2575684, "tags": {"bench": "no", "bin": "no", "bus": "yes", "highway": "bus_stop", "lit": "yes", "name": "Passeig de les Palmeres", "name:ca": "Passeig de les Palmeres", "public_transport": "platform", "shelter": "no", "tactile_paving": "no"}}, {"type": "node", "id": 6773047564, "lat": 41.2993359, "lon": 1.558909, "tags": {"bus": "yes", "highway": "bus_stop", "public_transport": "platform"}}, {"type": "node", "id": 6773047565, "lat": 41.2993879, "lon": 1.5588504, "tags": {"bus": "yes", "highway": "bus_stop", "public_transport": "platform"}}, {"type": "node", "id": 6773099006, "lat": 41.2968347, "lon": 1.5596299, "tags": {"bus": "yes", "highway": "bus_stop", "name": "Parada Bus escolar", "public_transport": "platform"}}, {"type": "node", "id": 6773113974, "lat": 41.2779534, "lon": 1.56534, "tags": {"bus": "yes", "highway": "bus_stop", "name": "Parada bus escolar", "public_transport": "platform"}}, {"type": "node", "id": 6773179268, "lat": 41.2809152, "lon": 1.5511693, "tags": {"bench": "no", "bin": "no", "bus": "yes", "highway": "bus_stop", "lit": "no", "name": "Parada bus escolar", "public_transport": "platform", "shelter": "no", "tactile_paving": "no"}}, {"type": "node", "id": 6775527322, "lat": 41.2845184, "lon": 1.527819, "tags": {"bench": "yes", "bus": "yes", "departures_board": "timetable", "highway": "bus_stop", "name": "el Papiolet", "name:ca": "el Papiolet", "network": "LINIA COMARCAL", "operator": "Izaro (Moventis)", "public_transport": "platform", "shelter": "yes"}}, {"type": "node", "id": 6775527323, "lat": 41.251487, "lon": 1.5483762, "tags": {"bench": "yes", "bus": "yes", "departures_board": "timetable", "highway": "bus_stop", "name": "Santa Oliva", "name:ca": "Santa Oliva", "network": "LINIA COMARCAL", "operator": "MOVENTIS", "public_transport": "platform", "shelter": "yes"}}, {"type": "node", "id": 6775559268, "lat": 41.2357804, "lon": 1.5433456, "tags": {"bench": "yes", "bus": "yes", "departures_board": "timetable", "highway": "bus_stop", "name": "les Pedreres", "name:ca": "les Pedreres", "network": "LINIA COMARCAL", "operator": "MOVENTIS", "public_transport": "platform", "shelter": "yes"}}, {"type": "node", "id": 6775559341, "lat": 41.241896, "lon": 1.5367842, "tags": {"bus": "yes", "highway": "bus_stop", "name": "Parada bus escolar", "public_transport": "platform"}}, {"type": "node", "id": 6777887547, "lat": 41.1896273, "lon": 1.5196755, "tags": {"bus": "yes", "highway": "bus_stop", "name": "Els Garrofers - Cru\u00eflla Coma-ruga", "public_transport": "stop_position"}}, {"type": "node", "id": 6777887552, "lat": 41.1896671, "lon": 1.5203313, "tags": {"bus": "yes", "highway": "bus_stop", "name": "Els Garrofers - Cru\u00eflla Coma-ruga", "public_transport": "stop_position"}}, {"type": "node", "id": 6777887553, "lat": 41.2138348, "lon": 1.5347896, "tags": {"bus": "yes", "highway": "bus_stop", "name": "Carretera de Tarragona (Castellers)", "public_transport": "stop_position"}}, {"type": "node", "id": 6940041453, "lat": 41.3202031, "lon": 1.6253782, "tags": {"bus": "yes", "highway": "bus_stop", "name": "Les Casernes", "name:ca": "Les Casernes", "public_transport": "platform"}}, {"type": "node", "id": 6940041454, "lat": 41.3201145, "lon": 1.6252847, "tags": {"bus": "yes", "highway": "bus_stop", "name": "Les Casernes", "name:ca": "Les Casernes", "public_transport": "platform"}}, {"type": "node", "id": 6940117534, "lat": 41.3193629, "lon": 1.6041872, "tags": {"bus": "yes", "highway": "bus_stop", "name": "Les Cases de Noves de Cal Marques", "public_transport": "platform"}}, {"type": "node", "id": 6940405293, "lat": 41.2765994, "lon": 1.5529077, "tags": {"bus": "yes", "highway": "bus_stop", "name": "Priorat de Banyeres", "public_transport": "platform"}}, {"type": "node", "id": 6940405294, "lat": 41.2760922, "lon": 1.5524851, "tags": {"bus": "yes", "highway": "bus_stop", "name": "Priorat de Banyeres", "public_transport": "platform"}}, {"type": "node", "id": 6940405304, "lat": 41.2640073, "lon": 1.5518808, "tags": {"bus": "yes", "highway": "bus_stop", "name": "Saifores", "name:ca": "Saifores", "public_transport": "platform"}}, {"type": "node", "id": 6940405305, "lat": 41.2644589, "lon": 1.5523399, "tags": {"bus": "yes", "highway": "bus_stop", "name": "Saifores", "name:ca": "Saifores", "public_transport": "platform"}}, {"type": "node", "id": 6940405322, "lat": 41.2361425, "lon": 1.5439788, "tags": {"bus": "yes", "highway": "bus_stop", "name": "les Pedreres", "name:ca": "les Pedreres", "public_transport": "platform"}}, {"type": "node", "id": 6942602583, "lat": 41.2647999, "lon": 1.5992249, "tags": {"bus": "yes", "highway": "bus_stop", "name": "L'Arbo\u00e7 - Pla\u00e7a Catalunya", "public_transport": "platform"}}, {"type": "node", "id": 6945658832, "lat": 41.2726015, "lon": 1.6000646, "tags": {"bus": "yes", "highway": "bus_stop", "name": "L'Arbo\u00e7 - Estaci\u00f3 de RENFE", "public_transport": "platform"}}, {"type": "node", "id": 6945779593, "lat": 41.2941554, "lon": 1.5785607, "tags": {"bench": "yes", "bus": "yes", "departures_board": "timetable", "highway": "bus_stop", "name": "Lletger", "network": "LINIA COMARCAL", "operator": "MOVENTIS", "public_transport": "platform", "shelter": "yes", "wheelchair": "limited"}}, {"type": "node", "id": 6960112404, "lat": 41.2795973, "lon": 1.5840082, "tags": {"bus": "yes", "highway": "bus_stop", "name": "Banyeres del Penedes - Angel Guimer\u00e0", "public_transport": "platform"}}, {"type": "node", "id": 6960112405, "lat": 41.2794814, "lon": 1.5839881, "tags": {"bus": "yes", "highway": "bus_stop", "name": "Banyeres del Penedes - Angel Guimer\u00e0", "public_transport": "platform"}}, {"type": "node", "id": 6960112457, "lat": 41.2782624, "lon": 1.5809032, "tags": {"bench": "yes", "bus": "yes", "departures_board": "timetable", "highway": "bus_stop", "name": "Banyeres del penedes - Carrer Saragossa", "network": "LINIA COMARCAL", "operator": "MOVENTIS", "public_transport": "platform", "shelter": "yes", "wheelchair": "yes"}}, {"type": "node", "id": 6960161797, "lat": 41.253492, "lon": 1.5929177, "tags": {"bus": "yes", "highway": "bus_stop", "name": "El Gornal", "public_transport": "platform"}}, {"type": "node", "id": 6960161798, "lat": 41.2538712, "lon": 1.5929708, "tags": {"bus": "yes", "highway": "bus_stop", "name": "El Gornal", "public_transport": "platform"}}, {"type": "node", "id": 6970249184, "lat": 41.3003324, "lon": 1.5704808, "tags": {"bench": "no", "bus": "yes", "departures_board": "no", "highway": "bus_stop", "name": "Cornudella", "name:ca": "Cornudella", "network": "LINIA COMARCAL", "operator": "MOVENTIS", "public_transport": "platform", "shelter": "no", "wheelchair": "limited"}}, {"type": "node", "id": 6970298920, "lat": 41.3002458, "lon": 1.5705938, "tags": {"bench": "yes", "bus": "yes", "departures_board": "timetable", "highway": "bus_stop", "name": "Cornudella", "name:ca": "Cornudella", "network": "LINIA COMARCAL", "operator": "MOVENTIS", "public_transport": "platform", "shelter": "yes", "wheelchair": "yes"}}, {"type": "node", "id": 6990697269, "lat": 41.2775111, "lon": 1.4903586, "tags": {"bench": "yes", "bus": "yes", "departures_board": "timetable", "highway": "bus_stop", "name": "Pla\u00e7a Francesc Macia", "name:ca": "Pla\u00e7a Francesc Macia", "network": "SERVEI URBA, LINIA COMARCAL", "operator": "HIFE, MOVENTIS", "public_transport": "platform", "shelter": "yes", "wheelchair": "yes"}}, {"type": "node", "id": 6990697283, "lat": 41.2810657, "lon": 1.4891626, "tags": {"bench": "no", "bus": "yes", "departures_board": "timetable", "highway": "bus_stop", "name": "Centre de Salut", "name:ca": "Centre de Salut", "network": "SERVEI URBA", "operator": "HIFE", "public_transport": "platform", "shelter": "no", "wheelchair": "yes"}}, {"type": "node", "id": 6990697284, "lat": 41.2790748, "lon": 1.4890095, "tags": {"bench": "no", "bus": "yes", "departures_board": "timetable", "highway": "bus_stop", "name": "Pla\u00e7a Catalunya", "name:ca": "Pla\u00e7a Catalunya", "network": "SERVEI URBA", "operator": "HIFE", "public_transport": "platform", "shelter": "no", "wheelchair": "yes"}}, {"type": "node", "id": 7005794576, "lat": 41.2750995, "lon": 1.4892533, "tags": {"bench": "no", "bus": "yes", "departures_board": "timetable", "highway": "bus_stop", "name": "IES Coster de la Torre", "network": "SERVEI URBA", "operator": "HIFE", "public_transport": "platform", "shelter": "no", "wheelchair": "no"}}, {"type": "node", "id": 7005850070, "lat": 41.2932467, "lon": 1.5186794, "tags": {"bench": "no", "bus": "yes", "departures_board": "timetable", "highway": "bus_stop", "name": "el Papagai", "name:ca": "el Papagai", "network": "SERVEI URBA", "operator": "HIFE", "public_transport": "platform", "shelter": "no", "wheelchair": "yes"}}, {"type": "node", "id": 7005852585, "lat": 41.2806153, "lon": 1.4824735, "tags": {"bench": "no", "bus": "yes", "departures_board": "timetable", "highway": "bus_stop", "name": "General Romagosa", "network": "SERVEI URBA", "operator": "HIFE", "public_transport": "platform", "shelter": "no", "wheelchair": "yes"}}, {"type": "node", "id": 7005852586, "lat": 41.2796244, "lon": 1.4822646, "tags": {"bench": "no", "bus": "yes", "departures_board": "timetable", "highway": "bus_stop", "name": "Puig Francas - Ermita", "network": "SERVEI URBA", "operator": "HIFE", "public_transport": "platform", "shelter": "no", "wheelchair": "yes"}}, {"type": "node", "id": 7005852587, "lat": 41.2868253, "lon": 1.4760826, "tags": {"bench": "no", "bus": "yes", "departures_board": "timetable", "highway": "bus_stop", "name": "Logro\u00f1o / Segovia", "network": "SERVEI URBA", "operator": "HIFE", "public_transport": "platform", "shelter": "no", "wheelchair": "yes"}}, {"type": "node", "id": 7005852595, "lat": 41.2820363, "lon": 1.472665, "tags": {"bench": "yes", "bus": "yes", "departures_board": "timetable", "highway": "bus_stop", "name": "C\u00f3rdoba / Huelva", "network": "SERVEI URBA", "operator": "HIFE", "public_transport": "platform", "shelter": "yes", "wheelchair": "yes"}}, {"type": "node", "id": 7005852596, "lat": 41.2853338, "lon": 1.4731804, "tags": {"bench": "no", "bus": "yes", "departures_board": "timetable", "highway": "bus_stop", "name": "Av. Priorat - Local Social", "network": "SERVEI URBA", "operator": "HIFE", "public_transport": "platform", "shelter": "no", "wheelchair": "limited"}}, {"type": "node", "id": 7005852597, "lat": 41.2852899, "lon": 1.473073, "tags": {"bench": "yes", "bus": "yes", "departures_board": "timetable", "highway": "bus_stop", "name": "Av. Priorat - Local Social", "network": "SERVEI URBA", "operator": "HIFE", "public_transport": "platform", "shelter": "yes", "wheelchair": "yes"}}, {"type": "node", "id": 7005895023, "lat": 41.2634606, "lon": 1.4921558, "tags": {"bench": "yes", "bus": "yes", "departures_board": "timetable", "highway": "bus_stop", "name": "Miralba", "network": "SERVEI URBA, LINIA BISBAL - EL MONTMELL, LINIA CALAFELL - VALLS", "operator": "HIFE, MOVENTIS, MON\u00b7BUS (PLANA)", "public_transport": "platform", "shelter": "yes", "wheelchair": "yes"}}, {"type": "node", "id": 7005895024, "lat": 41.2632383, "lon": 1.4915365, "tags": {"bench": "yes", "bus": "yes", "departures_board": "timetable", "highway": "bus_stop", "name": "Miralba", "network": "SERVEI URBA, LINIA BISBAL - EL MONTMELL, LINIA CALAFELL - VALLS", "operator": "HIFE, MOVENTIS, MON\u00b7BUS (PLANA)", "public_transport": "platform", "shelter": "yes", "wheelchair": "yes"}}, {"type": "node", "id": 7020276888, "lat": 41.2242659, "lon": 1.5434459, "tags": {"bus": "yes", "highway": "bus_stop", "name": "Les Mates - Espai L\u00fadic", "public_transport": "platform"}}, {"type": "node", "id": 7020276889, "lat": 41.2240094, "lon": 1.5432197, "tags": {"bus": "yes", "highway": "bus_stop", "name": "Les Mates - Espai L\u00fadic", "public_transport": "platform"}}, {"type": "node", "id": 7021412372, "lat": 41.2693405, "lon": 1.5525272, "tags": {"bench": "yes", "bus": "yes", "departures_board": "timetable", "highway": "bus_stop", "name": "les Masies de Sant Miquel", "name:ca": "les Masies de Sant Miquel", "network": "LINIA COMARCAL", "operator": "MOVENTIS", "public_transport": "platform", "shelter": "yes", "wheelchair": "yes"}}, {"type": "node", "id": 7021412373, "lat": 41.2699101, "lon": 1.5527136, "tags": {"bench": "no", "bus": "yes", "departures_board": "timetable", "highway": "bus_stop", "name": "les Masies de Sant Miquel", "name:ca": "les Masies de Sant Miquel", "network": "LINIA COMARCAL", "operator": "MOVENTIS", "public_transport": "platform", "shelter": "no", "wheelchair": "yes"}}, {"type": "node", "id": 7069715498, "lat": 41.2199109, "lon": 1.6292565, "tags": {"bus": "yes", "highway": "bus_stop", "name": "Els Rosers - C. Paris", "network": "Urb\u00e0 de Cunit", "public_transport": "stop_position"}}, {"type": "node", "id": 7167477195, "lat": 41.3103889, "lon": 1.6479146, "tags": {"bus": "yes", "highway": "bus_stop", "name": "La Rapita", "public_transport": "platform"}}, {"type": "node", "id": 7167477244, "lat": 41.3129858, "lon": 1.6482832, "tags": {"bus": "yes", "highway": "bus_stop", "name": "Tres Pins", "name:ca": "Tres Pins", "public_transport": "platform"}}, {"type": "node", "id": 7167691704, "lat": 41.3091758, "lon": 1.6468929, "tags": {"bus": "yes", "highway": "bus_stop", "name": "La Rapita", "public_transport": "platform"}}, {"type": "node", "id": 7179433548, "lat": 41.3127292, "lon": 1.6483177, "tags": {"bus": "yes", "highway": "bus_stop", "name": "Tres Pins", "name:ca": "Tres Pins", "public_transport": "platform"}}, {"type": "node", "id": 7193768214, "lat": 41.2906798, "lon": 1.6175191, "tags": {"bus": "yes", "highway": "bus_stop", "public_transport": "platform"}}, {"type": "node", "id": 7204816744, "lat": 41.3145948, "lon": 1.6600909, "tags": {"name": "els Monjos", "name:ca": "els Monjos", "operator": "Adif", "public_transport": "station", "railway": "station", "wikidata": "Q8779714", "wikipedia": "ca:Estaci\u00f3 dels Monjos"}}, {"type": "node", "id": 7204816745, "lat": 41.2736739, "lon": 1.6004144, "tags": {"name": "l'Arbo\u00e7", "name:ca": "l'Arbo\u00e7", "operator": "Adif", "public_transport": "station", "railway": "station", "website": "https://www.adif.es/ca/-/72202-l-arbo%C3%A7", "wikidata": "Q8779935", "wikipedia": "ca:Estaci\u00f3 de l'Arbo\u00e7"}}, {"type": "node", "id": 7204816746, "lat": 41.2208966, "lon": 1.5381333, "tags": {"name": "el Vendrell", "name:ca": "el Vendrell", "operator": "Adif", "public_transport": "station", "railway": "station", "wikidata": "Q8779709", "wikipedia": "ca:Estaci\u00f3 del Vendrell"}}, {"type": "node", "id": 7204816747, "lat": 41.1860822, "lon": 1.5257932, "tags": {"designation": "Sant Vicen\u00e7 de Calders", "name": "Sant Vicen\u00e7 de Calders", "name:ca": "Sant Vicen\u00e7 de Calders", "network": "Rodalies de Catalunya (ATM Barcelona)", "operator": "Adif", "public_transport": "station", "railway": "station", "train": "yes", "wheelchair": "yes", "wikidata": "Q2179421", "wikipedia": "ca:Estaci\u00f3 de Sant Vicen\u00e7 de Calders"}}, {"type": "node", "id": 7204816751, "lat": 41.1947554, "lon": 1.6315382, "tags": {"name": "Cunit", "name:ca": "Cunit", "name:en": "Cunit", "name:es": "Cunit", "operator": "Adif", "public_transport": "station", "railway": "station", "wheelchair": "yes", "wikidata": "Q946619", "wikipedia": "ca:Estaci\u00f3 de Cunit"}}, {"type": "node", "id": 7294188109, "lat": 41.1774013, "lon": 1.4159194, "tags": {"bench": "yes", "bus": "yes", "covered": "yes", "highway": "bus_stop", "name": "Poble / Escola", "name:ca": "Poble / Escola", "operator": "Autocars del Pened\u00e8s", "public_transport": "platform"}}, {"type": "node", "id": 7401843818, "lat": 41.2136874, "lon": 1.7243637}, {"type": "node", "id": 7401843819, "lat": 41.2136631, "lon": 1.7243783}, {"type": "node", "id": 7401843820, "lat": 41.213676, "lon": 1.7244163}, {"type": "node", "id": 7401843821, "lat": 41.2136701, "lon": 1.7244198}, {"type": "node", "id": 7401843822, "lat": 41.2136833, "lon": 1.7244585}, {"type": "node", "id": 7401843823, "lat": 41.2136881, "lon": 1.7244557}, {"type": "node", "id": 7401843824, "lat": 41.213702, "lon": 1.7244967}, {"type": "node", "id": 7401843825, "lat": 41.2137288, "lon": 1.7244806}, {"type": "node", "id": 7401843826, "lat": 41.2137169, "lon": 1.7244455}, {"type": "node", "id": 7401843827, "lat": 41.2137209, "lon": 1.7244432}, {"type": "node", "id": 7401843828, "lat": 41.2137038, "lon": 1.724393}, {"type": "node", "id": 7401843829, "lat": 41.2136984, "lon": 1.7243962}, {"type": "node", "id": 7401843835, "lat": 41.2140697, "lon": 1.7240247, "tags": {"name": "Baixador de la Font", "name:ca": "Baixador de la Font", "network": "AFEVI", "operator": "AFEVI", "public_transport": "station", "railway": "station"}}, {"type": "node", "id": 7403587566, "lat": 41.1840142, "lon": 1.4404505, "tags": {"name": "Roda de Ber\u00e0", "name:ca": "Roda de Ber\u00e0", "operator": "Adif", "public_transport": "station", "railway": "station"}}, {"type": "node", "id": 7552697757, "lat": 41.2267953, "lon": 1.7271268, "tags": {"bus": "yes", "highway": "bus_stop", "name": "Pla\u00e7a del Pou", "public_transport": "stop_position"}}, {"type": "node", "id": 7835332233, "lat": 41.1954909, "lon": 1.6329643, "tags": {"bench": "yes", "bin": "no", "bus": "yes", "highway": "bus_stop", "lit": "yes", "name": "Estaci\u00f3 de Cunit", "name:ca": "Estaci\u00f3 de Cunit", "network": "Urb\u00e0 de Cunit", "public_transport": "platform", "shelter": "yes", "tactile_paving": "no"}}, {"type": "node", "id": 7875843137, "lat": 41.1995305, "lon": 1.6396274, "tags": {"bus": "yes", "highway": "bus_stop", "name": "Tom\u00e1s y Valiente", "network": "Urb\u00e0 de Cunit", "public_transport": "stop_position"}}, {"type": "node", "id": 7875843138, "lat": 41.2031993, "lon": 1.6407488, "tags": {"bench": "yes", "bus": "yes", "highway": "bus_stop", "name": "Escola Solcunit", "name:ca": "Escola Solcunit", "network": "Urb\u00e0 de Cunit", "public_transport": "platform", "shelter": "yes"}}, {"type": "node", "id": 7875843139, "lat": 41.2074628, "lon": 1.6402183, "tags": {"bus": "yes", "highway": "bus_stop", "name": "Can Moles III", "name:ca": "Can Moles III", "network": "Urb\u00e0 de Cunit", "public_transport": "stop_position"}}, {"type": "node", "id": 7875843140, "lat": 41.2271652, "lon": 1.6401239, "tags": {"bus": "yes", "highway": "bus_stop", "name": "Costa Cunit - C. Aquari", "network": "Urb\u00e0 de Cunit", "public_transport": "stop_position"}}, {"type": "node", "id": 7875843141, "lat": 41.2280534, "lon": 1.6457531, "tags": {"bus": "yes", "highway": "bus_stop", "name": "Costa Cunit - Pl. Andr\u00f2meda", "network": "Urb\u00e0 de Cunit", "public_transport": "stop_position"}}, {"type": "node", "id": 7875843142, "lat": 41.2210365, "lon": 1.6274198, "tags": {"bus": "yes", "highway": "bus_stop", "name": "Els Rosers - C. Londres", "network": "Urb\u00e0 de Cunit", "public_transport": "stop_position"}}, {"type": "node", "id": 7875843143, "lat": 41.2158648, "lon": 1.6259436, "tags": {"bus": "yes", "highway": "bus_stop", "name": "Els Jardins - C. Tulipa", "public_transport": "stop_position"}}, {"type": "node", "id": 7875843144, "lat": 41.2115578, "lon": 1.6173188, "tags": {"bus": "yes", "highway": "bus_stop", "name": "Can Molas II - C. Pirineus", "public_transport": "stop_position"}}, {"type": "node", "id": 7875843145, "lat": 41.2094617, "lon": 1.6187061, "tags": {"bus": "yes", "highway": "bus_stop", "name": "Can Molas II - C. Cad\u00ed", "network": "Urb\u00e0 de Cunit", "public_transport": "stop_position"}}, {"type": "node", "id": 7875843146, "lat": 41.2056017, "lon": 1.618435, "tags": {"bus": "yes", "highway": "bus_stop", "name": "CEIP Els Cosetans", "network": "Urb\u00e0 de Cunit", "public_transport": "stop_position"}}, {"type": "node", "id": 7875843147, "lat": 41.1955771, "lon": 1.6248707, "tags": {"bus": "yes", "highway": "bus_stop", "name": "CAP-IES-CEIP-EB-Zona Esportiva", "network": "Urb\u00e0 de Cunit", "public_transport": "stop_position"}}, {"type": "node", "id": 8079368319, "lat": 41.1957648, "lon": 1.3630032, "tags": {"bus": "yes", "highway": "bus_stop", "public_transport": "platform"}}, {"type": "node", "id": 8259440670, "lat": 41.1827143, "lon": 1.3756028, "tags": {"bench": "yes", "bin": "yes", "bus": "yes", "departures_board": "timetable", "highway": "bus_stop", "name": "la Nou de Gai\u00e0", "name:ca": "la Nou de Gai\u00e0", "public_transport": "platform", "ref": "MT 0259", "shelter": "yes"}}, {"type": "node", "id": 8494300833, "lat": 41.1789257, "lon": 1.4885629, "tags": {"bus": "yes", "highway": "bus_stop", "public_transport": "platform"}}, {"type": "node", "id": 8537000858, "lat": 41.2831097, "lon": 1.5537235, "tags": {"bus": "yes", "highway": "bus_stop", "name": "Sant Lloren\u00e7 del Penedes", "public_transport": "platform"}}, {"type": "node", "id": 8560627179, "lat": 41.2755231, "lon": 1.4892886, "tags": {"bus": "yes", "highway": "bus_stop", "public_transport": "platform"}}, {"type": "node", "id": 8560627180, "lat": 41.2755843, "lon": 1.4892992, "tags": {"bus": "yes", "highway": "bus_stop", "public_transport": "platform"}}, {"type": "node", "id": 8560627181, "lat": 41.2756441, "lon": 1.4893134, "tags": {"bus": "yes", "highway": "bus_stop", "public_transport": "platform"}}, {"type": "node", "id": 8560627182, "lat": 41.2757066, "lon": 1.4893364, "tags": {"bus": "yes", "highway": "bus_stop", "public_transport": "platform"}}, {"type": "node", "id": 8560627183, "lat": 41.2757651, "lon": 1.4893452, "tags": {"bus": "yes", "highway": "bus_stop", "public_transport": "platform"}}, {"type": "node", "id": 8560627184, "lat": 41.2758223, "lon": 1.4893576, "tags": {"bus": "yes", "highway": "bus_stop", "public_transport": "platform"}}, {"type": "node", "id": 8648009353, "lat": 41.123489, "lon": 1.2413156, "tags": {"bus": "yes", "highway": "bus_stop", "name": "Goya", "name:ca": "Goya", "operator": "EMT Tarragona", "public_transport": "stop_position"}}, {"type": "node", "id": 8676892691, "lat": 41.2800945, "lon": 1.5452389, "tags": {"bus": "yes", "highway": "bus_stop", "name": "Sant Lloren\u00e7 - Residencia", "operator": "Izaro (Moventis)", "public_transport": "platform"}}, {"type": "node", "id": 8676892692, "lat": 41.2802213, "lon": 1.5452165, "tags": {"bus": "yes", "highway": "bus_stop", "name": "Sant Lloren\u00e7 - Residencia", "operator": "Izaro (Moventis)", "public_transport": "platform"}}, {"type": "node", "id": 8676892693, "lat": 41.2912828, "lon": 1.5249635, "tags": {"bus": "yes", "highway": "bus_stop", "name": "Torregassa", "name:ca": "Torregassa", "operator": "Izaro (Moventis)", "public_transport": "platform"}}, {"type": "node", "id": 8676892694, "lat": 41.2913662, "lon": 1.5249035, "tags": {"bus": "yes", "highway": "bus_stop", "name": "Torregassa", "name:ca": "Torregassa", "operator": "Izaro (Moventis)", "public_transport": "platform"}}, {"type": "node", "id": 8676892695, "lat": 41.2744631, "lon": 1.5030058, "tags": {"bus": "yes", "highway": "bus_stop", "name": "Centre Logistic Corte Ingles", "network": "Linia Comarcal", "operator": "Izaro (Moventis)", "public_transport": "platform"}}, {"type": "node", "id": 8676892697, "lat": 41.2691297, "lon": 1.5171938, "tags": {"bus": "yes", "highway": "bus_stop", "name": "Rda. de l'Albonar / Carrer El Montmell", "network": "Linia Comarcal", "operator": "Izaro (Moventis)", "public_transport": "platform"}}, {"type": "node", "id": 8676892698, "lat": 41.2673122, "lon": 1.5232958, "tags": {"bus": "yes", "highway": "bus_stop", "name": "Centre IDIADA", "network": "Linia Comarcal", "operator": "Izaro (Moventis)", "public_transport": "platform"}}, {"type": "node", "id": 8677156251, "lat": 41.2228008, "lon": 1.4425536, "tags": {"bus": "yes", "highway": "bus_stop", "name": "Bonastre", "name:ca": "Bonastre", "network": "Bonastre - El Vendrell", "operator": "Izaro (Moventis)", "public_transport": "platform"}}, {"type": "node", "id": 8677156252, "lat": 41.2460453, "lon": 1.4895076, "tags": {"bus": "yes", "highway": "bus_stop", "name": "Albinyana", "name:ca": "Albinyana", "network": "Linia Comarcal, Bonastre - El Vendrell", "operator": "Izaro (Moventis)", "public_transport": "platform"}}, {"type": "node", "id": 8677156253, "lat": 41.2534594, "lon": 1.5007788, "tags": {"bus": "yes", "highway": "bus_stop", "name": "Sagrat Cor", "name:ca": "Sagrat Cor", "operator": "Izaro (Moventis)", "public_transport": "platform"}}, {"type": "node", "id": 8677156254, "lat": 41.2537192, "lon": 1.5007975, "tags": {"bus": "yes", "highway": "bus_stop", "name": "Sagrat Cor", "name:ca": "Sagrat Cor", "operator": "Izaro (Moventis)", "public_transport": "platform"}}, {"type": "node", "id": 8677156255, "lat": 41.2557362, "lon": 1.503373, "tags": {"bus": "yes", "highway": "bus_stop", "name": "Avinguda Les Moreres", "name:ca": "Avinguda Les Moreres", "operator": "Izaro (Moventis)", "public_transport": "platform"}}, {"type": "node", "id": 8677156256, "lat": 41.2558117, "lon": 1.5032703, "tags": {"bus": "yes", "highway": "bus_stop", "name": "Avinguda Les Moreres", "name:ca": "Avinguda Les Moreres", "operator": "Izaro (Moventis)", "public_transport": "platform"}}, {"type": "node", "id": 8677156258, "lat": 41.2451954, "lon": 1.5165748, "tags": {"bus": "yes", "highway": "bus_stop", "name": "Carrer dels Garrofers", "name:ca": "Carrer dels Garrofers", "operator": "Izaro (Moventis)", "public_transport": "platform"}}, {"type": "node", "id": 8677156259, "lat": 41.2452674, "lon": 1.5166215, "tags": {"bus": "yes", "highway": "bus_stop", "name": "Carrer dels Garrofers", "name:ca": "Carrer dels Garrofers", "operator": "Izaro (Moventis)", "public_transport": "platform"}}, {"type": "node", "id": 8677156262, "lat": 41.2447313, "lon": 1.5207491, "tags": {"bus": "yes", "highway": "bus_stop", "name": "Crta. C-51", "operator": "Izaro (Moventis)", "public_transport": "platform"}}, {"type": "node", "id": 8677156263, "lat": 41.2445645, "lon": 1.5205889, "tags": {"bus": "yes", "highway": "bus_stop", "name": "Crta. C-51", "operator": "Izaro (Moventis)", "public_transport": "platform"}}, {"type": "node", "id": 8677283339, "lat": 41.240654, "lon": 1.5253182, "tags": {"bus": "yes", "highway": "bus_stop", "name": "Carrer de la Margarita", "name:ca": "Carrer de la Margarita", "operator": "Izaro (Moventis)", "public_transport": "platform"}}, {"type": "node", "id": 8677283340, "lat": 41.2455068, "lon": 1.5249423, "tags": {"bus": "yes", "highway": "bus_stop", "name": "Puigmajor", "name:ca": "Puigmajor", "operator": "Izaro (Moventis)", "public_transport": "platform"}}, {"type": "node", "id": 8677283342, "lat": 41.2431976, "lon": 1.5257462, "tags": {"bus": "yes", "highway": "bus_stop", "name": "Puigmajor", "name:ca": "Puigmajor", "operator": "Izaro (Moventis)", "public_transport": "platform"}}, {"type": "node", "id": 8677283345, "lat": 41.2456125, "lon": 1.522632, "tags": {"bus": "yes", "highway": "bus_stop", "name": "Everest (Centre Civic)", "operator": "Izaro (Moventis)", "public_transport": "platform"}}, {"type": "node", "id": 8677283351, "lat": 41.2473874, "lon": 1.5248531, "tags": {"bus": "yes", "highway": "bus_stop", "name": "Everest", "name:ca": "Everest", "operator": "Izaro (Moventis)", "public_transport": "platform"}}, {"type": "node", "id": 8684385778, "lat": 41.190112, "lon": 1.2119453}, {"type": "node", "id": 8684385779, "lat": 41.1900467, "lon": 1.2119936}, {"type": "node", "id": 8684385780, "lat": 41.1900921, "lon": 1.2121263}, {"type": "node", "id": 8684385781, "lat": 41.1901575, "lon": 1.2120732}, {"type": "node", "id": 8704841118, "lat": 41.1402295, "lon": 1.3687629, "tags": {"bench": "yes", "bin": "yes", "highway": "bus_stop", "lit": "yes", "name": "MT 0278", "shelter": "yes", "tactile_paving": "no"}}, {"type": "node", "id": 8997336229, "lat": 41.219898, "lon": 1.6697958, "tags": {"bus": "yes", "highway": "bus_stop", "name": "Corral d'en Cona (Bar)", "public_transport": "stop_position"}}, {"type": "node", "id": 9006451003, "lat": 41.1955166, "lon": 1.632914, "tags": {"bus": "yes", "highway": "bus_stop", "name": "Estaci\u00f3 de Cunit", "name:ca": "Estaci\u00f3 de Cunit", "public_transport": "stop_position"}}, {"type": "node", "id": 9253316716, "lat": 41.1194976, "lon": 1.2457085, "tags": {"bench": "yes", "bin": "yes", "bus": "yes", "departures_board": "timetable", "highway": "bus_stop", "lit": "yes", "name": "Pl. Imperial T\u00e0rraco", "operator": "EMT Tarragona", "public_transport": "platform", "ref": "25604", "shelter": "yes", "tactile_paving": "no"}}, {"type": "node", "id": 9256680508, "lat": 41.1285539, "lon": 1.2968578, "tags": {"bus": "yes", "highway": "bus_stop", "name": "Mediterrani", "public_transport": "stop_position"}}, {"type": "node", "id": 9359614996, "lat": 41.1184655, "lon": 1.2415503, "tags": {"bus": "yes", "departures_board": "timetable", "highway": "bus_stop", "name": "Via Roma, 7", "operator": "EMT Tarragona", "public_transport": "platform", "shelter": "no"}}, {"type": "node", "id": 9374658756, "lat": 41.118072, "lon": 1.2394945, "tags": {"bus": "yes", "highway": "bus_stop", "name": "Parc", "name:ca": "Parc", "operator": "EMT Tarragona", "public_transport": "stop_position"}}, {"type": "node", "id": 9374658757, "lat": 41.1180291, "lon": 1.2396621, "tags": {"bus": "yes", "departures_board": "realtime", "highway": "bus_stop", "name": "Parc", "name:ca": "Parc", "operator": "EMT Tarragona", "public_transport": "platform", "ref": "25136", "shelter": "yes"}}, {"type": "node", "id": 9536934946, "lat": 41.1580687, "lon": 1.2411413, "tags": {"bench": "yes", "bus": "yes", "highway": "bus_stop", "name": "L'Olivera", "name:ca": "L'Olivera", "operator": "EMT Tarragona", "public_transport": "platform", "shelter": "yes"}}, {"type": "node", "id": 9663650591, "lat": 41.1184174, "lon": 1.241978, "tags": {"bus": "yes", "departures_board": "timetable", "highway": "bus_stop", "name": "Via Roma, 14", "operator": "EMT Tarragona", "public_transport": "platform", "ref": "25915", "shelter": "no"}}, {"type": "node", "id": 9665436991, "lat": 41.1303746, "lon": 1.253418, "tags": {"bench": "no", "bin": "no", "bus": "yes", "departures_board": "timetable", "highway": "bus_stop", "lit": "yes", "name": "Muntanyeta de l'Oliva", "name:ca": "Muntanyeta de l'Oliva", "operator": "EMT Tarragona", "public_transport": "platform", "shelter": "no", "tactile_paving": "no"}}, {"type": "node", "id": 9665436992, "lat": 41.1365846, "lon": 1.2534401, "tags": {"bus": "yes", "departures_board": "timetable", "highway": "bus_stop", "name": "Sant Jordi", "name:ca": "Sant Jordi", "operator": "EMT Tarragona", "public_transport": "platform", "shelter": "yes"}}, {"type": "node", "id": 9665436995, "lat": 41.1380062, "lon": 1.2528568, "tags": {"bench": "yes", "bus": "yes", "departures_board": "timetable", "highway": "bus_stop", "name": "Europa", "name:ca": "Europa", "operator": "EMT Tarragona", "public_transport": "platform", "shelter": "yes"}}, {"type": "node", "id": 9665436996, "lat": 41.1393511, "lon": 1.2507987, "tags": {"bench": "yes", "bus": "yes", "departures_board": "timetable", "highway": "bus_stop", "name": "Equador", "operator": "EMT Tarragona", "public_transport": "platform", "shelter": "yes"}}, {"type": "node", "id": 9665436997, "lat": 41.1394054, "lon": 1.2492724, "tags": {"bench": "yes", "bin": "no", "bus": "yes", "departures_board": "timetable", "highway": "bus_stop", "name": "Vene\u00e7uela", "name:ca": "Vene\u00e7uela", "operator": "EMT Tarragona", "public_transport": "platform", "shelter": "yes"}}, {"type": "node", "id": 9665787260, "lat": 41.1383176, "lon": 1.2556619, "tags": {"bench": "yes", "bus": "yes", "departures_board": "timetable", "highway": "bus_stop", "name": "Sant Pere i Sant Pau", "name:ca": "Sant Pere i Sant Pau", "operator": "EMT Tarragona", "public_transport": "platform", "shelter": "no"}}, {"type": "node", "id": 9835461264, "lat": 41.1828492, "lon": 1.4560721, "tags": {"bus": "yes", "highway": "bus_stop", "public_transport": "platform"}}, {"type": "node", "id": 9835461265, "lat": 41.1827346, "lon": 1.4560968, "tags": {"bus": "yes", "highway": "bus_stop", "public_transport": "platform"}}, {"type": "node", "id": 9837037058, "lat": 41.186089, "lon": 1.4591126, "tags": {"bus": "yes", "highway": "bus_stop", "public_transport": "platform"}}, {"type": "node", "id": 9837037081, "lat": 41.1868589, "lon": 1.4583361, "tags": {"bus": "yes", "highway": "bus_stop", "public_transport": "platform"}}, {"type": "node", "id": 9837037082, "lat": 41.1901631, "lon": 1.4591939, "tags": {"bus": "yes", "highway": "bus_stop", "public_transport": "platform"}}, {"type": "node", "id": 9837037083, "lat": 41.1912537, "lon": 1.4613954, "tags": {"bus": "yes", "highway": "bus_stop", "public_transport": "platform"}}, {"type": "node", "id": 9837037084, "lat": 41.1885109, "lon": 1.4622397, "tags": {"bus": "yes", "highway": "bus_stop", "public_transport": "platform"}}, {"type": "node", "id": 9837037085, "lat": 41.1894737, "lon": 1.4683678, "tags": {"bus": "yes", "highway": "bus_stop", "public_transport": "platform"}}, {"type": "node", "id": 9837037086, "lat": 41.1845662, "lon": 1.4526834, "tags": {"bus": "yes", "highway": "bus_stop", "public_transport": "platform"}}, {"type": "node", "id": 9837037424, "lat": 41.1823801, "lon": 1.4547499, "tags": {"bus": "yes", "highway": "bus_stop", "public_transport": "platform"}}, {"type": "node", "id": 10239127533, "lat": 41.2390788, "lon": 1.727576, "tags": {"bus": "yes", "highway": "bus_stop", "name": "Parc Comercial", "public_transport": "stop_position"}}, {"type": "node", "id": 10608643177, "lat": 41.2087866, "lon": 1.678747, "tags": {"bus": "yes", "highway": "bus_stop", "name": "Licorella", "public_transport": "platform", "shelter": "yes", "wheelchair": "yes"}}, {"type": "node", "id": 10729429316, "lat": 41.1246849, "lon": 1.2554499, "tags": {"bench": "no", "bin": "no", "bus": "yes", "highway": "bus_stop", "lit": "yes", "name": "Dissuasiu Cementiri", "operator": "EMT Tarragona", "public_transport": "platform", "shelter": "no", "tactile_paving": "no"}}, {"type": "node", "id": 10729429317, "lat": 41.1211977, "lon": 1.2657596, "tags": {"bus": "yes", "highway": "bus_stop", "name": "Cam\u00ed de la Cuixa", "operator": "EMT Tarragona", "public_transport": "platform"}}, {"type": "node", "id": 10729429319, "lat": 41.1245817, "lon": 1.2421455, "tags": {"bus": "yes", "highway": "bus_stop", "name": "Dr. Mallafr\u00e9, 12", "network": "EMT Tarragona", "network:wikidata": "Q28662868", "operator": "EMT Tarragona", "public_transport": "stop_position"}}, {"type": "node", "id": 10729429320, "lat": 41.1245157, "lon": 1.2421549, "tags": {"bus": "yes", "highway": "bus_stop", "name": "Dr. Mallafr\u00e9, 11", "network": "EMT Tarragona", "network:wikidata": "Q28662868", "operator": "EMT Tarragona", "public_transport": "stop_position"}}, {"type": "node", "id": 10729429321, "lat": 41.1578057, "lon": 1.2459571, "tags": {"bus": "yes", "highway": "bus_stop", "name": "Mas d'en Garrot", "name:ca": "Mas d'en Garrot", "network": "EMT Tarragona", "operator": "EMT Tarragona", "public_transport": "stop_position"}}, {"type": "node", "id": 10729429322, "lat": 41.133082, "lon": 1.2392148, "tags": {"bench": "no", "bus": "yes", "highway": "bus_stop", "name": "Creu Roja N-240", "network": "EMT Tarragona", "operator": "EMT Tarragona", "public_transport": "platform", "shelter": "no"}}, {"type": "node", "id": 10729429330, "lat": 41.1452123, "lon": 1.2764889, "tags": {"bus": "yes", "highway": "bus_stop", "name": "Urb. Balc\u00f3 de Tarragona", "public_transport": "platform"}}, {"type": "node", "id": 10732305029, "lat": 41.1596914, "lon": 1.2414726, "tags": {"bench": "yes", "bus": "yes", "highway": "bus_stop", "name": "Planot", "operator": "EMT Tarragona", "public_transport": "stop_position", "shelter": "no"}}, {"type": "node", "id": 10734689146, "lat": 41.1231337, "lon": 1.2465065, "tags": {"bus": "yes", "highway": "bus_stop", "name": "Av. de Catalunya, 52", "operator": "EMT Tarragona", "public_transport": "platform"}}, {"type": "node", "id": 10804113697, "lat": 41.2262737, "lon": 1.7170558, "tags": {"bus": "yes", "highway": "bus_stop", "name": "Carrer de Tarragona - Ord\u00ed", "name:ca": "Carrer de Tarragona - Ord\u00ed", "public_transport": "platform"}}, {"type": "node", "id": 10949337703, "lat": 41.1252769, "lon": 1.2474466, "tags": {"bus": "yes", "departures_board": "timetable", "highway": "bus_stop", "name": "Josep Gramunt i Subiela, 55", "operator": "EMT Tarragona", "public_transport": "platform", "shelter": "no"}}, {"type": "node", "id": 10949337704, "lat": 41.1272172, "lon": 1.2442823, "tags": {"bus": "yes", "departures_board": "timetable", "highway": "bus_stop", "name": "Pi i Margall, 1-2", "operator": "EMT Tarragona", "public_transport": "platform", "shelter": "no"}}, {"type": "node", "id": 10949337705, "lat": 41.1363438, "lon": 1.2491831, "tags": {"bus": "yes", "departures_board": "timetable", "highway": "bus_stop", "name": "Miramar III", "operator": "EMT Tarragona", "public_transport": "platform", "shelter": "no"}}, {"type": "node", "id": 10949337706, "lat": 41.1388286, "lon": 1.2476782, "tags": {"bus": "yes", "departures_board": "timetable", "highway": "bus_stop", "name": "Uruguai, 1-2", "operator": "EMT Tarragona", "public_transport": "platform", "shelter": "no"}}, {"type": "node", "id": 10949337708, "lat": 41.1207181, "lon": 1.2544274, "tags": {"bench": "yes", "bin": "yes", "bus": "yes", "highway": "bus_stop", "lit": "yes", "name": "Cap Muralles", "operator": "EMT Tarragona", "public_transport": "platform", "shelter": "no", "tactile_paving": "yes"}}, {"type": "node", "id": 11047294622, "lat": 41.2469041, "lon": 1.2973951, "tags": {"bus": "yes", "highway": "bus_stop", "public_transport": "platform"}}, {"type": "node", "id": 11163276377, "lat": 41.1927601, "lon": 1.6117684, "tags": {"bus": "yes", "highway": "bus_stop", "public_transport": "stop_position"}}, {"type": "node", "id": 11203432650, "lat": 41.1923969, "lon": 1.2723081, "tags": {"bus": "yes", "highway": "bus_stop", "public_transport": "stop_position"}}, {"type": "node", "id": 11556017660, "lat": 41.1504289, "lon": 1.2703807, "tags": {"bus": "yes", "highway": "bus_stop", "public_transport": "platform"}}, {"type": "node", "id": 11853844082, "lat": 41.2397342, "lon": 1.7595742, "tags": {"bus": "yes", "departures_board": "timetable", "highway": "bus_stop", "name": "Carrer dels Pastors (Vilanoveta)", "operator": "Bus Plana", "public_transport": "platform", "shelter": "yes"}}, {"type": "node", "id": 11853844083, "lat": 41.2399363, "lon": 1.7595843, "tags": {"bus": "yes", "departures_board": "timetable", "highway": "bus_stop", "name": "Carrer dels Pastors (Vilanoveta)", "name:ca": "Carrer dels Pastors (Vilanoveta)", "operator": "Bus Plana", "public_transport": "platform", "shelter": "yes"}}, {"type": "node", "id": 11910402978, "lat": 41.1947903, "lon": 1.6080957, "tags": {"bus": "yes", "highway": "bus_stop", "name": "Av. Espanya / Ermita de Sant Miquel", "public_transport": "platform"}}, {"type": "node", "id": 12053893974, "lat": 41.1182122, "lon": 1.2435723, "tags": {"bench": "yes", "bus": "yes", "highway": "bus_stop", "public_transport": "platform", "shelter": "yes"}}, {"type": "node", "id": 12053893975, "lat": 41.1179858, "lon": 1.2437729, "tags": {"bench": "yes", "bus": "yes", "highway": "bus_stop", "public_transport": "platform", "shelter": "yes"}}, {"type": "node", "id": 12053893976, "lat": 41.1177858, "lon": 1.244025, "tags": {"bench": "yes", "bus": "yes", "departures_board": "timetable", "highway": "bus_stop", "name": "Battestini 6", "network": "EMT Tarragona", "network:wikidata": "Q28662868", "operator": "EMT Tarragona", "public_transport": "platform", "ref": "25942", "shelter": "yes"}}, {"type": "node", "id": 12053893977, "lat": 41.117883, "lon": 1.2442696, "tags": {"bench": "yes", "bus": "yes", "departures_board": "timetable", "highway": "bus_stop", "name": "Battestini 1", "network": "EMT Tarragona", "network:wikidata": "Q28662868", "operator": "EMT Tarragona", "public_transport": "platform", "shelter": "yes"}}, {"type": "node", "id": 12053893978, "lat": 41.1179926, "lon": 1.2441093, "tags": {"bench": "yes", "bus": "yes", "departures_board": "timetable", "highway": "bus_stop", "name": "Battestini 2", "network": "EMT Tarragona", "network:wikidata": "Q28662868", "operator": "EMT Tarragona", "public_transport": "platform", "ref": "25938", "shelter": "yes"}}, {"type": "node", "id": 12053893979, "lat": 41.1182415, "lon": 1.243849, "tags": {"bench": "yes", "bus": "yes", "departures_board": "timetable", "highway": "bus_stop", "name": "Battestini 3", "network": "EMT Tarragona", "network:wikidata": "Q28662868", "operator": "EMT Tarragona", "public_transport": "platform", "ref": "25939", "shelter": "yes"}}, {"type": "node", "id": 12106890890, "lat": 41.1831176, "lon": 1.5345743, "tags": {"bus": "yes", "highway": "bus_stop", "name": "Sant Salvador - Pl. Charly Rivel", "public_transport": "platform"}}, {"type": "node", "id": 12119071878, "lat": 41.1855525, "lon": 1.4811131, "tags": {"bus": "yes", "highway": "bus_stop", "name": "Ber\u00e0 Mar", "public_transport": "platform"}}, {"type": "node", "id": 12129392677, "lat": 41.2836527, "lon": 1.7237651, "tags": {"bus": "yes", "highway": "bus_stop", "name": "Canyelles (Av. Vilafranca - Benzinera)", "operator": "Plana", "public_transport": "platform", "shelter": "yes"}}, {"type": "node", "id": 12129455394, "lat": 41.2817511, "lon": 1.7232056, "tags": {"bus": "yes", "highway": "bus_stop", "name": "Canyelles (Av. Vilafranca- Cal Xum)", "operator": "Plana", "public_transport": "platform", "shelter": "yes"}}, {"type": "node", "id": 12129485873, "lat": 41.2842607, "lon": 1.7234447, "tags": {"bus": "yes", "highway": "bus_stop", "name": "Canyelles (Av. Vilafranca - C/Romanguer)", "operator": "Plana", "public_transport": "platform", "shelter": "yes"}}, {"type": "node", "id": 12158003430, "lat": 41.1779603, "lon": 1.4773376, "tags": {"bus": "yes", "highway": "bus_stop", "public_transport": "platform"}}, {"type": "node", "id": 12270614733, "lat": 41.2397762, "lon": 1.7595896, "tags": {"bus": "yes", "highway": "bus_stop", "name": "Carrer dels Pastors (Vilanoveta)", "operator": "Bus Plana", "public_transport": "stop_position"}}, {"type": "node", "id": 12270614734, "lat": 41.2398635, "lon": 1.7595703, "tags": {"bus": "yes", "highway": "bus_stop", "name": "Carrer dels Pastors (Vilanoveta)", "operator": "Bus Plana", "public_transport": "stop_position"}}, {"type": "node", "id": 12422905443, "lat": 41.3416303, "lon": 1.701644, "tags": {"highway": "bus_stop", "name": "Vilafranca del Pened\u00e8s. Estaci\u00f3 d'autobusos", "public_transport": "platform", "route_ref": "L76"}}, {"type": "node", "id": 12430977157, "lat": 41.2835567, "lon": 1.7549889, "tags": {"bus": "yes", "highway": "bus_stop", "name": "Mas Mestre (Piscina)", "public_transport": "platform", "route_ref": "L76"}}, {"type": "node", "id": 12430977159, "lat": 41.2828473, "lon": 1.7511338, "tags": {"bus": "yes", "highway": "bus_stop", "name": "Urb. Can Roca (Ctra.)", "public_transport": "platform", "route_ref": "L76"}}, {"type": "node", "id": 12441767826, "lat": 41.2834381, "lon": 1.7549489, "tags": {"bus": "yes", "highway": "bus_stop", "name": "Mas Mestre (Piscina)", "public_transport": "platform", "route_ref": "L76"}}, {"type": "node", "id": 12441767828, "lat": 41.2826868, "lon": 1.7511992, "tags": {"bus": "yes", "highway": "bus_stop", "name": "Urb. Can Roca (Ctra.)", "public_transport": "platform", "route_ref": "L76"}}, {"type": "node", "id": 12548943668, "lat": 41.2390467, "lon": 1.7270171, "tags": {"bus": "yes", "highway": "bus_stop", "name": "Parc Comercial", "public_transport": "stop_position"}}, {"type": "node", "id": 12548943679, "lat": 41.2445954, "lon": 1.720038, "tags": {"bus": "yes", "highway": "bus_stop", "name": "Pol. Ind. Masia d'en Notari / Mas Borr\u00e0s", "public_transport": "stop_position"}}, {"type": "node", "id": 12548943680, "lat": 41.24463, "lon": 1.7200003, "tags": {"bus": "yes", "highway": "bus_stop", "name": "Pol. Ind. Masia d'en Notari / Borr\u00e0s", "public_transport": "stop_position"}}, {"type": "node", "id": 12548943681, "lat": 41.2464377, "lon": 1.718409, "tags": {"bus": "yes", "highway": "bus_stop", "name": "Pol. Ind. Masia d'en Notari / Masos", "public_transport": "stop_position"}}, {"type": "node", "id": 12548943682, "lat": 41.2464546, "lon": 1.7184611, "tags": {"bus": "yes", "highway": "bus_stop", "name": "Pol. Ind. Masia d'en Notari / Masos", "public_transport": "stop_position"}}, {"type": "node", "id": 12549281576, "lat": 41.2237597, "lon": 1.6943506, "tags": {"bus": "yes", "highway": "bus_stop", "name": "Pla\u00e7a dels Sis Camins", "name:ca": "Pla\u00e7a dels Sis Camins", "public_transport": "stop_position"}}, {"type": "node", "id": 12549765978, "lat": 41.2347584, "lon": 1.7266332, "tags": {"bus": "yes", "highway": "bus_stop", "name": "Av. Vilafranca", "public_transport": "stop_position"}}, {"type": "node", "id": 12549765980, "lat": 41.2191536, "lon": 1.7303091, "tags": {"bus": "yes", "highway": "bus_stop", "name": "\u00c0ncora - Mercat de Mar", "public_transport": "stop_position"}}, {"type": "node", "id": 12549765983, "lat": 41.2129982, "lon": 1.7201657, "tags": {"bus": "yes", "highway": "bus_stop", "name": "Pg. Ribes Roges - Roger de Ll\u00faria", "public_transport": "stop_position"}}, {"type": "node", "id": 12549765984, "lat": 41.2234205, "lon": 1.7167626, "tags": {"bus": "yes", "highway": "bus_stop", "name": "Aigua - Bruc", "name:ca": "Carrer de l'Aigua 147 | Aigua - Bruc", "public_transport": "stop_position"}}, {"type": "node", "id": 12549765988, "lat": 41.223771, "lon": 1.6951883, "tags": {"bus": "yes", "highway": "bus_stop", "name": "Avinguda Riu Foix - Avinguda de Rocacrespa", "name:ca": "Avinguda Riu Foix - Avinguda de Rocacrespa", "public_transport": "stop_position"}}, {"type": "node", "id": 12550914003, "lat": 41.222114, "lon": 1.701615, "tags": {"bus": "yes", "highway": "bus_stop", "name": "Av. Torre del Vall\u00e8s - Carrer del Puigmal", "public_transport": "stop_position"}}, {"type": "node", "id": 12550914005, "lat": 41.2277921, "lon": 1.7308228, "tags": {"bus": "yes", "highway": "bus_stop", "name": "Rbla. Sant Jordi - Mare Isabel Ventosa", "public_transport": "stop_position"}}, {"type": "node", "id": 12697084916, "lat": 41.1255568, "lon": 1.2358196, "tags": {"bench": "no", "bus": "yes", "highway": "bus_stop", "name": "Pont i Gol, 24 (ANULADA)", "network": "EMT Tarragona", "network:wikidata": "Q28662868", "operator": "EMT Tarragona", "public_transport": "platform", "shelter": "no"}}, {"type": "way", "id": 77502863, "nodes": [912173008, 912172919, 912172991, 912172963, 4734578413, 5435193227, 912173008], "tags": {"addr:postcode": "43004", "addr:street": "Passeig d'Espanya", "building": "yes", "name": "Estaci\u00f3 de Tarragona", "name:ca": "Estaci\u00f3 de Tarragona", "opening_hours": "05:00-23:15", "public_transport": "station", "railway": "station", "source": "https://www.adif.es/w/71500-tarragona", "train": "yes"}}, {"type": "way", "id": 791753281, "nodes": [7401843818, 7401843819, 7401843820, 7401843821, 7401843822, 7401843823, 7401843824, 7401843825, 7401843826, 7401843827, 7401843828, 7401843829, 7401843818], "tags": {"building": "yes", "name": "Estaci\u00f3 del Parc de Ribes Roges", "name:ca": "Estaci\u00f3 del Parc de Ribes Roges", "network": "AFEVI", "operator": "AFEVI", "public_transport": "station", "railway": "station", "train": "yes"}}, {"type": "way", "id": 937273118, "nodes": [8684385778, 8684385779, 8684385780, 8684385781, 8684385778], "tags": {"building": "yes", "name": "El Morell-La Pobla de Mafumet (abandonada)", "network": "ADIF", "public_transport": "station", "railway": "station", "train": "yes"}}]}