{"version": 0.6, "generator": "Overpass API 0.7.62.5 1bd436f1", "osm3s": {"timestamp_osm_base": "2025-04-09T14:01:36Z", "copyright": "The data included in this document is from www.openstreetmap.org. The data is made available under ODbL."}, "elements": [{"type": "node", "id": 1200964747, "lat": 5.6747917, "lon": -0.0435957, "tags": {"bench": "no", "bin": "no", "bus": "yes", "highway": "bus_stop", "lit": "no", "name": "Under Bridge", "public_transport": "platform", "shelter": "no", "source": "survey summer 2017 - AccraMobile3 project", "station": "yes"}}, {"type": "node", "id": 3206939315, "lat": 5.9801696, "lon": 0.0534812, "tags": {"highway": "bus_stop"}}, {"type": "node", "id": 3206939316, "lat": 5.9801736, "lon": 0.0536486, "tags": {"highway": "bus_stop"}}, {"type": "node", "id": 3206965494, "lat": 5.8835338, "lon": 0.0380602, "tags": {"highway": "bus_stop"}}, {"type": "node", "id": 3206965495, "lat": 5.8842958, "lon": 0.0383889, "tags": {"highway": "bus_stop"}}, {"type": "node", "id": 3206986963, "lat": 5.8005905, "lon": 0.0057292, "tags": {"bench": "no", "bin": "no", "highway": "bus_stop", "shelter": "no"}}, {"type": "node", "id": 3206986964, "lat": 5.800657, "lon": 0.0056167, "tags": {"bench": "no", "bin": "no", "highway": "bus_stop", "shelter": "no"}}, {"type": "node", "id": 3206986965, "lat": 5.8013614, "lon": 0.0060724, "tags": {"bench": "no", "bin": "no", "highway": "bus_stop", "shelter": "no"}}, {"type": "node", "id": 3207019630, "lat": 5.7271056, "lon": -0.0128305, "tags": {"bench": "no", "bin": "no", "highway": "bus_stop", "shelter": "no"}}, {"type": "node", "id": 3207019631, "lat": 5.7276536, "lon": -0.0127751, "tags": {"bench": "no", "bin": "no", "highway": "bus_stop", "shelter": "no"}}, {"type": "node", "id": 3207019632, "lat": 5.7317941, "lon": -0.0137674, "tags": {"bench": "no", "bin": "no", "highway": "bus_stop", "lit": "yes", "name": "Michel Camp Gate", "shelter": "no"}}, {"type": "node", "id": 3207019633, "lat": 5.7331749, "lon": -0.0138826, "tags": {"bench": "no", "bin": "no", "highway": "bus_stop", "shelter": "no"}}, {"type": "node", "id": 3207019636, "lat": 5.7572004, "lon": -0.0055551, "tags": {"highway": "bus_stop", "name": "New Sebrepor Junction"}}, {"type": "node", "id": 4350184799, "lat": 5.739057, "lon": -0.0136608, "tags": {"bench": "no", "bin": "no", "highway": "bus_stop", "lit": "no", "name": "Kakasunanka No.1 Junction", "shelter": "no"}}, {"type": "node", "id": 4350186595, "lat": 5.7225914, "lon": 0.0033139, "tags": {"highway": "bus_stop", "name": "High Tension"}}, {"type": "node", "id": 4350187526, "lat": 5.7922004, "lon": 0.0025569, "tags": {"bench": "no", "bin": "no", "highway": "bus_stop", "lit": "no", "name": "Appolonia Junction", "shelter": "no"}}, {"type": "node", "id": 4350253589, "lat": 5.7421827, "lon": -0.0129637, "tags": {"bench": "no", "bin": "no", "bus": "yes", "highway": "bus_stop", "lit": "no", "name": "Gbetsile Junction", "public_transport": "platform", "shelter": "no"}}, {"type": "node", "id": 4400503912, "lat": 5.6789812, "lon": -0.0122552, "tags": {"bus": "yes", "highway": "bus_stop", "name": "Community 9", "public_transport": "platform", "source": "survey summer 2017 - AccraMobile3 project"}}, {"type": "node", "id": 4400510889, "lat": 5.7118555, "lon": -0.0490113, "tags": {"highway": "bus_stop", "name": "Lebanon School Junction"}}, {"type": "node", "id": 4430018894, "lat": 5.7136855, "lon": -0.0501159, "tags": {"highway": "bus_stop", "name": "Obaatan Junction"}}, {"type": "node", "id": 4992783152, "lat": 5.6732099, "lon": -0.0099318, "tags": {"bench": "no", "bus": "yes", "highway": "bus_stop", "name": "Community 8", "public_transport": "platform", "shelter": "yes", "source": "survey summer 2017 - AccraMobile3 project"}}, {"type": "node", "id": 4992783153, "lat": 5.6826001, "lon": -0.0139995, "tags": {"bus": "yes", "highway": "bus_stop", "name": "Tema Motorway Total", "public_transport": "platform", "source": "survey summer 2017 - AccraMobile3 project"}}, {"type": "node", "id": 4992783154, "lat": 5.6820534, "lon": -0.025778, "tags": {"bus": "yes", "highway": "bus_stop", "name": "Ashaiman Overhead", "public_transport": "platform", "source": "survey summer 2017 - AccraMobile3 project"}}, {"type": "node", "id": 4999589684, "lat": 5.6869137, "lon": -0.0327126, "tags": {"bus": "yes", "highway": "bus_stop", "name": "Ashaiman", "public_transport": "platform", "source": "survey summer 2017 - AccraMobile3 project"}}, {"type": "node", "id": 4999589685, "lat": 5.685137, "lon": -0.0279198, "tags": {"bus": "yes", "highway": "bus_stop", "name": "Washing Bay", "public_transport": "platform", "source": "survey summer 2017 - AccraMobile3 project"}}, {"type": "node", "id": 5007828432, "lat": 5.687541, "lon": -0.0309992, "tags": {"bus": "yes", "highway": "bus_stop", "name": "Ashaiman Police Station", "public_transport": "platform", "source": "survey summer 2017 - AccraMobile3 project"}}, {"type": "node", "id": 5007828433, "lat": 5.6864849, "lon": -0.0290049, "tags": {"bus": "yes", "highway": "bus_stop", "name": "Ashaiman Traffic Junction", "public_transport": "platform", "source": "survey summer 2017 - AccraMobile3 project"}}, {"type": "node", "id": 5007960687, "lat": 5.6826122, "lon": -0.0255552, "tags": {"bus": "yes", "highway": "bus_stop", "name": "Ashaiman Overhead", "public_transport": "platform", "source": "survey summer 2017 - AccraMobile3 project"}}, {"type": "node", "id": 5034486675, "lat": 5.6869195, "lon": -0.0317506, "tags": {"bus": "yes", "highway": "bus_stop", "name": "Ashaiman Last Stop", "official_status": "unofficial", "public_transport": "platform", "source": "survey summer 2017 - AccraMobile3 project"}}, {"type": "node", "id": 5052665988, "lat": 5.6869257, "lon": -0.029393, "tags": {"bus": "yes", "highway": "bus_stop", "name": "Ashaiman Traffic Junction", "public_transport": "platform", "source": "survey summer 2017 - AccraMobile3 project"}}, {"type": "node", "id": 5064916996, "lat": 5.6750143, "lon": -0.0438795, "tags": {"bench": "no", "bin": "no", "bus": "yes", "highway": "bus_stop", "lit": "no", "name": "Under Bridge", "public_transport": "platform", "shelter": "no", "source": "survey summer 2017 - AccraMobile3 project"}}, {"type": "node", "id": 5093488044, "lat": 5.6816296, "lon": -0.024569, "tags": {"bus": "yes", "highway": "bus_stop", "name": "Hospital Roundabout Junction", "public_transport": "platform", "source": "survey summer 2017 - AccraMobile3 project"}}, {"type": "node", "id": 5097648854, "lat": 5.6785468, "lon": -0.0227042, "tags": {"bus": "yes", "highway": "bus_stop", "name": "Hospital Roundabout", "public_transport": "platform", "source": "survey summer 2017 - AccraMobile3 project"}}, {"type": "node", "id": 5097648855, "lat": 5.6716923, "lon": -0.0199458, "tags": {"bus": "yes", "highway": "bus_stop", "name": "Community 9", "public_transport": "platform", "source": "survey summer 2017 - AccraMobile3 project"}}, {"type": "node", "id": 5113398165, "lat": 5.6857651, "lon": -0.0285948, "tags": {"bus": "yes", "highway": "bus_stop", "name": "Washing Bay", "public_transport": "platform", "source": "survey summer 2017 - AccraMobile3 project"}}, {"type": "node", "id": 5113398166, "lat": 5.6878209, "lon": -0.0301026, "tags": {"bus": "yes", "highway": "bus_stop", "name": "Ashaiman Market", "public_transport": "platform", "source": "survey summer 2017 - AccraMobile3 project"}}, {"type": "node", "id": 6031379137, "lat": 5.6989813, "lon": 0.0002277, "tags": {"highway": "bus_stop", "name": "Uncle Tee", "shelter": "yes"}}, {"type": "node", "id": 6032339440, "lat": 5.8660724, "lon": 0.291444, "tags": {"bench": "no", "bin": "no", "highway": "bus_stop", "shelter": "no"}}, {"type": "node", "id": 6032340554, "lat": 5.8660433, "lon": 0.2905454, "tags": {"bench": "no", "bin": "no", "highway": "bus_stop", "shelter": "no"}}, {"type": "node", "id": 6416959389, "lat": 5.6757906, "lon": -0.0433352, "tags": {"highway": "bus_stop", "name": "Under Bridge"}}, {"type": "node", "id": 8443260217, "lat": 5.7009372, "lon": 0.0376645, "tags": {"highway": "bus_stop", "name": "Kokompe"}}, {"type": "node", "id": 8443260817, "lat": 5.7231918, "lon": -0.0521097, "tags": {"highway": "bus_stop", "name": "Zenu Obaatan"}}]}