{"version": 0.6, "generator": "Overpass API 0.7.62.5 1bd436f1", "osm3s": {"timestamp_osm_base": "2025-04-09T14:58:36Z", "copyright": "The data included in this document is from www.openstreetmap.org. The data is made available under ODbL."}, "elements": [{"type": "node", "id": 521515549, "lat": 44.482029, "lon": 3.4561579, "tags": {"name": "Balsieges-Bourg", "operator": "SNCF", "public_transport": "station", "railway": "station", "train": "yes", "uic_ref": "8711186", "wikidata": "Q3126230", "wikipedia": "fr:Halte de Balsi\u00e8ges"}}, {"type": "node", "id": 656126612, "lat": 44.7326778, "lon": 3.857084, "tags": {"bus": "yes", "highway": "bus_stop", "name": "Langogne Gare SNCF", "public_transport": "platform"}}, {"type": "node", "id": 805099597, "lat": 44.5303386, "lon": 3.4679462}, {"type": "node", "id": 805116306, "lat": 44.5303556, "lon": 3.4679162}, {"type": "node", "id": 805136694, "lat": 44.5303065, "lon": 3.4679116}, {"type": "node", "id": 805154092, "lat": 44.5303241, "lon": 3.4678799}, {"type": "node", "id": 807815937, "lat": 44.5268839, "lon": 3.4748198, "tags": {"highway": "bus_stop", "name": "Europe", "network": "TUM", "operator": "Ville de Mende", "source": "bing 2015"}}, {"type": "node", "id": 808666932, "lat": 44.5281927, "lon": 3.5055743, "tags": {"highway": "bus_stop", "name": "Les Cytises", "network": "TUM", "operator": "Ville de Mende"}}, {"type": "node", "id": 1897014156, "lat": 44.8379819, "lon": 3.7419145, "tags": {"name": "Chapeauroux", "operator": "SNCF", "public_transport": "station", "railway": "station", "railway:ref:DB": "XFCPX", "train": "yes", "uic_ref": "8773434", "wikidata": "Q3096187", "wikipedia": "fr:Gare de Chapeauroux"}}, {"type": "node", "id": 2508196936, "lat": 44.5350489, "lon": 3.5017677, "tags": {"highway": "bus_stop", "name": "Causse d'Auge", "network": "TUM", "operator": "Ville de Mende"}}, {"type": "node", "id": 2572208298, "lat": 44.5305698, "lon": 3.5057289, "tags": {"highway": "bus_stop", "name": "Georges Brassens", "network": "TUM", "operator": "Ville de Mende"}}, {"type": "node", "id": 3294109218, "lat": 44.5133658, "lon": 3.5024712, "tags": {"bench": "no", "highway": "bus_stop", "shelter": "no", "tactile_paving": "no"}}, {"type": "node", "id": 3294110813, "lat": 44.5161672, "lon": 3.4989481, "tags": {"bench": "yes", "bin": "yes", "bus": "yes", "check_date:shelter": "2022-07-20", "highway": "bus_stop", "lit": "yes", "name": "Foirail", "network": "TUM", "operator": "Ville de Mende", "public_transport": "platform", "shelter": "yes", "tactile_paving": "no"}}, {"type": "node", "id": 3294110886, "lat": 44.5178635, "lon": 3.4967346, "tags": {"bench": "yes", "highway": "bus_stop", "name": "Aigues-Passes", "network": "TUM", "operator": "Ville de Mende", "shelter": "yes", "tactile_paving": "no"}}, {"type": "node", "id": 3294110917, "lat": 44.5182223, "lon": 3.4929736, "tags": {"bench": "no", "highway": "bus_stop", "name": "Jean Jaur\u00e8s", "network": "TUM", "operator": "Ville de Mende", "shelter": "no", "tactile_paving": "no"}}, {"type": "node", "id": 3294123419, "lat": 44.5183683, "lon": 3.4804529, "tags": {"bench": "yes", "highway": "bus_stop", "name": "En Crouzas 2", "network": "TUM", "operator": "Ville de Mende", "shelter": "yes", "tactile_paving": "no"}}, {"type": "node", "id": 3294123424, "lat": 44.5187772, "lon": 3.4836261, "tags": {"bench": "yes", "highway": "bus_stop", "name": "En Crouzas", "network": "TUM", "operator": "Ville de Mende", "shelter": "yes", "tactile_paving": "no"}}, {"type": "node", "id": 3294287138, "lat": 44.515365, "lon": 3.4787067, "tags": {"bench": "no", "highway": "bus_stop", "name": "Le Tuff", "network": "TUM", "operator": "Ville de Mende", "shelter": "no", "tactile_paving": "no"}}, {"type": "node", "id": 3294287146, "lat": 44.5163555, "lon": 3.4808567, "tags": {"bench": "no", "highway": "bus_stop", "name": "Ramilles", "network": "TUM", "operator": "Ville de Mende", "shelter": "no", "tactile_paving": "no"}}, {"type": "node", "id": 3414901562, "lat": 44.8942283, "lon": 3.8495247, "tags": {"bus": "yes", "highway": "bus_stop", "name": "Costaros - Place de l'\u00c9glise", "public_transport": "stop_position"}}, {"type": "node", "id": 3423570505, "lat": 44.5257062, "lon": 3.4790402, "tags": {"highway": "bus_stop", "name": "Lyc\u00e9e Peytavin", "network": "TUM", "operator": "Ville de Mende", "source": "bing 2015"}}, {"type": "node", "id": 3423570534, "lat": 44.5268791, "lon": 3.474916, "tags": {"highway": "bus_stop", "name": "Europe", "network": "TUM", "operator": "Ville de Mende", "source": "bing 2015"}}, {"type": "node", "id": 3423570538, "lat": 44.5277255, "lon": 3.4721827, "tags": {"highway": "bus_stop", "name": "Valcroze1", "network": "TUM", "operator": "Ville de Mende", "source": "bing 2015"}}, {"type": "node", "id": 3423570567, "lat": 44.5286695, "lon": 3.4727673, "tags": {"highway": "bus_stop", "name": "Le G\u00e9vaudan", "network": "TUM", "source": "bing 2015"}}, {"type": "node", "id": 3426800702, "lat": 44.5357383, "lon": 3.546218, "tags": {"highway": "bus_stop", "source": "bing 2015"}}, {"type": "node", "id": 3428463046, "lat": 44.5175272, "lon": 3.5052889, "tags": {"bench": "no", "highway": "bus_stop", "name": "Le Villaret", "network": "TUM", "operator": "Ville de Mende", "shelter": "no", "source": "survey 2014;bing 2015", "waste_basket": "no"}}, {"type": "node", "id": 3428463054, "lat": 44.5176036, "lon": 3.5053813, "tags": {"bench": "no", "highway": "bus_stop", "name": "Le Villaret", "network": "TUM", "operator": "Ville de Mende", "shelter": "no", "source": "survey 2014;bing 2015", "waste_basket": "no"}}, {"type": "node", "id": 3428463495, "lat": 44.5182991, "lon": 3.5018581, "tags": {"bench": "no", "bin": "no", "check_date:shelter": "2022-07-20", "highway": "bus_stop", "lit": "yes", "name": "Mairie Charles De Gaulle", "network": "TUM", "operator": "Ville de Mende", "shelter": "no", "source": "bing 2015", "tactile_paving": "no", "waste_basket": "no"}}, {"type": "node", "id": 3428463519, "lat": 44.5202837, "lon": 3.5102873, "tags": {"bench": "no", "highway": "bus_stop", "name": "Mirandol", "network": "TUM", "operator": "Ville de Mende", "shelter": "no", "source": "survey 2014;bing 2015", "waste_basket": "no"}}, {"type": "node", "id": 3428787549, "lat": 44.5196448, "lon": 3.4973379, "tags": {"bench": "no", "highway": "bus_stop", "name": "Th. Roussel", "network": "TUM", "operator": "Ville de Mende", "shelter": "no", "source": "survey 2014;bing 2015", "waste_basket": "no"}}, {"type": "node", "id": 3431600182, "lat": 44.4822932, "lon": 3.4567856, "tags": {"highway": "bus_stop", "source": "survey 2014; bing 2015"}}, {"type": "node", "id": 3431600185, "lat": 44.4823405, "lon": 3.4561989, "tags": {"highway": "bus_stop", "source": "survey 2014; bing 2015"}}, {"type": "node", "id": 3457870354, "lat": 44.5286578, "lon": 3.4617847, "tags": {"bench": "yes", "covered": "yes", "highway": "bus_stop", "name": "Chabannes", "network": "TUM", "operator": "Ville de Mende", "shelter": "yes", "source": "bing 2015"}}, {"type": "node", "id": 3473617948, "lat": 44.7028124, "lon": 3.3885747, "tags": {"bench": "yes", "bin": "no", "highway": "bus_stop", "lit": "yes", "name": "Serverette", "shelter": "yes", "tactile_paving": "no"}}, {"type": "node", "id": 3486119242, "lat": 44.5273865, "lon": 3.5030304, "tags": {"highway": "bus_stop", "name": "Chanteperdrix", "network": "TUM", "operator": "Ville de Mende", "source": "bing 2015"}}, {"type": "node", "id": 3486119252, "lat": 44.5274952, "lon": 3.5034066, "tags": {"highway": "bus_stop", "name": "Chanteperdrix", "network": "TUM", "operator": "Ville de Mende", "source": "bing 2015"}}, {"type": "node", "id": 3488607689, "lat": 44.5270472, "lon": 3.4998046, "tags": {"highway": "bus_stop", "name": "Les Acacias", "network": "TUM", "operator": "Ville de Mende", "source": "bing 2015"}}, {"type": "node", "id": 3489060099, "lat": 44.5222004, "lon": 3.5065975, "tags": {"highway": "bus_stop", "name": "Le Carmel", "network": "TUM", "operator": "Ville de Mende", "source": "bing 2015"}}, {"type": "node", "id": 3489060155, "lat": 44.52675, "lon": 3.5065129, "tags": {"highway": "bus_stop", "name": "Les Genevriers 2", "network": "TUM", "operator": "Ville de Mende"}}, {"type": "node", "id": 3489094903, "lat": 44.5204574, "lon": 3.5036738, "tags": {"bench": "no", "bin": "no", "highway": "bus_stop", "lit": "yes", "name": "Pont de Berliere", "network": "TUM", "operator": "Ville de Mende", "shelter": "yes", "source": "bing 2015", "tactile_paving": "no"}}, {"type": "node", "id": 3489094912, "lat": 44.5236466, "lon": 3.5029536, "tags": {"highway": "bus_stop", "name": "Les Fleurs", "network": "TUM", "operator": "Ville de Mende", "source": "bing 2015"}}, {"type": "node", "id": 3499213417, "lat": 44.5199322, "lon": 3.5069019, "tags": {"highway": "bus_stop", "name": "La Vernede", "network": "TUM", "operator": "Ville de Mende", "source": "bing 2015"}}, {"type": "node", "id": 3499213516, "lat": 44.5227843, "lon": 3.4984691, "tags": {"bench": "no", "check_date:shelter": "2022-07-20", "highway": "bus_stop", "name": "Les Iris", "network": "TUM", "operator": "Ville de Mende", "shelter": "no", "source": "survey 2014", "waste_basket": "no"}}, {"type": "node", "id": 3947473634, "lat": 44.7327191, "lon": 3.8572259, "tags": {"name": "Langogne", "network": "TER Occitanie", "network:wikidata": "Q37941081", "operator": "SNCF", "operator:wikidata": "Q13646", "public_transport": "station", "railway": "station", "railway:ref:DB": "XFLGG", "train": "yes", "uic_ref": "8773435", "wikidata": "Q1935573", "wikipedia": "fr:Gare de Langogne"}}, {"type": "node", "id": 4105189410, "lat": 44.5317427, "lon": 3.4666205, "tags": {"highway": "bus_stop", "name": "Les Sauvagelles", "network": "TUM"}}, {"type": "node", "id": 4105240032, "lat": 44.5303585, "lon": 3.4679904, "tags": {"highway": "bus_stop", "name": "Les Boulaines", "network": "TUM", "operator": "Ville de Mende"}}, {"type": "node", "id": 4105287264, "lat": 44.5286449, "lon": 3.4729703, "tags": {"highway": "bus_stop", "name": "Le G\u00e9vaudan", "network": "TUM", "operator": "Ville de Mende"}}, {"type": "node", "id": 4105323461, "lat": 44.5256505, "lon": 3.4788611, "tags": {"highway": "bus_stop", "name": "Lyc\u00e9e Peytavin", "network": "TUM", "operator": "Ville de Mende"}}, {"type": "node", "id": 4105344796, "lat": 44.5233701, "lon": 3.4832213, "tags": {"highway": "bus_stop", "name": "Aubrac", "network": "TUM", "operator": "Ville de Mende"}}, {"type": "node", "id": 4105344797, "lat": 44.5234121, "lon": 3.4833689, "tags": {"highway": "bus_stop", "name": "Aubrac", "network": "TUM", "operator": "Ville de Mende"}}, {"type": "node", "id": 4118878972, "lat": 44.5200465, "lon": 3.4858114, "tags": {"highway": "bus_stop", "name": "Les Hauts de Riucros", "network": "TUM", "operator": "Mairie de Mende"}}, {"type": "node", "id": 4118878973, "lat": 44.5200258, "lon": 3.4856877, "tags": {"highway": "bus_stop", "name": "Les Hauts de Rieucros", "network": "TUM", "operator": "Ville de Mende"}}, {"type": "node", "id": 4118878974, "lat": 44.5166961, "lon": 3.4734085, "tags": {"highway": "bus_stop", "name": "Le Chapitre", "network": "TUM", "operator": "Ville de Mende"}}, {"type": "node", "id": 4118953310, "lat": 44.5177499, "lon": 3.490065, "tags": {"bench": "yes", "covered": "yes", "highway": "bus_stop", "name": "Pont Roupt", "network": "TUM", "operator": "Ville de Mende", "shelter": "yes"}}, {"type": "node", "id": 4118953311, "lat": 44.5176773, "lon": 3.4901643, "tags": {"highway": "bus_stop", "name": "Pont Roupt", "network": "TUM", "operator": "Ville de Mende"}}, {"type": "node", "id": 4118953312, "lat": 44.5160918, "lon": 3.4876752, "tags": {"highway": "bus_stop", "name": "Les Gorges du Tarn", "network": "TUM", "operator": "Ville de Mende"}}, {"type": "node", "id": 4118968279, "lat": 44.5182625, "lon": 3.4930503, "tags": {"highway": "bus_stop", "name": "Jean Jaur\u00e8s", "network": "TUM", "operator": "Ville de Mende"}}, {"type": "node", "id": 4118975785, "lat": 44.5176132, "lon": 3.5012277, "tags": {"bench": "yes", "bin": "yes", "highway": "bus_stop", "lit": "yes", "name": "Mairie Soubeyran", "network": "TUM", "operator": "Ville de Mende", "shelter": "yes", "tactile_paving": "no"}}, {"type": "node", "id": 4119106924, "lat": 44.5178437, "lon": 3.5020491, "tags": {"highway": "bus_stop", "name": "Mairie Britexte", "network": "TUM", "operator": "Ville de Mende"}}, {"type": "node", "id": 4119106925, "lat": 44.520009, "lon": 3.5124283, "tags": {"highway": "bus_stop", "name": "Les Bancels", "network": "TUM", "operator": "Ville de Mende"}}, {"type": "node", "id": 4119106926, "lat": 44.5204699, "lon": 3.5129084, "tags": {"bench": "yes", "covered": "yes", "highway": "bus_stop", "name": "Lyc\u00e9e Notre-Dame", "network": "TUM", "operator": "Ville de Mende", "shelter": "yes"}}, {"type": "node", "id": 4119106927, "lat": 44.5220936, "lon": 3.5135736, "tags": {"bench": "yes", "highway": "bus_stop", "name": "Les Terres Bleus", "network": "TUM", "operator": "Ville de Mende"}}, {"type": "node", "id": 4119106928, "lat": 44.5221987, "lon": 3.5149818, "tags": {"bus": "yes", "highway": "bus_stop", "name": "Fontanilles", "network": "TUM", "operator": "Ville de Mende", "public_transport": "platform"}}, {"type": "node", "id": 4119118782, "lat": 44.52024, "lon": 3.5065519, "tags": {"bench": "yes", "covered": "yes", "highway": "bus_stop", "name": "La Vernede", "network": "TUM", "operator": "Ville de Mende"}}, {"type": "node", "id": 4119118783, "lat": 44.5208983, "lon": 3.5048484, "tags": {"highway": "bus_stop", "name": "Paulin Daude", "network": "TUM", "operator": "Ville de Mende"}}, {"type": "node", "id": 4119118784, "lat": 44.5208429, "lon": 3.5048028, "tags": {"highway": "bus_stop", "name": "Paulin Daude", "network": "TUM", "operator": "Ville de Mende"}}, {"type": "node", "id": 4119127347, "lat": 44.5204261, "lon": 3.5037713, "tags": {"bench": "no", "bin": "no", "highway": "bus_stop", "lit": "yes", "name": "Pont de Berliere", "network": "TUM", "operator": "Ville de Mende", "shelter": "no", "tactile_paving": "no"}}, {"type": "node", "id": 4119170390, "lat": 44.5221789, "lon": 3.5020967, "tags": {"bench": "no", "bin": "no", "bus": "yes", "highway": "bus_stop", "lit": "yes", "name": "Gare SNCF", "network": "TUM", "operator": "Ville de Mende", "public_transport": "platform", "shelter": "no", "tactile_paving": "yes"}}, {"type": "node", "id": 4119170391, "lat": 44.5227265, "lon": 3.4984667, "tags": {"highway": "bus_stop", "name": "Les Iris", "network": "TUM", "operator": "Ville de Mende"}}, {"type": "node", "id": 4119170392, "lat": 44.5233792, "lon": 3.4916747, "tags": {"highway": "bus_stop", "name": "Hopital", "network": "TUM", "operator": "Ville de Mende"}}, {"type": "node", "id": 4119170393, "lat": 44.5233276, "lon": 3.4916801, "tags": {"highway": "bus_stop", "name": "Hopital", "network": "TUM", "operator": "Ville de Mende", "shelter": "yes"}}, {"type": "node", "id": 4119170394, "lat": 44.5257868, "lon": 3.4860797, "tags": {"highway": "bus_stop", "name": "Viaduc de Rieucros", "network": "TUM", "operator": "Ville de Mende"}}, {"type": "node", "id": 4119170395, "lat": 44.5257638, "lon": 3.4859724, "tags": {"highway": "bus_stop", "name": "Viaduc de Rieucros", "network": "TUM", "operator": "Ville de Mende"}}, {"type": "node", "id": 4119170396, "lat": 44.5248765, "lon": 3.4824158, "tags": {"highway": "bus_stop", "name": "Viaduc de Rieucros 2", "network": "TUM", "operator": "Ville de Mende"}}, {"type": "node", "id": 4132387266, "lat": 44.5221627, "lon": 3.5067595, "tags": {"highway": "bus_stop", "name": "Le Carmel", "network": "TUM", "operator": "Ville de Mende"}}, {"type": "node", "id": 4132387267, "lat": 44.5245347, "lon": 3.5048509, "tags": {"highway": "bus_stop", "name": "Bellevue", "network": "TUM", "operator": "Ville de Mende"}}, {"type": "node", "id": 4132387268, "lat": 44.5245285, "lon": 3.5051301, "tags": {"highway": "bus_stop", "name": "Bellevue", "network": "TUM", "operator": "Ville de Mende"}}, {"type": "node", "id": 4132387269, "lat": 44.5244429, "lon": 3.5024637, "tags": {"highway": "bus_stop", "name": "Les Marguerites", "network": "TUM", "operator": "Ville de Mende"}}, {"type": "node", "id": 4132415400, "lat": 44.5265789, "lon": 3.5054034, "tags": {"highway": "bus_stop", "name": "Les Ecureuils", "network": "TUM", "operator": "Ville de Mende"}}, {"type": "node", "id": 4132415401, "lat": 44.5264775, "lon": 3.5055992, "tags": {"highway": "bus_stop", "name": "Les Ecureuils", "network": "TUM", "operator": "Ville de Mende"}}, {"type": "node", "id": 4132415403, "lat": 44.5272452, "lon": 3.5070365, "tags": {"highway": "bus_stop", "name": "Les Genevriers", "network": "TUM", "operator": "Ville de Mende"}}, {"type": "node", "id": 4132463801, "lat": 44.5289413, "lon": 3.5034615, "tags": {"highway": "bus_stop", "name": "Les Pins", "network": "TUM", "operator": "Ville de Mende"}}, {"type": "node", "id": 4132463803, "lat": 44.530341, "lon": 3.5025774, "tags": {"highway": "bus_stop", "name": "Jacques Brel", "network": "TUM", "operator": "Ville de Mende"}}, {"type": "node", "id": 4132471387, "lat": 44.5271342, "lon": 3.4998881, "tags": {"highway": "bus_stop", "name": "Les Acacias", "network": "TUM", "operator": "Ville de Mende"}}, {"type": "node", "id": 4132471388, "lat": 44.5250843, "lon": 3.4992899, "tags": {"highway": "bus_stop", "name": "Altitude 800", "network": "TUM", "operator": "Ville de Mende"}}, {"type": "node", "id": 4132501296, "lat": 44.5234283, "lon": 3.4961947, "tags": {"highway": "bus_stop", "name": "La Cantarelle", "network": "TUM", "operator": "Ville de Mende"}}, {"type": "node", "id": 4132501297, "lat": 44.5234417, "lon": 3.4959265, "tags": {"highway": "bus_stop", "name": "La Cantarelle", "network": "TUM", "operator": "Ville de Mende"}}, {"type": "node", "id": 4132501299, "lat": 44.5376816, "lon": 3.5103094, "tags": {"highway": "bus_stop", "name": "Causse d'Auge La Draine", "network": "TUM", "operator": "Ville de Mende"}}, {"type": "node", "id": 4132501300, "lat": 44.5349229, "lon": 3.5053048, "tags": {"bus": "yes", "highway": "bus_stop", "name": "Causse d'Auge la Tendelle", "public_transport": "platform"}}, {"type": "node", "id": 4132501301, "lat": 44.5258217, "lon": 3.4928744, "tags": {"highway": "bus_stop", "name": "Nelson Mandela", "network": "TUM", "operator": "Ville de Mende"}}, {"type": "node", "id": 4132501302, "lat": 44.5258703, "lon": 3.4928144, "tags": {"highway": "bus_stop", "name": "Nelson Mandela", "network": "TUM", "operator": "Ville de Mende"}}, {"type": "node", "id": 4132608936, "lat": 44.5290275, "lon": 3.4560455, "tags": {"highway": "bus_stop", "name": "Chabrits", "network": "TUM", "operator": "Ville de Mende"}}, {"type": "node", "id": 4132608937, "lat": 44.529639, "lon": 3.4507707, "tags": {"highway": "bus_stop", "name": "Chabrits Village", "network": "TUM", "operator": "Mende"}}, {"type": "node", "id": 4132666807, "lat": 44.5197103, "lon": 3.4968762, "tags": {"highway": "bus_stop", "name": "Fauboug Montbel", "network": "TUM", "operator": "Ville de Mende"}}, {"type": "node", "id": 4132666808, "lat": 44.5204255, "lon": 3.4922199, "tags": {"highway": "bus_stop", "name": "Castelsec", "network": "TUM", "operator": "Ville de Mende"}}, {"type": "node", "id": 4132666809, "lat": 44.5207793, "lon": 3.4906374, "tags": {"highway": "bus_stop", "name": "Les Eglantiers", "network": "TUM", "operator": "Ville de Mende"}}, {"type": "node", "id": 4138711296, "lat": 44.5296507, "lon": 3.4587455, "tags": {"highway": "bus_stop", "name": "Chabannes 2", "network": "TUM", "operator": "Ville de Mende"}}, {"type": "node", "id": 4329501903, "lat": 44.770803, "lon": 3.8832221, "tags": {"highway": "bus_stop"}}, {"type": "node", "id": 4329501904, "lat": 44.7709001, "lon": 3.8831621, "tags": {"highway": "bus_stop"}}, {"type": "node", "id": 4367939111, "lat": 44.5391428, "lon": 3.6077281, "tags": {"bus": "yes", "highway": "bus_stop", "public_transport": "platform", "shelter": "yes"}}, {"type": "node", "id": 4367940957, "lat": 44.5395629, "lon": 3.6083373, "tags": {"highway": "bus_stop"}}, {"type": "node", "id": 4367941608, "lat": 44.5539816, "lon": 3.6242301, "tags": {"highway": "bus_stop", "shelter": "yes"}}, {"type": "node", "id": 4367941740, "lat": 44.5670119, "lon": 3.6199939, "tags": {"bus": "yes", "check_date:shelter": "2023-08-14", "highway": "bus_stop", "public_transport": "platform", "shelter": "yes"}}, {"type": "node", "id": 4367941741, "lat": 44.5670975, "lon": 3.6203485, "tags": {"highway": "bus_stop", "shelter": "no"}}, {"type": "node", "id": 4368448619, "lat": 44.5838741, "lon": 3.6406404, "tags": {"bus": "yes", "highway": "bus_stop", "public_transport": "platform", "shelter": "no"}}, {"type": "node", "id": 4368448625, "lat": 44.584012, "lon": 3.6395075, "tags": {"bus": "yes", "highway": "bus_stop", "public_transport": "platform", "shelter": "no"}}, {"type": "node", "id": 5044966651, "lat": 44.888719, "lon": 3.7904549, "tags": {"check_date:shelter": "2021-12-31", "highway": "bus_stop", "shelter": "yes"}}, {"type": "node", "id": 7982955761, "lat": 44.7386918, "lon": 3.958156, "tags": {"alt_name": "Lavillatte", "bus": "yes", "fixme": "position de l'arr\u00eat \u00e0 pr\u00e9ciser", "highway": "bus_stop", "name": "Lavillate - Croisement Moulin du Rayol", "public_transport": "platform", "short_name": "Crt Moulin du Rayol"}}, {"type": "node", "id": 7982955762, "lat": 44.738586, "lon": 3.9583987, "tags": {"alt_name": "Lavillatte", "bus": "yes", "fixme": "position de l'arr\u00eat \u00e0 pr\u00e9ciser", "highway": "bus_stop", "name": "Lavillate - Croisement Moulin du Rayol", "public_transport": "platform", "short_name": "Crt Moulin du Rayol"}}, {"type": "node", "id": 7982955763, "lat": 44.7325957, "lon": 3.897874, "tags": {"alt_name": "Lesp\u00e9ron", "bus": "yes", "fixme": "position de l'arr\u00eat \u00e0 pr\u00e9ciser", "highway": "bus_stop", "name": "Lesp\u00e9ron - Le Village", "public_transport": "platform"}}, {"type": "node", "id": 7982955764, "lat": 44.7325032, "lon": 3.8976856, "tags": {"alt_name": "Lesp\u00e9ron", "bus": "yes", "fixme": "position de l'arr\u00eat \u00e0 pr\u00e9ciser", "highway": "bus_stop", "name": "Lesp\u00e9ron - Le Village", "public_transport": "platform"}}, {"type": "node", "id": 7982955782, "lat": 44.7516164, "lon": 3.8799092, "tags": {"alt_name": "La Ribeyre", "bus": "yes", "highway": "bus_stop", "mapillary": "291387035796953", "name": "Lesp\u00e9ron - La Ribeyre", "public_transport": "platform"}}, {"type": "node", "id": 7982955783, "lat": 44.7518522, "lon": 3.8799139, "tags": {"alt_name": "La Ribeyre", "bus": "yes", "highway": "bus_stop", "mapillary": "291387035796953", "name": "Lesp\u00e9ron - La Ribeyre", "public_transport": "platform"}}, {"type": "node", "id": 7982975386, "lat": 44.7261845, "lon": 3.8555903, "tags": {"bus": "yes", "fixme": "v\u00e9rifier que le Car n\u00b017 pour Aubenas part bien d'ici. Position de l'arr\u00eat \u00e0 pr\u00e9ciser", "highway": "bus_stop", "mapillary": "306138824457059", "name": "Langogne - Centre", "public_transport": "platform"}}, {"type": "node", "id": 7982975387, "lat": 44.7278476, "lon": 3.8556567, "tags": {"bus": "yes", "highway": "bus_stop", "public_transport": "platform", "source": "BDOrtho IGN"}}, {"type": "node", "id": 7982975409, "lat": 44.7263726, "lon": 3.8556708, "tags": {"bus": "yes", "highway": "bus_stop", "mapillary": "306138824457059", "name": "Langogne - Centre", "public_transport": "platform"}}, {"type": "node", "id": 9334704816, "lat": 44.5264898, "lon": 3.4697216, "tags": {"bench": "yes", "covered": "yes", "highway": "bus_stop", "name": "Valcroze 2", "network": "TUM", "operator": "Ville de Mende", "shelter": "yes"}}, {"type": "node", "id": 9697103558, "lat": 44.5222394, "lon": 3.5020282, "tags": {"addr:city": "Mende", "addr:housenumber": "8", "addr:postcode": "48000", "addr:street": "Avenue de la Gare", "internet_access": "no", "name": "Mende", "operator": "SNCF", "public_transport": "station", "railway": "station", "train": "yes", "uic_ref": "8778360", "wheelchair": "yes", "wikidata": "Q3097015", "wikipedia": "fr:Gare de Mende"}}, {"type": "node", "id": 11134244806, "lat": 44.5285221, "lon": 3.6282525, "tags": {"name": "Bagnols - Chadenet", "operator": "SNCF", "public_transport": "station", "railway": "station", "source": "cadastre-dgi-fr source : Direction G\u00e9n\u00e9rale des Imp\u00f4ts - Cadastre. Mise \u00e0 jour : 2010", "train": "yes", "uic_ref": "8778364", "wikidata": "Q2267810", "wikipedia": "fr:Gare de Bagnols - Chadenet"}}, {"type": "node", "id": 11708262586, "lat": 44.5210254, "lon": 3.5025791, "tags": {"bench": "yes", "bus": "yes", "highway": "bus_stop", "name": "Gare Routi\u00e8re de Mende", "public_transport": "platform", "shelter": "yes"}}, {"type": "node", "id": 11708938439, "lat": 44.6334394, "lon": 3.676265, "tags": {"bus": "yes", "highway": "bus_stop", "name": "L'Habitarelle", "public_transport": "platform"}}, {"type": "node", "id": 11708938440, "lat": 44.6330382, "lon": 3.6760429, "tags": {"bus": "yes", "highway": "bus_stop", "name": "L'Habitarelle", "public_transport": "platform"}}, {"type": "node", "id": 11708938456, "lat": 44.7699615, "lon": 3.8832442, "tags": {"bench": "no", "bus": "yes", "highway": "bus_stop", "name": "Pradelles - Foirail", "public_transport": "platform", "shelter": "no"}}, {"type": "node", "id": 11708938457, "lat": 44.7698549, "lon": 3.8831168, "tags": {"bench": "no", "bus": "yes", "highway": "bus_stop", "name": "Pradelles - Foirail", "public_transport": "platform", "shelter": "no"}}, {"type": "node", "id": 11708938458, "lat": 44.8942009, "lon": 3.8496077, "tags": {"bench": "yes", "bin": "no", "bus": "yes", "highway": "bus_stop", "name": "Costaros - Place de l'\u00c9glise", "public_transport": "platform", "shelter": "yes", "tactile_paving": "no"}}, {"type": "node", "id": 11708938465, "lat": 44.8949532, "lon": 3.8496635, "tags": {"bench": "no", "bin": "no", "bus": "yes", "highway": "bus_stop", "name": "Costaros - Place de l'\u00c9glise", "public_transport": "platform", "shelter": "no"}}, {"type": "node", "id": 12162390268, "lat": 44.5236957, "lon": 3.5145829, "tags": {"bus": "yes", "highway": "bus_stop", "name": "Ecole Les Tilleuls", "operator": "Ville de Mende", "public_transport": "platform"}}, {"type": "node", "id": 12350701717, "lat": 44.5253186, "lon": 3.4999496, "tags": {"bus": "yes", "highway": "bus_stop", "public_transport": "platform"}}, {"type": "node", "id": 12350701746, "lat": 44.5266779, "lon": 3.4969053, "tags": {"bus": "yes", "highway": "bus_stop", "public_transport": "platform"}}, {"type": "node", "id": 12350701814, "lat": 44.5276369, "lon": 3.503897, "tags": {"bus": "yes", "highway": "bus_stop", "public_transport": "platform"}}, {"type": "way", "id": 66513194, "nodes": [805136694, 805099597, 805116306, 805154092, 805136694], "tags": {"bench": "yes", "building": "yes", "highway": "bus_stop", "shelter": "yes", "source": "cadastre-dgi-fr source : Direction G\u00e9n\u00e9rale des Imp\u00f4ts - Cadastre. Mise \u00e0 jour : 2010; survey 2014", "wall": "no"}}]}