{"version": 0.6, "generator": "Overpass API 0.7.62.5 1bd436f1", "osm3s": {"timestamp_osm_base": "2025-04-09T14:38:15Z", "copyright": "The data included in this document is from www.openstreetmap.org. The data is made available under ODbL."}, "elements": [{"type": "node", "id": 142345651, "lat": 42.0118078, "lon": 1.8841887, "tags": {"bus": "yes", "highway": "bus_stop", "name": "Viladomiu Vell", "name:ca": "Viladomiu Vell", "public_transport": "stop_position"}}, {"type": "node", "id": 142345663, "lat": 41.9962829, "lon": 1.8855498, "tags": {"bus": "yes", "highway": "bus_stop", "name": "el Guixar\u00f3", "name:ca": "el Guixar\u00f3", "public_transport": "stop_position"}}, {"type": "node", "id": 247074190, "lat": 41.9020212, "lon": 1.8786889, "tags": {"amenity": "bus_station", "bus": "yes", "highway": "bus_stop", "name": "Nav\u00e0s", "name:ca": "Nav\u00e0s", "public_transport": "platform", "route_ref": "L0393"}}, {"type": "node", "id": 303713550, "lat": 42.0919069, "lon": 1.8266929, "tags": {"bus": "yes", "highway": "bus_stop", "public_transport": "stop_position"}}, {"type": "node", "id": 431152055, "lat": 42.0769616, "lon": 1.8227166, "tags": {"bus": "yes", "highway": "bus_stop", "name": "Av. Pau Casals - Pl. de l'Ateneu", "public_transport": "stop_position"}}, {"type": "node", "id": 455931096, "lat": 42.0354037, "lon": 1.8801863, "tags": {"bus": "yes", "highway": "bus_stop", "name": "Estaci\u00f3 autobusos Gironella", "public_transport": "stop_position"}}, {"type": "node", "id": 501776534, "lat": 42.0196771, "lon": 1.8834914, "tags": {"bus": "yes", "highway": "bus_stop", "public_transport": "platform"}}, {"type": "node", "id": 501802033, "lat": 42.0983736, "lon": 1.8412344, "tags": {"bus": "yes", "highway": "bus_stop", "name": "Residencia", "name:ca": "Resid\u00e8ncia", "public_transport": "stop_position"}}, {"type": "node", "id": 501802044, "lat": 42.0941347, "lon": 1.8346519, "tags": {"bus": "yes", "highway": "bus_stop", "name": "La Valldan- A", "public_transport": "stop_position"}}, {"type": "node", "id": 501802050, "lat": 42.0954273, "lon": 1.8235331, "tags": {"bus": "yes", "highway": "bus_stop", "public_transport": "stop_position"}}, {"type": "node", "id": 501806286, "lat": 42.1043736, "lon": 1.8571337, "tags": {"bus": "yes", "highway": "bus_stop", "name": "Bombers", "name:ca": "Bombers", "public_transport": "stop_position"}}, {"type": "node", "id": 501829170, "lat": 42.1045959, "lon": 1.8367214, "tags": {"bus": "yes", "highway": "bus_stop", "name": "Cal Bast\u00e8", "public_transport": "stop_position"}}, {"type": "node", "id": 524131824, "lat": 41.9334193, "lon": 1.876325, "tags": {"bus": "yes", "highway": "bus_stop", "name": "Cal Riera", "public_transport": "platform"}}, {"type": "node", "id": 524131843, "lat": 41.9336158, "lon": 1.8764663, "tags": {"bus": "yes", "highway": "bus_stop", "name": "Cal Riera", "public_transport": "platform"}}, {"type": "node", "id": 524132023, "lat": 41.9456598, "lon": 1.8800399, "tags": {"bus": "yes", "highway": "bus_stop", "name": "Cal Vidal", "public_transport": "stop_position"}}, {"type": "node", "id": 524152145, "lat": 41.9091028, "lon": 1.8798286, "tags": {"bus": "yes", "highway": "bus_stop", "name": "l'Ametlla de Merola", "name:ca": "l'Ametlla de Merola", "public_transport": "stop_position"}}, {"type": "node", "id": 529048395, "lat": 42.0517479, "lon": 1.8729256, "tags": {"bus": "yes", "highway": "bus_stop", "public_transport": "stop_position"}}, {"type": "node", "id": 529048398, "lat": 42.0525679, "lon": 1.8732827, "tags": {"bus": "yes", "highway": "bus_stop", "public_transport": "stop_position"}}, {"type": "node", "id": 537004360, "lat": 42.0379851, "lon": 1.9629733, "tags": {"bus": "yes", "highway": "bus_stop", "name": "Sag\u00e0s - Cru\u00eflla La Gu\u00e0rdia", "public_transport": "stop_position", "ref": "4563", "route_ref": "476"}}, {"type": "node", "id": 538407386, "lat": 41.8911153, "lon": 2.0613456, "tags": {"bus": "yes", "highway": "bus_stop", "name": "Pla de Grassetes - Canadell", "public_transport": "stop_position", "route_ref": "e9"}}, {"type": "node", "id": 539376978, "lat": 41.8323967, "lon": 1.750352, "tags": {"bus": "yes", "highway": "bus_stop", "name": "S\u00faria", "name:ca": "S\u00faria", "public_transport": "platform", "route_ref": "L1446"}}, {"type": "node", "id": 575979028, "lat": 41.9152063, "lon": 1.6835141, "tags": {"bus": "yes", "highway": "bus_stop", "name": "Cardona", "public_transport": "stop_position", "route_ref": "L1446"}}, {"type": "node", "id": 679838271, "lat": 42.0464659, "lon": 1.8745895, "tags": {"bus": "yes", "highway": "bus_stop", "public_transport": "stop_position"}}, {"type": "node", "id": 679838308, "lat": 42.0465325, "lon": 1.8748315, "tags": {"bus": "yes", "highway": "bus_stop", "public_transport": "stop_position"}}, {"type": "node", "id": 679838315, "lat": 42.0714733, "lon": 1.8701114, "tags": {"bus": "yes", "highway": "bus_stop", "name": "Ctra. C-16a - Col\u00f2nia Rosal", "public_transport": "platform", "ref": "1732", "route_ref": "476"}}, {"type": "node", "id": 679838327, "lat": 42.0713574, "lon": 1.8702835, "tags": {"bus": "yes", "highway": "bus_stop", "name": "Ctra. C-16a - Col\u00f2nia Rosal", "public_transport": "platform", "ref": "1843", "route_ref": "476"}}, {"type": "node", "id": 1436015359, "lat": 41.8901848, "lon": 1.5648036, "tags": {"bus": "yes", "highway": "bus_stop", "name": "Su", "public_transport": "stop_position", "route_ref": "L1704"}}, {"type": "node", "id": 1676204942, "lat": 41.9781747, "lon": 1.5565257, "tags": {"bus": "yes", "highway": "bus_stop", "name": "Pi de Sant Just", "public_transport": "stop_position", "route_ref": "L1446"}}, {"type": "node", "id": 1676204960, "lat": 41.9782927, "lon": 1.5566882, "tags": {"bus": "yes", "highway": "bus_stop", "name": "Pi de Sant Just", "public_transport": "stop_position", "route_ref": "L1446"}}, {"type": "node", "id": 1676291813, "lat": 41.9952515, "lon": 1.5211694, "tags": {"bus": "yes", "highway": "bus_stop", "public_transport": "stop_position"}}, {"type": "node", "id": 1937279053, "lat": 41.9459267, "lon": 1.5986701, "tags": {"bus": "yes", "highway": "bus_stop", "name": "Can Pon\u00e7", "public_transport": "stop_position", "route_ref": "L1446"}}, {"type": "node", "id": 2078497023, "lat": 41.963481, "lon": 1.6024758, "tags": {"bus": "yes", "highway": "bus_stop", "public_transport": "platform"}}, {"type": "node", "id": 2207344085, "lat": 41.965812, "lon": 1.5073321, "tags": {"bus": "yes", "highway": "bus_stop", "name": "Brics (embrancament)", "public_transport": "stop_position", "route_ref": "L1704"}}, {"type": "node", "id": 2207344132, "lat": 41.9660781, "lon": 1.5073224, "tags": {"bus": "yes", "highway": "bus_stop", "name": "Brics (embrancament)", "public_transport": "stop_position", "route_ref": "L1704"}}, {"type": "node", "id": 2264587027, "lat": 42.1043566, "lon": 1.8535451, "tags": {"bus": "yes", "highway": "bus_stop", "name": "Ambulatori - B", "public_transport": "stop_position"}}, {"type": "node", "id": 2380045604, "lat": 41.8055262, "lon": 1.7625545, "tags": {"bus": "yes", "highway": "bus_stop", "name": "Antius", "public_transport": "platform", "route_ref": "L1446"}}, {"type": "node", "id": 2612493722, "lat": 41.8219744, "lon": 1.761713}, {"type": "node", "id": 2612493723, "lat": 41.8219661, "lon": 1.7618101}, {"type": "node", "id": 2612493724, "lat": 41.8217937, "lon": 1.7618063}, {"type": "node", "id": 2612493725, "lat": 41.8217993, "lon": 1.761713}, {"type": "node", "id": 2664046659, "lat": 41.9143699, "lon": 1.5243058, "tags": {"bus": "yes", "highway": "bus_stop", "name": "El Miracle", "public_transport": "stop_position", "route_ref": "L1704"}}, {"type": "node", "id": 2830960753, "lat": 41.8808885, "lon": 2.0291685, "tags": {"bench": "yes", "bin": "no", "bus": "yes", "highway": "bus_stop", "name": "Ctra. BP-4313 - Sta. Eulalia", "public_transport": "platform", "ref": "3461", "route_ref": "715", "shelter": "yes"}}, {"type": "node", "id": 3014363992, "lat": 41.8617977, "lon": 1.8738578, "tags": {"bus": "yes", "highway": "bus_stop", "name": "Balsareny", "name:ca": "Balsareny", "operator": "Alsa", "public_transport": "platform", "shelter": "yes"}}, {"type": "node", "id": 3014363993, "lat": 41.861871, "lon": 1.8739922, "tags": {"bus": "yes", "highway": "bus_stop", "name": "Balsareny", "name:ca": "Balsareny", "operator": "Alsa", "public_transport": "platform", "route_ref": "L0393", "shelter": "yes"}}, {"type": "node", "id": 3063878334, "lat": 42.2031639, "lon": 1.8179873, "tags": {"bus": "yes", "highway": "bus_stop", "public_transport": "platform"}}, {"type": "node", "id": 3065745672, "lat": 42.1845587, "lon": 1.8534737, "tags": {"bus": "yes", "highway": "bus_stop", "public_transport": "platform"}}, {"type": "node", "id": 3116659087, "lat": 42.0065069, "lon": 2.0265888, "tags": {"bus": "yes", "highway": "bus_stop", "name": "Parada de Bus", "public_transport": "platform"}}, {"type": "node", "id": 3116659088, "lat": 42.0069162, "lon": 2.0263938, "tags": {"bus": "yes", "highway": "bus_stop", "public_transport": "platform"}}, {"type": "node", "id": 3116659089, "lat": 42.0096729, "lon": 2.0312716, "tags": {"bench": "yes", "bus": "yes", "covered": "yes", "highway": "bus_stop", "name": "Av. Pau Casals - Cal Xiquet", "public_transport": "platform", "ref": "1801", "route_ref": "471 476", "wheelchair": "yes"}}, {"type": "node", "id": 3311573023, "lat": 42.0198485, "lon": 1.9893458, "tags": {"bench": "no", "bin": "no", "bus": "yes", "highway": "bus_stop", "name": "Hostal St. Crist\u00f2fol - La Vilalta", "public_transport": "platform", "ref": "1799", "route_ref": "476", "shelter": "no", "tactile_paving": "no"}}, {"type": "node", "id": 3311573036, "lat": 42.0202031, "lon": 1.9892622, "tags": {"bench": "no", "bin": "no", "bus": "yes", "highway": "bus_stop", "name": "Ctra. C-154 - Hostal St. Crist\u00f2fol - La Vilalta", "public_transport": "platform", "ref": "1852", "route_ref": "476", "shelter": "no", "tactile_paving": "no"}}, {"type": "node", "id": 3379452137, "lat": 42.1284526, "lon": 1.6648086, "tags": {"bench": "no", "bus": "yes", "covered": "no", "highway": "bus_stop", "name": "Guixers", "name:ca": "Guixers", "public_transport": "platform", "route_ref": "L0158", "shelter": "yes"}}, {"type": "node", "id": 3496476745, "lat": 42.2233785, "lon": 1.8934265, "tags": {"bus": "yes", "highway": "bus_stop", "public_transport": "platform"}}, {"type": "node", "id": 3592210509, "lat": 42.0056641, "lon": 1.8830303, "tags": {"bus": "yes", "highway": "bus_stop", "name": "Viladomiu Nou", "public_transport": "stop_position"}}, {"type": "node", "id": 3592210514, "lat": 42.0058414, "lon": 1.8831533, "tags": {"bus": "yes", "highway": "bus_stop", "name": "Viladomiu Nou", "public_transport": "stop_position"}}, {"type": "node", "id": 3694003222, "lat": 41.991132, "lon": 1.5118759, "tags": {"bus": "yes", "highway": "bus_stop", "public_transport": "platform"}}, {"type": "node", "id": 3745170563, "lat": 42.1360946, "lon": 1.5918316, "tags": {"bus": "yes", "highway": "bus_stop", "name": "Sant Lloren\u00e7 de Morunys", "public_transport": "platform", "route_ref": "L0158"}}, {"type": "node", "id": 3754847925, "lat": 42.132659, "lon": 1.9933576, "tags": {"bus": "yes", "highway": "bus_stop", "name": "Borred\u00e0", "public_transport": "stop_position", "route_ref": "L0156"}}, {"type": "node", "id": 3789165464, "lat": 42.0714678, "lon": 1.8701936, "tags": {"bus": "yes", "highway": "bus_stop", "name": "Ctra. C-16a - Col\u00f2nia Rosal", "public_transport": "stop_position", "ref": "1732", "route_ref": "476"}}, {"type": "node", "id": 4118335547, "lat": 42.1761881, "lon": 1.5908628, "tags": {"bus": "yes", "highway": "bus_stop", "name": "La Coma i la Pedra", "public_transport": "platform", "route_ref": "L0158"}}, {"type": "node", "id": 4206782424, "lat": 41.8476646, "lon": 1.7220878, "tags": {"bus": "yes", "highway": "bus_stop", "name": "Valls de Torroella", "name:ca": "Valls de Torroella", "public_transport": "platform", "route_ref": "L1446"}}, {"type": "node", "id": 5335388127, "lat": 41.894765, "lon": 2.080058, "tags": {"bus": "yes", "highway": "bus_stop", "name": "Cru\u00eflla Sant Jaume de Vilanova", "public_transport": "stop_position", "route_ref": "e9"}}, {"type": "node", "id": 5489173930, "lat": 42.0991269, "lon": 1.845578, "tags": {"bus": "yes", "highway": "bus_stop", "name": "El Poste", "public_transport": "stop_position"}}, {"type": "node", "id": 5489173931, "lat": 42.1021285, "lon": 1.8543332, "tags": {"bus": "yes", "highway": "bus_stop", "name": "Santa Eul\u00e0lia - B", "public_transport": "stop_position"}}, {"type": "node", "id": 5489173932, "lat": 42.1037464, "lon": 1.8551354, "tags": {"bus": "yes", "highway": "bus_stop", "name": "Pere II", "name:ca": "Pere II", "public_transport": "stop_position"}}, {"type": "node", "id": 5489173933, "lat": 42.1038992, "lon": 1.8495519, "tags": {"bus": "yes", "highway": "bus_stop", "name": "El Vall", "name:ca": "El Vall", "public_transport": "stop_position"}}, {"type": "node", "id": 5489173934, "lat": 42.1075714, "lon": 1.8504359, "tags": {"bus": "yes", "highway": "bus_stop", "name": "La Cabana", "name:ca": "La Cabana", "public_transport": "stop_position"}}, {"type": "node", "id": 5489173935, "lat": 42.1060423, "lon": 1.8451297, "tags": {"bus": "yes", "highway": "bus_stop", "name": "Cal Diumenge", "name:ca": "Cal Diumenge", "public_transport": "stop_position"}}, {"type": "node", "id": 5489173936, "lat": 42.1040889, "lon": 1.8395373, "tags": {"bus": "yes", "highway": "bus_stop", "name": "Escola Sant Joan", "name:ca": "Escola Sant Joan", "public_transport": "stop_position"}}, {"type": "node", "id": 5489173937, "lat": 42.1019611, "lon": 1.8412596, "tags": {"bus": "yes", "highway": "bus_stop", "name": "Escola Vedruna", "name:ca": "Escola Vedruna", "public_transport": "stop_position"}}, {"type": "node", "id": 5489173938, "lat": 42.100548, "lon": 1.8409157, "tags": {"bus": "yes", "highway": "bus_stop", "name": "Estaselles", "public_transport": "stop_position"}}, {"type": "node", "id": 5489173939, "lat": 42.0999706, "lon": 1.8389866, "tags": {"bus": "yes", "highway": "bus_stop", "name": "Moss\u00e8n Armengou", "public_transport": "stop_position"}}, {"type": "node", "id": 5489173940, "lat": 42.1027207, "lon": 1.8463951, "tags": {"bus": "yes", "highway": "bus_stop", "name": "Mercat Municipal", "name:ca": "Mercat Municipal", "public_transport": "stop_position"}}, {"type": "node", "id": 5489173941, "lat": 42.1039506, "lon": 1.8473959, "tags": {"bus": "yes", "highway": "bus_stop", "name": "Pla\u00e7a Viladomat", "name:ca": "Pla\u00e7a Viladomat", "public_transport": "stop_position"}}, {"type": "node", "id": 5489173942, "lat": 42.104646, "lon": 1.8504645, "tags": {"bus": "yes", "highway": "bus_stop", "name": "Tanatori", "name:ca": "Tanatori", "public_transport": "stop_position"}}, {"type": "node", "id": 5489173943, "lat": 42.1067489, "lon": 1.8525262, "tags": {"bus": "yes", "highway": "bus_stop", "name": "Hospital", "name:ca": "Hospital", "public_transport": "stop_position"}}, {"type": "node", "id": 5489173944, "lat": 42.1046766, "lon": 1.8542047, "tags": {"bus": "yes", "highway": "bus_stop", "name": "Ambulatori - A", "public_transport": "stop_position"}}, {"type": "node", "id": 5489173945, "lat": 42.1024608, "lon": 1.8574633, "tags": {"bus": "yes", "highway": "bus_stop", "name": "Pla\u00e7a Gernika", "name:ca": "Pla\u00e7a Gernika", "public_transport": "stop_position"}}, {"type": "node", "id": 5489173946, "lat": 42.101911, "lon": 1.8537089, "tags": {"bus": "yes", "highway": "bus_stop", "name": "Santa Eul\u00e0lia - A", "public_transport": "stop_position"}}, {"type": "node", "id": 5489173947, "lat": 42.1023595, "lon": 1.8517479, "tags": {"bus": "yes", "highway": "bus_stop", "name": "Hotel d'Entitats", "public_transport": "stop_position"}}, {"type": "node", "id": 5489173948, "lat": 42.1012471, "lon": 1.8482075, "tags": {"bus": "yes", "highway": "bus_stop", "name": "Rasa dels molins", "public_transport": "stop_position"}}, {"type": "node", "id": 5489173949, "lat": 42.0983333, "lon": 1.8479128, "tags": {"bus": "yes", "highway": "bus_stop", "name": "Zona Esportiva", "name:ca": "Zona Esportiva", "public_transport": "stop_position"}}, {"type": "node", "id": 5489173950, "lat": 42.0976473, "lon": 1.8457774, "tags": {"bus": "yes", "highway": "bus_stop", "name": "Font del Ros", "name:ca": "Font del Ros", "public_transport": "stop_position"}}, {"type": "node", "id": 5489173951, "lat": 42.0968544, "lon": 1.8432803, "tags": {"bus": "yes", "highway": "bus_stop", "name": "Comte Oliba", "public_transport": "stop_position"}}, {"type": "node", "id": 5489173952, "lat": 42.0959129, "lon": 1.8383419, "tags": {"bus": "yes", "highway": "bus_stop", "name": "Bruc", "name:ca": "Bruc", "public_transport": "stop_position"}}, {"type": "node", "id": 5489173953, "lat": 42.1013589, "lon": 1.8436933, "tags": {"bus": "yes", "highway": "bus_stop", "name": "Pla\u00e7a de la Creu", "name:ca": "Pla\u00e7a de la Creu", "public_transport": "stop_position"}}, {"type": "node", "id": 5804172592, "lat": 42.0184, "lon": 1.7354985, "tags": {"bus": "yes", "highway": "bus_stop", "name": "Montmajor", "name:ca": "Montmajor", "public_transport": "platform"}}, {"type": "node", "id": 5807455353, "lat": 41.9963196, "lon": 1.5158464, "tags": {"bus": "yes", "highway": "bus_stop", "name": "Solsona. Estaci\u00f3 d'Autobusos", "name:ca": "Estaci\u00f3 d'autobusos de Solsona", "public_transport": "platform", "route_ref": "L1446 L0696 L1704", "wheelchair": "yes"}}, {"type": "node", "id": 5807455354, "lat": 42.003004, "lon": 1.5680113, "tags": {"bench": "no", "bin": "no", "highway": "bus_stop", "lit": "no", "name": "Ctra. de Ponts a Ripoll - Cru\u00eflla d'Olius", "public_transport": "platform", "shelter": "no", "tactile_paving": "no"}}, {"type": "node", "id": 5807455355, "lat": 41.9938557, "lon": 1.6538219, "tags": {"bus": "yes", "highway": "bus_stop", "name": "Ctra. de Ponts a Ripoll - El Forn de l'Aiguadora", "public_transport": "platform"}}, {"type": "node", "id": 5807455356, "lat": 42.053268, "lon": 1.7429611, "tags": {"bus": "yes", "highway": "bus_stop", "name": "Ctra. de Berga a Solsona - Can Majoral - Heliport", "public_transport": "platform"}}, {"type": "node", "id": 5807455387, "lat": 42.0535169, "lon": 1.7717251, "tags": {"bus": "yes", "highway": "bus_stop", "name": "Ctra. de Berga a Solsona - Cal Marsalet", "public_transport": "platform"}}, {"type": "node", "id": 5807455388, "lat": 42.0800708, "lon": 1.818818, "tags": {"bus": "yes", "highway": "bus_stop", "name": "Av. Pau Casals - Can Taul\u00e9", "public_transport": "platform"}}, {"type": "node", "id": 5807455390, "lat": 42.1010539, "lon": 1.843912, "tags": {"bench": "yes", "bin": "no", "bus": "yes", "highway": "bus_stop", "name": "Passeig de la Pau", "name:ca": "Passeig de la Pau", "public_transport": "platform", "route_ref": "476 L0156 L0158 L0393", "shelter": "yes"}}, {"type": "node", "id": 6215667333, "lat": 41.9876658, "lon": 1.885154, "tags": {"bus": "yes", "highway": "bus_stop", "public_transport": "platform"}}, {"type": "node", "id": 6215667334, "lat": 41.9875018, "lon": 1.8847268, "tags": {"bus": "yes", "highway": "bus_stop", "public_transport": "platform"}}, {"type": "node", "id": 6322476519, "lat": 42.1368941, "lon": 1.9297089, "tags": {"bus": "yes", "highway": "bus_stop", "name": "Vilada", "public_transport": "platform", "route_ref": "L0156"}}, {"type": "node", "id": 6559954387, "lat": 42.0571019, "lon": 1.905468, "tags": {"bus": "yes", "highway": "bus_stop", "name": "Pla\u00e7a de l'Esgl\u00e9sia", "public_transport": "stop_position", "ref": "1751", "route_ref": "476"}}, {"type": "node", "id": 6704386330, "lat": 41.8625775, "lon": 1.9719475, "tags": {"bus": "yes", "highway": "bus_stop", "name": "Ctra. de Prats - Ctra. de Sta. Maria d'Ol\u00f3", "operator": "Sagal\u00e9s", "public_transport": "platform", "ref": "3419", "route_ref": "715", "shelter": "yes"}}, {"type": "node", "id": 7123263785, "lat": 41.8966376, "lon": 1.8789367, "tags": {"highway": "bus_stop", "name": "Parada Bus", "operator": "Transports P\u00fablics de Catalunya"}}, {"type": "node", "id": 7313039297, "lat": 42.0898572, "lon": 1.8304756, "tags": {"bus": "yes", "highway": "bus_stop", "name": "Sant Bartomeu", "name:ca": "Sant Bartomeu", "public_transport": "stop_position"}}, {"type": "node", "id": 7313039298, "lat": 42.1013594, "lon": 1.8600146, "tags": {"bus": "yes", "highway": "bus_stop", "name": "Escola Santa Eul\u00e0lia", "name:ca": "Escola Santa Eul\u00e0lia", "public_transport": "stop_position"}}, {"type": "node", "id": 7313039299, "lat": 42.0990785, "lon": 1.8630129, "tags": {"bus": "yes", "highway": "bus_stop", "name": "Mas Riera", "name:ca": "Mas Riera", "public_transport": "stop_position"}}, {"type": "node", "id": 7313039300, "lat": 42.099766, "lon": 1.8585421, "tags": {"bus": "yes", "highway": "bus_stop", "name": "Sag\u00e0s", "public_transport": "stop_position"}}, {"type": "node", "id": 7313039301, "lat": 42.1074264, "lon": 1.8534513, "tags": {"bus": "yes", "highway": "bus_stop", "name": "Hospital", "name:ca": "Hospital", "public_transport": "stop_position"}}, {"type": "node", "id": 7313039302, "lat": 42.1024129, "lon": 1.8437883, "tags": {"bus": "yes", "highway": "bus_stop", "name": "Casino", "name:ca": "Casino", "public_transport": "stop_position"}}, {"type": "node", "id": 7313039303, "lat": 42.1025957, "lon": 1.8397211, "tags": {"bus": "yes", "highway": "bus_stop", "name": "Ram\u00f3n Vinyes", "public_transport": "stop_position"}}, {"type": "node", "id": 7313039304, "lat": 42.0985512, "lon": 1.8411831, "tags": {"bus": "yes", "highway": "bus_stop", "name": "Rasa del Canyet", "public_transport": "stop_position"}}, {"type": "node", "id": 8091480154, "lat": 42.0006183, "lon": 1.5195513, "tags": {"bus": "yes", "highway": "bus_stop", "public_transport": "platform"}}, {"type": "node", "id": 8822285629, "lat": 42.2510402, "lon": 1.8644436, "tags": {"bench": "yes", "bin": "yes", "bus": "yes", "highway": "bus_stop", "name": "Bag\u00e0", "name:ca": "Bag\u00e0", "public_transport": "platform", "shelter": "yes"}}, {"type": "node", "id": 8822285632, "lat": 42.2307689, "lon": 1.8778506, "tags": {"bench": "yes", "bus": "yes", "highway": "bus_stop", "name": "Guardiola de Bergued\u00e0", "name:ca": "Guardiola de Bergued\u00e0", "public_transport": "platform", "route_ref": "L0393", "shelter": "yes"}}, {"type": "node", "id": 8822285633, "lat": 42.1643705, "lon": 1.8555564, "tags": {"bench": "yes", "bus": "yes", "highway": "bus_stop", "name": "la Rodonella", "name:ca": "la Rodonella", "public_transport": "platform", "shelter": "yes"}}, {"type": "node", "id": 9070915959, "lat": 42.0199045, "lon": 1.9894403, "tags": {"bus": "yes", "highway": "bus_stop", "name": "Hostal St. Crist\u00f2fol - La Vilalta", "public_transport": "stop_position", "ref": "1799", "route_ref": "476"}}, {"type": "node", "id": 9070915960, "lat": 42.0201384, "lon": 1.9891736, "tags": {"bus": "yes", "highway": "bus_stop", "name": "Ctra. C-154 - Hostal St. Crist\u00f2fol - La Vilalta", "public_transport": "stop_position", "ref": "1852", "route_ref": "476"}}, {"type": "node", "id": 9166070439, "lat": 41.9152654, "lon": 1.6834469, "tags": {"bench": "yes", "bin": "yes", "bus": "yes", "departures_board": "timetable", "highway": "bus_stop", "name": "Cardona", "network": "Alsa", "network:wikidata": "Q294510", "public_transport": "platform", "route_ref": "L1446", "shelter": "yes"}}, {"type": "node", "id": 9166125098, "lat": 41.9095016, "lon": 1.6969732, "tags": {"bench": "yes", "bin": "yes", "bus": "yes", "departures_board": "timetable", "highway": "bus_stop", "name": "La Coromina", "public_transport": "platform", "ref": "MB 0107", "shelter": "yes"}}, {"type": "node", "id": 9166125099, "lat": 41.9096387, "lon": 1.6971587, "tags": {"bench": "yes", "bin": "yes", "bus": "yes", "departures_board": "timetable", "highway": "bus_stop", "name": "La Coromina", "public_transport": "platform", "ref": "MB 0108", "shelter": "yes"}}, {"type": "node", "id": 9857920719, "lat": 42.1326895, "lon": 1.9932148, "tags": {"bus": "yes", "highway": "bus_stop", "name": "Borred\u00e0", "public_transport": "platform", "route_ref": "L0156"}}, {"type": "node", "id": 10130411200, "lat": 42.2332234, "lon": 1.775941, "tags": {"bench": "yes", "bin": "no", "bus": "yes", "departures_board": "timetable", "highway": "bus_stop", "lit": "no", "public_transport": "platform", "shelter": "yes", "tactile_paving": "no", "wheelchair": "no"}}, {"type": "node", "id": 10955939214, "lat": 41.9755043, "lon": 1.8795352, "tags": {"bus": "yes", "highway": "bus_stop", "name": "Puig-reig", "public_transport": "stop_position", "route_ref": "L0393"}}, {"type": "node", "id": 10955939226, "lat": 41.9581389, "lon": 1.8811013, "tags": {"bus": "yes", "highway": "bus_stop", "name": "Cal Mar\u00e7al", "public_transport": "stop_position"}}, {"type": "node", "id": 11387845339, "lat": 41.933238, "lon": 1.6244128, "tags": {"bus": "yes", "highway": "bus_stop", "name": "Clariana de Cardener", "public_transport": "platform", "route_ref": "L1446"}}, {"type": "node", "id": 11387845340, "lat": 41.9338617, "lon": 1.6240639, "tags": {"bus": "yes", "highway": "bus_stop", "name": "Clariana de Cardener", "network": "Alsa", "network:wikidata": "Q294510", "public_transport": "platform", "route_ref": "L1446"}}, {"type": "node", "id": 12060040725, "lat": 41.8366995, "lon": 1.8323714, "tags": {"highway": "bus_stop"}}, {"type": "node", "id": 12079158307, "lat": 41.8618424, "lon": 1.8739298, "tags": {"bus": "yes", "highway": "bus_stop", "name": "Balsareny", "public_transport": "stop_position", "route_ref": "L0393"}}, {"type": "node", "id": 12079158308, "lat": 41.9020186, "lon": 1.8787629, "tags": {"bus": "yes", "highway": "bus_stop", "name": "Nav\u00e0s", "public_transport": "stop_position", "route_ref": "L0393"}}, {"type": "node", "id": 12079158309, "lat": 41.9755043, "lon": 1.8796158, "tags": {"bus": "yes", "highway": "bus_stop", "name": "Puig-reig", "public_transport": "platform", "route_ref": "L0393"}}, {"type": "node", "id": 12079158310, "lat": 42.0354027, "lon": 1.8800367, "tags": {"bus": "yes", "highway": "bus_stop", "name": "Gironella", "public_transport": "stop_position", "ref": "1733", "route_ref": "476 L0393"}}, {"type": "node", "id": 12079158311, "lat": 42.0353995, "lon": 1.8799666, "tags": {"bus": "yes", "highway": "bus_stop", "name": "Gironella", "public_transport": "platform", "ref": "1733", "route_ref": "476 L0393"}}, {"type": "node", "id": 12079158312, "lat": 42.2309576, "lon": 1.8779924, "tags": {"bus": "yes", "highway": "bus_stop", "name": "Guardiola de Bergued\u00e0", "public_transport": "stop_position", "route_ref": "L0053 L0393"}}, {"type": "node", "id": 12079158313, "lat": 42.230983, "lon": 1.8779427, "tags": {"bus": "yes", "highway": "bus_stop", "name": "Guardiola de Bergued\u00e0", "public_transport": "platform", "route_ref": "L0053 L0393"}}, {"type": "node", "id": 12079158314, "lat": 42.2509284, "lon": 1.8644419, "tags": {"bus": "yes", "highway": "bus_stop", "name": "Bag\u00e0", "public_transport": "stop_position", "route_ref": "L0051 L0393"}}, {"type": "node", "id": 12079158315, "lat": 42.2509092, "lon": 1.8644036, "tags": {"bus": "yes", "highway": "bus_stop", "name": "Bag\u00e0", "public_transport": "platform", "route_ref": "L0051 L0393"}}, {"type": "node", "id": 12079856533, "lat": 42.0353461, "lon": 1.880042, "tags": {"bus": "yes", "highway": "bus_stop", "name": "Gironella", "public_transport": "stop_position", "route_ref": "L0393"}}, {"type": "node", "id": 12079856534, "lat": 42.0353534, "lon": 1.8801402, "tags": {"bus": "yes", "highway": "bus_stop", "name": "Gironella", "public_transport": "platform", "route_ref": "L0393"}}, {"type": "node", "id": 12080182452, "lat": 42.2509797, "lon": 1.8646457, "tags": {"bus": "yes", "highway": "bus_stop", "name": "Bag\u00e0", "public_transport": "stop_position", "route_ref": "L0393"}}, {"type": "node", "id": 12080182453, "lat": 42.2509913, "lon": 1.864665, "tags": {"bus": "yes", "highway": "bus_stop", "name": "Bag\u00e0", "public_transport": "platform", "route_ref": "L0393"}}, {"type": "node", "id": 12080182454, "lat": 42.2308047, "lon": 1.8778092, "tags": {"bus": "yes", "highway": "bus_stop", "name": "Guardiola de Bergued\u00e0", "public_transport": "stop_position", "route_ref": "L0393"}}, {"type": "node", "id": 12094215646, "lat": 41.9964026, "lon": 1.5160494, "tags": {"bus": "yes", "highway": "bus_stop", "name": "Solsona. Estaci\u00f3 d'Autobusos", "public_transport": "stop_position", "route_ref": "L1446 L0696 L1704"}}, {"type": "node", "id": 12097244340, "lat": 41.978127, "lon": 1.5564583, "tags": {"bus": "yes", "highway": "bus_stop", "name": "Pi de Sant Just", "public_transport": "platform", "route_ref": "L1446"}}, {"type": "node", "id": 12097259153, "lat": 41.9458642, "lon": 1.5986869, "tags": {"bus": "yes", "highway": "bus_stop", "name": "Can Pon\u00e7", "public_transport": "platform", "route_ref": "L1446"}}, {"type": "node", "id": 12097304619, "lat": 41.816822, "lon": 1.7615131, "tags": {"bus": "yes", "highway": "bus_stop", "name": "El Fusteret", "public_transport": "stop_position", "route_ref": "L1446"}}, {"type": "node", "id": 12097304620, "lat": 41.8168, "lon": 1.7614164, "tags": {"bus": "yes", "highway": "bus_stop", "name": "El Fusteret", "public_transport": "platform", "route_ref": "L1446"}}, {"type": "node", "id": 12097304621, "lat": 41.832363, "lon": 1.750452, "tags": {"bus": "yes", "highway": "bus_stop", "name": "S\u00faria", "public_transport": "stop_position", "route_ref": "L1446"}}, {"type": "node", "id": 12097304622, "lat": 41.8476531, "lon": 1.7220095, "tags": {"bus": "yes", "highway": "bus_stop", "name": "Valls de Torroella", "public_transport": "stop_position", "route_ref": "L1446"}}, {"type": "node", "id": 12097304623, "lat": 41.8476547, "lon": 1.7219642, "tags": {"bus": "yes", "highway": "bus_stop", "name": "Valls de Torroella", "public_transport": "platform", "route_ref": "L1446"}}, {"type": "node", "id": 12097304624, "lat": 41.8548748, "lon": 1.7201755, "tags": {"bus": "yes", "highway": "bus_stop", "name": "El Pal\u00e0 de Torroella", "public_transport": "stop_position", "route_ref": "L1446"}}, {"type": "node", "id": 12097304625, "lat": 41.8548442, "lon": 1.7200732, "tags": {"bus": "yes", "highway": "bus_stop", "name": "El Pal\u00e0 de Torroella", "public_transport": "platform", "route_ref": "L1446"}}, {"type": "node", "id": 12097304626, "lat": 41.8599142, "lon": 1.7188838, "tags": {"bus": "yes", "highway": "bus_stop", "name": "El Pal\u00e0 (La Rata)", "public_transport": "stop_position", "route_ref": "L1446"}}, {"type": "node", "id": 12097304627, "lat": 41.859907, "lon": 1.7188142, "tags": {"bus": "yes", "highway": "bus_stop", "name": "El Pal\u00e0 (La Rata)", "public_transport": "platform", "route_ref": "L1446"}}, {"type": "node", "id": 12097331028, "lat": 41.832395, "lon": 1.7502702, "tags": {"bus": "yes", "highway": "bus_stop", "name": "S\u00faria", "public_transport": "stop_position", "route_ref": "L1446"}}, {"type": "node", "id": 12097331029, "lat": 41.8162695, "lon": 1.7618812, "tags": {"bus": "yes", "highway": "bus_stop", "name": "El Fusteret", "public_transport": "stop_position", "route_ref": "L1446"}}, {"type": "node", "id": 12097331030, "lat": 41.8162799, "lon": 1.7619179, "tags": {"bus": "yes", "highway": "bus_stop", "name": "El Fusteret", "public_transport": "platform", "route_ref": "L1446"}}, {"type": "node", "id": 12097363553, "lat": 41.8597803, "lon": 1.7189231, "tags": {"bus": "yes", "highway": "bus_stop", "name": "El Pal\u00e0 (La Rata)", "public_transport": "stop_position", "route_ref": "L1446"}}, {"type": "node", "id": 12097363554, "lat": 41.8597983, "lon": 1.7190255, "tags": {"bus": "yes", "highway": "bus_stop", "name": "El Pal\u00e0 (La Rata)", "public_transport": "platform", "route_ref": "L1446"}}, {"type": "node", "id": 12097363555, "lat": 41.8549845, "lon": 1.7201262, "tags": {"bus": "yes", "highway": "bus_stop", "name": "El Pal\u00e0 de Torroella", "public_transport": "stop_position", "route_ref": "L1446"}}, {"type": "node", "id": 12097363556, "lat": 41.8550018, "lon": 1.7201651, "tags": {"bus": "yes", "highway": "bus_stop", "name": "El Pal\u00e0 de Torroella", "public_transport": "platform", "route_ref": "L1446"}}, {"type": "node", "id": 12097363557, "lat": 41.8476791, "lon": 1.7220098, "tags": {"bus": "yes", "highway": "bus_stop", "name": "Valls de Torroella", "public_transport": "stop_position", "route_ref": "L1446"}}, {"type": "node", "id": 12097369188, "lat": 41.9783593, "lon": 1.556768, "tags": {"bus": "yes", "highway": "bus_stop", "name": "Pi de Sant Just", "public_transport": "platform", "route_ref": "L1446"}}, {"type": "node", "id": 12097369189, "lat": 41.9461959, "lon": 1.5990732, "tags": {"bus": "yes", "highway": "bus_stop", "name": "Can Pon\u00e7", "public_transport": "stop_position", "route_ref": "L1446"}}, {"type": "node", "id": 12097369190, "lat": 41.9462327, "lon": 1.5992035, "tags": {"bus": "yes", "highway": "bus_stop", "name": "Can Pon\u00e7", "public_transport": "platform", "route_ref": "L1446"}}, {"type": "node", "id": 12101475058, "lat": 41.9657644, "lon": 1.507339, "tags": {"bus": "yes", "highway": "bus_stop", "name": "Brics (embrancament)", "public_transport": "platform", "route_ref": "L1704"}}, {"type": "node", "id": 12101475059, "lat": 41.9661057, "lon": 1.5073128, "tags": {"bus": "yes", "highway": "bus_stop", "name": "Brics (embrancament)", "public_transport": "platform", "route_ref": "L1704"}}, {"type": "node", "id": 12101475060, "lat": 41.9143049, "lon": 1.5242866, "tags": {"bus": "yes", "highway": "bus_stop", "name": "El Miracle", "public_transport": "platform", "route_ref": "L1704"}}, {"type": "node", "id": 12101475061, "lat": 41.8901643, "lon": 1.5646648, "tags": {"bus": "yes", "highway": "bus_stop", "name": "Su", "public_transport": "platform", "route_ref": "L1704"}}, {"type": "node", "id": 12101493569, "lat": 41.9143343, "lon": 1.52448, "tags": {"bus": "yes", "highway": "bus_stop", "name": "El Miracle", "public_transport": "stop_position", "route_ref": "L1704"}}, {"type": "node", "id": 12101493570, "lat": 41.9143622, "lon": 1.5244876, "tags": {"bus": "yes", "highway": "bus_stop", "name": "El Miracle", "public_transport": "platform", "route_ref": "L1704"}}, {"type": "node", "id": 12136405804, "lat": 42.0008359, "lon": 1.9782106, "tags": {"bus": "yes", "highway": "bus_stop", "name": "Ajuntament de Sta. Maria de Merl\u00e8s", "public_transport": "stop_position", "ref": "9892", "route_ref": "476"}}, {"type": "node", "id": 12136405805, "lat": 42.0008749, "lon": 1.9782196, "tags": {"bus": "yes", "highway": "bus_stop", "name": "Ajuntament de Sta. Maria de Merl\u00e8s", "public_transport": "platform", "ref": "9892", "route_ref": "476"}}, {"type": "node", "id": 12136405806, "lat": 42.0379467, "lon": 1.9629409, "tags": {"bus": "yes", "highway": "bus_stop", "name": "Sag\u00e0s - Cru\u00eflla La Gu\u00e0rdia", "public_transport": "platform", "ref": "4563", "route_ref": "476"}}, {"type": "node", "id": 12136405807, "lat": 42.0571385, "lon": 1.9054133, "tags": {"bus": "yes", "highway": "bus_stop", "name": "Pla\u00e7a de l'Esgl\u00e9sia", "public_transport": "platform", "ref": "1751", "route_ref": "476"}}, {"type": "node", "id": 12136482603, "lat": 42.0713729, "lon": 1.8702033, "tags": {"bus": "yes", "highway": "bus_stop", "name": "Ctra. C-16a - Col\u00f2nia Rosal", "public_transport": "stop_position", "ref": "1843", "route_ref": "476"}}, {"type": "node", "id": 12136482604, "lat": 42.0380077, "lon": 1.9629041, "tags": {"bus": "yes", "highway": "bus_stop", "name": "Sag\u00e0s - Cru\u00eflla La Gu\u00e0rdia", "public_transport": "stop_position", "ref": "4653", "route_ref": "476"}}, {"type": "node", "id": 12136482605, "lat": 42.0380349, "lon": 1.9629279, "tags": {"bus": "yes", "highway": "bus_stop", "name": "Sag\u00e0s - Cru\u00eflla La Gu\u00e0rdia", "public_transport": "platform", "ref": "4653", "route_ref": "476"}}, {"type": "node", "id": 12173142551, "lat": 41.873876, "lon": 2.0357859, "tags": {"bus": "yes", "highway": "bus_stop", "name": "Esgl\u00e9sia Parroquial de Santa Maria d'Ol\u00f3", "public_transport": "stop_position", "ref": "3467", "route_ref": "e9 715"}}, {"type": "node", "id": 12173142552, "lat": 41.8739646, "lon": 2.0357887, "tags": {"bus": "yes", "highway": "bus_stop", "name": "Esgl\u00e9sia Parroquial de Santa Maria d'Ol\u00f3", "public_transport": "platform", "ref": "3467", "route_ref": "e9 715"}}, {"type": "node", "id": 12180242638, "lat": 41.8977628, "lon": 2.0910996, "tags": {"bus": "yes", "highway": "bus_stop", "name": "Montcabrer", "public_transport": "stop_position", "route_ref": "e9"}}, {"type": "node", "id": 12180242640, "lat": 41.8977222, "lon": 2.0911638, "tags": {"bus": "yes", "highway": "bus_stop", "name": "Montcabrer", "public_transport": "platform", "route_ref": "e9"}}, {"type": "node", "id": 12180242645, "lat": 41.8947458, "lon": 2.0800957, "tags": {"bus": "yes", "highway": "bus_stop", "name": "Cru\u00eflla Sant Jaume de Vilanova", "public_transport": "platform", "route_ref": "e9"}}, {"type": "node", "id": 12180242646, "lat": 41.8935166, "lon": 2.0780828, "tags": {"bus": "yes", "highway": "bus_stop", "name": "El Verdaguer", "public_transport": "stop_position", "route_ref": "e9"}}, {"type": "node", "id": 12180242647, "lat": 41.8934859, "lon": 2.0781146, "tags": {"bus": "yes", "highway": "bus_stop", "name": "El Verdaguer", "public_transport": "platform", "route_ref": "e9"}}, {"type": "node", "id": 12180242648, "lat": 41.8953135, "lon": 2.0761489, "tags": {"bus": "yes", "highway": "bus_stop", "name": "Cru\u00eflla el Soler", "public_transport": "stop_position", "route_ref": "e9"}}, {"type": "node", "id": 12180242649, "lat": 41.8952775, "lon": 2.0760985, "tags": {"bus": "yes", "highway": "bus_stop", "name": "Cru\u00eflla el Soler", "public_transport": "platform", "route_ref": "e9"}}, {"type": "node", "id": 12180242650, "lat": 41.8910878, "lon": 2.0613617, "tags": {"bus": "yes", "highway": "bus_stop", "name": "Pla de Grassetes - Canadell", "public_transport": "platform", "route_ref": "e9"}}, {"type": "node", "id": 12180242652, "lat": 41.8827703, "lon": 2.0342654, "tags": {"bus": "yes", "highway": "bus_stop", "name": "Cru\u00eflla Santa Maria d'Ol\u00f3", "public_transport": "platform", "route_ref": "e9"}}, {"type": "node", "id": 12180242654, "lat": 41.8791496, "lon": 2.0342942, "tags": {"bus": "yes", "highway": "bus_stop", "name": "Ctra. BV-4315 - Camp de Futbol", "public_transport": "platform", "ref": "3471", "route_ref": "e9 715"}}, {"type": "node", "id": 12180242656, "lat": 41.8754485, "lon": 2.034919, "tags": {"bus": "yes", "highway": "bus_stop", "name": "Av. Manuel L\u00f3pez - Pg. Carme Vidal", "public_transport": "platform", "ref": "3469", "route_ref": "e9 715"}}, {"type": "node", "id": 12181819846, "lat": 41.8978763, "lon": 2.0911636, "tags": {"bus": "yes", "highway": "bus_stop", "name": "Montcabrer", "public_transport": "stop_position", "route_ref": "e9"}}, {"type": "node", "id": 12181819847, "lat": 41.8978863, "lon": 2.0911033, "tags": {"bus": "yes", "highway": "bus_stop", "name": "Montcabrer", "public_transport": "platform", "route_ref": "e9"}}, {"type": "node", "id": 12181819849, "lat": 41.8946777, "lon": 2.0799793, "tags": {"bus": "yes", "highway": "bus_stop", "name": "Cru\u00eflla Sant Jaume de Vilanova", "public_transport": "stop_position", "route_ref": "e9"}}, {"type": "node", "id": 12181819850, "lat": 41.8946953, "lon": 2.0799406, "tags": {"bus": "yes", "highway": "bus_stop", "name": "Cru\u00eflla Sant Jaume de Vilanova", "public_transport": "platform", "route_ref": "e9"}}, {"type": "node", "id": 12181819851, "lat": 41.8934879, "lon": 2.0780296, "tags": {"bus": "yes", "highway": "bus_stop", "name": "El Verdaguer", "public_transport": "stop_position", "route_ref": "e9"}}, {"type": "node", "id": 12181819852, "lat": 41.8935236, "lon": 2.0779891, "tags": {"bus": "yes", "highway": "bus_stop", "name": "El Verdaguer", "public_transport": "platform", "route_ref": "e9"}}, {"type": "node", "id": 12181819853, "lat": 41.8952943, "lon": 2.076195, "tags": {"bus": "yes", "highway": "bus_stop", "name": "Cru\u00eflla el Soler", "public_transport": "stop_position", "route_ref": "e9"}}, {"type": "node", "id": 12181819854, "lat": 41.8953238, "lon": 2.076222, "tags": {"bus": "yes", "highway": "bus_stop", "name": "Cru\u00eflla el Soler", "public_transport": "platform", "route_ref": "e9"}}, {"type": "node", "id": 12181819855, "lat": 41.8910752, "lon": 2.0611552, "tags": {"bus": "yes", "highway": "bus_stop", "name": "Pla de Grassetes - Canadell", "public_transport": "stop_position", "route_ref": "e9"}}, {"type": "node", "id": 12181819856, "lat": 41.891114, "lon": 2.0611448, "tags": {"bus": "yes", "highway": "bus_stop", "name": "Pla de Grassetes - Canadell", "public_transport": "platform", "route_ref": "e9"}}, {"type": "node", "id": 12181819857, "lat": 41.8789401, "lon": 2.0339928, "tags": {"bus": "yes", "highway": "bus_stop", "name": "Ctra. BV-4315 - Camp de Futbol", "public_transport": "platform", "ref": "3463", "route_ref": "e9 715"}}, {"type": "node", "id": 12231836959, "lat": 42.1368981, "lon": 1.9298325, "tags": {"bus": "yes", "highway": "bus_stop", "name": "Vilada", "public_transport": "stop_position", "route_ref": "L0156"}}, {"type": "node", "id": 12412865626, "lat": 42.093127, "lon": 1.761611, "tags": {"bus": "yes", "highway": "bus_stop", "name": "Capolat", "public_transport": "platform", "route_ref": "L0158"}}, {"type": "node", "id": 12412865628, "lat": 42.1144771, "lon": 1.7090416, "tags": {"bus": "yes", "highway": "bus_stop", "name": "Llinars de l'Aigua d'Ora", "public_transport": "platform", "route_ref": "L0158"}}, {"type": "node", "id": 12412886020, "lat": 42.1283284, "lon": 1.6648816, "tags": {"bus": "yes", "highway": "bus_stop", "name": "Guixers", "public_transport": "platform", "route_ref": "L0158"}}, {"type": "node", "id": 12412886021, "lat": 42.1142958, "lon": 1.7091583, "tags": {"bus": "yes", "highway": "bus_stop", "name": "Llinars de l'Aigua d'Ora", "public_transport": "platform", "route_ref": "L0158"}}, {"type": "node", "id": 12412886023, "lat": 42.0931669, "lon": 1.7613138, "tags": {"bus": "yes", "highway": "bus_stop", "name": "Capolat", "public_transport": "platform", "route_ref": "L0158"}}, {"type": "node", "id": 12520385079, "lat": 41.8805267, "lon": 2.0278688, "tags": {"bus": "yes", "highway": "bus_stop", "name": "Ctra. BP-4313 - Sta. Eulalia", "public_transport": "platform", "ref": "3473", "route_ref": "715"}}, {"type": "node", "id": 12520385081, "lat": 41.8775723, "lon": 2.0243901, "tags": {"bus": "yes", "highway": "bus_stop", "name": "Ctra. BP-4313 - La Ruvirola", "public_transport": "platform", "ref": "3475", "route_ref": "715"}}, {"type": "node", "id": 12520385083, "lat": 41.8665844, "lon": 1.9719745, "tags": {"bus": "yes", "highway": "bus_stop", "name": "Ctra. de Prats - Benzinera", "public_transport": "platform", "ref": "3216", "route_ref": "715"}}, {"type": "node", "id": 12520385084, "lat": 41.8648703, "lon": 1.9717488, "tags": {"bus": "yes", "highway": "bus_stop", "name": "Ctra. de Prats - Forn de Cabrianes", "public_transport": "platform", "ref": "3417", "route_ref": "715"}}, {"type": "node", "id": 12521311266, "lat": 41.8774405, "lon": 2.0249213, "tags": {"bus": "yes", "highway": "bus_stop", "name": "Ctra. BP-4313 - La Ruvirola", "public_transport": "platform", "ref": "3429", "route_ref": "715"}}, {"type": "node", "id": 12521311269, "lat": 41.8756284, "lon": 2.0347997, "tags": {"bus": "yes", "highway": "bus_stop", "name": "Av. Manuel L\u00f3pez - Pg. Carme Vidal", "public_transport": "platform", "ref": "3465", "route_ref": "715"}}, {"type": "way", "id": 255568673, "nodes": [2612493722, 2612493723, 2612493724, 2612493725, 2612493722], "tags": {"building": "yes", "name": "FGC S\u00faria (Mercaderies)", "name:ca": "FGC S\u00faria (Mercaderies)", "operator": "FGC", "public_transport": "station", "railway": "station"}}]}