{"version": 0.6, "generator": "Overpass API 0.7.62.5 1bd436f1", "osm3s": {"timestamp_osm_base": "2025-04-09T14:49:30Z", "copyright": "The data included in this document is from www.openstreetmap.org. The data is made available under ODbL."}, "elements": [{"type": "node", "id": 659098148, "lat": 36.1879699, "lon": 5.4275478, "tags": {"bus": "yes", "highway": "bus_stop", "name": "7,105", "public_transport": "platform", "ref": "7"}}, {"type": "node", "id": 660203698, "lat": 36.1874028, "lon": 5.4149671, "tags": {"addr:city": "\u0633\u0637\u064a\u0641", "name": "S\u00e9tif", "name:ar": "\u0633\u0637\u064a\u0641", "name:de": "S\u00e9tif", "name:en": "S\u00e9tif", "name:es": "S\u00e9tif", "name:fr": "S\u00e9tif", "operator": "\u0627\u0644\u0634\u0631\u0643\u0629 \u0627\u0644\u0648\u0637\u0646\u064a\u0629 \u0644\u0644\u0646\u0642\u0644 \u0628\u0627\u0644\u0633\u0643\u0643 \u0627\u0644\u062d\u062f\u064a\u062f\u064a\u0629", "public_transport": "station", "railway": "station", "train": "yes"}}, {"type": "node", "id": 1958839590, "lat": 36.2020076, "lon": 5.4228173, "tags": {"bus": "yes", "highway": "bus_stop", "local_ref": "04 - 104", "public_transport": "platform"}}, {"type": "node", "id": 1958839635, "lat": 36.2021548, "lon": 5.4221682, "tags": {"bus": "yes", "highway": "bus_stop", "local_ref": "04 -104", "operator": "4 et 104", "public_transport": "platform"}}, {"type": "node", "id": 2440720054, "lat": 36.1944629, "lon": 5.3585779, "tags": {"bus": "yes", "highway": "bus_stop", "local_ref": "Campus El Bez", "public_transport": "platform"}}, {"type": "node", "id": 2998678846, "lat": 36.1501537, "lon": 5.6840741, "tags": {"bus": "yes", "highway": "bus_stop", "name": "Bazer el Mellah", "public_transport": "platform"}}, {"type": "node", "id": 2998718352, "lat": 36.1515317, "lon": 5.6810878, "tags": {"bus": "yes", "highway": "bus_stop", "public_transport": "platform"}}, {"type": "node", "id": 3231071245, "lat": 36.1865583, "lon": 5.3184882, "tags": {"bus": "yes", "highway": "bus_stop", "public_transport": "platform"}}, {"type": "node", "id": 3299467334, "lat": 36.1849381, "lon": 5.3128719, "tags": {"bus": "yes", "highway": "bus_stop", "name": "Terminus Ain Arnat", "public_transport": "platform", "shelter": "yes"}}, {"type": "node", "id": 3299467335, "lat": 36.1868619, "lon": 5.3183216, "tags": {"bus": "yes", "highway": "bus_stop", "name": "Arr\u00eat de Lyc\u00e9e", "public_transport": "platform", "shelter": "yes"}}, {"type": "node", "id": 3299467336, "lat": 36.1876749, "lon": 5.3206853, "tags": {"bus": "yes", "highway": "bus_stop", "name": "209", "public_transport": "platform", "ref": "209"}}, {"type": "node", "id": 3299467337, "lat": 36.1874396, "lon": 5.3207692, "tags": {"bus": "yes", "highway": "bus_stop", "name": "209", "public_transport": "platform", "ref": "209"}}, {"type": "node", "id": 3451636816, "lat": 36.1698011, "lon": 5.2326271, "tags": {"bus": "yes", "highway": "bus_stop", "public_transport": "platform"}}, {"type": "node", "id": 3561151429, "lat": 36.1956304, "lon": 5.441163, "tags": {"bus": "yes", "highway": "bus_stop", "name": "Arr\u00eat de bus : les 400", "name:ar": "\u0645\u0642\u0647\u0649 \u0628\u0627\u062f\u064a", "name:fr": "Caf\u00e9 badii", "public_transport": "platform"}}, {"type": "node", "id": 3561151430, "lat": 36.1933804, "lon": 5.4435343, "tags": {"bus": "yes", "highway": "bus_stop", "name": "Arr\u00eat de bus: 200", "public_transport": "platform"}}, {"type": "node", "id": 3561159022, "lat": 36.1932049, "lon": 5.4437551, "tags": {"bus": "yes", "highway": "bus_stop", "name": "200 logements", "name:ar": "200 \u0645\u0633\u0643\u0646", "public_transport": "platform"}}, {"type": "node", "id": 3917350304, "lat": 36.110939, "lon": 5.3434883, "tags": {"name": "Mezloug", "name:ar": "\u0645\u0632\u0644\u0648\u06a8", "name:en": "Mezloug", "name:fr": "Mezloug", "operator": "SNTF", "public_transport": "station", "railway": "station", "wikidata": "Q117715845", "wikipedia": "fr:Gare de Mezloug"}}, {"type": "node", "id": 4102445395, "lat": 36.190938, "lon": 5.429551, "tags": {"bus": "yes", "highway": "bus_stop", "name": "6,105", "public_transport": "platform", "ref": "6"}}, {"type": "node", "id": 4102445790, "lat": 36.1893768, "lon": 5.4241493, "tags": {"bus": "yes", "highway": "bus_stop", "name": "6, 9, 8", "public_transport": "platform"}}, {"type": "node", "id": 4102445991, "lat": 36.1871925, "lon": 5.4319638, "tags": {"bus": "yes", "highway": "bus_stop", "name": "8", "public_transport": "platform", "ref": "8"}}, {"type": "node", "id": 4102479190, "lat": 36.1905487, "lon": 5.4295072, "tags": {"bus": "yes", "highway": "bus_stop", "name": "7", "public_transport": "platform"}}, {"type": "node", "id": 4102524589, "lat": 36.1937756, "lon": 5.4308593, "tags": {"bus": "yes", "highway": "bus_stop", "name": "6", "public_transport": "platform", "ref": "6"}}, {"type": "node", "id": 4102524689, "lat": 36.1951488, "lon": 5.4359029, "tags": {"bus": "yes", "highway": "bus_stop", "name": "6", "name:ar": "6", "name:fr": "6", "public_transport": "platform", "ref": "6"}}, {"type": "node", "id": 4124637133, "lat": 36.1872954, "lon": 5.4215546, "tags": {"bus": "yes", "highway": "bus_stop", "name": "7", "public_transport": "platform", "ref": "7"}}, {"type": "node", "id": 4124637134, "lat": 36.1853178, "lon": 5.4201456, "tags": {"bus": "yes", "highway": "bus_stop", "name": "7", "public_transport": "platform", "ref": "7"}}, {"type": "node", "id": 4124637135, "lat": 36.1820546, "lon": 5.417348, "tags": {"bus": "yes", "highway": "bus_stop", "name": "7", "public_transport": "platform", "ref": "7"}}, {"type": "node", "id": 4124637136, "lat": 36.1819293, "lon": 5.417522, "tags": {"bus": "yes", "highway": "bus_stop", "name": "7", "public_transport": "platform", "ref": "7"}}, {"type": "node", "id": 4124637137, "lat": 36.1852242, "lon": 5.4204156, "tags": {"bus": "yes", "highway": "bus_stop", "name": "7,105", "public_transport": "platform", "ref": "7"}}, {"type": "node", "id": 4124637138, "lat": 36.1806805, "lon": 5.4149806, "tags": {"bus": "yes", "highway": "bus_stop", "name": "7", "public_transport": "platform", "ref": "7"}}, {"type": "node", "id": 4124637139, "lat": 36.1791483, "lon": 5.4121473, "tags": {"bus": "yes", "highway": "bus_stop", "name": "7", "public_transport": "platform", "ref": "7"}}, {"type": "node", "id": 4124637140, "lat": 36.1892782, "lon": 5.4232027, "tags": {"bus": "yes", "highway": "bus_stop", "name": "6, 8, 9", "name:ar": "6, 8", "public_transport": "platform"}}, {"type": "node", "id": 4361625014, "lat": 36.195598, "lon": 5.4399645, "tags": {"bus": "yes", "highway": "bus_stop", "name": "Ch\u00e2teau d'eau", "public_transport": "platform", "ref": "S22", "tram": "yes"}}, {"type": "node", "id": 4361625015, "lat": 36.1933522, "lon": 5.4477147, "tags": {"bus": "yes", "highway": "bus_stop", "name": "Cit\u00e9 300 logements", "name:ar": "\u062d\u064a 300 \u0645\u0633\u0643\u0646", "public_transport": "platform", "ref": "S24", "tram": "yes"}}, {"type": "node", "id": 4361625019, "lat": 36.1950677, "lon": 5.4366573, "tags": {"bus": "yes", "highway": "bus_stop", "name": "Ouled Brahem", "name:ar": "\u0627\u0648\u0644\u0627\u062f \u0628\u0631\u0627\u0647\u0645", "name:fr": "Ouled Brahem", "public_transport": "platform", "ref": "S21", "tram": "yes"}}, {"type": "node", "id": 4362619139, "lat": 36.226519, "lon": 5.3954898, "tags": {"bus": "yes", "highway": "bus_stop", "name": "station de bus", "public_transport": "platform"}}, {"type": "node", "id": 4441543489, "lat": 36.2178368, "lon": 5.4478118, "tags": {"bus": "yes", "highway": "bus_stop", "name": "\u062d\u0627\u0641\u0644\u0627\u062a \u0627\u0644\u0646\u0642\u0644 \u0627\u0644\u062c\u0627\u0645\u0639\u064a", "name:ar": "\u062d\u0627\u0641\u0644\u0627\u062a \u0627\u0644\u0646\u0642\u0644 \u0627\u0644\u062c\u0627\u0645\u0639\u064a", "name:ar1": "\u0646\u0642\u0644 \u062c\u0627\u0645\u0639\u064a \u0627\u0644\u0647\u0636\u0627\u0628", "name:fr": "transport universitaire", "public_transport": "platform"}}, {"type": "node", "id": 4523146000, "lat": 36.1895029, "lon": 5.4192977, "tags": {"bus": "yes", "highway": "bus_stop", "name": "chiminou", "name:fr": "chiminou", "public_transport": "platform"}}, {"type": "node", "id": 4984996121, "lat": 36.1912479, "lon": 5.4484779, "tags": {"bus": "yes", "highway": "bus_stop", "name:fr": "Arr\u00eat de", "public_transport": "platform"}}, {"type": "node", "id": 5006063825, "lat": 36.1880003, "lon": 5.4110655, "tags": {"bus": "yes", "highway": "bus_stop", "name:fr": "Bus 54", "public_transport": "platform"}}, {"type": "node", "id": 5042022926, "lat": 36.2825694, "lon": 5.4119905, "tags": {"bus": "yes", "highway": "bus_stop", "name:fr": "Arr\u00eat de bus El Ouricia Kaaboub S\u00e9tif", "public_transport": "platform"}}, {"type": "node", "id": 5042022927, "lat": 36.2847359, "lon": 5.4125996, "tags": {"bus": "yes", "highway": "bus_stop", "name:fr": "Bus passage verre s\u00e9tif", "public_transport": "platform"}}, {"type": "node", "id": 5261592425, "lat": 36.1702937, "lon": 5.2372739, "tags": {"bus": "yes", "highway": "bus_stop", "name": "Arret de bus", "public_transport": "platform"}}, {"type": "node", "id": 5297336825, "lat": 36.1865602, "lon": 5.4095038, "tags": {"bus": "yes", "highway": "bus_stop", "name": "\u062d\u0627\u0641\u0644\u0629 4", "name:ar": "\u062d\u0627\u0641\u0644\u0629 4", "name:fr": "Bus 04", "public_transport": "platform"}}, {"type": "node", "id": 5297336826, "lat": 36.1867416, "lon": 5.4094576, "tags": {"bus": "yes", "highway": "bus_stop", "name": "\u0645\u0648\u0642\u0641 \u062d\u0627\u0641\u0644\u0627\u062a", "name:ar": "\u0645\u0648\u0642\u0641 \u062d\u0627\u0641\u0644\u0627\u062a", "name:fr": "Arr\u00eate de Bus", "public_transport": "platform"}}, {"type": "node", "id": 5297337122, "lat": 36.188065, "lon": 5.4110339, "tags": {"bus": "yes", "highway": "bus_stop", "name": "Bus 16", "public_transport": "platform"}}, {"type": "node", "id": 5297343921, "lat": 36.1865939, "lon": 5.4095786, "tags": {"bus": "yes", "highway": "bus_stop", "name": "\u062d\u0627\u0641\u0644\u0629 8", "name:ar": "\u062d\u0627\u0641\u0644\u0629 8", "name:fr": "Bus 08", "public_transport": "platform"}}, {"type": "node", "id": 5297343922, "lat": 36.1865621, "lon": 5.409535, "tags": {"bus": "yes", "highway": "bus_stop", "name": "\u062d\u0627\u0641\u0644\u0629 6", "name:ar": "\u062d\u0627\u0641\u0644\u0629 6", "name:fr": "Bus 06", "public_transport": "platform"}}, {"type": "node", "id": 5543424522, "lat": 36.1869151, "lon": 5.4215012, "tags": {"bus": "yes", "highway": "bus_stop", "name": "7,105", "name:fr": "Arr\u00eat de bus", "public_transport": "platform"}}, {"type": "node", "id": 5543424523, "lat": 36.1885571, "lon": 5.4262799, "tags": {"bus": "yes", "highway": "bus_stop", "name": "7,105", "name:fr": "Arr\u00eat de bus", "public_transport": "platform"}}, {"type": "node", "id": 5543424621, "lat": 36.1787497, "lon": 5.4103777, "tags": {"bus": "yes", "highway": "bus_stop", "public_transport": "platform"}}, {"type": "node", "id": 5543463824, "lat": 36.1839564, "lon": 5.407328, "tags": {"bus": "yes", "highway": "bus_stop", "name": "7,21,105", "public_transport": "platform"}}, {"type": "node", "id": 5543463825, "lat": 36.1831892, "lon": 5.4048814, "tags": {"bus": "yes", "highway": "bus_stop", "name:fr": "Arr\u00eat de bus", "public_transport": "platform"}}, {"type": "node", "id": 5543463826, "lat": 36.1796864, "lon": 5.4020392, "tags": {"bus": "yes", "highway": "bus_stop", "name:fr": "Arr\u00eat de bus", "public_transport": "platform"}}, {"type": "node", "id": 5543476121, "lat": 36.1845201, "lon": 5.4070162, "tags": {"bus": "yes", "highway": "bus_stop", "name:fr": "101,104,54,59", "public_transport": "platform"}}, {"type": "node", "id": 5567411884, "lat": 36.1942134, "lon": 5.3578828, "tags": {"bus": "yes", "highway": "bus_stop", "local_ref": "Campus El Bez", "public_transport": "stop_area"}}, {"type": "node", "id": 6130748686, "lat": 36.1899526, "lon": 5.4292234, "tags": {"bus": "yes", "highway": "bus_stop", "name": "BET expertise;6, 7, 105", "name:fr": "6,7,105", "office": "estate_agent", "public_transport": "platform"}}, {"type": "node", "id": 10035219305, "lat": 36.1854048, "lon": 5.3921081, "tags": {"bus": "yes", "highway": "bus_stop", "name": "GR ETUS", "public_transport": "platform"}}, {"type": "node", "id": 10035219306, "lat": 36.1815946, "lon": 5.3985237, "tags": {"bus": "yes", "highway": "bus_stop", "name": "Samu ETUS", "public_transport": "platform"}}, {"type": "node", "id": 10035219308, "lat": 36.1803106, "lon": 5.4022258, "tags": {"bus": "yes", "highway": "bus_stop", "name": "Mahdi ETUS", "public_transport": "platform"}}, {"type": "node", "id": 10035219312, "lat": 36.1866954, "lon": 5.4097876, "tags": {"bus": "yes", "highway": "bus_stop", "name": "Guessab ETUS", "public_transport": "platform"}}, {"type": "node", "id": 10035232521, "lat": 36.1854689, "lon": 5.3917199, "tags": {"bus": "yes", "highway": "bus_stop", "name": "GR ETUS", "public_transport": "platform"}}, {"type": "node", "id": 10035232522, "lat": 36.1815999, "lon": 5.3985223, "tags": {"bus": "yes", "highway": "bus_stop", "name": "Samu ETUS", "public_transport": "platform"}}, {"type": "node", "id": 10035232531, "lat": 36.1936853, "lon": 5.4105587, "tags": {"bus": "yes", "highway": "bus_stop", "name": "Parc", "public_transport": "platform"}}, {"type": "node", "id": 10035232545, "lat": 36.2017345, "lon": 5.4177766, "tags": {"bus": "yes", "highway": "bus_stop", "name": "500 Logs 1", "public_transport": "platform"}}, {"type": "node", "id": 10035232546, "lat": 36.2021539, "lon": 5.4216222, "tags": {"bus": "yes", "highway": "bus_stop", "name": "500 Logs 2", "public_transport": "platform"}}, {"type": "node", "id": 10035232547, "lat": 36.202037, "lon": 5.4238095, "tags": {"bus": "yes", "highway": "bus_stop", "name": "Chadli 1", "public_transport": "platform"}}, {"type": "node", "id": 10035232556, "lat": 36.2059417, "lon": 5.4356723, "tags": {"bus": "yes", "highway": "bus_stop", "name": "Hidhab 2 bus platform", "public_transport": "platform"}}, {"type": "node", "id": 10035232557, "lat": 36.2066799, "lon": 5.4369046, "tags": {"bus": "yes", "highway": "bus_stop", "name": "Hidhab 3 bus platform", "public_transport": "platform"}}, {"type": "node", "id": 10035232559, "lat": 36.2082704, "lon": 5.4383079, "tags": {"bus": "yes", "highway": "bus_stop", "name": "Hidhab 4 bus platform", "public_transport": "platform"}}, {"type": "node", "id": 10035232567, "lat": 36.1854053, "lon": 5.3916904, "tags": {"bus": "yes", "highway": "bus_stop", "name": "GR ETUS", "public_transport": "platform"}}, {"type": "node", "id": 10035232568, "lat": 36.1815856, "lon": 5.3987281, "tags": {"bus": "yes", "highway": "bus_stop", "name": "Samu ETUS", "public_transport": "platform"}}, {"type": "node", "id": 10035232570, "lat": 36.1830796, "lon": 5.4045972, "tags": {"bus": "yes", "highway": "bus_stop", "name": "Malizia ETUS", "public_transport": "platform"}}, {"type": "node", "id": 10035232571, "lat": 36.1868437, "lon": 5.4096173, "tags": {"bus": "yes", "highway": "bus_stop", "name": "Guessab ETUS", "public_transport": "platform"}}, {"type": "node", "id": 10035232572, "lat": 36.1936723, "lon": 5.4102543, "tags": {"bus": "yes", "highway": "bus_stop", "name": "Parc", "public_transport": "platform"}}, {"type": "node", "id": 10035232573, "lat": 36.1955533, "lon": 5.4106298, "tags": {"bus": "yes", "highway": "bus_stop", "name": "CPA", "public_transport": "platform"}}, {"type": "node", "id": 10035232574, "lat": 36.1994916, "lon": 5.4112454, "tags": {"bus": "yes", "highway": "bus_stop", "name": "600 Logs", "public_transport": "platform"}}, {"type": "node", "id": 10035232582, "lat": 36.2058188, "lon": 5.4357191, "tags": {"bus": "yes", "highway": "bus_stop", "name": "Hidhab 2 bus platform", "public_transport": "platform"}}, {"type": "node", "id": 10035232583, "lat": 36.2065896, "lon": 5.4371086, "tags": {"bus": "yes", "highway": "bus_stop", "name": "Hidhab 3 bus platform", "public_transport": "platform"}}, {"type": "node", "id": 10035232587, "lat": 36.2137324, "lon": 5.4449312, "tags": {"bus": "yes", "highway": "bus_stop", "name": "University of Setif Bus Platform", "public_transport": "platform"}}, {"type": "node", "id": 10035252918, "lat": 36.1955566, "lon": 5.4108813, "tags": {"bus": "yes", "highway": "bus_stop", "name": "CPA", "public_transport": "platform"}}, {"type": "node", "id": 10035252920, "lat": 36.1995319, "lon": 5.4110888, "tags": {"bus": "yes", "highway": "bus_stop", "name": "600 Logs", "public_transport": "platform"}}, {"type": "node", "id": 10035252923, "lat": 36.2006826, "lon": 5.4121332, "tags": {"bus": "yes", "highway": "bus_stop", "name": "Laararsa 1", "public_transport": "platform"}}, {"type": "node", "id": 10035252926, "lat": 36.2013373, "lon": 5.4154269, "tags": {"bus": "yes", "highway": "bus_stop", "name": "Laararsa 2", "public_transport": "platform"}}, {"type": "node", "id": 10035252934, "lat": 36.2028638, "lon": 5.4275948, "tags": {"bus": "yes", "highway": "bus_stop", "name": "Chadli 2 bus platform", "public_transport": "platform"}}, {"type": "node", "id": 10035252937, "lat": 36.2045952, "lon": 5.4310622, "tags": {"bus": "yes", "highway": "bus_stop", "name": "Hidhab 1 bus platform", "public_transport": "platform"}}, {"type": "node", "id": 10035252951, "lat": 36.185313, "lon": 5.392059, "tags": {"bus": "yes", "highway": "bus_stop", "name": "GR ETUS", "public_transport": "platform"}}, {"type": "node", "id": 10035252952, "lat": 36.1815831, "lon": 5.3987128, "tags": {"bus": "yes", "highway": "bus_stop", "name": "Samu ETUS", "public_transport": "platform"}}, {"type": "node", "id": 10035252953, "lat": 36.1802007, "lon": 5.4023438, "tags": {"bus": "yes", "highway": "bus_stop", "name": "Mahdi ETUS", "public_transport": "platform"}}, {"type": "node", "id": 10035252959, "lat": 36.2011463, "lon": 5.4154122, "tags": {"bus": "yes", "highway": "bus_stop", "name": "Laararsa 2", "public_transport": "platform"}}, {"type": "node", "id": 10035252960, "lat": 36.2004948, "lon": 5.4121292, "tags": {"bus": "yes", "highway": "bus_stop", "name": "Laararsa 1", "public_transport": "platform"}}, {"type": "node", "id": 10035252961, "lat": 36.201563, "lon": 5.4178369, "tags": {"bus": "yes", "highway": "bus_stop", "name": "500 Logs 1", "public_transport": "platform"}}, {"type": "node", "id": 10035252962, "lat": 36.2020164, "lon": 5.4215732, "tags": {"bus": "yes", "highway": "bus_stop", "name": "500 Logs 2", "public_transport": "platform"}}, {"type": "node", "id": 10035252963, "lat": 36.2021939, "lon": 5.4238129, "tags": {"bus": "yes", "highway": "bus_stop", "name": "Chadli 1", "public_transport": "platform"}}, {"type": "node", "id": 10035252964, "lat": 36.2030174, "lon": 5.4275116, "tags": {"bus": "yes", "highway": "bus_stop", "name": "Chadli 2 bus platform", "public_transport": "platform"}}, {"type": "node", "id": 10035252965, "lat": 36.2047727, "lon": 5.4309864, "tags": {"bus": "yes", "highway": "bus_stop", "name": "Hidhab 1 bus platform", "public_transport": "platform"}}, {"type": "node", "id": 10035252968, "lat": 36.2083437, "lon": 5.4381211, "tags": {"bus": "yes", "highway": "bus_stop", "name": "Hidhab 4 bus platform", "public_transport": "platform"}}, {"type": "node", "id": 10035252969, "lat": 36.2101162, "lon": 5.4402836, "tags": {"bus": "yes", "highway": "bus_stop", "name": "Hidhab 5 bus platform", "public_transport": "platform"}}, {"type": "node", "id": 10035252970, "lat": 36.2126888, "lon": 5.4434701, "tags": {"bus": "yes", "highway": "bus_stop", "name": "Hidhab 6 Bus Platform", "public_transport": "platform"}}, {"type": "node", "id": 10035252971, "lat": 36.2137324, "lon": 5.4449312, "tags": {"bus": "yes", "highway": "bus_stop", "name": "University of Setif bus platform", "public_transport": "platform"}}, {"type": "node", "id": 10036316614, "lat": 36.2135019, "lon": 5.4452156, "tags": {"bus": "yes", "highway": "bus_stop", "name": "University of Setif Bus Platform", "public_transport": "platform"}}, {"type": "node", "id": 10036316615, "lat": 36.1827245, "lon": 5.4051957, "tags": {"bus": "yes", "highway": "bus_stop", "name": "Malizia ETUS", "public_transport": "platform"}}, {"type": "node", "id": 10036333652, "lat": 36.2099914, "lon": 5.4405004, "tags": {"bus": "yes", "highway": "bus_stop", "name": "Hidhab 5 bus platform", "public_transport": "platform"}}, {"type": "node", "id": 10036333653, "lat": 36.2125484, "lon": 5.443691, "tags": {"bus": "yes", "highway": "bus_stop", "name": "Hidhab 6 Bus Platform", "public_transport": "platform"}}, {"type": "node", "id": 10043547684, "lat": 36.2069843, "lon": 5.4234775, "tags": {"bus": "yes", "highway": "bus_stop", "name": "Stade 500 logts", "public_transport": "platform"}}, {"type": "node", "id": 10043547686, "lat": 36.2072398, "lon": 5.4235634, "tags": {"bus": "yes", "highway": "bus_stop", "name": "Stade 500 logts", "public_transport": "platform"}}, {"type": "node", "id": 10043547687, "lat": 36.2065194, "lon": 5.4258145, "tags": {"bus": "yes", "highway": "bus_stop", "name": "Ecole Primaire", "public_transport": "platform"}}, {"type": "node", "id": 10043547688, "lat": 36.2067559, "lon": 5.4259035, "tags": {"bus": "yes", "highway": "bus_stop", "name": "Ecole Primaire", "public_transport": "platform"}}, {"type": "node", "id": 10043547691, "lat": 36.2053916, "lon": 5.4285074, "tags": {"bus": "yes", "highway": "bus_stop", "name": "407 Logts", "public_transport": "platform"}}, {"type": "node", "id": 10043547692, "lat": 36.2055528, "lon": 5.4287398, "tags": {"bus": "yes", "highway": "bus_stop", "name": "407 Logts", "public_transport": "platform"}}, {"type": "node", "id": 10043547693, "lat": 36.2031656, "lon": 5.4307447, "tags": {"bus": "yes", "highway": "bus_stop", "name": "Htatba", "public_transport": "platform"}}, {"type": "node", "id": 10043547699, "lat": 36.1986409, "lon": 5.4339462, "tags": {"bus": "yes", "highway": "bus_stop", "name": "1006 Logts 2", "public_transport": "platform"}}, {"type": "node", "id": 10043547700, "lat": 36.1987025, "lon": 5.4341221, "tags": {"bus": "yes", "highway": "bus_stop", "name": "1006 Logts 2", "public_transport": "platform"}}, {"type": "node", "id": 10043547703, "lat": 36.1967129, "lon": 5.4351144, "tags": {"bus": "yes", "highway": "bus_stop", "name": "1006 Logts 1", "public_transport": "platform"}}, {"type": "node", "id": 10043547704, "lat": 36.1968171, "lon": 5.4353959, "tags": {"bus": "yes", "highway": "bus_stop", "name": "1006 Logts 1", "public_transport": "platform"}}, {"type": "node", "id": 10043547707, "lat": 36.194514, "lon": 5.4366872, "tags": {"bus": "yes", "highway": "bus_stop", "name": "1014 Logts", "public_transport": "platform"}}, {"type": "node", "id": 10043547708, "lat": 36.194575, "lon": 5.4368507, "tags": {"bus": "yes", "highway": "bus_stop", "name": "1014 Logts", "public_transport": "platform"}}, {"type": "node", "id": 10043547711, "lat": 36.1923166, "lon": 5.4381641, "tags": {"bus": "yes", "highway": "bus_stop", "name": "Assurance", "public_transport": "platform"}}, {"type": "node", "id": 10043547712, "lat": 36.192395, "lon": 5.4383633, "tags": {"bus": "yes", "highway": "bus_stop", "name": "Assurance", "public_transport": "platform"}}, {"type": "node", "id": 10043547716, "lat": 36.1903423, "lon": 5.4394929, "tags": {"bus": "yes", "highway": "bus_stop", "name": "5 eme Arrondissment", "public_transport": "platform"}}, {"type": "node", "id": 10043613817, "lat": 36.1904325, "lon": 5.4397173, "tags": {"bus": "yes", "highway": "bus_stop", "name": "5 eme Arrondissment", "public_transport": "platform"}}, {"type": "node", "id": 10043613820, "lat": 36.187614, "lon": 5.4413317, "tags": {"bus": "yes", "highway": "bus_stop", "name": "Aldjazzar", "public_transport": "platform"}}, {"type": "node", "id": 10043613822, "lat": 36.187712, "lon": 5.4415402, "tags": {"bus": "yes", "highway": "bus_stop", "name": "Aldjazzar", "public_transport": "platform"}}, {"type": "node", "id": 10043613824, "lat": 36.1846117, "lon": 5.443338, "tags": {"bus": "yes", "highway": "bus_stop", "name": "Les tours", "public_transport": "platform"}}, {"type": "node", "id": 10043613825, "lat": 36.1846865, "lon": 5.4436012, "tags": {"bus": "yes", "highway": "bus_stop", "name": "Les tours", "public_transport": "platform"}}, {"type": "node", "id": 10044422191, "lat": 36.1856239, "lon": 5.394728, "tags": {"bus": "yes", "highway": "bus_stop", "name": "CFA", "public_transport": "platform"}}, {"type": "node", "id": 10044422192, "lat": 36.1858529, "lon": 5.394725, "tags": {"bus": "yes", "highway": "bus_stop", "name": "CFA", "public_transport": "platform"}}, {"type": "node", "id": 10044422195, "lat": 36.1849916, "lon": 5.3986945, "tags": {"bus": "yes", "highway": "bus_stop", "name": "Stop", "public_transport": "platform"}}, {"type": "node", "id": 10044422197, "lat": 36.1849901, "lon": 5.39882, "tags": {"bus": "yes", "highway": "bus_stop", "name": "Stop", "public_transport": "platform"}}, {"type": "node", "id": 10044422198, "lat": 36.1786629, "lon": 5.4031762, "tags": {"bus": "yes", "highway": "bus_stop", "name": "Mosque", "public_transport": "platform"}}, {"type": "node", "id": 10044422199, "lat": 36.178794, "lon": 5.4032056, "tags": {"bus": "yes", "highway": "bus_stop", "name": "Mosque", "public_transport": "platform"}}, {"type": "node", "id": 10044422201, "lat": 36.1784986, "lon": 5.4067312, "tags": {"bus": "yes", "highway": "bus_stop", "name": "1000 Logts", "public_transport": "platform"}}, {"type": "node", "id": 10044422202, "lat": 36.17834, "lon": 5.40673, "tags": {"bus": "yes", "highway": "bus_stop", "name": "1000 Logts", "public_transport": "platform"}}, {"type": "node", "id": 10044422203, "lat": 36.1811848, "lon": 5.4089094, "tags": {"bus": "yes", "highway": "bus_stop", "name": "Assurance", "public_transport": "platform"}}, {"type": "node", "id": 10044422204, "lat": 36.1812028, "lon": 5.4090577, "tags": {"bus": "yes", "highway": "bus_stop", "name": "Assurance", "public_transport": "platform"}}, {"type": "node", "id": 10044422206, "lat": 36.1792462, "lon": 5.4093519, "tags": {"bus": "yes", "highway": "bus_stop", "name": "Bizard", "public_transport": "platform"}}, {"type": "node", "id": 10044422207, "lat": 36.1792604, "lon": 5.4094684, "tags": {"bus": "yes", "highway": "bus_stop", "name": "Bizard", "public_transport": "platform"}}, {"type": "node", "id": 10044422209, "lat": 36.1843998, "lon": 5.4072626, "tags": {"bus": "yes", "highway": "bus_stop", "name": "Souk", "public_transport": "platform"}}, {"type": "node", "id": 10044422210, "lat": 36.1845066, "lon": 5.4073423, "tags": {"bus": "yes", "highway": "bus_stop", "name": "Souk", "public_transport": "platform"}}, {"type": "node", "id": 10044422212, "lat": 36.1886322, "lon": 5.4036603, "tags": {"bus": "yes", "highway": "bus_stop", "name": "Rempart", "public_transport": "platform"}}, {"type": "node", "id": 10044422213, "lat": 36.1886198, "lon": 5.4034332, "tags": {"bus": "yes", "highway": "bus_stop", "name": "Rempart", "public_transport": "platform"}}, {"type": "node", "id": 10044422216, "lat": 36.1917399, "lon": 5.4035207, "tags": {"bus": "yes", "highway": "bus_stop", "name": "CHU", "public_transport": "platform"}}, {"type": "node", "id": 10044455617, "lat": 36.1917403, "lon": 5.4032715, "tags": {"bus": "yes", "highway": "bus_stop", "name": "CHU", "public_transport": "platform"}}, {"type": "node", "id": 10044455618, "lat": 36.1937703, "lon": 5.4016942, "tags": {"bus": "yes", "highway": "bus_stop", "name": "Marche 750 Logts", "public_transport": "platform"}}, {"type": "node", "id": 10044455619, "lat": 36.1937699, "lon": 5.4015389, "tags": {"bus": "yes", "highway": "bus_stop", "name": "Marche 750 Logts", "public_transport": "platform"}}, {"type": "node", "id": 10044455622, "lat": 36.1957173, "lon": 5.400563, "tags": {"bus": "yes", "highway": "bus_stop", "name": "750 Logts 1", "public_transport": "platform"}}, {"type": "node", "id": 10044455623, "lat": 36.1956814, "lon": 5.4004465, "tags": {"bus": "yes", "highway": "bus_stop", "name": "750 Logts 1", "public_transport": "platform", "shelter": "no"}}, {"type": "node", "id": 10044455624, "lat": 36.196808, "lon": 5.4015567, "tags": {"bus": "yes", "highway": "bus_stop", "name": "750 Logts 2", "public_transport": "platform"}}, {"type": "node", "id": 10044455625, "lat": 36.196869, "lon": 5.4014768, "tags": {"bus": "yes", "highway": "bus_stop", "name": "750 Logts 2", "public_transport": "platform"}}, {"type": "node", "id": 10044455627, "lat": 36.1982367, "lon": 5.401917, "tags": {"bus": "yes", "highway": "bus_stop", "name": "750 Logts 3", "public_transport": "platform"}}, {"type": "node", "id": 10044455628, "lat": 36.198235, "lon": 5.4017865, "tags": {"bus": "yes", "highway": "bus_stop", "name": "750 Logts 3", "public_transport": "platform"}}, {"type": "node", "id": 10044455630, "lat": 36.1990673, "lon": 5.4036809, "tags": {"bus": "yes", "highway": "bus_stop", "name": "ADE", "public_transport": "platform"}}, {"type": "node", "id": 10044455631, "lat": 36.198961, "lon": 5.4036864, "tags": {"bus": "yes", "highway": "bus_stop", "name": "ADE", "public_transport": "platform"}}, {"type": "node", "id": 10044455633, "lat": 36.2006957, "lon": 5.4045173, "tags": {"bus": "yes", "highway": "bus_stop", "name": "Maternite", "public_transport": "platform"}}, {"type": "node", "id": 10044455634, "lat": 36.2007467, "lon": 5.4047361, "tags": {"bus": "yes", "highway": "bus_stop", "name": "Maternite", "public_transport": "platform"}}, {"type": "node", "id": 10044455637, "lat": 36.2043072, "lon": 5.4028237, "tags": {"bus": "yes", "highway": "bus_stop", "name": "Kaaboub", "public_transport": "platform"}}, {"type": "node", "id": 10044455638, "lat": 36.2042493, "lon": 5.4026326, "tags": {"bus": "yes", "highway": "bus_stop", "name": "Kaaboub", "public_transport": "platform"}}, {"type": "node", "id": 10044455641, "lat": 36.2061519, "lon": 5.4167404, "tags": {"bus": "yes", "highway": "bus_stop", "name": "arret 2", "public_transport": "platform"}}, {"type": "node", "id": 10044455642, "lat": 36.2063682, "lon": 5.4166918, "tags": {"bus": "yes", "highway": "bus_stop", "name": "arret 2", "public_transport": "platform"}}, {"type": "node", "id": 10044455643, "lat": 36.2060467, "lon": 5.4127778, "tags": {"bus": "yes", "highway": "bus_stop", "name": "Gaoua 2", "public_transport": "platform"}}, {"type": "node", "id": 10044455644, "lat": 36.2062592, "lon": 5.4127472, "tags": {"bus": "yes", "highway": "bus_stop", "name": "Gaoua 2", "public_transport": "platform"}}, {"type": "node", "id": 10044455647, "lat": 36.2065565, "lon": 5.4069868, "tags": {"bus": "yes", "highway": "bus_stop", "name": "Gaoua 1", "public_transport": "platform"}}, {"type": "node", "id": 10044455648, "lat": 36.2066802, "lon": 5.4069866, "tags": {"bus": "yes", "highway": "bus_stop", "name": "Gaoua 1", "public_transport": "platform"}}, {"type": "node", "id": 10044455649, "lat": 36.2065066, "lon": 5.4030206, "tags": {"bus": "yes", "highway": "bus_stop", "name": "Boussekine", "public_transport": "platform"}}, {"type": "node", "id": 10044455650, "lat": 36.2066016, "lon": 5.4030185, "tags": {"bus": "yes", "highway": "bus_stop", "name": "Boussekine", "public_transport": "platform"}}, {"type": "node", "id": 10044455653, "lat": 36.2069424, "lon": 5.4201756, "tags": {"bus": "yes", "highway": "bus_stop", "name": "arret 1", "public_transport": "platform"}}, {"type": "node", "id": 10044455654, "lat": 36.2071979, "lon": 5.4201566, "tags": {"bus": "yes", "highway": "bus_stop", "name": "arret 1", "public_transport": "platform"}}, {"type": "node", "id": 10048295469, "lat": 36.1854503, "lon": 5.4180218, "tags": {"bus": "yes", "highway": "bus_stop", "name": "arret 5", "public_transport": "platform"}}, {"type": "node", "id": 10048295470, "lat": 36.1852444, "lon": 5.4179935, "tags": {"bus": "yes", "highway": "bus_stop", "name": "arret 5", "public_transport": "platform"}}, {"type": "node", "id": 10048295472, "lat": 36.1852558, "lon": 5.4202051, "tags": {"bus": "yes", "highway": "bus_stop", "name": "Cadastre", "public_transport": "platform"}}, {"type": "node", "id": 10048295473, "lat": 36.1851807, "lon": 5.4203462, "tags": {"bus": "yes", "highway": "bus_stop", "name": "Cadastre", "public_transport": "platform"}}, {"type": "node", "id": 10048295476, "lat": 36.1869443, "lon": 5.4212331, "tags": {"bus": "yes", "highway": "bus_stop", "name": "CNEP", "public_transport": "platform"}}, {"type": "node", "id": 10048295477, "lat": 36.186831, "lon": 5.4214359, "tags": {"bus": "yes", "highway": "bus_stop", "name": "CNEP", "public_transport": "platform"}}, {"type": "node", "id": 10048295478, "lat": 36.1884034, "lon": 5.4257555, "tags": {"bus": "yes", "highway": "bus_stop", "name": "Jardin", "public_transport": "platform"}}, {"type": "node", "id": 10048295479, "lat": 36.1885407, "lon": 5.4256014, "tags": {"bus": "yes", "highway": "bus_stop", "name": "Jardin", "public_transport": "platform"}}, {"type": "node", "id": 10048295480, "lat": 36.1858747, "lon": 5.4367924, "tags": {"bus": "yes", "highway": "bus_stop", "name": "50 Logts", "public_transport": "platform"}}, {"type": "node", "id": 10048295481, "lat": 36.1855596, "lon": 5.4368264, "tags": {"bus": "yes", "highway": "bus_stop", "name": "50 Logts", "public_transport": "platform"}}, {"type": "node", "id": 10048295483, "lat": 36.1845562, "lon": 5.4419825, "tags": {"bus": "yes", "highway": "bus_stop", "name": "Les tours", "public_transport": "platform"}}, {"type": "node", "id": 10048295484, "lat": 36.1847477, "lon": 5.4420673, "tags": {"bus": "yes", "highway": "bus_stop", "name": "Les tours", "public_transport": "platform"}}, {"type": "node", "id": 10048295486, "lat": 36.180628, "lon": 5.4519473, "tags": {"bus": "yes", "highway": "bus_stop", "name": "La Cite", "public_transport": "platform"}}, {"type": "node", "id": 10048295487, "lat": 36.1809783, "lon": 5.4519944, "tags": {"bus": "yes", "highway": "bus_stop", "name": "La Cite", "public_transport": "platform"}}, {"type": "node", "id": 10048295489, "lat": 36.1771957, "lon": 5.4957183, "tags": {"bus": "yes", "highway": "bus_stop", "name": "AADL 2", "public_transport": "platform"}}, {"type": "node", "id": 10048295490, "lat": 36.1775394, "lon": 5.4956761, "tags": {"bus": "yes", "highway": "bus_stop", "name": "AADL 2", "public_transport": "platform"}}, {"type": "node", "id": 10048295491, "lat": 36.1778227, "lon": 5.4847435, "tags": {"bus": "yes", "highway": "bus_stop", "name": "AADL 1", "public_transport": "platform"}}, {"type": "node", "id": 10048295492, "lat": 36.1781772, "lon": 5.4848072, "tags": {"bus": "yes", "highway": "bus_stop", "name": "AADL 1", "public_transport": "platform"}}, {"type": "node", "id": 10048295495, "lat": 36.1787471, "lon": 5.4736206, "tags": {"bus": "yes", "highway": "bus_stop", "name": "Sonalgaz", "public_transport": "platform"}}, {"type": "node", "id": 10048295496, "lat": 36.1791489, "lon": 5.4736679, "tags": {"bus": "yes", "highway": "bus_stop", "name": "Sonalgaz", "public_transport": "platform"}}, {"type": "node", "id": 10048295498, "lat": 36.1798378, "lon": 5.4596889, "tags": {"bus": "yes", "highway": "bus_stop", "name": "El Hassi", "public_transport": "platform"}}, {"type": "node", "id": 10048295499, "lat": 36.1801427, "lon": 5.459731, "tags": {"bus": "yes", "highway": "bus_stop", "name": "El Hassi", "public_transport": "platform"}}, {"type": "node", "id": 10744912549, "lat": 36.2056928, "lon": 5.4090763, "tags": {"bus": "yes", "highway": "bus_stop", "name": "Gaoua 2", "network": "ETUST Setif", "operator": "\u0645\u0624\u0633\u0633\u0629 \u0627\u0644\u0646\u0642\u0644 \u0627\u0644\u062d\u0636\u0631\u064a \u0648\u0634\u0628\u0647 \u0627\u0644\u062d\u0636\u0631\u064a \u0644\u0645\u062f\u064a\u0646\u0629 \u0633\u0637\u064a\u0641", "public_transport": "stop_position", "route_ref": "ETUS bus"}}, {"type": "node", "id": 11517059773, "lat": 36.1813467, "lon": 5.4164896, "tags": {"highway": "bus_stop", "name": "7"}}, {"type": "node", "id": 11579625070, "lat": 36.3447919, "lon": 5.4243392, "tags": {"highway": "bus_stop"}}]}