{"version": 0.6, "generator": "Overpass API 0.7.62.5 1bd436f1", "osm3s": {"timestamp_osm_base": "2025-04-09T14:49:30Z", "copyright": "The data included in this document is from www.openstreetmap.org. The data is made available under ODbL."}, "elements": [{"type": "node", "id": 1885252540, "lat": 36.7510211, "lon": 5.0814369, "tags": {"addr:city": "B\u00e9ja\u00efa", "addr:city:ar": "\u0628\u062c\u0627\u064a\u0629", "addr:city:ber": "\u2d32\u2d33\u2d30\u2d62\u2d3b\u2d5d", "addr:city:fr": "B\u00e9ja\u00efa", "addr:city:kab": "Bgayet", "addr:postcode": "06000", "alt_name:es": "Buj\u00eda", "name": "B\u00e9ja\u00efa", "name:ar": "\u0628\u062c\u0627\u064a\u0629", "name:de": "Bejaia", "name:en": "Bejaia", "name:es": "Bug\u00eda", "name:fr": "B\u00e9ja\u00efa", "name:kab": "Bgayet", "operator": "\u0627\u0644\u0634\u0631\u0643\u0629 \u0627\u0644\u0648\u0637\u0646\u064a\u0629 \u0644\u0644\u0646\u0642\u0644 \u0628\u0627\u0644\u0633\u0643\u0643 \u0627\u0644\u062d\u062f\u064a\u062f\u064a\u0629", "operator:ar": "\u0627\u0644\u0634\u0631\u0643\u0629 \u0627\u0644\u0648\u0637\u0646\u064a\u0629 \u0644\u0644\u0646\u0642\u0644 \u0628\u0627\u0644\u0633\u0643\u0643 \u0627\u0644\u062d\u062f\u064a\u062f\u064a\u0629", "operator:wikidata": "Q1275038", "operator:wikipedia": "ar:\u0627\u0644\u0634\u0631\u0643\u0629 \u0627\u0644\u0648\u0637\u0646\u064a\u0629 \u0644\u0644\u0646\u0642\u0644 \u0628\u0627\u0644\u0633\u0643\u0643 \u0627\u0644\u062d\u062f\u064a\u062f\u064a\u0629", "public_transport": "station", "railway": "station", "train": "yes", "wikidata": "Q3096101", "wikipedia": "fr:Gare de B\u00e9ja\u00efa"}}, {"type": "node", "id": 2678873510, "lat": 36.7594702, "lon": 5.0665009, "tags": {"bus": "yes", "highway": "bus_stop", "name": "virage Sidi Ahmed", "public_transport": "platform"}}, {"type": "node", "id": 3009936469, "lat": 36.7568113, "lon": 5.059402, "tags": {"bus": "yes", "highway": "bus_stop", "name": "Arret J3", "public_transport": "platform", "shelter": "yes"}}, {"type": "node", "id": 3009939671, "lat": 36.7521799, "lon": 5.0631113, "tags": {"addr:city": "\u0628\u062c\u0627\u064a\u0629", "addr:city:ar": "\u0628\u062c\u0627\u064a\u0629", "bus": "yes", "highway": "bus_stop", "public_transport": "platform", "shelter": "yes"}}, {"type": "node", "id": 3009946376, "lat": 36.7513727, "lon": 5.0628022, "tags": {"addr:city": "B\u00e9ja\u00efa", "addr:city:ar": "\u0628\u062c\u0627\u064a\u0629", "addr:city:ber": "\u2d32\u2d33\u2d30\u2d62\u2d3b\u2d5d", "addr:city:fr": "B\u00e9ja\u00efa", "addr:city:kab": "Bgayet", "addr:postcode": "06000", "addr:street": "\u0646\u0647\u062c \u062c\u0628\u0647\u0629 \u0627\u0644\u062a\u062d\u0631\u064a\u0631 \u0627\u0644\u0648\u0637\u0646\u064a\u0629", "addr:street:ar": "\u0646\u0647\u062c \u062c\u0628\u0647\u0629 \u0627\u0644\u062a\u062d\u0631\u064a\u0631 \u0627\u0644\u0648\u0637\u0646\u064a\u0629", "bus": "yes", "highway": "bus_stop", "name": "Daouadji", "name:ar": "\u062f\u0648\u0627\u062c\u064a", "name:en": "Daouadji", "name:fr": "Daouadji", "public_transport": "platform", "shelter": "yes"}}, {"type": "node", "id": 3256912336, "lat": 36.7520348, "lon": 5.0557507, "tags": {"alt_name": "\u0622\u0639\u0645\u0631\u064a\u0648", "alt_name:ar": "\u0622\u0639\u0645\u0631\u064a\u0648", "bus": "yes", "highway": "bus_stop", "name": "Aamriw", "name:ar": "\u0623\u0639\u0645\u0631\u064a\u0648", "name:en": "Amriw", "name:fr": "Aamriw", "public_transport": "platform"}}, {"type": "node", "id": 3256930998, "lat": 36.7514013, "lon": 5.0566813, "tags": {"bus": "yes", "highway": "bus_stop", "name": "Aamriw (Dallas)", "name:ar": "\u0622\u0639\u0645\u0631\u064a\u0648 \u062f\u0627\u0644\u0627\u0635", "public_transport": "platform"}}, {"type": "node", "id": 3256934636, "lat": 36.7513571, "lon": 5.058986, "tags": {"bus": "yes", "highway": "bus_stop", "name": "El Hammadia", "name:ar": "\u0627\u0644\u062d\u0645\u0627\u062f\u064a\u0629", "name:en": "El Hammadia", "name:fr": "El Hammadia", "public_transport": "platform"}}, {"type": "node", "id": 3256937928, "lat": 36.7514315, "lon": 5.066408, "tags": {"addr:city": "B\u00e9ja\u00efa", "addr:city:ar": "\u0628\u062c\u0627\u064a\u0629", "addr:city:ber": "\u2d32\u2d33\u2d30\u2d62\u2d3b\u2d5d", "addr:city:fr": "B\u00e9ja\u00efa", "addr:city:kab": "Bgayet", "bus": "yes", "highway": "bus_stop", "name": "Wilaya", "name:ar": "\u0627\u0644\u0648\u0644\u0627\u064a\u0629", "name:en": "Wilaya", "name:fr": "Wilaya", "public_transport": "platform"}}, {"type": "node", "id": 3256943610, "lat": 36.7513293, "lon": 5.0664358, "tags": {"addr:city": "B\u00e9ja\u00efa", "addr:city:ar": "\u0628\u062c\u0627\u064a\u0629", "addr:city:ber": "\u2d32\u2d33\u2d30\u2d62\u2d3b\u2d5d", "addr:city:fr": "B\u00e9ja\u00efa", "addr:city:kab": "Bgayet", "bus": "yes", "highway": "bus_stop", "name": "Wilaya", "name:ar": "\u0627\u0644\u0648\u0644\u0627\u064a\u0629", "name:en": "Wilaya", "name:fr": "Wilaya", "public_transport": "platform"}}, {"type": "node", "id": 3256946399, "lat": 36.7515154, "lon": 5.0750994, "tags": {"bus": "yes", "highway": "bus_stop", "name": "Ex SNTV", "public_transport": "platform"}}, {"type": "node", "id": 3256948415, "lat": 36.7525317, "lon": 5.0783433, "tags": {"bus": "yes", "highway": "bus_stop", "name": "Les Babors", "name:ar": "\u0628\u0627\u0628\u0648\u0631\u0633", "name:en": "Les Babors", "name:fr": "Les Babors", "public_transport": "platform"}}, {"type": "node", "id": 3256953731, "lat": 36.7503342, "lon": 5.0781971, "tags": {"bus": "yes", "highway": "bus_stop", "public_transport": "platform"}}, {"type": "node", "id": 3256954500, "lat": 36.7533315, "lon": 5.0871714, "tags": {"bus": "yes", "highway": "bus_stop", "name": "Porte Sarasine", "name:ar": "\u0628\u0627\u0628 \u0627\u0644\u0628\u062d\u0631", "name:fr": "Porte Sarasine", "public_transport": "platform"}}, {"type": "node", "id": 3256967470, "lat": 36.7535287, "lon": 5.0748408, "tags": {"bus": "yes", "highway": "bus_stop", "name": "Si\u00e8ge de la commune", "public_transport": "platform"}}, {"type": "node", "id": 3256967585, "lat": 36.753909, "lon": 5.0769222, "tags": {"bus": "yes", "highway": "bus_stop", "name": "Gendarmerie", "name:ar": "\u0627\u0644\u062f\u0631\u0643", "name:en": "Gendarmerie", "name:fr": "Gendarmerie", "public_transport": "platform"}}, {"type": "node", "id": 3771095019, "lat": 36.7529611, "lon": 5.0825802, "tags": {"bus": "yes", "highway": "bus_stop", "public_transport": "platform"}}, {"type": "node", "id": 3814972519, "lat": 36.7591921, "lon": 5.0872749, "tags": {"alt_name:ar": "\u0645\u0648\u0646\u062c\u0627\u0646", "bus": "yes", "highway": "bus_stop", "long_name": "\u062d\u064a \u0645\u0648\u0646\u062c\u0627\u0646", "name": "Mangin", "name:ar": "\u062d\u064a \u0645\u0648\u0646\u062c\u0627\u0646", "name:fr": "Mangin", "public_transport": "platform"}}, {"type": "node", "id": 3975609004, "lat": 36.7642445, "lon": 5.0614575, "tags": {"alt_name": "\u0633\u064a\u0630\u064a \u0627\u062d\u0645\u0630", "alt_name:ar": "\u0633\u064a\u0630\u064a \u0627\u062d\u0645\u0630", "bus": "yes", "highway": "bus_stop", "name": "Sidi Ahmed - Termins", "name:ar": "\u0633\u064a\u062f\u064a \u0623\u062d\u0645\u062f - \u0646\u0647\u0627\u064a\u0629", "name:en": "Sidi Ahmed - Termins", "name:fr": "Sidi Ahmed - Terminus", "public_transport": "platform"}}, {"type": "node", "id": 4242848642, "lat": 36.7501201, "lon": 5.0637464, "tags": {"addr:city": "B\u00e9ja\u00efa", "addr:city:ar": "\u0628\u062c\u0627\u064a\u0629", "addr:city:ber": "\u2d32\u2d33\u2d30\u2d62\u2d3b\u2d5d", "addr:city:fr": "B\u00e9ja\u00efa", "addr:city:kab": "Bgayet", "addr:postcode": "06000", "addr:street": "\u0637\u0631\u064a\u0642 \u0627\u0644\u0623\u0648\u0631\u0627\u0633", "addr:street:ar": "\u0637\u0631\u064a\u0642 \u0627\u0644\u0623\u0648\u0631\u0627\u0633", "bench": "yes", "bus": "yes", "covered": "yes", "highway": "bus_stop", "name": "Naceria", "name:ar": "\u0627\u0644\u0646\u0627\u0635\u0631\u064a\u0629", "name:en": "Naceria", "name:fr": "Naceria", "public_transport": "platform", "shelter": "yes"}}, {"type": "node", "id": 4242850354, "lat": 36.7501965, "lon": 5.0636773, "tags": {"addr:city": "B\u00e9ja\u00efa", "addr:city:ar": "\u0628\u062c\u0627\u064a\u0629", "addr:city:ber": "\u2d32\u2d33\u2d30\u2d62\u2d3b\u2d5d", "addr:city:fr": "B\u00e9ja\u00efa", "addr:city:kab": "Bgayet", "addr:postcode": "06000", "addr:street": "\u0637\u0631\u064a\u0642 \u0627\u0644\u0623\u0648\u0631\u0627\u0633", "addr:street:ar": "\u0637\u0631\u064a\u0642 \u0627\u0644\u0623\u0648\u0631\u0627\u0633", "bench": "yes", "bus": "yes", "covered": "yes", "highway": "bus_stop", "name": "Naceria", "name:ar": "\u0627\u0644\u0646\u0627\u0635\u0631\u064a\u0629", "name:en": "Naceria", "name:fr": "Naceria", "public_transport": "platform", "shelter": "yes"}}, {"type": "node", "id": 4242854861, "lat": 36.7512291, "lon": 5.0628642, "tags": {"addr:city": "B\u00e9ja\u00efa", "addr:city:ar": "\u0628\u062c\u0627\u064a\u0629", "addr:city:ber": "\u2d32\u2d33\u2d30\u2d62\u2d3b\u2d5d", "addr:city:fr": "B\u00e9ja\u00efa", "addr:city:kab": "Bgayet", "addr:postcode": "06000", "addr:street": "\u0646\u0647\u062c \u062c\u0628\u0647\u0629 \u0627\u0644\u062a\u062d\u0631\u064a\u0631 \u0627\u0644\u0648\u0637\u0646\u064a\u0629", "addr:street:ar": "\u0646\u0647\u062c \u062c\u0628\u0647\u0629 \u0627\u0644\u062a\u062d\u0631\u064a\u0631 \u0627\u0644\u0648\u0637\u0646\u064a\u0629", "bench": "yes", "bus": "yes", "covered": "yes", "highway": "bus_stop", "name": "Daouadji", "name:ar": "\u062f\u0648\u0627\u062c\u064a", "name:en": "Daouadji", "name:fr": "Daouadji", "public_transport": "platform", "shelter": "yes"}}, {"type": "node", "id": 4278339690, "lat": 36.7590773, "lon": 5.0652349, "tags": {"bus": "yes", "highway": "bus_stop", "name": "les D", "public_transport": "platform"}}, {"type": "node", "id": 4483115627, "lat": 36.7614931, "lon": 5.0618769, "tags": {"bus": "yes", "highway": "bus_stop", "name": "La Cnep", "name:en": "La Cnep", "name:fr": "La Cnep", "public_transport": "platform"}}, {"type": "node", "id": 5098609801, "lat": 36.7507556, "lon": 5.0731596, "tags": {"bus": "yes", "highway": "bus_stop", "name": "Tobal", "name:ar": "\u0637\u0648\u0628\u0627\u0644", "name:en": "Tobal", "name:fr": "Tobal", "name:kab": "Tubal", "public_transport": "platform"}}, {"type": "node", "id": 5132965012, "lat": 36.759626, "lon": 5.0869974, "tags": {"bus": "yes", "highway": "bus_stop", "name": "Mangin", "name:ar": "\u062d\u064a \u0645\u0648\u0646\u062c\u0627\u0646", "name:fr": "Mangin", "public_transport": "platform"}}, {"type": "node", "id": 7554419433, "lat": 36.7538475, "lon": 5.0767669, "tags": {"bus": "yes", "highway": "bus_stop", "name": "Square Pasteur", "name:ar": "\u0645\u062d\u0637\u0629 \u062d\u0627\u0641\u0644\u0627\u062a \u0633\u0627\u062d\u0629 \u0628\u0627\u0633\u062a\u0648\u0631", "name:en": "Square Pasteur", "name:fr": "Square Pasteur", "public_transport": "platform"}}]}