{"version": 0.6, "generator": "Overpass API 0.7.62.5 1bd436f1", "osm3s": {"timestamp_osm_base": "2025-04-09T14:48:30Z", "copyright": "The data included in this document is from www.openstreetmap.org. The data is made available under ODbL."}, "elements": [{"type": "node", "id": 460542603, "lat": 46.6343118, "lon": 1.4180695, "tags": {"bus": "yes", "highway": "bus_stop", "name": "Saint-Gaultier", "public_transport": "stop_position"}}, {"type": "node", "id": 1283535749, "lat": 46.4363373, "lon": 1.8267746, "tags": {"bus": "yes", "departures_board": "no", "highway": "bus_stop", "local_ref": "Bus scolaires", "public_transport": "platform", "shelter": "no"}}, {"type": "node", "id": 1283535926, "lat": 46.4341801, "lon": 1.829139, "tags": {"bench": "yes", "bus": "yes", "highway": "bus_stop", "name": "Aigurande - Monument aux Morts", "public_transport": "platform", "shelter": "yes"}}, {"type": "node", "id": 1844988854, "lat": 46.6300005, "lon": 1.2479979, "tags": {"bench": "yes", "highway": "bus_stop", "name": "Ciron", "shelter": "yes", "tactile_paving": "no"}}, {"type": "node", "id": 4393628212, "lat": 46.517238, "lon": 1.5032946}, {"type": "node", "id": 4393628213, "lat": 46.5172838, "lon": 1.5032298}, {"type": "node", "id": 4393628215, "lat": 46.5173299, "lon": 1.503432}, {"type": "node", "id": 4393628217, "lat": 46.5173757, "lon": 1.5033671}, {"type": "node", "id": 4472268489, "lat": 46.599795, "lon": 1.5225782, "tags": {"highway": "bus_stop", "name": "Saint-Marcel-Prieur\u00e9", "operator": "SNCF", "source": "SNCF - 06/2016", "uic_ref": "8764386"}}, {"type": "node", "id": 5602614485, "lat": 46.4313196, "lon": 1.8912266, "tags": {"bus": "yes", "highway": "bus_stop", "public_transport": "platform", "source": "BDOrtho IGN;local knowledge"}}, {"type": "node", "id": 6638751447, "lat": 46.7091732, "lon": 1.7049985, "tags": {"bench": "yes", "bin": "no", "bus": "yes", "highway": "bus_stop", "lit": "no", "name": "Cotini\u00e8re", "network": "Horizon", "network:wikidata": "Q3456686", "operator": "Keolis Ch\u00e2teauroux", "public_transport": "platform", "shelter": "yes", "tactile_paving": "no"}}, {"type": "node", "id": 6638751448, "lat": 46.7087345, "lon": 1.7035233, "tags": {"bench": "no", "bin": "no", "bus": "yes", "highway": "bus_stop", "lit": "yes", "name": "Cotini\u00e8re", "network": "Horizon", "network:wikidata": "Q3456686", "operator": "Keolis Ch\u00e2teauroux", "public_transport": "platform", "shelter": "no", "tactile_paving": "no"}}, {"type": "node", "id": 7159062338, "lat": 46.7027246, "lon": 1.6968023, "tags": {"bench": "yes", "bin": "no", "bus": "yes", "check_date:shelter": "2024-08-03", "highway": "bus_stop", "lit": "no", "name": "Pont au Chat", "network": "Horizon", "network:wikidata": "Q3456686", "operator": "Keolis Ch\u00e2teauroux", "public_transport": "platform", "shelter": "yes", "tactile_paving": "no"}}, {"type": "node", "id": 7203902995, "lat": 46.317651, "lon": 1.4135119, "tags": {"bus": "yes", "highway": "bus_stop", "public_transport": "platform"}}, {"type": "node", "id": 8147772969, "lat": 46.7018775, "lon": 1.587979, "tags": {"bench": "yes", "bin": "no", "bus": "yes", "departures_board": "timetable", "highway": "bus_stop", "lit": "no", "name": "Lothiers", "network": "Horizon", "network:wikidata": "Q3456686", "network:wikipedia": "fr:Transports en commun de Ch\u00e2teauroux", "operator": "Keolis Ch\u00e2teauroux", "public_transport": "platform", "shelter": "yes", "tactile_paving": "yes"}}, {"type": "node", "id": 8732340599, "lat": 46.598242, "lon": 1.8053891, "tags": {"bench": "yes", "bin": "yes", "bus": "yes", "highway": "bus_stop", "lit": "yes", "name": "Champ de Foire", "public_transport": "platform", "shelter": "yes", "tactile_paving": "yes"}}, {"type": "node", "id": 8839894835, "lat": 46.3900256, "lon": 1.5326008, "tags": {"bench": "yes", "bus": "yes", "highway": "bus_stop", "name": "Saint-S\u00e9bastien - \u00c9cole AB", "public_transport": "platform", "shelter": "yes"}}, {"type": "node", "id": 8839902469, "lat": 46.3508575, "lon": 1.5389241, "tags": {"bus": "yes", "highway": "bus_stop", "name": "Bazelat - Bourg", "public_transport": "platform"}}, {"type": "node", "id": 8839924917, "lat": 46.3238215, "lon": 1.5299843, "tags": {"bench": "yes", "bus": "yes", "highway": "bus_stop", "name": "Saint-Germain-Beaupr\u00e9 - Fongevieille AB", "public_transport": "platform", "shelter": "yes"}}, {"type": "node", "id": 8839925302, "lat": 46.3070447, "lon": 1.5460762, "tags": {"bench": "yes", "bin": "yes", "bus": "yes", "highway": "bus_stop", "lit": "no", "name": "Saint-Germain-Beaupr\u00e9 - Bourg AB", "public_transport": "platform", "shelter": "yes", "tactile_paving": "no"}}, {"type": "node", "id": 8839930525, "lat": 46.2893656, "lon": 1.6095722, "tags": {"bus": "yes", "highway": "bus_stop", "name": "Colondannes - Bourg", "public_transport": "platform"}}, {"type": "node", "id": 8839930527, "lat": 46.2892405, "lon": 1.6097116, "tags": {"bench": "yes", "bus": "yes", "highway": "bus_stop", "name": "Colondannes - Bourg AB", "public_transport": "platform", "shelter": "yes"}}, {"type": "node", "id": 8839962132, "lat": 46.3060006, "lon": 1.6722648, "tags": {"bench": "yes", "bus": "yes", "highway": "bus_stop", "name": "Dun-le-Palestel - Col\u00e8ge Benjamin Bord", "public_transport": "platform", "shelter": "yes"}}, {"type": "node", "id": 8839966625, "lat": 46.2997138, "lon": 1.7287715, "tags": {"bench": "yes", "bus": "yes", "highway": "bus_stop", "name": "Saint-Sulpice-le-Dunnois - Bourg", "public_transport": "platform", "shelter": "yes"}}, {"type": "node", "id": 8883844120, "lat": 46.2450103, "lon": 1.4939596, "tags": {"bus": "yes", "highway": "bus_stop", "name": "La Souterraine - FJT", "public_transport": "platform"}}, {"type": "node", "id": 8889658609, "lat": 46.4094407, "lon": 1.8210999, "tags": {"bench": "yes", "bus": "yes", "highway": "bus_stop", "name": "Lourdoueix-Saint-Pierre - Bourg", "public_transport": "platform", "shelter": "yes"}}, {"type": "node", "id": 8889671567, "lat": 46.3845834, "lon": 1.8705592, "tags": {"bus": "yes", "highway": "bus_stop", "name": "Ch\u00e9niers - La Mersolle", "public_transport": "platform"}}, {"type": "node", "id": 8889678901, "lat": 46.3358869, "lon": 1.8249857, "tags": {"bench": "yes", "bus": "yes", "highway": "bus_stop", "name": "Ch\u00e9niers - Rochetaillade", "public_transport": "platform", "shelter": "yes"}}, {"type": "node", "id": 8889680961, "lat": 46.3690014, "lon": 1.8411219, "tags": {"bus": "yes", "highway": "bus_stop", "name": "Ch\u00e9niers - La Pimparli\u00e8re", "public_transport": "platform"}}, {"type": "node", "id": 8889689531, "lat": 46.3519163, "lon": 1.8272227, "tags": {"bench": "yes", "bus": "yes", "highway": "bus_stop", "name": "Ch\u00e9niers - Le Bourg", "public_transport": "platform", "shelter": "yes"}}, {"type": "node", "id": 8891898647, "lat": 46.356089, "lon": 1.7749786, "tags": {"bus": "yes", "highway": "bus_stop", "name": "Chambon-Sainte-Croix - Bourg Garage", "public_transport": "platform"}}, {"type": "node", "id": 8892030278, "lat": 46.2855807, "lon": 1.5865984, "tags": {"bus": "yes", "highway": "bus_stop", "name": "Saint-L\u00e9ger-Bridereix - Bourg", "public_transport": "platform"}}, {"type": "node", "id": 8892030280, "lat": 46.2855826, "lon": 1.5864053, "tags": {"bench": "yes", "bus": "yes", "highway": "bus_stop", "name": "Saint-L\u00e9ger-Bridereix - Bourg", "public_transport": "platform", "shelter": "yes"}}, {"type": "node", "id": 8892032988, "lat": 46.2563234, "lon": 1.5368508, "tags": {"bus": "yes", "highway": "bus_stop", "name": "Saint-Agnant-de-Versillat - Croisement Route Chateneuil", "public_transport": "platform"}}, {"type": "node", "id": 8892036342, "lat": 46.2723409, "lon": 1.5695912, "tags": {"bus": "yes", "highway": "bus_stop", "name": "Saint-L\u00e9ger-Bridereix - Le Marouzeau", "public_transport": "platform"}}, {"type": "node", "id": 8892045726, "lat": 46.2654889, "lon": 1.556683, "tags": {"bus": "yes", "highway": "bus_stop", "name": "Saint-L\u00e9ger-Bridereix - Croisement Route Forest", "public_transport": "platform"}}, {"type": "node", "id": 8998811045, "lat": 46.5923091, "lon": 1.5185314, "tags": {"name": "Argenton-sur-Creuse", "operator": "SNCF", "public_transport": "station", "railway": "station", "train": "yes", "uic_ref": "8759712", "wikidata": "Q2727028", "wikipedia": "fr:Gare d'Argenton-sur-Creuse"}}, {"type": "node", "id": 8998811046, "lat": 46.3859078, "lon": 1.5465982, "tags": {"name": "Saint-S\u00e9bastien", "operator": "SNCF", "public_transport": "station", "railway": "station", "train": "yes", "uic_ref": "8759249"}}, {"type": "node", "id": 9230074616, "lat": 46.6223262, "lon": 1.6276578, "tags": {"bench": "yes", "bin": "yes", "highway": "bus_stop", "shelter": "yes"}}, {"type": "node", "id": 10017775797, "lat": 46.5919741, "lon": 1.5175625, "tags": {"bench": "yes", "bin": "no", "bus": "yes", "covered": "yes", "highway": "bus_stop", "passenger_information_display": "yes", "public_transport": "platform", "shelter": "yes"}}, {"type": "node", "id": 10077484490, "lat": 46.5898974, "lon": 1.5300308, "tags": {"bus": "yes", "highway": "bus_stop", "public_transport": "platform"}}, {"type": "node", "id": 10080039764, "lat": 46.59276, "lon": 1.8132899, "tags": {"bench": "no", "bin": "no", "bus": "yes", "highway": "bus_stop", "lit": "no", "name": "Transport scolaire", "public_transport": "platform", "shelter": "yes", "tactile_paving": "no"}}, {"type": "node", "id": 10858565409, "lat": 46.4405736, "lon": 1.5522931}, {"type": "node", "id": 10858565410, "lat": 46.4405753, "lon": 1.5523919}, {"type": "node", "id": 10858565411, "lat": 46.4403998, "lon": 1.552398}, {"type": "node", "id": 10858565412, "lat": 46.4403982, "lon": 1.5522992}, {"type": "node", "id": 11250941379, "lat": 46.5922587, "lon": 1.5182653, "tags": {"bench": "no", "bin": "no", "bus": "yes", "covered": "no", "highway": "bus_stop", "passenger_information_display": "yes", "public_transport": "platform", "route_ref": "Ligne 433", "shelter": "no", "tactile_paving": "no", "wheelchair": "yes"}}, {"type": "node", "id": 11367562011, "lat": 46.6264951, "lon": 1.5076427, "tags": {"name": "Chabenet", "operator": "SNCF", "public_transport": "station", "railway": "station", "train": "yes", "uic_ref": "8759711"}}, {"type": "node", "id": 11367565870, "lat": 46.6947812, "lon": 1.5630082, "tags": {"name": "Lothiers", "public_transport": "station", "railway": "station", "uic_ref": "8759710"}}, {"type": "node", "id": 12092385016, "lat": 46.7023364, "lon": 1.6966554, "tags": {"bench": "yes", "bin": "no", "bus": "yes", "highway": "bus_stop", "lit": "no", "name": "Pont au Chat", "network": "Horizon", "network:wikidata": "Q3456686", "operator": "Keolis Ch\u00e2teauroux", "public_transport": "platform", "shelter": "yes", "tactile_paving": "no"}}, {"type": "node", "id": 12092385018, "lat": 46.6816435, "lon": 1.6978544, "tags": {"bench": "no", "bin": "no", "bus": "yes", "highway": "bus_stop", "lit": "no", "name": "Trembl\u00e8re", "network": "Horizon", "network:wikidata": "Q3456686", "operator": "Keolis Ch\u00e2teauroux", "public_transport": "platform", "shelter": "no", "tactile_paving": "no"}}, {"type": "node", "id": 12092385019, "lat": 46.6935874, "lon": 1.6982601, "tags": {"bench": "yes", "bin": "yes", "bus": "yes", "highway": "bus_stop", "lit": "no", "name": "Arthon", "network": "Horizon", "network:wikidata": "Q3456686", "operator": "Keolis Ch\u00e2teauroux", "public_transport": "platform", "shelter": "yes", "tactile_paving": "yes"}}, {"type": "node", "id": 12092385020, "lat": 46.6936141, "lon": 1.6984418, "tags": {"bench": "yes", "bin": "no", "bus": "yes", "highway": "bus_stop", "lit": "no", "name": "Arthon", "network": "Horizon", "network:wikidata": "Q3456686", "operator": "Keolis Ch\u00e2teauroux", "public_transport": "platform", "shelter": "no", "tactile_paving": "yes"}}, {"type": "node", "id": 12092385021, "lat": 46.6938054, "lon": 1.6930579, "tags": {"bench": "no", "bin": "no", "bus": "yes", "highway": "bus_stop", "lit": "no", "name": "Longerolle", "network": "Horizon", "network:wikidata": "Q3456686", "operator": "Keolis Ch\u00e2teauroux", "public_transport": "platform", "shelter": "no", "tactile_paving": "no"}}, {"type": "node", "id": 12092385026, "lat": 46.693931, "lon": 1.6929781, "tags": {"bench": "yes", "bin": "yes", "bus": "yes", "highway": "bus_stop", "lit": "no", "name": "Longerolle", "network": "Horizon", "network:wikidata": "Q3456686", "operator": "Keolis Ch\u00e2teauroux", "public_transport": "platform", "shelter": "yes", "tactile_paving": "no"}}, {"type": "node", "id": 12092385031, "lat": 46.673267, "lon": 1.7952545, "tags": {"bench": "yes", "bin": "no", "bus": "yes", "highway": "bus_stop", "lit": "yes", "name": "Jeu-les-Bois", "network": "Horizon", "network:wikidata": "Q3456686", "operator": "Keolis Ch\u00e2teauroux", "public_transport": "platform", "shelter": "yes", "tactile_paving": "no"}}, {"type": "node", "id": 12736439567, "lat": 46.5888758, "lon": 1.5179787, "tags": {"bus": "yes", "highway": "bus_stop", "public_transport": "platform", "shelter": "yes"}}, {"type": "node", "id": 12736813565, "lat": 46.5942123, "lon": 1.5131372, "tags": {"bus": "yes", "highway": "bus_stop", "public_transport": "platform", "shelter": "yes"}}, {"type": "way", "id": 441628637, "nodes": [4393628217, 4393628213, 4393628212, 4393628215, 4393628217], "tags": {"building": "yes", "name": "Celon", "railway": "station", "source": "cadastre-dgi-fr source : Direction G\u00e9n\u00e9rale des Imp\u00f4ts - Cadastre. Mise \u00e0 jour : 2016", "uic_ref": "8759714", "wikidata": "Q3096155", "wikipedia": "fr:Gare de Celon"}}, {"type": "way", "id": 1167593559, "nodes": [10858565409, 10858565410, 10858565411, 10858565412, 10858565409], "tags": {"building": "yes", "name": "\u00c9guzon", "network": "TER Centre \u2212 Val de Loire", "network:wikidata": "Q912775", "operator": "SNCF", "operator:wikidata": "Q13646", "public_transport": "station", "railway": "station", "train": "yes", "uic_ref": "8759715"}}]}