{"version": 0.6, "generator": "Overpass API 0.7.62.5 1bd436f1", "osm3s": {"timestamp_osm_base": "2025-04-09T14:48:30Z", "copyright": "The data included in this document is from www.openstreetmap.org. The data is made available under ODbL."}, "elements": [{"type": "node", "id": 330340450, "lat": 43.9495527, "lon": 2.8957511, "tags": {"bus": "yes", "highway": "bus_stop", "name": "Coll\u00e8ge Jean Jaur\u00e8s", "public_transport": "stop_position", "wheelchair_boarding": "unknown"}}, {"type": "node", "id": 348356697, "lat": 44.013981, "lon": 2.9673744, "tags": {"name": "Saint-Rome-de-Cernon", "operator": "SNCF", "railway": "station", "source": "cadastre-dgi-fr source : Direction G\u00e9n\u00e9rale des Imp\u00f4ts - Cadastre ; mise \u00e0 jour : 2009", "train": "yes", "uic_ref": "8778343", "wikidata": "Q3097612", "wikipedia": "fr:Gare de Saint-Rome-de-Cernon"}}, {"type": "node", "id": 365173720, "lat": 43.9511532, "lon": 2.9735812, "tags": {"highway": "bus_stop", "name": "Saint-Jean d'Alcapi\u00e8s"}}, {"type": "node", "id": 484766986, "lat": 43.88483, "lon": 2.6036558, "tags": {"bench": "no", "bin": "yes", "bus": "yes", "highway": "bus_stop", "lit": "yes", "name": "St-Sernin - Centre", "network": "liO12", "operator": "R\u00e9gion Occitanie", "public_transport": "platform", "shelter": "no", "tactile_paving": "no"}}, {"type": "node", "id": 685135504, "lat": 43.9439819, "lon": 3.0015515, "tags": {"highway": "bus_stop", "name": "Massergues", "shelter": "yes"}}, {"type": "node", "id": 924004641, "lat": 44.0665574, "lon": 2.9838616}, {"type": "node", "id": 924005416, "lat": 44.0667262, "lon": 2.9837229}, {"type": "node", "id": 924006035, "lat": 44.0665627, "lon": 2.983656}, {"type": "node", "id": 924006057, "lat": 44.0667276, "lon": 2.9836651}, {"type": "node", "id": 924007988, "lat": 44.0663784, "lon": 2.983858}, {"type": "node", "id": 924008356, "lat": 44.0665574, "lon": 2.9838634}, {"type": "node", "id": 924011332, "lat": 44.0663818, "lon": 2.9836533}, {"type": "node", "id": 924018801, "lat": 44.066556, "lon": 2.9839029}, {"type": "node", "id": 924019385, "lat": 44.0667219, "lon": 2.9838689}, {"type": "node", "id": 924019916, "lat": 44.0667204, "lon": 2.9839148}, {"type": "node", "id": 924022175, "lat": 44.0667204, "lon": 2.9839121}, {"type": "node", "id": 924022884, "lat": 44.0667262, "lon": 2.9837147}, {"type": "node", "id": 1092023956, "lat": 44.1859514, "lon": 2.3649766, "tags": {"bus": "yes", "highway": "bus_stop", "public_transport": "stop_position"}}, {"type": "node", "id": 1119744809, "lat": 44.1854865, "lon": 2.3632867, "tags": {"name": "Naucelle", "operator": "SNCF", "public_transport": "station", "railway": "station", "source": "BDOrtho IGN", "train": "yes", "uic_ref": "8761573", "wikidata": "Q3097180", "wikipedia": "fr:Gare de Naucelle"}}, {"type": "node", "id": 1453574543, "lat": 44.0340242, "lon": 2.5355514, "tags": {"bench": "yes", "bus": "yes", "highway": "bus_stop", "name": "R\u00e9quista - Abribus Avenue de Rodez", "public_transport": "platform", "shelter": "yes"}}, {"type": "node", "id": 1515663941, "lat": 43.9731477, "lon": 2.9613969, "tags": {"bus": "yes", "highway": "bus_stop", "name": "Roquefort-sur-Soulzon - Lauras", "public_transport": "platform"}}, {"type": "node", "id": 1515663982, "lat": 43.9753428, "lon": 2.9591384, "tags": {"bench": "yes", "bus": "yes", "highway": "bus_stop", "public_transport": "platform", "shelter": "yes"}}, {"type": "node", "id": 1515663987, "lat": 43.9754402, "lon": 2.9549738, "tags": {"highway": "bus_stop", "shelter": "yes"}}, {"type": "node", "id": 1593649704, "lat": 43.873983, "lon": 2.6633471, "tags": {"bench": "no", "bin": "no", "bus": "yes", "highway": "bus_stop", "lit": "no", "name": "Combret - Cayzac", "network": "liO12", "operator": "R\u00e9gion Occitanie", "public_transport": "platform", "shelter": "no", "tactile_paving": "no"}}, {"type": "node", "id": 3519910511, "lat": 44.1624498, "lon": 2.3478661, "tags": {"bench": "no", "highway": "bus_stop", "network": "LiO", "operator": "R\u00e9gion Occitanie", "shelter": "yes", "shelter_type": "public_transport", "source": "survey 2015; bing 2015", "was:network": "Mobi12", "was:operator": "Conseil G\u00e9n\u00e9ral de l'Aveyron"}}, {"type": "node", "id": 3889229087, "lat": 44.0348361, "lon": 2.5298744, "tags": {"bench": "yes", "bin": "no", "check_date:bench": "2024-08-16", "covered": "yes", "highway": "bus_stop", "lit": "yes", "name:signed": "no", "public_transport": "platform", "shelter": "yes", "tactile_paving": "no"}}, {"type": "node", "id": 4092206662, "lat": 43.8440825, "lon": 2.566472, "tags": {"highway": "bus_stop", "name": "Arr\u00eat de Bus", "public_transport": "platform"}}, {"type": "node", "id": 4425276911, "lat": 43.9530668, "lon": 2.9230405, "tags": {"bench": "yes", "highway": "bus_stop", "material": "wood", "network": "Mobi12", "operator": "Conseil G\u00e9n\u00e9ral de l'Aveyron", "shelter": "yes", "source": "survey 2016"}}, {"type": "node", "id": 4425277142, "lat": 44.0119117, "lon": 2.9637141, "tags": {"bench": "yes", "bin": "yes", "bus": "yes", "highway": "bus_stop", "name": "Saint-Rome-de-Cernon - Bourg", "public_transport": "platform", "ref": "1202600", "shelter": "yes", "source": "survey 2016;mapilliary;BDOrthoIGN 2016"}}, {"type": "node", "id": 4436466660, "lat": 43.9546794, "lon": 2.8932005, "tags": {"bench": "no", "bus": "yes", "highway": "bus_stop", "name": "Rond-Point Gare", "network": "Mobi12", "operator": "Conseil G\u00e9n\u00e9ral de l'Aveyron", "public_transport": "platform", "shelter": "no", "source": "survey 2016"}}, {"type": "node", "id": 4674918995, "lat": 44.0427371, "lon": 2.90595, "tags": {"advertising": "poster_box", "source": "survey 2017"}}, {"type": "node", "id": 4674918996, "lat": 44.0427403, "lon": 2.9059515}, {"type": "node", "id": 4674918997, "lat": 44.0427198, "lon": 2.9059417}, {"type": "node", "id": 4674918998, "lat": 44.0427294, "lon": 2.9059031}, {"type": "node", "id": 4674918999, "lat": 44.0427499, "lon": 2.9059129}, {"type": "node", "id": 4687240642, "lat": 43.9456565, "lon": 2.8376538, "tags": {"bench": "yes", "bin": "yes", "bus": "yes", "check_date:shelter": "2024-03-06", "highway": "bus_stop", "lit": "yes", "name": "Vabres l'Abbaye", "network": "Mobi12", "operator": "Conseil G\u00e9n\u00e9ral de l'Aveyron", "public_transport": "platform", "shelter": "yes", "source": "survey 2017", "tactile_paving": "no"}}, {"type": "node", "id": 5461807188, "lat": 43.9723779, "lon": 2.9614431, "tags": {"highway": "bus_stop"}}, {"type": "node", "id": 5989656431, "lat": 43.875718, "lon": 2.7771656, "tags": {"bench": "yes", "bin": "no", "bus": "yes", "highway": "bus_stop", "lit": "yes", "name": "Saint Pierre de Rebourguil", "network": "liO12", "operator": "R\u00e9gion Occitanie", "public_transport": "platform", "shelter": "yes", "tactile_paving": "no"}}, {"type": "node", "id": 5989656432, "lat": 43.8755458, "lon": 2.7759629, "tags": {"bench": "yes", "bin": "no", "bus": "yes", "highway": "bus_stop", "lit": "yes", "name": "Saint Pierre de Rebourguil", "network": "liO12", "operator": "R\u00e9gion Occitanie", "public_transport": "platform", "shelter": "yes"}}, {"type": "node", "id": 6462264882, "lat": 44.0659292, "lon": 2.9840502, "tags": {"bench": "yes", "bus": "yes", "highway": "bus_stop", "name": "Saint-Georges-de-Luzencon - Gare SNCF", "public_transport": "platform", "shelter": "yes"}}, {"type": "node", "id": 8068507585, "lat": 44.2357709, "lon": 2.6105608, "tags": {"highway": "bus_stop"}}, {"type": "node", "id": 8401502188, "lat": 43.9810526, "lon": 2.9816319, "tags": {"bench": "yes", "bin": "yes", "bus": "yes", "highway": "bus_stop", "lit": "yes", "public_transport": "platform", "shelter": "yes", "tactile_paving": "no"}}, {"type": "node", "id": 8401502189, "lat": 43.9810304, "lon": 2.9813255, "tags": {"bench": "yes", "bin": "yes", "bus": "yes", "highway": "bus_stop", "lit": "yes", "public_transport": "platform", "shelter": "no", "tactile_paving": "no"}}, {"type": "node", "id": 8610611732, "lat": 44.0656996, "lon": 2.9839796, "tags": {"bench": "yes", "bus": "yes", "highway": "bus_stop", "name": "Saint-Georges-de-Luzencon - Gare SNCF", "public_transport": "platform", "ref": "1203393", "shelter": "yes"}}, {"type": "node", "id": 8610611733, "lat": 44.0118619, "lon": 2.9638638, "tags": {"bus": "yes", "highway": "bus_stop", "name": "Saint-Rome-de-Cernon - Bourg", "public_transport": "platform", "shelter": "no"}}, {"type": "node", "id": 8610611734, "lat": 43.9730955, "lon": 2.9614967, "tags": {"bench": "yes", "bus": "yes", "highway": "bus_stop", "name": "Roquefort-sur-Soulzon - Lauras", "public_transport": "platform", "ref": "S02692", "shelter": "yes"}}, {"type": "node", "id": 8610611739, "lat": 43.9496329, "lon": 2.8957967, "tags": {"bus": "yes", "highway": "bus_stop", "name": "Coll\u00e8ge Jean Jaur\u00e8s", "public_transport": "platform", "ref": "S00060", "wheelchair_boarding": "unknown"}}, {"type": "node", "id": 8860530377, "lat": 44.0835556, "lon": 2.7050633, "tags": {"bus": "yes", "highway": "bus_stop", "public_transport": "platform", "source": "ortho hr 2019"}}, {"type": "node", "id": 9045498690, "lat": 44.0316361, "lon": 2.5384329, "tags": {"bench": "no", "bus": "yes", "highway": "bus_stop", "name": "Place Prosper Boissonnade", "public_transport": "platform", "shelter": "no"}}, {"type": "node", "id": 9365653356, "lat": 43.9464877, "lon": 2.8386781, "tags": {"bench": "yes", "bin": "yes", "bus": "yes", "highway": "bus_stop", "lit": "yes", "name": "Vabres-l'Abbaye - Centre", "network": "liO12", "operator": "R\u00e9gion Occitanie", "public_transport": "platform", "shelter": "yes", "tactile_paving": "no"}}, {"type": "node", "id": 9415796982, "lat": 43.9729348, "lon": 2.9613452, "tags": {"bus": "yes", "highway": "bus_stop", "name": "Roquefort-sur-Soulzon - Lauras", "public_transport": "platform"}}, {"type": "node", "id": 9560128117, "lat": 43.8825964, "lon": 2.6130028, "tags": {"bench": "yes", "bin": "yes", "bus": "yes", "highway": "bus_stop", "lit": "yes", "name": "St-Sernin-sur-Rance - Emb. St-Martin (Le Bois du Four)", "network": "liO12", "operator": "R\u00e9gion Occitanie", "public_transport": "platform", "shelter": "yes", "tactile_paving": "yes"}}, {"type": "node", "id": 9562130649, "lat": 43.8700797, "lon": 2.75631, "tags": {"bus": "yes", "highway": "bus_stop", "name": "Petit Saint Jean", "network": "liO12", "operator": "R\u00e9gion Occitanie", "public_transport": "platform"}}, {"type": "node", "id": 9562130650, "lat": 43.8909965, "lon": 2.814183, "tags": {"bench": "no", "bin": "no", "bus": "yes", "highway": "bus_stop", "lit": "yes", "name": "Moulin Neuf", "network": "liO12", "operator": "R\u00e9gion Occitanie", "public_transport": "platform", "shelter": "no", "tactile_paving": "no"}}, {"type": "node", "id": 9562130651, "lat": 43.8913421, "lon": 2.8141476, "tags": {"bench": "no", "bin": "no", "bus": "yes", "highway": "bus_stop", "lit": "yes", "name": "Moulin Neuf", "network": "liO12", "operator": "R\u00e9gion Occitanie", "public_transport": "platform", "shelter": "yes", "tactile_paving": "no"}}, {"type": "node", "id": 9562217039, "lat": 43.9468175, "lon": 2.8388132, "tags": {"bench": "yes", "bin": "yes", "bus": "yes", "highway": "bus_stop", "lit": "yes", "name": "Vabres-l'Abbaye - Centre", "network": "liO12", "operator": "R\u00e9gion Occitanie", "public_transport": "platform", "shelter": "yes", "tactile_paving": "no"}}, {"type": "node", "id": 9689376063, "lat": 43.970018, "lon": 3.0166443, "tags": {"name": "Tournemire - Roquefort", "network": "TER Occitanie", "network:wikidata": "Q37941081", "operator": "SNCF", "operator:wikidata": "Q13646", "public_transport": "station", "railway": "station", "source": "BDOrtho IGN", "train": "yes", "uic_ref": "8778345", "wikidata": "Q3097889", "wikipedia": "fr:Gare de Tournemire - Roquefort"}}, {"type": "node", "id": 9995142380, "lat": 44.1826153, "lon": 2.7892879, "tags": {"bench": "yes", "bus": "yes", "highway": "bus_stop", "name": "Salles-Curan - Centre", "public_transport": "platform", "shelter": "yes"}}, {"type": "node", "id": 9995142381, "lat": 44.1527225, "lon": 2.8662413, "tags": {"bus": "yes", "highway": "bus_stop", "name": "Salles-Curan - Bouloc", "public_transport": "platform"}}, {"type": "node", "id": 10000363489, "lat": 44.1021721, "lon": 2.8992964, "tags": {"bench": "no", "bus": "yes", "highway": "bus_stop", "name": "Montjaux - Bourg", "public_transport": "platform", "shelter": "no"}}, {"type": "node", "id": 10000363490, "lat": 44.1021006, "lon": 2.8994169, "tags": {"bench": "yes", "bus": "yes", "highway": "bus_stop", "name": "Montjaux - Bourg", "public_transport": "platform", "shelter": "yes"}}, {"type": "node", "id": 10002004986, "lat": 43.9560886, "lon": 2.8888757, "tags": {"bench": "yes", "bus": "yes", "highway": "bus_stop", "name": "Saint-Affrique - Coll\u00e8ge Jeanne-d'Arc", "public_transport": "platform", "shelter": "yes"}}, {"type": "node", "id": 10002052525, "lat": 44.0427361, "lon": 2.9059267, "tags": {"bench": "yes", "bus": "yes", "highway": "bus_stop", "name": "Saint-Rome-de-Tarn - Gendarmerie", "operator": "R\u00e9gion Occitanie", "public_transport": "platform", "shelter": "yes"}}, {"type": "node", "id": 10002052526, "lat": 44.0428308, "lon": 2.9060444, "tags": {"bench": "no", "bus": "yes", "highway": "bus_stop", "name": "Saint-Rome-de-Tarn - Gendarmerie", "operator": "R\u00e9gion Occitanie", "public_transport": "platform", "shelter": "no"}}, {"type": "node", "id": 10101403411, "lat": 44.2111358, "lon": 2.5354005, "tags": {"bus": "yes", "highway": "bus_stop", "name": "Pont de Grandfuel", "public_transport": "platform"}}, {"type": "node", "id": 10101403412, "lat": 44.2110286, "lon": 2.5355156, "tags": {"bus": "yes", "highway": "bus_stop", "name": "Pont de Grandfuel", "public_transport": "platform"}}, {"type": "node", "id": 10101403415, "lat": 44.1680393, "lon": 2.5305815, "tags": {"bench": "yes", "bus": "yes", "highway": "bus_stop", "name": "Cassagnes - Bourg", "public_transport": "platform", "shelter": "yes"}}, {"type": "node", "id": 10101455763, "lat": 44.1238073, "lon": 2.5331148, "tags": {"bench": "yes", "bus": "yes", "highway": "bus_stop", "name": "Selve - La Rozi\u00e8re Basse", "public_transport": "platform", "shelter": "yes"}}, {"type": "node", "id": 10108843064, "lat": 44.1864919, "lon": 2.3647565, "tags": {"bus": "yes", "fixme": "Localisation \u00e0 confirmer", "highway": "bus_stop", "name": "Naucelle - Rue de la Gare", "network": "liO", "operator": "R\u00e9gion Occitanie", "public_transport": "platform"}}, {"type": "node", "id": 11205598914, "lat": 44.2354144, "lon": 2.7533198, "tags": {"bench": "yes", "bus": "yes", "highway": "bus_stop", "name": "Canet-de-Salars - Mairie", "public_transport": "platform", "shelter": "yes"}}, {"type": "node", "id": 11375270778, "lat": 43.9547141, "lon": 2.8933725, "tags": {"bench": "no", "bus": "yes", "highway": "bus_stop", "name": "Rond-Point Gare", "public_transport": "platform", "shelter": "no"}}, {"type": "node", "id": 11375270780, "lat": 43.9566281, "lon": 2.8815372, "tags": {"bench": "yes", "bin": "yes", "bus": "yes", "highway": "bus_stop", "name": "Saint-Affrique - Gare Routi\u00e8re", "public_transport": "platform", "shelter": "yes"}}, {"type": "node", "id": 11382341274, "lat": 44.0487671, "lon": 2.8977698, "tags": {"bus": "yes", "highway": "bus_stop", "name": "Saint-Rome-de-Tarn - Bourg", "public_transport": "platform"}}, {"type": "node", "id": 11382341275, "lat": 44.0487278, "lon": 2.897721, "tags": {"bus": "yes", "highway": "bus_stop", "name": "Saint-Rome-de-Tarn - Bourg", "public_transport": "platform"}}, {"type": "node", "id": 11384148620, "lat": 44.1830145, "lon": 2.7894131, "tags": {"bench": "yes", "bus": "yes", "highway": "bus_stop", "name": "Salles-Curan - Centre", "public_transport": "platform", "shelter": "no"}}, {"type": "node", "id": 11407615991, "lat": 44.1819542, "lon": 2.5691483, "tags": {"bus": "yes", "highway": "bus_stop", "name": "Samiech - Bourg", "public_transport": "platform"}}, {"type": "node", "id": 11407615992, "lat": 44.1820583, "lon": 2.5692238, "tags": {"bus": "yes", "highway": "bus_stop", "name": "Samiech - Bourg", "public_transport": "platform"}}, {"type": "node", "id": 12207853620, "lat": 44.0444558, "lon": 2.4949434, "tags": {"bus": "yes", "highway": "bus_stop", "public_transport": "platform"}}, {"type": "way", "id": 79060234, "nodes": [924018801, 924019916, 924022175, 924019385, 924005416, 924022884, 924006057, 924006035, 924011332, 924007988, 924004641, 924008356, 924018801], "tags": {"building": "train_station", "name": "Saint-Georges-de-Luzen\u00e7on", "operator": "SNCF", "public_transport": "station", "railway": "station", "source": "cadastre-dgi-fr source : Direction G\u00e9n\u00e9rale des Imp\u00f4ts - Cadastre ; mise \u00e0 jour : 2009", "train": "yes", "uic_ref": "8778342", "wikidata": "Q3097526", "wikipedia": "fr:Gare de Saint-Georges-de-Luzen\u00e7on"}}, {"type": "way", "id": 473366069, "nodes": [4674918999, 4674918998, 4674918997, 4674918995, 4674918996, 4674918999], "tags": {"amenity": "shelter", "bench": "yes", "building": "yes", "building:material": "wood", "highway": "bus_stop", "shelter": "yes", "shelter_type": "public_transport", "source": "survey 2017;BDOrtho IGN 2016"}}]}