{"version": 0.6, "generator": "Overpass API 0.7.62.5 1bd436f1", "osm3s": {"timestamp_osm_base": "2025-04-09T14:35:15Z", "copyright": "The data included in this document is from www.openstreetmap.org. The data is made available under ODbL."}, "elements": [{"type": "node", "id": 497114384, "lat": 39.5405949, "lon": 2.4232727, "tags": {"bench": "yes", "bin": "yes", "bus": "yes", "departures_board": "timetable", "highway": "bus_stop", "lit": "yes", "name": "Camp de Mar", "name:ca": "Camp de Mar", "network": "Transports p\u00fablics de Mallorca", "operator": "Consorci de Transports de Mallorca", "public_transport": "platform", "ref": "5001", "shelter": "yes", "surface": "paving_stones", "tactile_paving": "no"}}, {"type": "node", "id": 497114386, "lat": 39.5455828, "lon": 2.3901529, "tags": {"bench": "yes", "bin": "yes", "bus": "yes", "departures_board": "timetable", "highway": "bus_stop", "lit": "yes", "name": "Llotja (Port d'Andratx)", "network": "Transports p\u00fablics de Mallorca", "operator": "Consorci de Transports de Mallorca", "public_transport": "platform", "ref": "5011", "shelter": "yes", "surface": "paving_stones", "tactile_paving": "no"}}, {"type": "node", "id": 497114389, "lat": 39.5802618, "lon": 2.3789383, "tags": {"bench": "no", "bin": "no", "bus": "yes", "departures_board": "timetable", "highway": "bus_stop", "lit": "no", "name": "Cementeri de s'Arrac\u00f3", "name:ca": "Cementeri de s'Arrac\u00f3", "network": "Transports p\u00fablics de Mallorca", "operator": "Consorci de Transports de Mallorca", "public_transport": "platform", "ref": "5029", "shelter": "no", "surface": "asphalt", "tactile_paving": "no"}}, {"type": "node", "id": 566837562, "lat": 39.5780038, "lon": 2.3543143, "tags": {"bench": "no", "bin": "yes", "bus": "yes", "departures_board": "timetable", "highway": "bus_stop", "lit": "yes", "name": "Sant Elm 1 (Sant Elm)", "name:ca": "Sant Elm 1 (Sant Elm)", "network": "Transports p\u00fablics de Mallorca", "operator": "Consorci de Transports de Mallorca", "public_transport": "platform", "ref": "5015", "shelter": "no", "surface": "paving_stones", "tactile_paving": "no"}}, {"type": "node", "id": 566852835, "lat": 39.5813641, "lon": 2.3500457, "tags": {"bench": "yes", "bin": "no", "bus": "yes", "departures_board": "timetable", "highway": "bus_stop", "lit": "yes", "name": "S'Algar (Sant Elm)", "network": "Transports p\u00fablic de Mallorca", "operator": "Consorci de Transports de Mallorca", "public_transport": "platform", "ref": "5017", "shelter": "no", "surface": "paving_stones", "tactile_paving": "no"}}, {"type": "node", "id": 1481230303, "lat": 39.5461968, "lon": 2.3910445, "tags": {"bench": "no", "bin": "yes", "bus": "yes", "departures_board": "timetable", "highway": "bus_stop", "lit": "yes", "name": "S'Aluet (Port d'Andratx)", "network": "Transports p\u00fablics de Mallorca", "operator": "Consorci de Transports de Mallorca", "public_transport": "platform", "ref": "5027", "shelter": "no", "surface": "paving_stones", "tactile_paving": "no"}}, {"type": "node", "id": 1481273168, "lat": 39.5374194, "lon": 2.4413307, "tags": {"bench": "yes", "bus": "yes", "highway": "bus_stop", "name": "Bulevard - Garrovers 2 (Peguera)", "network": "Transports p\u00fablics de Mallorca", "operator": "Consorci de Transports de Mallorca", "passenger_information_display": "no", "public_transport": "platform", "ref": "11137", "route_ref": "102, 104, A11", "shelter": "yes"}}, {"type": "node", "id": 2432226438, "lat": 39.555567, "lon": 2.3992612, "tags": {"bench": "no", "bin": "no", "bus": "yes", "departures_board": "timetable", "highway": "bus_stop", "lit": "no", "name": "Cam\u00ed des Prat 1 (Port d'Andratx)", "name:ca": "Cam\u00ed des Prat 1 (Port d'Andratx)", "network": "Transports p\u00fablics de Mallorca", "operator": "Consorci de Transports de Mallorca", "public_transport": "platform", "ref": "5007", "route_ref": "102", "shelter": "no", "surface": "asphalt", "tactile_paving": "no"}}, {"type": "node", "id": 3677642598, "lat": 39.5484412, "lon": 2.3863147, "tags": {"bench": "yes", "bin": "yes", "bus": "yes", "departures_board": "timetable", "highway": "bus_stop", "lit": "yes", "name": "Club de Vela (Port d'Andratx)", "network": "Transports p\u00fablics de Mallorca", "operator": "Consorci de Transports de Mallorca", "public_transport": "platform", "ref": "5012", "shelter": "yes", "surface": "paving_stones", "tactile_paving": "no"}}, {"type": "node", "id": 3800018477, "lat": 39.5490392, "lon": 2.3957206, "tags": {"bench": "no", "bin": "yes", "bus": "yes", "departures_board": "timetable", "highway": "bus_stop", "lit": "yes", "man_made": "mast", "name": "Cam\u00ed des Rebolls 2 (Ma-1)", "name:ca": "Cam\u00ed des Rebolls 2 (Ma-1)", "network": "Transports p\u00fablics de Mallorca", "operator": "Consorci de Transports de Mallorca", "public_transport": "platform", "ref": "5008", "shelter": "no", "surface": "asphalt", "tactile_paving": "no", "tower:type": "communication"}}, {"type": "node", "id": 4717350480, "lat": 39.5702994, "lon": 2.4204008, "tags": {"bench": "no", "bin": "no", "bus": "yes", "departures_board": "timetable", "highway": "bus_stop", "lit": "yes", "name": "Torrent (Andratx)", "name:ca": "Torrent (Andratx)", "network": "Transports p\u00fablics de Mallorca", "operator": "Consorci de Transports de Mallorca", "public_transport": "platform", "ref": "5031", "shelter": "no", "surface": "paving_stones", "tactile_paving": "no"}}, {"type": "node", "id": 4717350481, "lat": 39.5754507, "lon": 2.4239331, "tags": {"bench": "no", "bin": "no", "bus": "yes", "departures_board": "timetable", "highway": "bus_stop", "lit": "yes", "name": "Son Sampol (Andratx)", "network": "Transports p\u00fablics de Mallorca", "operator": "Consorci de Transports de Mallorca", "public_transport": "platform", "ref": "5035", "shelter": "no", "surface": "paving_stones", "tactile_paving": "no"}}, {"type": "node", "id": 4717350484, "lat": 39.5779798, "lon": 2.3898024, "tags": {"bench": "no", "bin": "yes", "bus": "yes", "departures_board": "timetable", "highway": "bus_stop", "lit": "yes", "name": "s'Arrac\u00f3", "network": "Transports p\u00fablics de Mallorca", "operator": "Consorci de Transports de Mallorca", "public_transport": "platform", "ref": "5017", "shelter": "no", "surface": "paving_stones", "tactile_paving": "no"}}, {"type": "node", "id": 4717350485, "lat": 39.5781072, "lon": 2.3542896, "tags": {"bench": "no", "bin": "yes", "bus": "yes", "departures_board": "timetable", "highway": "bus_stop", "lit": "yes", "name": "Sant Elm 2 (Sant Elm)", "name:ca": "Sant Elm 2 (Sant Elm)", "network": "Transports p\u00fablics de Mallorca", "operator": "Consorci de Transports de Mallorca", "public_transport": "platform", "ref": "5014", "shelter": "yes", "surface": "paving_stones", "tactile_paving": "no"}}, {"type": "node", "id": 4717448303, "lat": 39.5489934, "lon": 2.3959652, "tags": {"bench": "no", "bin": "no", "bus": "yes", "departures_board": "timetable", "highway": "bus_stop", "lit": "no", "name": "Cam\u00ed des Rebolls 1 (Port d'Andratx)", "name:ca": "Cam\u00ed des Rebolls 1 (Port d'Andratx)", "network": "Transports p\u00fablics de Mallorca", "operator": "Consorci de Transports de Mallorca", "public_transport": "platform", "ref": "5009", "shelter": "no", "surface": "ground", "tactile_paving": "no"}}, {"type": "node", "id": 4717448304, "lat": 39.5545885, "lon": 2.3989221, "tags": {"bench": "no", "bin": "no", "bus": "yes", "departures_board": "timetable", "highway": "bus_stop", "lit": "yes", "name": "Cam\u00ed des Prat 2 (Ma-1)", "name:ca": "Cam\u00ed des Prat 2 (Ma-1)", "network": "Transports p\u00fablics de Mallorca", "operator": "Consorci de Transports de Mallorca", "public_transport": "platform", "ref": "5006", "shelter": "no", "surface": "asphalt", "tactile_paving": "no"}}, {"type": "node", "id": 4717448305, "lat": 39.5373006, "lon": 2.4411734, "tags": {"bench": "yes", "bin": "yes", "bus": "yes", "departures_board": "timetable", "highway": "bus_stop", "lit": "yes", "name": "Bulevard - Garrovers 1 (Peguera)", "network": "Transports p\u00fablics de Mallorca", "operator": "Consorci de Transports de Mallorca", "public_transport": "platform", "ref": "11138", "route_ref": "102, 104, A11", "shelter": "yes", "surface": "paving_stones", "tactile_paving": "no"}}, {"type": "node", "id": 8589990622, "lat": 39.5706969, "lon": 2.4212446, "tags": {"bench": "yes", "bin": "yes", "bus": "yes", "departures_board": "timetable", "highway": "bus_stop", "lit": "yes", "name": "Supermercat (Andratx)", "name:ca": "Supermercat (Andratx)", "network": "Transports p\u00fablics de Mallorca", "operator": "Consorci de Transports de Mallorca", "public_transport": "platform", "ref": "5030", "shelter": "yes", "surface": "paving_stones", "tactile_paving": "no"}}]}