{"version": 0.6, "generator": "Overpass API 0.7.62.5 1bd436f1", "osm3s": {"timestamp_osm_base": "2025-04-09T14:05:45Z", "copyright": "The data included in this document is from www.openstreetmap.org. The data is made available under ODbL."}, "elements": [{"type": "node", "id": 1945892353, "lat": 6.1313789, "lon": 1.2196405, "tags": {"name": "Lom\u00e9", "railway": "station"}}, {"type": "node", "id": 3101380638, "lat": 6.1304308, "lon": 1.2198062, "tags": {"name": "Gare Ferroviaire Centrale du Togo", "railway": "station", "source": "survey"}}, {"type": "node", "id": 3997865750, "lat": 6.1097074, "lon": 1.1578615, "tags": {"highway": "bus_stop", "public_transport": "platform"}}, {"type": "node", "id": 3997866052, "lat": 6.1199093, "lon": 1.1801082, "tags": {"highway": "bus_stop", "public_transport": "platform"}}, {"type": "node", "id": 3997866718, "lat": 6.1124593, "lon": 1.1240424, "tags": {"highway": "bus_stop", "public_transport": "platform"}}, {"type": "node", "id": 4612321666, "lat": 6.1127645, "lon": 1.124563, "tags": {"highway": "bus_stop", "public_transport": "platform"}}, {"type": "node", "id": 5077847922, "lat": 6.1170321, "lon": 1.1736372, "tags": {"bench": "no", "highway": "bus_stop", "name": "Avoeme", "public_transport": "platform", "shelter": "no"}}, {"type": "node", "id": 5087710554, "lat": 6.1019268, "lon": 1.1471407, "tags": {"bench": "no", "highway": "bus_stop", "public_transport": "platform", "shelter": "no"}}, {"type": "node", "id": 5327563222, "lat": 6.1172159, "lon": 1.1737896, "tags": {"bench": "no", "highway": "bus_stop", "name": "Avoeme", "public_transport": "platform", "shelter": "no", "wheelchair": "no"}}, {"type": "node", "id": 5327575922, "lat": 6.1132791, "lon": 1.1646728, "tags": {"highway": "bus_stop", "name": "Awakome", "public_transport": "platform"}}, {"type": "node", "id": 5330055692, "lat": 6.1139713, "lon": 1.1673384, "tags": {"bench": "no", "highway": "bus_stop", "name": "Victory", "public_transport": "platform", "shelter": "no"}}, {"type": "node", "id": 7355001944, "lat": 6.1344337, "lon": 1.2146223, "tags": {"bench": "yes", "bus": "yes", "highway": "bus_stop", "name": "Etat Civil Central", "network": "Sotral", "operator": "Sotral", "public_transport": "platform", "shelter": "yes", "source": "SOTRAL;survey"}}, {"type": "node", "id": 7355001945, "lat": 6.1319836, "lon": 1.2174949, "tags": {"bench": "no", "bus": "yes", "highway": "bus_stop", "name": "CNPP", "operator": "Sotral", "public_transport": "platform", "shelter": "no", "source": "SOTRAL;survey"}}, {"type": "node", "id": 7355001946, "lat": 6.1319249, "lon": 1.2179911, "tags": {"bench": "no", "bus": "yes", "highway": "bus_stop", "name": "CNPP", "operator": "Sotral", "public_transport": "platform", "shelter": "no", "source": "SOTRAL;survey"}}, {"type": "node", "id": 7355003512, "lat": 6.1304501, "lon": 1.2193818, "tags": {"bench": "no", "bus": "yes", "highway": "bus_stop", "name": "Si\u00e8ge SOTRAL", "operator": "Sotral", "public_transport": "platform", "shelter": "no", "source": "SOTRAL;survey"}}, {"type": "node", "id": 7355003513, "lat": 6.1299287, "lon": 1.2206586, "tags": {"bench": "yes", "bus": "yes", "highway": "bus_stop", "name": "Transport Routier", "operator": "Sotral", "public_transport": "platform", "shelter": "yes", "source": "SOTRAL;survey"}}, {"type": "node", "id": 7355042484, "lat": 6.138392, "lon": 1.2105842, "tags": {"bench": "no", "bus": "yes", "highway": "bus_stop", "name": "Shell Togbato", "operator": "Sotral", "public_transport": "platform", "shelter": "no", "source": "SOTRAL;survey"}}, {"type": "node", "id": 7355050185, "lat": 6.1366646, "lon": 1.2109007, "tags": {"bench": "no", "bus": "yes", "highway": "bus_stop", "name": "Shell Togbato", "operator": "Sotral", "public_transport": "platform", "shelter": "no", "source": "SOTRAL;survey"}}, {"type": "node", "id": 7362803826, "lat": 6.1293304, "lon": 1.2186496, "tags": {"bench": "no", "bus": "yes", "highway": "bus_stop", "name": "Biblioth\u00e8que Nationale", "operator": "Sotral", "public_transport": "platform", "shelter": "no", "source": "SOTRAL;survey"}}, {"type": "node", "id": 7362803827, "lat": 6.1318335, "lon": 1.2157119, "tags": {"bench": "no", "bus": "yes", "highway": "bus_stop", "name": "Mairie Centrale", "operator": "Sotral", "public_transport": "platform", "shelter": "no", "source": "SOTRAL;survey"}}, {"type": "node", "id": 7362803828, "lat": 6.1303978, "lon": 1.213427, "tags": {"bench": "no", "bus": "yes", "highway": "bus_stop", "name": "Orabank", "operator": "Sotral", "public_transport": "platform", "shelter": "no", "source": "SOTRAL;survey"}}, {"type": "node", "id": 7362803829, "lat": 6.1312088, "lon": 1.21205, "tags": {"bench": "no", "bus": "yes", "highway": "bus_stop", "name": "Total Boulevard", "operator": "Sotral", "public_transport": "platform", "shelter": "no", "source": "SOTRAL;survey"}}, {"type": "node", "id": 7363791849, "lat": 6.1223134, "lon": 1.2219983, "tags": {"bench": "no", "bus": "yes", "highway": "bus_stop", "name": "Fonction Publique", "operator": "Sotral", "public_transport": "platform", "shelter": "no", "source": "SOTRAL;survey"}}, {"type": "node", "id": 7363791851, "lat": 6.1267965, "lon": 1.2205379, "tags": {"bench": "no", "bus": "yes", "highway": "bus_stop", "name": "Service d'Hygi\u00e8ne", "operator": "Sotral", "public_transport": "platform", "shelter": "no", "source": "SOTRAL;survey"}}, {"type": "node", "id": 7375250080, "lat": 6.1372933, "lon": 1.2280145, "tags": {"bench": "no", "bus": "yes", "highway": "bus_stop", "name": "ELATSA", "operator": "Sotral", "public_transport": "platform", "shelter": "no", "source": "SOTRAL;survey"}}, {"type": "node", "id": 7375250081, "lat": 6.1375413, "lon": 1.2293449, "tags": {"bench": "no", "bus": "yes", "highway": "bus_stop", "name": "D\u00e9kon", "operator": "Sotral", "public_transport": "platform", "shelter": "no", "source": "SOTRAL;survey"}}, {"type": "node", "id": 7375250082, "lat": 6.1350938, "lon": 1.2276196, "tags": {"bench": "no", "bus": "yes", "highway": "bus_stop", "name": "D\u00e9kon", "operator": "Sotral", "public_transport": "platform", "shelter": "no", "source": "SOTRAL;survey"}}, {"type": "node", "id": 7375250083, "lat": 6.1323698, "lon": 1.2274362, "tags": {"bench": "yes", "bus": "yes", "highway": "bus_stop", "name": "Rex", "operator": "Sotral", "public_transport": "platform", "shelter": "yes", "source": "SOTRAL;survey"}}, {"type": "node", "id": 7384998183, "lat": 6.128464, "lon": 1.2399973, "tags": {"bench": "no", "bus": "yes", "highway": "bus_stop", "name": "H\u00f4tel Santa Maria", "operator": "Sotral", "public_transport": "platform", "shelter": "no", "source": "SOTRAL;survey"}}, {"type": "node", "id": 7384998184, "lat": 6.1283266, "lon": 1.2389459, "tags": {"bench": "no", "bus": "yes", "highway": "bus_stop", "name": "H\u00f4tel Santa Maria", "operator": "Sotral", "public_transport": "platform", "shelter": "no", "source": "SOTRAL;survey", "wheelchair": "yes"}}, {"type": "node", "id": 7385009885, "lat": 6.1265431, "lon": 1.2337665, "tags": {"bench": "no", "bus": "yes", "highway": "bus_stop", "name": "March\u00e9 Abattoir", "operator": "Sotral", "public_transport": "platform", "shelter": "no", "source": "SOTRAL;survey"}}, {"type": "node", "id": 7385009886, "lat": 6.1265731, "lon": 1.2345464, "tags": {"bench": "no", "bus": "yes", "highway": "bus_stop", "name": "March\u00e9 Abattoir", "operator": "Sotral", "public_transport": "platform", "shelter": "no", "source": "SOTRAL;survey"}}, {"type": "node", "id": 7385009887, "lat": 6.1250317, "lon": 1.2300543, "tags": {"bench": "no", "bus": "yes", "highway": "bus_stop", "name": "Hollando", "operator": "Sotral", "public_transport": "platform", "shelter": "no", "source": "SOTRAL;survey"}}, {"type": "node", "id": 7385340415, "lat": 6.1413562, "lon": 1.2741069, "tags": {"bench": "no", "bus": "yes", "highway": "bus_stop", "name": "Rond Point Port", "operator": "Sotral", "public_transport": "platform", "shelter": "no", "source": "SOTRAL;survey"}}, {"type": "node", "id": 7385340416, "lat": 6.1381633, "lon": 1.2671527, "tags": {"bench": "no", "bus": "yes", "highway": "bus_stop", "name": "Sarakawa", "operator": "Sotral", "public_transport": "platform", "shelter": "no", "source": "SOTRAL;survey"}}, {"type": "node", "id": 7385340417, "lat": 6.1380693, "lon": 1.2660952, "tags": {"bench": "no", "bus": "yes", "highway": "bus_stop", "name": "Sarakawa", "operator": "Sotral", "public_transport": "platform", "shelter": "no", "source": "SOTRAL;survey"}}, {"type": "node", "id": 7385340418, "lat": 6.1359858, "lon": 1.2606503, "tags": {"bench": "no", "bus": "yes", "highway": "bus_stop", "name": "Ecobank", "operator": "Sotral", "public_transport": "platform", "shelter": "no", "source": "SOTRAL;survey"}}, {"type": "node", "id": 7385340419, "lat": 6.1360965, "lon": 1.2603533, "tags": {"bench": "no", "bus": "yes", "highway": "bus_stop", "name": "Ecobank", "operator": "Sotral", "public_transport": "platform", "shelter": "no", "source": "SOTRAL;survey"}}, {"type": "node", "id": 7385340420, "lat": 6.133597, "lon": 1.2551035, "tags": {"bench": "no", "bus": "yes", "highway": "bus_stop", "name": "V\u00e9ronica Guest House", "operator": "Sotral", "public_transport": "platform", "shelter": "no", "source": "SOTRAL;survey"}}, {"type": "node", "id": 7385340421, "lat": 6.1336377, "lon": 1.2546019, "tags": {"bench": "no", "bus": "yes", "highway": "bus_stop", "name": "V\u00e9ronica Guest House", "operator": "Sotral", "public_transport": "platform", "shelter": "no", "source": "SOTRAL;survey"}}, {"type": "node", "id": 7385340422, "lat": 6.1319382, "lon": 1.2505075, "tags": {"bench": "no", "bus": "yes", "highway": "bus_stop", "name": "La Paix", "operator": "Sotral", "public_transport": "platform", "shelter": "no", "source": "SOTRAL;survey"}}, {"type": "node", "id": 7385340423, "lat": 6.1312968, "lon": 1.2477744, "tags": {"bench": "no", "bus": "yes", "highway": "bus_stop", "name": "La Paix", "operator": "Sotral", "public_transport": "platform", "shelter": "no", "source": "SOTRAL;survey"}}, {"type": "node", "id": 7433758694, "lat": 6.1357252, "lon": 1.2314719, "tags": {"bench": "no", "bus": "yes", "highway": "bus_stop", "name": "Sanya Moto", "operator": "Sotral", "public_transport": "platform", "shelter": "no", "source": "SOTRAL;survey"}}, {"type": "node", "id": 7437464221, "lat": 6.1344984, "lon": 1.2332153, "tags": {"bench": "no", "bus": "yes", "highway": "bus_stop", "name": "Fiata", "operator": "Sotral", "public_transport": "platform", "shelter": "no", "source": "SOTRAL;survey"}}, {"type": "node", "id": 7437464222, "lat": 6.1356745, "lon": 1.2336016, "tags": {"bench": "no", "bus": "yes", "highway": "bus_stop", "name": "Fiata", "operator": "Sotral", "public_transport": "platform", "shelter": "no", "source": "SOTRAL;survey"}}, {"type": "node", "id": 7437464224, "lat": 6.1343731, "lon": 1.2352753, "tags": {"bench": "no", "bus": "yes", "highway": "bus_stop", "name": "EPL Orphelinat", "operator": "Sotral", "public_transport": "platform", "shelter": "no", "source": "SOTRAL;survey"}}, {"type": "node", "id": 7437464225, "lat": 6.1367946, "lon": 1.2350553, "tags": {"bench": "no", "bus": "yes", "highway": "bus_stop", "name": "H\u00f4tel Le Sphinx", "operator": "Sotral", "public_transport": "platform", "shelter": "no", "source": "SOTRAL;survey"}}, {"type": "node", "id": 7437464226, "lat": 6.1369639, "lon": 1.2375712, "tags": {"bench": "no", "highway": "bus_stop", "name": "Arr\u00eat Apsonic", "operator": "Sotral", "public_transport": "platform", "shelter": "no", "source": "SOTRAL; Survey; Bing"}}, {"type": "node", "id": 7437464227, "lat": 6.1398667, "lon": 1.2403688, "tags": {"bench": "no", "highway": "bus_stop", "name": "Bar Limousine", "operator": "Sotral", "public_transport": "platform", "shelter": "no", "source": "SOTRAL; Survey; Bing"}}, {"type": "node", "id": 7437464228, "lat": 6.1402694, "lon": 1.2396298, "tags": {"bench": "no", "highway": "bus_stop", "name": "Ora & Labora", "operator": "Sotral", "public_transport": "platform", "shelter": "no", "source": "SOTRAL; Survey; Bing"}}, {"type": "node", "id": 7510228511, "lat": 6.1354745, "lon": 1.2314182, "tags": {"bench": "no", "bus": "yes", "highway": "bus_stop", "name": "Sanya Moto", "operator": "Sotral", "public_transport": "platform", "shelter": "no", "source": "SOTRAL;survey"}}, {"type": "node", "id": 7511515443, "lat": 6.1395907, "lon": 1.2211977, "tags": {"bench": "no", "bus": "yes", "highway": "bus_stop", "name": "Arr\u00eat Shell le Togo", "operator": "SOTRAL", "public_transport": "platform", "shelter": "no", "source": "SOTRAL; Survey; Bing"}}, {"type": "node", "id": 7511515445, "lat": 6.1364465, "lon": 1.2209402, "tags": {"bench": "no", "bus": "yes", "highway": "bus_stop", "name": "Arr\u00eat CNTT", "operator": "SOTRAL", "public_transport": "platform", "shelter": "no", "source": "SOTRAL;survey"}}, {"type": "node", "id": 7511515446, "lat": 6.1362772, "lon": 1.2198257, "tags": {"bench": "no", "bus": "yes", "highway": "bus_stop", "name": "Arr\u00eat CNTT", "operator": "SOTRAL", "public_transport": "platform", "shelter": "no", "source": "SOTRAL;survey"}}, {"type": "node", "id": 7511515447, "lat": 6.1333083, "lon": 1.2152351, "tags": {"bench": "no", "bus": "yes", "highway": "bus_stop", "name": "Direction LONATO", "operator": "SOTRAL", "public_transport": "platform", "shelter": "no", "source": "SOTRAL;survey"}}, {"type": "node", "id": 7511515448, "lat": 6.1330663, "lon": 1.2148033, "tags": {"bench": "no", "bus": "yes", "highway": "bus_stop", "name": "Direction LONATO", "operator": "SOTRAL", "public_transport": "platform", "shelter": "no", "source": "SOTRAL;survey"}}, {"type": "node", "id": 7511515449, "lat": 6.1308268, "lon": 1.2127695, "tags": {"bench": "no", "bus": "yes", "highway": "bus_stop", "name": "DHL", "operator": "SOTRAL", "public_transport": "platform", "shelter": "no", "source": "SOTRAL;survey"}}, {"type": "node", "id": 7511515450, "lat": 6.1309161, "lon": 1.2126602, "tags": {"bench": "no", "bus": "yes", "highway": "bus_stop", "name": "DHL", "operator": "SOTRAL", "public_transport": "platform", "shelter": "no", "source": "SOTRAL;survey"}}, {"type": "node", "id": 7511515451, "lat": 6.1281746, "lon": 1.2097145, "tags": {"bench": "no", "highway": "bus_stop", "name": "Arr\u00eat ANPE Ny\u00e9konakpoe", "operator": "SOTRAL", "public_transport": "platform", "shelter": "no", "source": "SOTRAL; Survey; Bing"}}, {"type": "node", "id": 7511515452, "lat": 6.1280533, "lon": 1.209398, "tags": {"bench": "no", "highway": "bus_stop", "name": "Arr\u00eat ANPE Ny\u00e9konakpoe", "operator": "SOTRAL", "public_transport": "platform", "shelter": "no", "source": "SOTRAL; Survey; Bing"}}, {"type": "node", "id": 7511515453, "lat": 6.1272952, "lon": 1.2074433, "tags": {"bench": "no", "highway": "bus_stop", "name": "Arr\u00eat Total Ny\u00e9konakpoe", "operator": "SOTRAL", "public_transport": "platform", "shelter": "no", "source": "SOTRAL; Survey; Bing"}}, {"type": "node", "id": 7511515454, "lat": 6.1271659, "lon": 1.2065018, "tags": {"bench": "no", "highway": "bus_stop", "name": "Arr\u00eat Total Ny\u00e9konakpoe", "operator": "SOTRAL", "public_transport": "platform", "shelter": "no", "source": "SOTRAL; Survey; Bing"}}, {"type": "node", "id": 7511515455, "lat": 6.1265485, "lon": 1.2041543, "tags": {"bench": "no", "highway": "bus_stop", "name": "Arr\u00eat Lyc\u00e9e Ny\u00e9konakpo\u00e8", "operator": "SOTRAL", "public_transport": "platform", "shelter": "no", "source": "SOTRAL; Survey; Bing"}}, {"type": "node", "id": 7511515456, "lat": 6.1264398, "lon": 1.2034019, "tags": {"bench": "no", "highway": "bus_stop", "name": "Arr\u00eat Lyc\u00e9e Ny\u00e9konakpo\u00e8", "operator": "SOTRAL", "public_transport": "platform", "shelter": "no", "source": "SOTRAL; Survey; Bing"}}, {"type": "node", "id": 7511515457, "lat": 6.1257451, "lon": 1.2006855, "tags": {"bench": "no", "highway": "bus_stop", "name": "Arr\u00eat Adjololo", "operator": "SOTRAL", "public_transport": "platform", "shelter": "no", "source": "SOTRAL; Survey; Bing"}}, {"type": "node", "id": 7511515458, "lat": 6.1257151, "lon": 1.2002798, "tags": {"bench": "no", "highway": "bus_stop", "name": "Arr\u00eat Adjololo", "operator": "SOTRAL", "public_transport": "platform", "shelter": "no", "source": "SOTRAL; Survey; Bing"}}, {"type": "node", "id": 7556068265, "lat": 6.1248411, "lon": 1.2291717, "tags": {"bench": "no", "bus": "yes", "highway": "bus_stop", "name": "Hollando", "operator": "SOTRAL", "public_transport": "platform", "shelter": "no", "source": "SOTRAL;survey"}}, {"type": "node", "id": 7925817894, "lat": 6.1241269, "lon": 1.224812, "tags": {"bench": "yes", "bus": "yes", "highway": "bus_stop", "name": "BIA (Terminus)", "operator": "Sotral", "public_transport": "platform", "shelter": "yes", "source": "SOTRAL;survey"}}, {"type": "node", "id": 7929567234, "lat": 6.1240909, "lon": 1.2247328, "tags": {"bench": "yes", "bus": "yes", "highway": "bus_stop", "name": "BIA (Terminus)", "operator": "Sotral", "public_transport": "platform", "shelter": "yes", "source": "SOTRAL;survey"}}]}