{"version": 0.6, "generator": "Overpass API 0.7.62.5 1bd436f1", "osm3s": {"timestamp_osm_base": "2025-04-09T14:31:06Z", "copyright": "The data included in this document is from www.openstreetmap.org. The data is made available under ODbL."}, "elements": [{"type": "node", "id": 317893597, "lat": 36.5670158, "lon": 2.9142646, "tags": {"addr:city": "\u0628\u0648\u0641\u0627\u0631\u064a\u0643", "name": "Boufarik", "name:ar": "\u0628\u0648\u0641\u0627\u0631\u064a\u0643", "name:fr": "Boufarik", "public_transport": "station", "railway": "station", "usage": "main"}}, {"type": "node", "id": 432833262, "lat": 36.4649973, "lon": 2.7392872, "tags": {"name": "Chiffa", "name:ar": "\u0627\u0644\u0634\u0641\u0629", "name:en": "Chiffa", "name:fr": "Chiffa", "name:kab": "Ceffa", "operator": "SNTF", "railway": "station", "usage": "main"}}, {"type": "node", "id": 1075803399, "lat": 36.5342012, "lon": 2.9152923, "tags": {"bus": "yes", "highway": "bus_stop", "name": "Ben Nacer", "public_transport": "platform"}}, {"type": "node", "id": 1798066900, "lat": 36.4949947, "lon": 2.8566295, "tags": {"bus": "yes", "highway": "bus_stop", "name": "Da\u00efra", "name:ar": "\u0645\u0642\u0631 \u062f\u0627\u0626\u0631\u0629", "public_transport": "platform", "shelter": "yes"}}, {"type": "node", "id": 1835766256, "lat": 36.4736586, "lon": 2.6252662, "tags": {"name": "El Affroun", "name:ar": "\u0627\u0644\u0639\u0641\u0631\u0648\u0646", "name:fr": "El Affroun", "railway": "station", "usage": "main"}}, {"type": "node", "id": 2047573033, "lat": 36.4704891, "lon": 2.6924469, "tags": {"name": "Mouza\u00efa", "name:ar": "\u0645\u0648\u0632\u0627\u064a\u0629", "name:en": "Mouzaia", "name:fr": "Mouza\u00efa", "name:kab": "Muzaya", "railway": "station", "usage": "main"}}, {"type": "node", "id": 2106917726, "lat": 36.6390486, "lon": 2.7612994, "tags": {"bus": "yes", "highway": "bus_stop", "name": "Kolea-Chaiba-Bousmail", "public_transport": "platform"}}, {"type": "node", "id": 2121828033, "lat": 36.4721287, "lon": 2.8239105, "tags": {"bus": "yes", "highway": "bus_stop", "name": "Bab Essebt", "name:ar": "\u0628\u0627\u0628 \u0627\u0644\u0633\u0628\u062a", "public_transport": "platform"}}, {"type": "node", "id": 2231599384, "lat": 36.4728112, "lon": 2.8325527, "tags": {"bus": "yes", "highway": "bus_stop", "name": "Vers Beni Mered & Kessab", "public_transport": "platform"}}, {"type": "node", "id": 2231603986, "lat": 36.4739072, "lon": 2.8314885, "tags": {"bus": "yes", "highway": "bus_stop", "name": "Bab Dzayer", "public_transport": "platform"}}, {"type": "node", "id": 2234833648, "lat": 36.4724934, "lon": 2.8322902, "tags": {"bus": "yes", "highway": "bus_stop", "name": "Bab Dzair", "name:ar": "\u0628\u0627\u0628 \u062f\u0632\u0627\u064a\u0631", "public_transport": "platform"}}, {"type": "node", "id": 2311320750, "lat": 36.5653585, "lon": 2.9134831, "tags": {"bus": "yes", "highway": "bus_stop", "public_transport": "platform"}}, {"type": "node", "id": 2354891782, "lat": 36.6802202, "lon": 2.8921599, "tags": {"addr:city": "Rahmania", "name": "Sidi Abdellah", "name:ar": "\u0645\u062d\u0637\u0629 \u0627\u0644\u0642\u0637\u0627\u0631 \u0633\u064a\u062f\u064a \u0639\u0628\u062f \u0627\u0644\u0644\u0647", "name:en": "Sidi Abdallah", "name:fr": "Sidi Abdallah", "operator": "SNTF", "operator:wikipedia": "Q1275038", "owner": "SNTF", "owner:wikidata": "Q1275038", "public_transport": "station", "railway": "station", "wikidata": "Q110492092", "wikipedia": "fr:Gare de Sidi Abdellah"}}, {"type": "node", "id": 2354891908, "lat": 36.6920154, "lon": 2.8714817, "tags": {"name": "P\u00f4le universitaire Sidi Abdellah", "name:ar": "\u0627\u0644\u0642\u0637\u0628 \u0627\u0644\u062c\u0627\u0645\u0639\u064a \u0633\u064a\u062f\u064a \u0639\u0628\u062f\u0627\u0644\u0644\u0647", "name:fr": "P\u00f4le universitaire Sidi Abdellah", "railway": "station"}}, {"type": "node", "id": 2359273189, "lat": 36.568546, "lon": 2.3956797, "tags": {"bench": "yes", "bus": "yes", "covered": "yes", "highway": "bus_stop", "name": "Nador", "public_transport": "platform", "shelter": "yes"}}, {"type": "node", "id": 2479760753, "lat": 36.6401368, "lon": 2.6935777, "tags": {"bus": "yes", "highway": "bus_stop", "name": "Minibus Fouka", "public_transport": "platform"}}, {"type": "node", "id": 2479760761, "lat": 36.6397215, "lon": 2.6918275, "tags": {"bus": "yes", "highway": "bus_stop", "name": "Minibus Kolea", "public_transport": "platform"}}, {"type": "node", "id": 2797257063, "lat": 36.5202414, "lon": 2.8594797, "tags": {"name": "Beni Mered", "name:ar": "\u0628\u0646\u064a \u0645\u0631\u0627\u062f", "name:fr": "Beni Mered", "operator": "SNTF", "railway": "station", "usage": "main"}}, {"type": "node", "id": 2799533616, "lat": 36.5234058, "lon": 2.8620577, "tags": {"bus": "yes", "highway": "bus_stop", "name": "Arr\u00eat El Djamaa", "public_transport": "platform"}}, {"type": "node", "id": 2799535110, "lat": 36.5202804, "lon": 2.8601353, "tags": {"bus": "yes", "highway": "bus_stop", "name": "Arr\u00eat La Gare", "public_transport": "platform"}}, {"type": "node", "id": 2799540414, "lat": 36.5241427, "lon": 2.8610535, "tags": {"bus": "yes", "highway": "bus_stop", "public_transport": "platform"}}, {"type": "node", "id": 2799540416, "lat": 36.5258498, "lon": 2.8585483, "tags": {"bus": "yes", "highway": "bus_stop", "public_transport": "platform"}}, {"type": "node", "id": 2805965314, "lat": 36.4715565, "lon": 2.8244287, "tags": {"bus": "yes", "highway": "bus_stop", "name": "\u0645\u062d\u0637\u0629 \u062d\u0627\u0641\u0644\u0627\u062a \u0627\u0644\u0646\u0642\u0644 \u0627\u0644\u0639\u0645\u0648\u0645\u064a \u0644\u0628\u0627\u0628 \u0627\u0644\u0633\u0628\u062a", "name:ar": "\u0645\u062d\u0637\u0629 \u062d\u0627\u0641\u0644\u0627\u062a \u0627\u0644\u0646\u0642\u0644 \u0627\u0644\u0639\u0645\u0648\u0645\u064a \u0644\u0628\u0627\u0628 \u0627\u0644\u0633\u0628\u062a", "name:en": "public bus station of bab elsebt", "name:fr": "Gare routi\u00e8re publique Bab Sebt", "public_transport": "platform"}}, {"type": "node", "id": 2806146183, "lat": 36.5000518, "lon": 2.8474875, "tags": {"bus": "yes", "highway": "bus_stop", "public_transport": "platform"}}, {"type": "node", "id": 2839221836, "lat": 36.6697316, "lon": 2.7393024, "tags": {"bench": "yes", "highway": "bus_stop", "name": "FOUKA MARINE", "public_transport": "platform", "shelter": "yes"}}, {"type": "node", "id": 2839221837, "lat": 36.6703957, "lon": 2.7414672, "tags": {"bus": "yes", "highway": "bus_stop", "public_transport": "platform"}}, {"type": "node", "id": 2880509467, "lat": 36.4826606, "lon": 2.8373104, "tags": {"bus": "yes", "highway": "bus_stop", "name": "Les Palmiers", "public_transport": "platform", "shelter": "yes"}}, {"type": "node", "id": 2941322819, "lat": 36.4675211, "lon": 2.8315369, "tags": {"bus": "yes", "highway": "bus_stop", "name": "Bab Errahba", "name:ar": "\u0628\u0627\u0628 \u0627\u0644\u0631\u062d\u0628\u0629", "name:fr": "Bab Errahba", "public_transport": "platform"}}, {"type": "node", "id": 2952897005, "lat": 36.6009801, "lon": 2.6043697, "tags": {"bench": "yes", "bus": "yes", "highway": "bus_stop", "name": "CFPA Kracheni Mohamed", "name:fr": "CFPA Kracheni Mohamed", "public_transport": "platform", "shelter": "yes"}}, {"type": "node", "id": 2952897256, "lat": 36.5993569, "lon": 2.5958171, "tags": {"bench": "yes", "bin": "no", "bus": "yes", "highway": "bus_stop", "name": "\u0639\u064a\u0646 \u062a\u0642\u0648\u0631\u0627\u064a\u062a - \u0627\u0644\u0645\u062f\u0631\u0633\u0629 \u0627\u0644\u062b\u0627\u0646\u0648\u064a\u0629 \u0645\u0646\u0649 \u0628\u0646 \u0637\u0627\u0647\u0631", "name:ar": "\u0639\u064a\u0646 \u062a\u0642\u0648\u0631\u0627\u064a\u062a - \u0627\u0644\u0645\u062f\u0631\u0633\u0629 \u0627\u0644\u062b\u0627\u0646\u0648\u064a\u0629 \u0645\u0646\u0649 \u0628\u0646 \u0637\u0627\u0647\u0631", "name:fr": "A\u00cfN TAGOURAIT - LYCEE BENTAHAR MOUNA -", "public_transport": "platform", "shelter": "yes"}}, {"type": "node", "id": 2952897259, "lat": 36.6128651, "lon": 2.6338244, "tags": {"bench": "yes", "bus": "yes", "highway": "bus_stop", "name": "CENTRE DE REPOS EL MODJAHIDINE", "public_transport": "platform", "shelter": "yes"}}, {"type": "node", "id": 2952897260, "lat": 36.6152936, "lon": 2.639913, "tags": {"bus": "yes", "highway": "bus_stop", "public_transport": "platform"}}, {"type": "node", "id": 2952897264, "lat": 36.635477, "lon": 2.6780984, "tags": {"bench": "yes", "bin": "yes", "bus": "yes", "highway": "bus_stop", "name": "KHEMISTI - STATION SERVICES -", "public_transport": "platform", "shelter": "yes"}}, {"type": "node", "id": 2952897428, "lat": 36.638316, "lon": 2.6827386, "tags": {"bus": "yes", "highway": "bus_stop", "public_transport": "platform"}}, {"type": "node", "id": 2952897867, "lat": 36.6261988, "lon": 2.6613441, "tags": {"bench": "yes", "highway": "bus_stop", "name": "ENTREE BOUHAROUN", "public_transport": "platform", "shelter": "yes"}}, {"type": "node", "id": 2952897868, "lat": 36.6331685, "lon": 2.6741569, "tags": {"bus": "yes", "highway": "bus_stop", "name": "KHEMISTI MARINE - PORT -", "public_transport": "platform"}}, {"type": "node", "id": 2956069655, "lat": 36.6466969, "lon": 2.6963554, "tags": {"highway": "bus_stop", "name": "Bousma\u00efl Gare Routi\u00e8re", "public_transport": "platform"}}, {"type": "node", "id": 2980404385, "lat": 36.631311, "lon": 2.6704233, "tags": {"bench": "yes", "highway": "bus_stop", "name": "ENTREE BOUHAROUN", "public_transport": "platform", "shelter": "yes"}}, {"type": "node", "id": 2980404390, "lat": 36.6402904, "lon": 2.7038112, "tags": {"bus": "yes", "highway": "bus_stop", "public_transport": "platform"}}, {"type": "node", "id": 2994075148, "lat": 36.6169332, "lon": 2.6443177, "tags": {"bus": "yes", "highway": "bus_stop", "public_transport": "platform"}}, {"type": "node", "id": 2994076012, "lat": 36.6096095, "lon": 2.6261324, "tags": {"bench": "yes", "highway": "bus_stop", "name": "A\u00cfN TAGOURAIT - CITE 140 Logts -", "public_transport": "platform", "shelter": "yes"}}, {"type": "node", "id": 2994076013, "lat": 36.6213768, "lon": 2.652195, "tags": {"bench": "yes", "highway": "bus_stop", "name": "BOUHAROUN - CEM GOUADRI MOHAMED", "public_transport": "platform", "shelter": "yes"}}, {"type": "node", "id": 2999560187, "lat": 36.612905, "lon": 2.6331553, "tags": {"bench": "yes", "highway": "bus_stop", "name": "CENTRE DE REPOS EL MODJAHIDINE", "public_transport": "platform", "shelter": "yes"}}, {"type": "node", "id": 2999560190, "lat": 36.6003646, "lon": 2.6004376, "tags": {"bench": "yes", "bus": "yes", "highway": "bus_stop", "name": "Cite 100 Logements", "name:ar": "\u0639\u064a\u0646 \u062a\u0642\u0648\u0631\u0627\u064a\u062a - \u062d\u064a 100 \u0645\u0633\u0643\u0646", "name:fr": "Cite 100 Logements", "public_transport": "platform", "shelter": "yes"}}, {"type": "node", "id": 2999560442, "lat": 36.6396975, "lon": 2.6954119, "tags": {"bus": "yes", "highway": "bus_stop", "name": "L'Ofla", "public_transport": "platform"}}, {"type": "node", "id": 3006662195, "lat": 36.5914302, "lon": 2.5586412, "tags": {"bus": "yes", "highway": "bus_stop", "public_transport": "platform"}}, {"type": "node", "id": 3013572930, "lat": 36.6405394, "lon": 2.6861253, "tags": {"bench": "yes", "highway": "bus_stop", "name": "Bousma\u00efl Protection Civile", "public_transport": "platform", "shelter": "yes"}}, {"type": "node", "id": 3013573761, "lat": 36.6696541, "lon": 2.7396403, "tags": {"bench": "yes", "highway": "bus_stop", "name": "FOUKA MARINE", "public_transport": "platform", "shelter": "yes"}}, {"type": "node", "id": 3013573771, "lat": 36.6857247, "lon": 2.7896965, "tags": {"highway": "bus_stop", "name": "PLAGE COLONEL ABBAS", "public_transport": "platform"}}, {"type": "node", "id": 3013574457, "lat": 36.6356065, "lon": 2.6779019, "tags": {"bench": "yes", "bin": "yes", "highway": "bus_stop", "name": "KHEMISTI - STATION SERVICES -", "public_transport": "platform", "shelter": "yes"}}, {"type": "node", "id": 3013575356, "lat": 36.6858155, "lon": 2.7904822, "tags": {"highway": "bus_stop", "name": "PLAGE COLONEL ABBAS", "public_transport": "platform"}}, {"type": "node", "id": 3076816662, "lat": 36.4627389, "lon": 2.7371664, "tags": {"bus": "yes", "highway": "bus_stop", "local_ref": "1er arret", "name": "1er arr\u00eat", "public_transport": "platform"}}, {"type": "node", "id": 3076820417, "lat": 36.4622964, "lon": 2.7446709, "tags": {"bus": "yes", "highway": "bus_stop", "local_ref": "1er arret", "name": "1er arr\u00eat", "public_transport": "platform"}}, {"type": "node", "id": 3090421616, "lat": 36.4618661, "lon": 2.7469633, "tags": {"bus": "yes", "highway": "bus_stop", "name": "Vers Sidi El Madani", "public_transport": "platform"}}, {"type": "node", "id": 3100272535, "lat": 36.4865715, "lon": 2.8396927, "tags": {"bus": "yes", "highway": "bus_stop", "name": "Vers Beni Mered & Kessab", "public_transport": "platform"}}, {"type": "node", "id": 3100272536, "lat": 36.4848077, "lon": 2.8384695, "tags": {"bus": "yes", "highway": "bus_stop", "name": "Ben Boula\u00efd", "public_transport": "platform"}}, {"type": "node", "id": 3100272537, "lat": 36.4856153, "lon": 2.8385219, "tags": {"bus": "yes", "highway": "bus_stop", "name": "Vers Bouarfa & Beb Dzayer", "public_transport": "platform"}}, {"type": "node", "id": 3100272808, "lat": 36.4849514, "lon": 2.8356873, "tags": {"bus": "yes", "highway": "bus_stop", "name": "Vers Bouarfa & Beb Dzair", "public_transport": "platform"}}, {"type": "node", "id": 3100277960, "lat": 36.4745185, "lon": 2.8309397, "tags": {"bus": "yes", "highway": "bus_stop", "name": "Vers Beb Dzayer", "public_transport": "platform"}}, {"type": "node", "id": 3101639548, "lat": 36.4620258, "lon": 2.7461768, "tags": {"bus": "yes", "highway": "bus_stop", "public_transport": "platform"}}, {"type": "node", "id": 3101674652, "lat": 36.462922, "lon": 2.736898, "tags": {"bus": "yes", "highway": "bus_stop", "name": "2eme arr\u00eat", "public_transport": "platform"}}, {"type": "node", "id": 3102177956, "lat": 36.6939331, "lon": 2.8263008, "tags": {"bus": "yes", "highway": "bus_stop", "name": "Cit\u00e9 Police", "public_transport": "platform"}}, {"type": "node", "id": 3130428069, "lat": 36.4968314, "lon": 2.8572598, "tags": {"bus": "yes", "highway": "bus_stop", "name": "La Da\u00efra", "public_transport": "platform"}}, {"type": "node", "id": 3131574323, "lat": 36.4998045, "lon": 2.8606855, "tags": {"bus": "yes", "highway": "bus_stop", "name": "Benyamina", "public_transport": "platform"}}, {"type": "node", "id": 3131582678, "lat": 36.5011228, "lon": 2.8640525, "tags": {"bus": "yes", "highway": "bus_stop", "public_transport": "platform"}}, {"type": "node", "id": 3131582679, "lat": 36.5018688, "lon": 2.8652541, "tags": {"bus": "yes", "highway": "bus_stop", "name": "AADL", "public_transport": "platform"}}, {"type": "node", "id": 3131582680, "lat": 36.5042663, "lon": 2.8719757, "tags": {"bus": "yes", "highway": "bus_stop", "public_transport": "platform"}}, {"type": "node", "id": 3131582681, "lat": 36.5050813, "lon": 2.8731827, "tags": {"bus": "yes", "highway": "bus_stop", "public_transport": "platform"}}, {"type": "node", "id": 3131582682, "lat": 36.5048269, "lon": 2.8733383, "tags": {"bus": "yes", "highway": "bus_stop", "public_transport": "platform"}}, {"type": "node", "id": 3131582683, "lat": 36.5063921, "lon": 2.8772221, "tags": {"bus": "yes", "highway": "bus_stop", "public_transport": "platform"}}, {"type": "node", "id": 3131582686, "lat": 36.5075692, "lon": 2.8794698, "tags": {"bus": "yes", "highway": "bus_stop", "public_transport": "platform"}}, {"type": "node", "id": 3131582687, "lat": 36.5075735, "lon": 2.8800867, "tags": {"bus": "yes", "highway": "bus_stop", "public_transport": "platform"}}, {"type": "node", "id": 3162701017, "lat": 36.6860264, "lon": 2.7932548, "tags": {"bus": "yes", "highway": "bus_stop", "public_transport": "platform"}}, {"type": "node", "id": 3162703584, "lat": 36.6234483, "lon": 2.6548386, "tags": {"bench": "yes", "highway": "bus_stop", "name": "BOUHAROUN - PLACE 1ER NOVEMBRE -", "public_transport": "platform", "shelter": "yes"}}, {"type": "node", "id": 3162704388, "lat": 36.621365, "lon": 2.6518128, "tags": {"bench": "yes", "highway": "bus_stop", "name": "BOUHAROUN - CEM GOUADRI MOHAMED", "public_transport": "platform", "shelter": "yes"}}, {"type": "node", "id": 3163948700, "lat": 36.4771669, "lon": 2.568217, "tags": {"bus": "yes", "highway": "bus_stop", "public_transport": "platform"}}, {"type": "node", "id": 3185250386, "lat": 36.4901682, "lon": 2.8592507, "tags": {"bus": "yes", "highway": "bus_stop", "name": "Lyc\u00e9e technique", "name:ar": "\u0645\u062a\u0642\u0646\u0629", "name:fr": "Lyc\u00e9e technique", "public_transport": "platform", "shelter": "yes"}}, {"type": "node", "id": 3185250387, "lat": 36.4908266, "lon": 2.861811, "tags": {"bus": "yes", "highway": "bus_stop", "name": "Kahoua", "name:ar": "\u0645\u0642\u0647\u0649", "name:fr": "Kahoua", "public_transport": "platform"}}, {"type": "node", "id": 3185250389, "lat": 36.4926726, "lon": 2.8623822, "tags": {"bus": "yes", "highway": "bus_stop", "name": "Zitouna", "name:ar": "\u0632\u064a\u062a\u0648\u0646\u0629", "name:fr": "Zitouna", "public_transport": "platform"}}, {"type": "node", "id": 3186527779, "lat": 36.5898761, "lon": 2.5464426, "tags": {"bus": "yes", "highway": "bus_stop", "name": "Rocher plat", "public_transport": "platform"}}, {"type": "node", "id": 3186527780, "lat": 36.589752, "lon": 2.5470193, "tags": {"bus": "yes", "highway": "bus_stop", "name": "Rocher plat", "public_transport": "platform"}}, {"type": "node", "id": 3207145348, "lat": 36.4785227, "lon": 2.8160657, "tags": {"addr:city": "\u0627\u0644\u0628\u0644\u064a\u062f\u0629", "addr:postcode": "09000", "name": "Blida", "name:ar": "\u0627\u0644\u0628\u0644\u064a\u062f\u0629", "name:en": "Blida", "name:fr": "Blida", "operator": "\u0627\u0644\u0634\u0631\u0643\u0629 \u0627\u0644\u0648\u0637\u0646\u064a\u0629 \u0644\u0644\u0646\u0642\u0644 \u0628\u0627\u0644\u0633\u0643\u0643 \u0627\u0644\u062d\u062f\u064a\u062f\u064a\u0629", "public_transport": "station", "railway": "station", "train": "yes", "usage": "main"}}, {"type": "node", "id": 3250856063, "lat": 36.5235867, "lon": 2.8304684, "tags": {"bus": "yes", "highway": "bus_stop", "public_transport": "platform"}}, {"type": "node", "id": 3259982098, "lat": 36.5007738, "lon": 2.8635833, "tags": {"bus": "yes", "highway": "bus_stop", "name": "Arr\u00eat de bus Stop", "public_transport": "platform"}}, {"type": "node", "id": 3293687058, "lat": 36.6423532, "lon": 2.6900036, "tags": {"bus": "yes", "highway": "bus_stop", "public_transport": "platform"}}, {"type": "node", "id": 3351852499, "lat": 36.2750679, "lon": 2.7611888, "tags": {"bus": "yes", "highway": "bus_stop", "local_ref": "vers tahtouh", "name": "\u0645\u062d\u0637\u0629 \u0637\u062d\u0637\u0648\u062d", "name:ar": "\u0645\u062d\u0637\u0629 \u0637\u062d\u0637\u0648\u062d", "name:fr": "Vers Tahtouh", "public_transport": "platform"}}, {"type": "node", "id": 3377634643, "lat": 36.5350927, "lon": 2.7627323, "tags": {"bus": "yes", "highway": "bus_stop", "public_transport": "platform"}}, {"type": "node", "id": 3377638063, "lat": 36.5412002, "lon": 2.7724959, "tags": {"bus": "yes", "highway": "bus_stop", "public_transport": "platform"}}, {"type": "node", "id": 3377638064, "lat": 36.5408891, "lon": 2.7727272, "tags": {"bus": "yes", "highway": "bus_stop", "public_transport": "platform"}}, {"type": "node", "id": 3389201592, "lat": 36.4749272, "lon": 2.8278638, "tags": {"bus": "yes", "highway": "bus_stop", "name": "L'orangerie", "public_transport": "platform"}}, {"type": "node", "id": 3389208393, "lat": 36.4751014, "lon": 2.8276826, "tags": {"bus": "yes", "highway": "bus_stop", "name": "Arr\u00eat de bus Bab Zaouia", "public_transport": "platform"}}, {"type": "node", "id": 3424197890, "lat": 36.6894983, "lon": 2.8275816, "tags": {"bus": "yes", "highway": "bus_stop", "public_transport": "platform"}}, {"type": "node", "id": 3427843060, "lat": 36.6757153, "lon": 2.8361948, "tags": {"bus": "yes", "highway": "bus_stop", "name": "Plateau", "public_transport": "platform"}}, {"type": "node", "id": 3469955322, "lat": 36.5896468, "lon": 2.4981249, "tags": {"bus": "yes", "highway": "bus_stop", "public_transport": "platform"}}, {"type": "node", "id": 3469955379, "lat": 36.592328, "lon": 2.4575485, "tags": {"bus": "yes", "highway": "bus_stop", "public_transport": "platform"}}, {"type": "node", "id": 3469955387, "lat": 36.5895606, "lon": 2.5060723, "tags": {"bus": "yes", "highway": "bus_stop", "public_transport": "platform"}}, {"type": "node", "id": 3469955388, "lat": 36.5894314, "lon": 2.5054822, "tags": {"bus": "yes", "highway": "bus_stop", "public_transport": "platform"}}, {"type": "node", "id": 3469956020, "lat": 36.592499, "lon": 2.4573582, "tags": {"bus": "yes", "highway": "bus_stop", "public_transport": "platform"}}, {"type": "node", "id": 3471502147, "lat": 36.6222802, "lon": 2.7808987, "tags": {"bus": "yes", "highway": "bus_stop", "public_transport": "platform"}}, {"type": "node", "id": 3515447058, "lat": 36.5998491, "lon": 2.5969562, "tags": {"bench": "yes", "bus": "yes", "highway": "bus_stop", "name": "\u0639\u064a\u0646 \u062a\u0642\u0648\u0631\u0627\u064a\u062a - \u0627\u0644\u0645\u062f\u0631\u0633\u0629 \u0627\u0644\u062b\u0627\u0646\u0648\u064a\u0629 \u0645\u0646\u0649 \u0628\u0646 \u0637\u0627\u0647\u0631", "name:ar": "\u0639\u064a\u0646 \u062a\u0642\u0648\u0631\u0627\u064a\u062a - \u0627\u0644\u0645\u062f\u0631\u0633\u0629 \u0627\u0644\u062b\u0627\u0646\u0648\u064a\u0629 \u0645\u0646\u0649 \u0628\u0646 \u0637\u0627\u0647\u0631", "name:fr": "A\u00cfN TAGOURAIT - LYCEE BENTAHAR MOUNA -", "public_transport": "platform", "shelter": "yes"}}, {"type": "node", "id": 3545245219, "lat": 36.672563, "lon": 2.7874612, "tags": {"bus": "yes", "highway": "bus_stop", "public_transport": "platform"}}, {"type": "node", "id": 3545245230, "lat": 36.671811, "lon": 2.7868858, "tags": {"bus": "yes", "highway": "bus_stop", "local_ref": "Douaouda Kolea", "public_transport": "platform"}}, {"type": "node", "id": 3629637520, "lat": 36.4916968, "lon": 2.8538043, "tags": {"bus": "yes", "highway": "bus_stop", "name": "Bab Sghira", "name:ar": "\u0628\u0627\u0628 \u0635\u063a\u064a\u0631\u0629", "name:fr": "Bab Sghira", "public_transport": "platform"}}, {"type": "node", "id": 3629637521, "lat": 36.4901045, "lon": 2.8536594, "tags": {"bus": "yes", "highway": "bus_stop", "name": "Bab Sghira", "name:ar": "\u0628\u0627\u0628 \u0635\u063a\u064a\u0631\u0629", "name:fr": "Bab Sghira", "public_transport": "platform"}}, {"type": "node", "id": 3633195269, "lat": 36.4962373, "lon": 2.8557292, "tags": {"bus": "yes", "highway": "bus_stop", "public_transport": "platform"}}, {"type": "node", "id": 3633445097, "lat": 36.4929306, "lon": 2.8547407, "tags": {"bus": "yes", "highway": "bus_stop", "name": "1er Mai", "name:ar": "\u062d\u064a \u0623\u0648\u0644 \u0645\u0627\u064a", "name:fr": "1er Mai", "public_transport": "platform"}}, {"type": "node", "id": 3704395045, "lat": 36.4888148, "lon": 2.8503873, "tags": {"bus": "yes", "highway": "bus_stop", "name": "Ben Achour 1", "public_transport": "platform"}}, {"type": "node", "id": 3704407889, "lat": 36.488871, "lon": 2.8501353, "tags": {"bus": "yes", "highway": "bus_stop", "name": "Station de bus Ben Achour 2", "public_transport": "platform"}}, {"type": "node", "id": 3706403251, "lat": 36.640538, "lon": 2.7043533, "tags": {"bus": "yes", "highway": "bus_stop", "public_transport": "platform"}}, {"type": "node", "id": 3768244428, "lat": 36.4767643, "lon": 2.8181366, "tags": {"bench": "no", "bin": "yes", "bus": "yes", "highway": "bus_stop", "lit": "yes", "name": "La gare", "public_transport": "platform", "shelter": "no"}}, {"type": "node", "id": 3768244429, "lat": 36.4757377, "lon": 2.8193972, "tags": {"bus": "yes", "highway": "bus_stop", "name": "Aronda", "public_transport": "platform"}}, {"type": "node", "id": 3778446121, "lat": 36.5795667, "lon": 2.7835215, "tags": {"bus": "yes", "highway": "bus_stop", "name": "arret de bus communale", "public_transport": "platform"}}, {"type": "node", "id": 3778449980, "lat": 36.6765432, "lon": 2.7950432, "tags": {"bus": "yes", "highway": "bus_stop", "public_transport": "platform"}}, {"type": "node", "id": 3778450157, "lat": 36.6024019, "lon": 2.7818509, "tags": {"bus": "yes", "highway": "bus_stop", "public_transport": "platform"}}, {"type": "node", "id": 3900409576, "lat": 36.4893666, "lon": 2.8452884, "tags": {"bus": "yes", "highway": "bus_stop", "public_transport": "platform"}}, {"type": "node", "id": 3900409577, "lat": 36.4867724, "lon": 2.8480524, "tags": {"bus": "yes", "highway": "bus_stop", "name": "March\u00e9", "name:ar": "\u0633\u0648\u0642", "name:fr": "March\u00e9", "public_transport": "platform", "shelter": "yes"}}, {"type": "node", "id": 3903462635, "lat": 36.4966851, "lon": 2.8642125, "tags": {"bus": "yes", "highway": "bus_stop", "name": "La placette", "public_transport": "platform"}}, {"type": "node", "id": 3914381935, "lat": 36.4715648, "lon": 2.8230721, "tags": {"bench": "no", "bin": "yes", "bus": "yes", "check_date:shelter": "2024-01-25", "highway": "bus_stop", "lit": "yes", "name": "Arr\u00eat Bab Essebt vers Bouarfa et Cit\u00e9 Drioueche", "name:ar": "\u0645\u0648\u0642\u0641 \u0627\u0644\u062d\u0627\u0641\u0644\u0627\u062a \u0628\u0627\u0628 \u0627\u0644\u0633\u0628\u062a \u0646\u062d\u0648 \u0628\u0648\u0639\u0631\u0641\u0629 \u0648\u062d\u064a \u062f\u0631\u064a\u0648\u0634", "name:fr": "Arr\u00eat Bab Essebt vers Bouarfa et Cit\u00e9 Drioueche", "public_transport": "platform", "shelter": "yes"}}, {"type": "node", "id": 3914381936, "lat": 36.4687195, "lon": 2.8204798, "tags": {"bus": "yes", "highway": "bus_stop", "name": "Sidi Ya\u00e2koub", "public_transport": "platform"}}, {"type": "node", "id": 3914381937, "lat": 36.4673341, "lon": 2.8184015, "tags": {"bus": "yes", "highway": "bus_stop", "name": "Arr\u00eat 3wawdah", "public_transport": "platform"}}, {"type": "node", "id": 3914381938, "lat": 36.4665251, "lon": 2.8156473, "tags": {"bus": "yes", "highway": "bus_stop", "name": "La mairie", "public_transport": "platform"}}, {"type": "node", "id": 3914381939, "lat": 36.4658011, "lon": 2.8141198, "tags": {"bus": "yes", "highway": "bus_stop", "name": "Les b\u00e2timents", "public_transport": "platform"}}, {"type": "node", "id": 3914381940, "lat": 36.4648423, "lon": 2.8138087, "tags": {"bus": "yes", "highway": "bus_stop", "name": "La mosqu\u00e9e", "public_transport": "platform"}}, {"type": "node", "id": 3914381941, "lat": 36.4634479, "lon": 2.8126134, "tags": {"bus": "yes", "highway": "bus_stop", "name": "Djnane Barza", "public_transport": "platform"}}, {"type": "node", "id": 3986677142, "lat": 36.6398851, "lon": 2.6918237, "tags": {"bus": "yes", "highway": "bus_stop", "name": "El-Batoire", "public_transport": "platform"}}, {"type": "node", "id": 4073998297, "lat": 36.6477436, "lon": 2.7614211, "tags": {"bus": "yes", "highway": "bus_stop", "public_transport": "stop_position"}}, {"type": "node", "id": 4073998303, "lat": 36.6497586, "lon": 2.7647685, "tags": {"bus": "yes", "highway": "bus_stop", "public_transport": "platform"}}, {"type": "node", "id": 4073998344, "lat": 36.6501294, "lon": 2.770126, "tags": {"bus": "yes", "highway": "bus_stop", "public_transport": "platform"}}, {"type": "node", "id": 4073998349, "lat": 36.6502304, "lon": 2.7697484, "tags": {"bus": "yes", "highway": "bus_stop", "public_transport": "platform"}}, {"type": "node", "id": 4154060124, "lat": 36.530218, "lon": 2.8174553, "tags": {"bus": "yes", "highway": "bus_stop", "name": "Zaouia", "public_transport": "platform"}}, {"type": "node", "id": 4168873389, "lat": 36.2721763, "lon": 2.7167947, "tags": {"name": "Gare d\u00e9saffect\u00e9e", "name:ar": "\u0627\u0644\u0645\u062d\u0637\u0629 \u0627\u0644\u0642\u062f\u064a\u0645\u0629", "public_transport": "station", "railway": "station"}}, {"type": "node", "id": 4209990191, "lat": 36.4851538, "lon": 2.7983277, "tags": {"bus": "yes", "highway": "bus_stop", "name": "Arr\u00eat de bus", "public_transport": "platform"}}, {"type": "node", "id": 4248312898, "lat": 36.6260218, "lon": 2.6779614, "tags": {"bus": "yes", "highway": "bus_stop", "name": "taxi", "public_transport": "platform"}}, {"type": "node", "id": 4248317493, "lat": 36.6263766, "lon": 2.678431, "tags": {"bus": "yes", "highway": "bus_stop", "name": "Arr\u00eat de bus", "public_transport": "platform"}}, {"type": "node", "id": 4327870493, "lat": 36.4705238, "lon": 2.8360522, "tags": {"bus": "yes", "highway": "bus_stop", "name": "\u0627\u0644\u0645\u063a\u0631\u0628\u064a", "name:ar": "\u0627\u0644\u0645\u063a\u0631\u0628\u064a", "name:fr": "Maghebi", "public_transport": "platform"}}, {"type": "node", "id": 4383891285, "lat": 36.5351344, "lon": 2.7631425, "tags": {"bus": "yes", "highway": "bus_stop", "public_transport": "platform"}}, {"type": "node", "id": 4383925911, "lat": 36.5023035, "lon": 2.8490745, "tags": {"bus": "yes", "highway": "bus_stop", "name": "La passerelle", "public_transport": "platform"}}, {"type": "node", "id": 4383925912, "lat": 36.5016393, "lon": 2.8489615, "tags": {"bus": "yes", "highway": "bus_stop", "name": "La passerelle", "public_transport": "platform"}}, {"type": "node", "id": 4413238791, "lat": 36.4916102, "lon": 2.8531672, "tags": {"bus": "yes", "highway": "bus_stop", "name": "Bab Sghira", "name:ar": "\u0628\u0627\u0628 \u0635\u063a\u064a\u0631\u0629", "name:fr": "Bab Sghira", "public_transport": "platform"}}, {"type": "node", "id": 4431458533, "lat": 36.6267728, "lon": 2.7402617, "tags": {"bus": "yes", "highway": "bus_stop", "name": "A\u00efn Messoud", "public_transport": "platform"}}, {"type": "node", "id": 4435290189, "lat": 36.4711657, "lon": 2.6905236, "tags": {"bus": "yes", "highway": "bus_stop", "name": "\u0645\u0648\u0642\u0641 \u0627\u0644\u062d\u0627\u0641\u0644\u0627\u062a", "name:ar": "\u0645\u0648\u0642\u0641 \u0627\u0644\u062d\u0627\u0641\u0644\u0627\u062a", "name:fr": "Arr\u00eat de bus", "public_transport": "platform"}}, {"type": "node", "id": 4435290489, "lat": 36.5184294, "lon": 2.7217261, "tags": {"bus": "yes", "highway": "bus_stop", "name": "\u062c\u0648\u0631\u062f\u0629", "name:ar": "\u062c\u0648\u0631\u062f\u0629", "name:fr": "Jordan", "public_transport": "platform"}}, {"type": "node", "id": 4471200494, "lat": 36.6447443, "lon": 2.7738591, "tags": {"bus": "yes", "highway": "bus_stop", "name": "\u062d\u0627\u0641\u0644\u0627\u062a \u0646\u0642\u0644 \u0627\u0644\u0637\u0644\u0628\u0629", "name:ar": "\u062d\u0627\u0641\u0644\u0627\u062a \u0646\u0642\u0644 \u0627\u0644\u0637\u0644\u0628\u0629", "name:en": "Bus Stop", "name:fr": "Arr\u00eat de COUS", "operator": "kol\u00e9a", "public_transport": "platform"}}, {"type": "node", "id": 4478831128, "lat": 36.7022912, "lon": 2.8492427, "tags": {"name": "Z\u00e9ralda", "name:ar": "\u0632\u0631\u0627\u0644\u062f\u0629", "name:fr": "Z\u00e9ralda", "operator": "SNTF", "operator:fr": "SNTF", "public_transport": "station", "railway": "station"}}, {"type": "node", "id": 4505292890, "lat": 36.4736428, "lon": 2.8257971, "tags": {"bus": "yes", "highway": "bus_stop", "name": "\u0645\u062d\u0637\u0629 \u062d\u0627\u0641\u0644\u0627\u062a \u0628\u0627\u0628 \u0627\u0644\u0633\u0628\u062a", "name:ar": "\u0645\u0648\u0642\u0641 \u062d\u0627\u0641\u0644\u0627\u062a \u0628\u0627\u0628 \u0627\u0644\u0633\u0628\u062a", "name:en": "Bab Essebt Bus Station", "name:fr": "Station de Bus Bab Essebt", "public_transport": "platform"}}, {"type": "node", "id": 4510494391, "lat": 36.3717908, "lon": 2.4744487, "tags": {"bus": "yes", "highway": "bus_stop", "name": "Station de bus", "name:ar": "\u0645\u062d\u0637\u0629 \u0627\u0644\u062d\u0627\u0641\u0644\u0627\u062a \u0628\u0648\u0645\u062f\u0641\u0639", "public_transport": "platform"}}, {"type": "node", "id": 4510506194, "lat": 36.3684199, "lon": 2.479496, "tags": {"bus": "yes", "highway": "bus_stop", "name": "Arr\u00eat de bus", "name:ar": "\u0645\u062d\u0637\u0629 \u0646\u0642\u0644 \u0627\u0644\u0645\u0633\u0627\u0641\u0631\u064a\u0646", "public_transport": "platform"}}, {"type": "node", "id": 4510537690, "lat": 36.3660832, "lon": 2.4604685, "tags": {"bus": "yes", "highway": "bus_stop", "name": "Boumedfaa - Hammam Righa", "name:ar": "\u0645\u062d\u0637\u0629 \u0627\u0644\u062d\u0627\u0641\u0644\u0627\u062a \u0628\u0648\u0645\u062f\u0641\u0639 \u062d\u0645\u0627\u0645 \u0631\u064a\u063a\u0629", "name:fr": "Boumedfaa - Hammam Righa", "public_transport": "platform"}}, {"type": "node", "id": 4536378689, "lat": 36.516947, "lon": 2.7995924, "tags": {"bus": "yes", "highway": "bus_stop", "name": "Arret de bus Zaouia", "public_transport": "platform"}}, {"type": "node", "id": 4545152674, "lat": 36.48536, "lon": 2.8461769, "tags": {"bus": "yes", "highway": "bus_stop", "name": "Arr\u00eat de Bus Yassa", "public_transport": "platform"}}, {"type": "node", "id": 4545152675, "lat": 36.4838461, "lon": 2.8434786, "tags": {"bus": "yes", "highway": "bus_stop", "name": "Arr\u00eat de Bus 19 Juin", "public_transport": "platform"}}, {"type": "node", "id": 4545152676, "lat": 36.4822459, "lon": 2.8410753, "tags": {"bus": "yes", "highway": "bus_stop", "name": "Arr\u00eat de Bus Boukri", "public_transport": "platform"}}, {"type": "node", "id": 4545153747, "lat": 36.4787511, "lon": 2.8373363, "tags": {"bus": "yes", "highway": "bus_stop", "name": "Arr\u00eat de bus Bensafar", "public_transport": "platform"}}, {"type": "node", "id": 4545153748, "lat": 36.47615, "lon": 2.8354373, "tags": {"bus": "yes", "highway": "bus_stop", "name": "Arr\u00eat de bus Bencherchali", "public_transport": "platform"}}, {"type": "node", "id": 4599610590, "lat": 36.4774646, "lon": 2.5610475, "tags": {"bus": "yes", "highway": "bus_stop", "public_transport": "platform"}}, {"type": "node", "id": 4624287996, "lat": 36.6494835, "lon": 2.7668665, "tags": {"bus": "yes", "highway": "bus_stop", "name": "Arret de bus rsta", "name:fr": "Arret de bus rsta", "public_transport": "platform"}}, {"type": "node", "id": 4624287997, "lat": 36.6469855, "lon": 2.759142, "tags": {"bus": "yes", "highway": "bus_stop", "name": "Arret de bus rsta", "name:fr": "Arret de bus rsta", "public_transport": "platform"}}, {"type": "node", "id": 4635195190, "lat": 36.6489646, "lon": 2.76258, "tags": {"bus": "yes", "highway": "bus_stop", "public_transport": "platform"}}, {"type": "node", "id": 4707741889, "lat": 36.6615374, "lon": 2.7415574, "tags": {"bus": "yes", "highway": "bus_stop", "name": "Stations De Taxi", "name:fr": "Stations De Taxi", "public_transport": "platform"}}, {"type": "node", "id": 5039352741, "lat": 36.5253815, "lon": 2.8714814, "tags": {"bus": "yes", "highway": "bus_stop", "public_transport": "platform"}}, {"type": "node", "id": 5039356423, "lat": 36.4936783, "lon": 2.8437758, "tags": {"bus": "yes", "highway": "bus_stop", "name:fr": "Family shop", "public_transport": "platform"}}, {"type": "node", "id": 5039362825, "lat": 36.5234713, "lon": 2.862161, "tags": {"bus": "yes", "highway": "bus_stop", "public_transport": "platform"}}, {"type": "node", "id": 5071334398, "lat": 36.4960621, "lon": 2.4724264, "tags": {"bus": "yes", "highway": "bus_stop", "public_transport": "platform"}}, {"type": "node", "id": 5071334399, "lat": 36.4959935, "lon": 2.4720849, "tags": {"bus": "yes", "highway": "bus_stop", "public_transport": "platform"}}, {"type": "node", "id": 5150267129, "lat": 36.5765893, "lon": 2.4982401, "tags": {"bus": "yes", "highway": "bus_stop", "public_transport": "platform"}}, {"type": "node", "id": 5204892759, "lat": 36.5669894, "lon": 2.9142791, "tags": {"addr:city": "\u0628\u0648\u0641\u0627\u0631\u064a\u0643", "name": "Boufarik", "name:ar": "\u0628\u0648\u0641\u0627\u0631\u064a\u0643", "name:fr": "Boufarik", "public_transport": "station", "railway": "station"}}, {"type": "node", "id": 5237994737, "lat": 36.5737447, "lon": 2.9065965, "tags": {"bus": "yes", "highway": "bus_stop", "public_transport": "platform"}}, {"type": "node", "id": 5317310932, "lat": 36.5579396, "lon": 2.6901329, "tags": {"bus": "yes", "highway": "bus_stop", "name:fr": "Bouchwaw", "public_transport": "platform"}}, {"type": "node", "id": 5397813380, "lat": 36.6973478, "lon": 2.8672734, "tags": {"highway": "bus_stop", "name": "Nouvelle cit\u00e9 11 d\u00e9cembre 1960", "public_transport": "platform"}}, {"type": "node", "id": 5397813381, "lat": 36.6837828, "lon": 2.8787076, "tags": {"highway": "bus_stop", "name": "PLACE 11 DECEMBRE 1960", "public_transport": "platform"}}, {"type": "node", "id": 5397813382, "lat": 36.6903946, "lon": 2.8707898, "tags": {"highway": "bus_stop", "name": "CITE UNIVERSITAIRE", "public_transport": "platform"}}, {"type": "node", "id": 5397813384, "lat": 36.7009672, "lon": 2.8581405, "tags": {"bus": "yes", "highway": "bus_stop", "name": "Centre cyn\u00e9g\u00e9tique de Z\u00e9ralda", "name:fr": "Centre cyn\u00e9g\u00e9tique de Z\u00e9ralda", "public_transport": "platform"}}, {"type": "node", "id": 5397813386, "lat": 36.6820426, "lon": 2.8779392, "tags": {"bench": "yes", "highway": "bus_stop", "name": "MAHELMA", "public_transport": "platform", "shelter": "yes"}}, {"type": "node", "id": 5397813388, "lat": 36.677849, "lon": 2.8806578, "tags": {"bench": "yes", "highway": "bus_stop", "name": "Mosqu\u00e9e Okba Ibn Nafaa", "name:fr": "Mosqu\u00e9e Okba Ibn Nafaa", "public_transport": "platform", "shelter": "yes"}}, {"type": "node", "id": 5397813390, "lat": 36.6750631, "lon": 2.8854088, "tags": {"highway": "bus_stop", "name": "CITE AADL SIDI ABD ALLAH", "public_transport": "platform"}}, {"type": "node", "id": 5397854228, "lat": 36.6747395, "lon": 2.8856318, "tags": {"highway": "bus_stop", "name": "CITE AADL SIDI ABD ALLAH", "public_transport": "platform"}}, {"type": "node", "id": 5397854229, "lat": 36.677663, "lon": 2.8804886, "tags": {"bench": "yes", "highway": "bus_stop", "name": "Mosqu\u00e9e Okba Ibn Nafaa", "name:fr": "Mosqu\u00e9e Okba Ibn Nafaa", "public_transport": "platform", "shelter": "yes"}}, {"type": "node", "id": 5397854230, "lat": 36.6819587, "lon": 2.8776428, "tags": {"bench": "yes", "highway": "bus_stop", "name": "MAHELMA", "public_transport": "platform", "shelter": "yes"}}, {"type": "node", "id": 5397854231, "lat": 36.6839333, "lon": 2.8784716, "tags": {"highway": "bus_stop", "name": "PLACE 11 DECEMBRE 1960", "public_transport": "platform"}}, {"type": "node", "id": 5397854232, "lat": 36.6902484, "lon": 2.8705081, "tags": {"highway": "bus_stop", "name": "CITE UNIVERSITAIRE", "public_transport": "platform"}}, {"type": "node", "id": 5397854233, "lat": 36.6964381, "lon": 2.8680593, "tags": {"highway": "bus_stop", "name": "Nouvelle cit\u00e9 11 d\u00e9cembre 1960", "public_transport": "platform"}}, {"type": "node", "id": 5398740346, "lat": 36.7188595, "lon": 2.8410414, "tags": {"bench": "yes", "highway": "bus_stop", "name": "COMPLEXE TOURISTIQUE", "public_transport": "platform", "shelter": "yes"}}, {"type": "node", "id": 5398740347, "lat": 36.7195437, "lon": 2.8500857, "tags": {"bench": "yes", "bus": "yes", "highway": "bus_stop", "name": "Z\u00e9ralda - Protection civile", "name:fr": "Z\u00e9ralda - Protection civile", "public_transport": "platform", "shelter": "yes"}}, {"type": "node", "id": 5398805089, "lat": 36.7194271, "lon": 2.8415215, "tags": {"bench": "yes", "highway": "bus_stop", "name": "COMPLEXE TOURISTIQUE", "public_transport": "platform", "shelter": "yes"}}, {"type": "node", "id": 5398805090, "lat": 36.719412, "lon": 2.8496727, "tags": {"bench": "yes", "highway": "bus_stop", "name": "Z\u00e9ralda Protection Civile", "public_transport": "platform", "shelter": "yes"}}, {"type": "node", "id": 5398805091, "lat": 36.7271626, "lon": 2.8541333, "tags": {"highway": "bus_stop", "name": "Azure Plage", "public_transport": "platform"}}, {"type": "node", "id": 5399786070, "lat": 36.6959965, "lon": 2.8147993, "tags": {"highway": "bus_stop", "name": "DOMAINE KHALLOUFI", "public_transport": "platform"}}, {"type": "node", "id": 5399786071, "lat": 36.6961302, "lon": 2.8146254, "tags": {"highway": "bus_stop", "name": "DOMAINE KHALLOUFI", "public_transport": "platform"}}, {"type": "node", "id": 5399786072, "lat": 36.6611525, "lon": 2.7201463, "tags": {"bench": "yes", "highway": "bus_stop", "name": "CDER - UDES", "public_transport": "platform", "shelter": "yes"}}, {"type": "node", "id": 5399786073, "lat": 36.6608291, "lon": 2.7204107, "tags": {"bench": "yes", "highway": "bus_stop", "name": "CDER - UDES", "public_transport": "platform", "shelter": "yes"}}, {"type": "node", "id": 5399786074, "lat": 36.6825899, "lon": 2.780148, "tags": {"bench": "yes", "bus": "yes", "highway": "bus_stop", "name": "CRF* DOUAOUDA", "public_transport": "platform", "shelter": "yes"}}, {"type": "node", "id": 5399786075, "lat": 36.6827208, "lon": 2.7800747, "tags": {"bench": "yes", "bus": "yes", "highway": "bus_stop", "name": "CRF* DOUAOUDA", "public_transport": "platform", "shelter": "yes"}}, {"type": "node", "id": 5399786076, "lat": 36.6233853, "lon": 2.655006, "tags": {"bench": "yes", "highway": "bus_stop", "name": "BOUHAROUN - PLACE 1ER NOVEMBRE -", "public_transport": "platform", "shelter": "yes"}}, {"type": "node", "id": 5399786077, "lat": 36.6098309, "lon": 2.6259041, "tags": {"bench": "yes", "highway": "bus_stop", "name": "A\u00cfN TAGOURAIT - CITE 140 Logts -", "public_transport": "platform", "shelter": "yes"}}, {"type": "node", "id": 5399786078, "lat": 36.600878, "lon": 2.6044893, "tags": {"bench": "yes", "highway": "bus_stop", "name": "A\u00cfN TAGOURAIT - CFPA KRACHENI MOHAMED -", "public_transport": "platform", "shelter": "yes"}}, {"type": "node", "id": 5399786079, "lat": 36.6005291, "lon": 2.5994414, "tags": {"bench": "yes", "bus": "yes", "highway": "bus_stop", "name": "Cit\u00e9 100 logements", "name:ar": "\u0639\u064a\u0646 \u062a\u0642\u0648\u0631\u0627\u064a\u062a - \u062d\u064a 100 \u0645\u0633\u0643\u0646", "name:fr": "Cit\u00e9 100 logements", "public_transport": "platform", "shelter": "yes"}}, {"type": "node", "id": 5399786080, "lat": 36.6041434, "lon": 2.6125722, "tags": {"bus": "yes", "highway": "bus_stop", "name": "\u0639\u064a\u0646 \u062a\u0642\u0648\u0631\u0627\u064a\u062a - \u0627\u0644\u0645\u062f\u0631\u0633\u0629 \u0627\u0644\u0627\u0628\u062a\u062f\u0627\u0626\u064a\u0629 \u064a\u0648\u0633 \u0639\u0628\u062f \u0627\u0644\u0644\u0647", "name:ar": "\u0639\u064a\u0646 \u062a\u0642\u0648\u0631\u0627\u064a\u062a - \u0627\u0644\u0645\u062f\u0631\u0633\u0629 \u0627\u0644\u0627\u0628\u062a\u062f\u0627\u0626\u064a\u0629 \u064a\u0648\u0633 \u0639\u0628\u062f \u0627\u0644\u0644\u0647", "name:fr": "A\u00cfN TAGOURAIT - CEM YOUS ABD ALLAH -", "public_transport": "platform"}}, {"type": "node", "id": 5399786081, "lat": 36.6041423, "lon": 2.612367, "tags": {"bench": "yes", "bus": "yes", "highway": "bus_stop", "name": "\u0639\u064a\u0646 \u062a\u0642\u0648\u0631\u0627\u064a\u062a - \u0627\u0644\u0645\u062f\u0631\u0633\u0629 \u0627\u0644\u0627\u0628\u062a\u062f\u0627\u0626\u064a\u0629 \u064a\u0648\u0633 \u0639\u0628\u062f \u0627\u0644\u0644\u0647", "name:ar": "\u0639\u064a\u0646 \u062a\u0642\u0648\u0631\u0627\u064a\u062a - \u0627\u0644\u0645\u062f\u0631\u0633\u0629 \u0627\u0644\u0627\u0628\u062a\u062f\u0627\u0626\u064a\u0629 \u064a\u0648\u0633 \u0639\u0628\u062f \u0627\u0644\u0644\u0647", "name:fr": "A\u00cfN TAGOURAIT - CEM YOUS ABD ALLAH -", "public_transport": "platform", "shelter": "yes"}}, {"type": "node", "id": 5399786082, "lat": 36.6263645, "lon": 2.6611537, "tags": {"bench": "yes", "highway": "bus_stop", "name": "ENTREE BOUHAROUN", "public_transport": "platform", "shelter": "yes"}}, {"type": "node", "id": 5399786083, "lat": 36.6311905, "lon": 2.670536, "tags": {"bench": "yes", "highway": "bus_stop", "name": "ENTREE BOUHAROUN", "public_transport": "platform", "shelter": "yes"}}, {"type": "node", "id": 5399786084, "lat": 36.6331707, "lon": 2.6737332, "tags": {"bench": "yes", "highway": "bus_stop", "name": "KHEMISTI MARINE - PORT -", "public_transport": "platform", "shelter": "yes"}}, {"type": "node", "id": 5399786085, "lat": 36.6425137, "lon": 2.6893839, "tags": {"bench": "yes", "highway": "bus_stop", "name": "BOU ISMA\u00cfL - LA POSTE -", "public_transport": "platform", "shelter": "yes"}}, {"type": "node", "id": 5470412722, "lat": 36.5331649, "lon": 2.8783507, "tags": {"bus": "yes", "highway": "bus_stop", "name": "Guerouaou", "name:ar": "\u06a8\u0631\u0648\u0627\u0648", "name:en": "Guerouaou", "name:fr": "Guerouaou", "public_transport": "platform"}}, {"type": "node", "id": 5719891831, "lat": 36.7267388, "lon": 2.8538704, "tags": {"highway": "bus_stop", "name": "Azure Plage", "public_transport": "platform"}}, {"type": "node", "id": 5719891834, "lat": 36.7130134, "lon": 2.8345585, "tags": {"bench": "yes", "bin": "yes", "bus": "yes", "covered": "yes", "highway": "bus_stop", "name": "Z\u00e9ralda S.M.M", "public_transport": "platform", "shelter": "yes"}}, {"type": "node", "id": 5750244233, "lat": 36.4786774, "lon": 2.834643, "tags": {"bus": "yes", "highway": "bus_stop", "name": "Maison de jeunes", "public_transport": "platform"}}, {"type": "node", "id": 5843966288, "lat": 36.4894125, "lon": 2.8261021, "tags": {"bus": "yes", "highway": "bus_stop", "public_transport": "platform"}}, {"type": "node", "id": 5843966289, "lat": 36.4851265, "lon": 2.8138179, "tags": {"bus": "yes", "highway": "bus_stop", "public_transport": "platform"}}, {"type": "node", "id": 5843966386, "lat": 36.4879115, "lon": 2.8183826, "tags": {"bus": "yes", "highway": "bus_stop", "public_transport": "platform"}}, {"type": "node", "id": 5843966387, "lat": 36.4886563, "lon": 2.8283566, "tags": {"bus": "yes", "highway": "bus_stop", "public_transport": "platform"}}, {"type": "node", "id": 5843971585, "lat": 36.488999, "lon": 2.8226368, "tags": {"bus": "yes", "highway": "bus_stop", "public_transport": "platform"}}, {"type": "node", "id": 5843971685, "lat": 36.4874106, "lon": 2.8332583, "tags": {"bus": "yes", "highway": "bus_stop", "public_transport": "platform"}}, {"type": "node", "id": 5843971686, "lat": 36.4883912, "lon": 2.8384109, "tags": {"bus": "yes", "highway": "bus_stop", "public_transport": "platform"}}, {"type": "node", "id": 5843977385, "lat": 36.4836159, "lon": 2.8083809, "tags": {"bus": "yes", "highway": "bus_stop", "public_transport": "platform"}}, {"type": "node", "id": 5843977585, "lat": 36.4787328, "lon": 2.8037447, "tags": {"bus": "yes", "highway": "bus_stop", "public_transport": "platform"}}, {"type": "node", "id": 5844347992, "lat": 36.4945803, "lon": 2.8629216, "tags": {"bus": "yes", "highway": "bus_stop", "name": "Centre de Formation", "name:ar": "\u0645\u0631\u0643\u0632 \u0627\u0644\u062a\u0643\u0648\u064a\u0646 \u0627\u0644\u0645\u0647\u0646\u064a", "name:fr": "Centre de Formation", "public_transport": "platform"}}, {"type": "node", "id": 5859356986, "lat": 36.474691, "lon": 2.8275642, "tags": {"highway": "bus_stop", "name": "\u0641\u0631\u0648\u062f\u0627\u0631", "name:ar": "\u0641\u0631\u0648\u062f\u0627\u0631", "name:fr": "Frou Dare", "operator": "0657115467"}}, {"type": "node", "id": 6005203604, "lat": 36.5174723, "lon": 2.7997193, "tags": {"bus": "yes", "highway": "bus_stop", "name": "Arret de bus Zaouia", "public_transport": "platform"}}, {"type": "node", "id": 6005343666, "lat": 36.5252925, "lon": 2.7973884, "tags": {"bus": "yes", "highway": "bus_stop", "name": "arret de bus Zaouia", "public_transport": "platform"}}, {"type": "node", "id": 6005343667, "lat": 36.5353058, "lon": 2.7951086, "tags": {"bus": "yes", "highway": "bus_stop", "name": "arret de bus", "public_transport": "platform"}}, {"type": "node", "id": 6005343668, "lat": 36.5485092, "lon": 2.7914152, "tags": {"bus": "yes", "highway": "bus_stop", "name": "arret de bus", "public_transport": "platform"}}, {"type": "node", "id": 6005343669, "lat": 36.5528186, "lon": 2.7915117, "tags": {"bus": "yes", "highway": "bus_stop", "name": "arret de bus Oued El Alleug \u0645\u062d\u0637\u0629 \u0644\u0644\u062d\u0627\u0641\u0644\u0627\u062a \u0648\u0627\u062f\u064a \u0627\u0644\u0639\u0644\u0627\u064a\u0642", "name:ar": "\u0645\u062d\u0637\u0629 \u0644\u0644\u062d\u0627\u0641\u0644\u0627\u062a \u0648\u0627\u062f\u064a \u0627\u0644\u0639\u0644\u0627\u064a\u0642", "name:fr": "arret de bus Oued El Alleug", "public_transport": "platform"}}, {"type": "node", "id": 6005343670, "lat": 36.5525536, "lon": 2.791222, "tags": {"bus": "yes", "highway": "bus_stop", "name": "arret de bus Oued El Alleug \u0645\u062d\u0637\u0629 \u0644\u0644\u062d\u0627\u0641\u0644\u0627\u062a \u0648\u0627\u062f\u064a \u0627\u0644\u0639\u0644\u0627\u064a\u0642", "name:ar": "\u0645\u062d\u0637\u0629 \u0644\u0644\u062d\u0627\u0641\u0644\u0627\u062a \u0648\u0627\u062f\u064a \u0627\u0644\u0639\u0644\u0627\u064a\u0642", "name:fr": "arret de bus Oued El Alleug", "public_transport": "platform"}}, {"type": "node", "id": 6005343671, "lat": 36.5560117, "lon": 2.7894893, "tags": {"bus": "yes", "highway": "bus_stop", "name": "arret de bus Oued El Alleug \u0645\u062d\u0637\u0629 \u0644\u0644\u062d\u0627\u0641\u0644\u0627\u062a \u0648\u0627\u062f\u064a \u0627\u0644\u0639\u0644\u0627\u064a\u0642", "name:ar": "\u0645\u062d\u0637\u0629 \u0644\u0644\u062d\u0627\u0641\u0644\u0627\u062a \u0648\u0627\u062f\u064a \u0627\u0644\u0639\u0644\u0627\u064a\u0642", "name:fr": "arret de bus Oued El Alleug", "public_transport": "platform"}}, {"type": "node", "id": 6005343672, "lat": 36.5794626, "lon": 2.783213, "tags": {"bus": "yes", "highway": "bus_stop", "name": "arret de bus communale", "public_transport": "platform"}}, {"type": "node", "id": 6024993742, "lat": 36.6501743, "lon": 2.6933373, "tags": {"highway": "bus_stop"}}, {"type": "node", "id": 6162361785, "lat": 36.4779687, "lon": 2.815906, "tags": {"highway": "bus_stop", "name": "\u0641\u0631\u0648\u062f\u0627\u0631", "name:ar": "\u0641\u0631\u0648\u062f\u0627\u0631", "name:en": "Froud", "name:fr": "Froudar", "operator": "0657115467"}}, {"type": "node", "id": 6162380285, "lat": 36.4288207, "lon": 2.8837782, "tags": {"highway": "bus_stop", "name": "\u0641\u0631\u0648\u062f\u0627\u0631", "name:ar": "\u0641\u0631\u0648\u062f\u0627\u0631", "name:en": "Froud", "name:fr": "Froudar"}}, {"type": "node", "id": 6403608686, "lat": 36.5906242, "lon": 2.4490348, "tags": {"bus": "yes", "highway": "bus_stop", "public_transport": "platform"}}, {"type": "node", "id": 6909409790, "lat": 36.6973294, "lon": 2.8633389, "tags": {"highway": "bus_stop"}}, {"type": "node", "id": 7716103477, "lat": 36.5940364, "lon": 2.4155753, "tags": {"highway": "bus_stop"}}, {"type": "node", "id": 8071309445, "lat": 36.5679969, "lon": 2.9323329, "tags": {"bus": "yes", "highway": "bus_stop", "public_transport": "platform", "source": "superadlen"}}, {"type": "node", "id": 9022502419, "lat": 36.4890312, "lon": 2.8276419, "tags": {"highway": "bus_stop"}}, {"type": "node", "id": 11118097377, "lat": 36.6156251, "lon": 2.6402909, "tags": {"highway": "bus_stop"}}]}