{"version": 0.6, "generator": "Overpass API 0.7.62.5 1bd436f1", "osm3s": {"timestamp_osm_base": "2025-04-09T14:31:06Z", "copyright": "The data included in this document is from www.openstreetmap.org. The data is made available under ODbL."}, "elements": [{"type": "node", "id": 1585031955, "lat": 41.2616043, "lon": 1.1741729, "tags": {"classification:adif": "apartadero", "name": "Alcover", "name:ca": "Alcover", "operator": "Adif", "public_transport": "station", "railway": "station", "uic_ref": "7173101", "wikidata": "Q8779231", "wikipedia": "ca:Estaci\u00f3 d'Alcover"}}, {"type": "node", "id": 7546055555, "lat": 41.2627409, "lon": 1.1719325, "tags": {"bus": "yes", "highway": "bus_stop", "operator": "Generalitat de Catalunya", "public_transport": "stop_position"}}, {"type": "node", "id": 11266922465, "lat": 41.2113494, "lon": 1.1424733, "tags": {"bus": "yes", "highway": "bus_stop", "public_transport": "platform", "shelter": "yes"}}, {"type": "node", "id": 11271757639, "lat": 41.2135874, "lon": 1.1384993, "tags": {"bus": "yes", "departures_board": "timetable", "highway": "bus_stop", "public_transport": "platform"}}, {"type": "node", "id": 12067837629, "lat": 41.2606756, "lon": 1.166933, "tags": {"bus": "yes", "highway": "bus_stop", "name": "Alcover Bus escolar", "public_transport": "platform"}}, {"type": "node", "id": 12067837630, "lat": 41.2606144, "lon": 1.167001, "tags": {"bus": "yes", "highway": "bus_stop", "name": "Alcover", "public_transport": "platform"}}, {"type": "node", "id": 12067837631, "lat": 41.2113967, "lon": 1.1425224, "tags": {"bus": "yes", "highway": "bus_stop", "name": "La Selva del Camp", "public_transport": "platform"}}]}