{"version": 0.6, "generator": "Overpass API 0.7.62.5 1bd436f1", "osm3s": {"timestamp_osm_base": "2025-04-09T14:34:15Z", "copyright": "The data included in this document is from www.openstreetmap.org. The data is made available under ODbL."}, "elements": [{"type": "node", "id": 255381371, "lat": 42.4444401, "lon": 1.1354519, "tags": {"bus": "yes", "highway": "bus_stop", "name": "Rialp", "public_transport": "stop_position", "route_ref": "L1645 L0092"}}, {"type": "node", "id": 259453801, "lat": 42.2230287, "lon": 1.3336527, "tags": {"bus": "yes", "highway": "bus_stop", "name": "Hostal Nou", "public_transport": "stop_position", "route_ref": "L0576"}}, {"type": "node", "id": 262621771, "lat": 42.2235816, "lon": 1.3339609, "tags": {"bus": "yes", "highway": "bus_stop", "name": "Hostal Nou", "public_transport": "stop_position", "route_ref": "L0576"}}, {"type": "node", "id": 371808962, "lat": 42.1165582, "lon": 1.0440959, "tags": {"bus": "yes", "highway": "bus_stop", "name": "Isona", "public_transport": "stop_position", "route_ref": "L0092"}}, {"type": "node", "id": 1706273525, "lat": 42.3595708, "lon": 1.07974, "tags": {"bus": "yes", "highway": "bus_stop", "name": "Baro", "name:ca": "Baro", "public_transport": "stop_position", "route_ref": "L1645 L0092"}}, {"type": "node", "id": 1905681796, "lat": 42.5495495, "lon": 1.1565154, "tags": {"bus": "yes", "highway": "bus_stop", "name": "Escal\u00f3", "name:ca": "Escal\u00f3", "public_transport": "stop_position", "route_ref": "L1645 L0092"}}, {"type": "node", "id": 1905681804, "lat": 42.3241015, "lon": 1.0653582, "tags": {"bus": "yes", "highway": "bus_stop", "name": "Gerri de la Sal", "name:ca": "Gerri de la Sal", "public_transport": "stop_position", "route_ref": "L1645 L0092"}}, {"type": "node", "id": 1905681819, "lat": 42.3830418, "lon": 1.1154993, "tags": {"bus": "yes", "highway": "bus_stop", "name": "Montardit de Baix", "name:ca": "Montardit de Baix", "public_transport": "stop_position", "route_ref": "L1645 L0092"}}, {"type": "node", "id": 1905681823, "lat": 42.4119694, "lon": 1.1317339, "tags": {"bus": "yes", "highway": "bus_stop", "name": "Sort", "name:ca": "Sort", "public_transport": "stop_position", "route_ref": "L1645 L0092"}}, {"type": "node", "id": 3463653105, "lat": 42.0943307, "lon": 1.0949169, "tags": {"bus": "yes", "highway": "bus_stop", "name": "Biscarri", "public_transport": "stop_position", "route_ref": "L0092"}}, {"type": "node", "id": 4260047373, "lat": 42.1726891, "lon": 1.3207196, "tags": {"bus": "yes", "highway": "bus_stop", "name": "Coll de Narg\u00f3", "public_transport": "platform", "route_ref": "L0576"}}, {"type": "node", "id": 5810100742, "lat": 42.3599298, "lon": 1.0838218, "tags": {"bus": "yes", "highway": "bus_stop", "name": "Baro", "public_transport": "platform", "route_ref": "L1645 L0092"}}, {"type": "node", "id": 5810101057, "lat": 42.3598853, "lon": 1.083924, "tags": {"bus": "yes", "highway": "bus_stop", "name": "Baro", "public_transport": "stop_position", "route_ref": "L1645 L0092"}}, {"type": "node", "id": 7157676604, "lat": 42.1727069, "lon": 1.3206682, "tags": {"bus": "yes", "highway": "bus_stop", "name": "Coll de Narg\u00f3", "public_transport": "stop_position", "route_ref": "L0576"}}, {"type": "node", "id": 7770126128, "lat": 42.4581088, "lon": 0.9894476, "tags": {"bus": "yes", "highway": "bus_stop", "public_transport": "stop_position"}}, {"type": "node", "id": 10810548857, "lat": 42.1401542, "lon": 1.0413963, "tags": {"bus": "yes", "highway": "bus_stop", "name": "Sant Rom\u00e0 d'Abella", "public_transport": "platform", "shelter": "yes"}}, {"type": "node", "id": 11243080082, "lat": 42.4444314, "lon": 1.1353758, "tags": {"bus": "yes", "highway": "bus_stop", "name": "Rialp", "public_transport": "platform", "route_ref": "L1645 L0092"}}, {"type": "node", "id": 12048903527, "lat": 42.324077, "lon": 1.0654191, "tags": {"bus": "yes", "highway": "bus_stop", "name": "Gerri de la Sal", "public_transport": "platform", "route_ref": "L1645 L0092"}}, {"type": "node", "id": 12048903529, "lat": 42.3829594, "lon": 1.1156595, "tags": {"bus": "yes", "highway": "bus_stop", "name": "Montardit de Baix", "public_transport": "platform", "route_ref": "L1645 L0092"}}, {"type": "node", "id": 12048903530, "lat": 42.4119372, "lon": 1.1318615, "tags": {"bus": "yes", "highway": "bus_stop", "name": "Sort", "public_transport": "platform", "route_ref": "L1645 L0092"}}, {"type": "node", "id": 12048903531, "lat": 42.4444659, "lon": 1.1354508, "tags": {"bus": "yes", "highway": "bus_stop", "name": "Rialp", "public_transport": "stop_position", "route_ref": "L1645 L0092"}}, {"type": "node", "id": 12048903532, "lat": 42.4444679, "lon": 1.1354923, "tags": {"bus": "yes", "highway": "bus_stop", "name": "Rialp", "public_transport": "platform", "route_ref": "L1645 L0092"}}, {"type": "node", "id": 12048903534, "lat": 42.4959634, "lon": 1.211575, "tags": {"bus": "yes", "highway": "bus_stop", "name": "Llavors\u00ed", "public_transport": "platform", "route_ref": "L1645 L0092"}}, {"type": "node", "id": 12048903535, "lat": 42.549613, "lon": 1.1564288, "tags": {"bus": "yes", "highway": "bus_stop", "name": "Escal\u00f3", "public_transport": "stop_position", "route_ref": "L1645 L0092"}}, {"type": "node", "id": 12048903536, "lat": 42.5496408, "lon": 1.156464, "tags": {"bus": "yes", "highway": "bus_stop", "name": "Escal\u00f3", "public_transport": "platform", "route_ref": "L1645 L0092"}}, {"type": "node", "id": 12054687981, "lat": 42.549514, "lon": 1.1564725, "tags": {"bus": "yes", "highway": "bus_stop", "name": "Escal\u00f3", "public_transport": "platform", "route_ref": "L1645 L0092"}}, {"type": "node", "id": 12054687983, "lat": 42.4118501, "lon": 1.1319356, "tags": {"bus": "yes", "highway": "bus_stop", "name": "Sort", "public_transport": "stop_position", "route_ref": "L1645 L0092"}}, {"type": "node", "id": 12054687984, "lat": 42.382996, "lon": 1.1154495, "tags": {"bus": "yes", "highway": "bus_stop", "name": "Montardit de Baix", "public_transport": "stop_position", "route_ref": "L1645 L0092"}}, {"type": "node", "id": 12054687985, "lat": 42.3830544, "lon": 1.1153425, "tags": {"bus": "yes", "highway": "bus_stop", "name": "Montardit de Baix", "public_transport": "platform", "route_ref": "L1645 L0092"}}, {"type": "node", "id": 12054687986, "lat": 42.3241352, "lon": 1.0653788, "tags": {"bus": "yes", "highway": "bus_stop", "name": "Gerri de la Sal", "public_transport": "stop_position", "route_ref": "L1645 L0092"}}, {"type": "node", "id": 12054687987, "lat": 42.324139, "lon": 1.0653271, "tags": {"bus": "yes", "highway": "bus_stop", "name": "Gerri de la Sal", "public_transport": "platform", "route_ref": "L1645 L0092"}}, {"type": "node", "id": 12056120521, "lat": 42.0940324, "lon": 1.0949645, "tags": {"bus": "yes", "highway": "bus_stop", "name": "Biscarri", "public_transport": "stop_position", "route_ref": "L0092"}}, {"type": "node", "id": 12056120522, "lat": 42.0940316, "lon": 1.0950652, "tags": {"bus": "yes", "highway": "bus_stop", "name": "Biscarri", "public_transport": "platform", "route_ref": "L0092"}}, {"type": "node", "id": 12056142332, "lat": 42.1165956, "lon": 1.044068, "tags": {"bus": "yes", "highway": "bus_stop", "name": "Isona", "public_transport": "platform", "route_ref": "L0092"}}, {"type": "node", "id": 12059461967, "lat": 42.1165258, "lon": 1.0440344, "tags": {"bus": "yes", "highway": "bus_stop", "name": "Isona", "public_transport": "stop_position", "route_ref": "L0092"}}, {"type": "node", "id": 12059461968, "lat": 42.1164812, "lon": 1.0440789, "tags": {"bus": "yes", "highway": "bus_stop", "name": "Isona", "public_transport": "platform", "route_ref": "L0092"}}, {"type": "node", "id": 12059490369, "lat": 42.0943169, "lon": 1.094818, "tags": {"bus": "yes", "highway": "bus_stop", "name": "Biscarri", "public_transport": "platform", "route_ref": "L0092"}}, {"type": "node", "id": 12090550561, "lat": 42.2235416, "lon": 1.3340485, "tags": {"bus": "yes", "highway": "bus_stop", "name": "Hostal Nou", "public_transport": "platform", "route_ref": "L0576"}}, {"type": "node", "id": 12090550562, "lat": 42.2110034, "lon": 1.3274998, "tags": {"bus": "yes", "highway": "bus_stop", "name": "Organy\u00e0", "public_transport": "stop_position", "route_ref": "L0576"}}, {"type": "node", "id": 12090550563, "lat": 42.2109758, "lon": 1.3275453, "tags": {"bus": "yes", "highway": "bus_stop", "name": "Organy\u00e0", "public_transport": "platform", "route_ref": "L0576"}}, {"type": "node", "id": 12092472277, "lat": 42.1724027, "lon": 1.3204193, "tags": {"bus": "yes", "highway": "bus_stop", "name": "Coll de Narg\u00f3", "public_transport": "stop_position", "route_ref": "L0576"}}, {"type": "node", "id": 12092472278, "lat": 42.1724303, "lon": 1.320362, "tags": {"bus": "yes", "highway": "bus_stop", "name": "Coll de Narg\u00f3", "public_transport": "platform", "route_ref": "L0576"}}, {"type": "node", "id": 12092472279, "lat": 42.2108007, "lon": 1.3272727, "tags": {"bus": "yes", "highway": "bus_stop", "name": "Organy\u00e0", "public_transport": "stop_position", "route_ref": "L0576"}}, {"type": "node", "id": 12092472280, "lat": 42.2108222, "lon": 1.3272271, "tags": {"bus": "yes", "highway": "bus_stop", "name": "Organy\u00e0", "public_transport": "platform", "route_ref": "L0576"}}, {"type": "node", "id": 12092472281, "lat": 42.2230765, "lon": 1.3335343, "tags": {"bus": "yes", "highway": "bus_stop", "name": "Hostal Nou", "public_transport": "platform", "route_ref": "L0576"}}]}