{"version": 0.6, "generator": "Overpass API 0.7.62.5 1bd436f1", "osm3s": {"timestamp_osm_base": "2025-04-09T14:49:30Z", "copyright": "The data included in this document is from www.openstreetmap.org. The data is made available under ODbL."}, "elements": [{"type": "node", "id": 3272764275, "lat": 36.6678058, "lon": 5.1609148, "tags": {"bus": "yes", "highway": "bus_stop", "public_transport": "platform"}}, {"type": "node", "id": 3272764276, "lat": 36.6679892, "lon": 5.1599041, "tags": {"bus": "yes", "highway": "bus_stop", "public_transport": "platform"}}, {"type": "node", "id": 3272764280, "lat": 36.6644981, "lon": 5.1711602, "tags": {"bus": "yes", "highway": "bus_stop", "name": "Arr\u00eat de Bus l'\u00e9toile", "public_transport": "platform"}}, {"type": "node", "id": 3272764281, "lat": 36.6641754, "lon": 5.1720289, "tags": {"bus": "yes", "highway": "bus_stop", "name": "Lama\u00e2dhane", "name:ar": "\u0644\u0645\u0627\u0639\u0630\u0646", "public_transport": "platform"}}, {"type": "node", "id": 3272764283, "lat": 36.6604485, "lon": 5.1807775, "tags": {"bus": "yes", "highway": "bus_stop", "name": "Tassifth - Bejaia", "name:ar": "\u062b\u0627\u0633\u064a\u0641\u062b - \u0628\u062c\u0627\u064a\u0629", "public_transport": "platform"}}, {"type": "node", "id": 3272764284, "lat": 36.6602482, "lon": 5.180451, "tags": {"bus": "yes", "highway": "bus_stop", "name": "Tassifth - Aokas", "name:ar": "\u062b\u0627\u0633\u064a\u0641\u062b - \u0623\u0648\u0642\u0627\u0633", "public_transport": "platform"}}, {"type": "node", "id": 3272764305, "lat": 36.656217, "lon": 5.1902757, "tags": {"bus": "yes", "highway": "bus_stop", "name": "Vaccaro", "name:ar": "\u0628\u0627\u0643\u0627\u0631\u0648", "name:kab": "Bakaru", "public_transport": "platform"}}, {"type": "node", "id": 3272764306, "lat": 36.6564673, "lon": 5.1904869, "tags": {"bus": "yes", "highway": "bus_stop", "name": "Vaccaro", "name:ar": "\u0628\u0627\u0643\u0627\u0631\u0648", "name:kab": "Bakaru", "public_transport": "platform"}}, {"type": "node", "id": 3704466970, "lat": 36.6709405, "lon": 5.4813728, "tags": {"bus": "yes", "highway": "bus_stop", "name": "Ziama Mansouriah", "name:ar": "\u0632\u064a\u0627\u0645\u0629 \u0645\u0646\u0635\u0648\u0631\u064a\u0629", "name:en": "Ziama Mansouria", "name:fr": "Ziama Mansouria", "network": "Ziama Mansouriah - Erraguene", "public_transport": "platform"}}, {"type": "node", "id": 3704466971, "lat": 36.6720482, "lon": 5.4806677, "tags": {"bench": "yes", "bus": "yes", "covered": "yes", "highway": "bus_stop", "name": "Ziama Mansouriah", "name:ar": "\u0632\u064a\u0627\u0645\u0629 \u0645\u0646\u0635\u0648\u0631\u064a\u0629", "name:en": "Ziama Mansouria", "name:fr": "Ziama Mansouria", "public_transport": "platform", "ref": "1", "shelter": "yes"}}, {"type": "node", "id": 3704466972, "lat": 36.6658354, "lon": 5.4743443, "tags": {"bus": "yes", "highway": "bus_stop", "name": "Kemhoun", "name:ar": "\u0642\u0645\u062d\u0648\u0646", "public_transport": "platform"}}, {"type": "node", "id": 3704466973, "lat": 36.6612529, "lon": 5.4388858, "tags": {"bench": "yes", "bus": "yes", "covered": "yes", "highway": "bus_stop", "name": "Bouiblaten", "name:ar": "\u0628\u0648\u064a\u0628\u0644\u0627\u0637\u0646", "name:kab": "Bu Yeblaten", "public_transport": "platform", "shelter": "yes"}}, {"type": "node", "id": 3704466975, "lat": 36.6515039, "lon": 5.4278633, "tags": {"bus": "yes", "highway": "bus_stop", "name": "Tirgane", "name:ar": "\u062b\u064a\u0631\u0642\u0627\u0646", "name:en": "Tirgane", "name:fr": "Tirgane", "name:kab": "Tirgan", "public_transport": "platform"}}, {"type": "node", "id": 3704476093, "lat": 36.6621266, "lon": 5.4534791, "tags": {"bus": "yes", "highway": "bus_stop", "name": "Lot. Bouflah Said", "name:ar": "\u062d\u064a \u0628\u0648\u0641\u0644\u0627\u062d \u0633\u0639\u064a\u062f", "public_transport": "stop_position"}}, {"type": "node", "id": 3716078418, "lat": 36.6646725, "lon": 5.4732796, "tags": {"bench": "yes", "bus": "yes", "covered": "yes", "highway": "bus_stop", "public_transport": "platform", "shelter": "yes"}}, {"type": "node", "id": 3732348469, "lat": 36.6129496, "lon": 5.5208367, "tags": {"bench": "yes", "bus": "yes", "covered": "yes", "highway": "bus_stop", "network": "Ziama-Mansouriah - Erraguen", "public_transport": "platform", "shelter": "yes"}}, {"type": "node", "id": 3732348579, "lat": 36.6117748, "lon": 5.5290722, "tags": {"bench": "yes", "bus": "yes", "covered": "yes", "highway": "bus_stop", "name": "La\u00e2chache", "name:ar": "\u0644\u0639\u0634\u0627\u0634", "network": "Ziama-Mansouriah - Erraguen", "public_transport": "platform", "shelter": "yes"}}, {"type": "node", "id": 3732348585, "lat": 36.6139315, "lon": 5.5569569, "tags": {"bench": "yes", "bus": "yes", "covered": "yes", "from": "\u0632\u064a\u0627\u0645\u0629 \u0627\u0644\u0645\u0646\u0635\u0648\u0631\u064a\u0629", "highway": "bus_stop", "public_transport": "platform", "shelter": "yes", "to": "\u0625\u064a\u0631\u0627\u0642\u0646"}}, {"type": "node", "id": 3732348590, "lat": 36.6134278, "lon": 5.5627985, "tags": {"bus": "yes", "highway": "bus_stop", "network": "Zra\u00e2 Lahdjer", "public_transport": "platform"}}, {"type": "node", "id": 4316345098, "lat": 36.4906389, "lon": 5.2786831, "tags": {"bus": "yes", "highway": "bus_stop", "public_transport": "platform", "taxi": "yes"}}, {"type": "node", "id": 4471553289, "lat": 36.4375122, "lon": 5.4126759, "tags": {"bus": "yes", "highway": "bus_stop", "name": "\u0645\u0648\u0642\u0641 \u0627\u0644\u062d\u0627\u0641\u0644\u0627\u062a \u0627\u0644\u0645\u0627\u0639\u0644\u064a", "name:ar": "\u0627\u0644\u0645\u0627\u0639\u0644\u064a", "name:fr": "Maali", "public_transport": "platform"}}, {"type": "node", "id": 4509191391, "lat": 36.6252688, "lon": 5.3367364, "tags": {"bus": "yes", "highway": "bus_stop", "name": "Arr\u00eat de bus B\u00e9jaia", "name:ar": "\u0645\u0648\u0642\u0641 \u0633\u0648\u0642 \u0627\u0644\u0627\u062b\u0646\u064a\u0646", "public_transport": "platform"}}, {"type": "node", "id": 4535423495, "lat": 36.6262959, "lon": 5.3355866, "tags": {"bus": "yes", "highway": "bus_stop", "name": "Arr\u00eat de bus souk el tenine-aokas", "name:fr": "Arr\u00eat de bus souk el tenine-aokas", "public_transport": "platform"}}, {"type": "node", "id": 4535433496, "lat": 36.6245361, "lon": 5.3359545, "tags": {"bus": "yes", "highway": "bus_stop", "name": "Louasta", "name:ar": "\u0627\u0644\u0648\u0627\u0633\u0637\u0629", "name:fr": "Louasta", "public_transport": "platform"}}, {"type": "node", "id": 4547724891, "lat": 36.5442643, "lon": 5.2440964, "tags": {"bus": "yes", "highway": "bus_stop", "name": "Arr\u00eat de bus Ljamaa", "public_transport": "platform"}}, {"type": "node", "id": 4547751992, "lat": 36.5451929, "lon": 5.2497023, "tags": {"bus": "yes", "highway": "bus_stop", "name": "Arret Anekouche", "name:ar": "Arret Anekouche", "public_transport": "platform"}}, {"type": "node", "id": 4547752293, "lat": 36.5461194, "lon": 5.2569167, "tags": {"bus": "yes", "highway": "bus_stop", "name": "Thagnit Ouamrane", "name:ar": "Thagnit Ouamrane", "public_transport": "platform"}}, {"type": "node", "id": 4547752294, "lat": 36.5438932, "lon": 5.2449139, "tags": {"bus": "yes", "highway": "bus_stop", "name": "AmeslouNreha", "public_transport": "platform"}}, {"type": "node", "id": 4547843292, "lat": 36.543846, "lon": 5.2475834, "tags": {"bus": "yes", "highway": "bus_stop", "name": "Ihwawen", "public_transport": "platform"}}, {"type": "node", "id": 4578250992, "lat": 36.6209844, "lon": 5.1693257, "tags": {"bus": "yes", "highway": "bus_stop", "public_transport": "platform"}}, {"type": "node", "id": 4578251304, "lat": 36.6208991, "lon": 5.1764913, "tags": {"bus": "yes", "highway": "bus_stop", "public_transport": "platform"}}, {"type": "node", "id": 4578321657, "lat": 36.617026, "lon": 5.1647261, "tags": {"bus": "yes", "highway": "bus_stop", "public_transport": "platform"}}, {"type": "node", "id": 4578323183, "lat": 36.6147435, "lon": 5.1634596, "tags": {"bus": "yes", "highway": "bus_stop", "public_transport": "platform"}}, {"type": "node", "id": 4578327110, "lat": 36.6334806, "lon": 5.1998593, "tags": {"bus": "yes", "highway": "bus_stop", "public_transport": "platform"}}, {"type": "node", "id": 4578327673, "lat": 36.6321031, "lon": 5.1985933, "tags": {"bus": "yes", "highway": "bus_stop", "public_transport": "platform"}}, {"type": "node", "id": 4578329823, "lat": 36.6460245, "lon": 5.2044448, "tags": {"bus": "yes", "highway": "bus_stop", "public_transport": "platform"}}, {"type": "node", "id": 4578330142, "lat": 36.6458006, "lon": 5.2042683, "tags": {"bus": "yes", "highway": "bus_stop", "public_transport": "platform"}}, {"type": "node", "id": 4769809021, "lat": 36.7372412, "lon": 5.0649675, "tags": {"bus": "yes", "highway": "bus_stop", "name": "4 Chemin", "name:ar": "\u0637\u0631\u064a\u0642 4", "name:en": "4 way", "name:fr": "4 Chemin", "public_transport": "platform"}}, {"type": "node", "id": 5051503995, "lat": 36.7320224, "lon": 5.0614971, "tags": {"bus": "yes", "highway": "bus_stop", "public_transport": "platform"}}, {"type": "node", "id": 5461684500, "lat": 36.7383124, "lon": 5.0659122, "tags": {"bus": "yes", "highway": "bus_stop", "public_transport": "platform"}}, {"type": "node", "id": 5461684503, "lat": 36.7388258, "lon": 5.0634126, "tags": {"bus": "yes", "highway": "bus_stop", "name": "Gare Routi\u00e8re", "name:ar": "\u0627\u0644\u0645\u062d\u0637\u0629 \u0627\u0644\u0628\u0631\u064a\u0629", "name:fr": "Gare Routi\u00e8re", "public_transport": "platform"}}, {"type": "node", "id": 5595078731, "lat": 36.6514656, "lon": 5.4251891, "tags": {"bus": "yes", "highway": "bus_stop", "name": "Taqsart", "name:ar": "\u062b\u0627\u0642\u0635\u0631\u062b", "name:kab": "Taqsart", "public_transport": "platform"}}, {"type": "node", "id": 5682821721, "lat": 36.6229914, "lon": 5.299145, "tags": {"bus": "yes", "highway": "bus_stop", "name": "Arr\u00eat Taderdarth Oula\u00e2lam", "public_transport": "platform"}}, {"type": "node", "id": 5884940486, "lat": 36.4936691, "lon": 5.2770378, "tags": {"bus": "yes", "highway": "bus_stop", "public_transport": "platform"}}, {"type": "node", "id": 5897407885, "lat": 36.4899635, "lon": 5.2793081, "tags": {"bus": "yes", "highway": "bus_stop", "public_transport": "platform"}}, {"type": "node", "id": 7667510585, "lat": 36.6243385, "lon": 5.2759314, "tags": {"highway": "bus_stop", "name:fr": "Arr\u00eat de bus tala oughanim"}}, {"type": "node", "id": 8814522317, "lat": 36.6224155, "lon": 5.3358187, "tags": {"highway": "bus_stop", "name": "Arr\u00eat de bus B\u00e9jaia"}}, {"type": "node", "id": 8815319118, "lat": 36.6260284, "lon": 5.3356553, "tags": {"highway": "bus_stop", "name": "S\u00e9tif Kherrata"}}, {"type": "node", "id": 8816581318, "lat": 36.6251071, "lon": 5.3366105, "tags": {"highway": "bus_stop", "name": "Ait-Anane", "name:ar": "Ait-Anane  Iremanene  Bouakraz", "name:en": "Ait-Anane  Iremanene  Bouakraz", "name:fr": "Ait-Anane  Iremanene  Bouakraz"}}, {"type": "node", "id": 8816581417, "lat": 36.6262416, "lon": 5.3353334, "tags": {"highway": "bus_stop", "name": "Aokas  Lota"}}, {"type": "node", "id": 9670759497, "lat": 36.451869, "lon": 5.3039104, "tags": {"bench": "no", "bin": "no", "bus": "yes", "departures_board": "no", "highway": "bus_stop", "lit": "no", "name": "Kherrata, S\u00e9tif, Tabia", "public_transport": "platform", "shelter": "no"}}, {"type": "node", "id": 9671161942, "lat": 36.4899819, "lon": 5.2790025, "tags": {"bus": "yes", "highway": "bus_stop", "public_transport": "platform"}}, {"type": "node", "id": 9756578839, "lat": 36.4517929, "lon": 5.3043253, "tags": {"bench": "no", "bin": "no", "bus": "yes", "departures_board": "no", "highway": "bus_stop", "lit": "no", "name": "B\u00e9jaia, BouSaada", "public_transport": "platform", "shelter": "no"}}, {"type": "node", "id": 9756578840, "lat": 36.4519655, "lon": 5.3037245, "tags": {"bench": "no", "bin": "no", "bus": "yes", "departures_board": "no", "highway": "bus_stop", "lit": "no", "name": "Ait Nsar, Snadla", "public_transport": "platform", "shelter": "no"}}, {"type": "node", "id": 12057856067, "lat": 36.6430777, "lon": 5.3631865, "tags": {"bus": "yes", "highway": "bus_stop", "public_transport": "platform"}}]}