{"version": 0.6, "generator": "Overpass API 0.7.62.5 1bd436f1", "osm3s": {"timestamp_osm_base": "2025-04-09T14:32:11Z", "copyright": "The data included in this document is from www.openstreetmap.org. The data is made available under ODbL."}, "elements": [{"type": "node", "id": 2715827231, "lat": 32.4900316, "lon": 3.6688458, "tags": {"bus": "yes", "highway": "bus_stop", "name": "\u062d\u0627\u0641\u0644\u0629 \u0627\u0644\u063a\u0627\u0628\u0629", "name:ar": "\u062d\u0627\u0641\u0644\u0629 \u0627\u0644\u063a\u0627\u0628\u0629", "name:en": "Bus Al Ghaba", "name:fr": "hafilat alghaba", "public_transport": "platform"}}, {"type": "node", "id": 2715827242, "lat": 32.4866111, "lon": 3.676619, "tags": {"bus": "yes", "highway": "bus_stop", "public_transport": "platform"}}, {"type": "node", "id": 4171822369, "lat": 32.4795143, "lon": 3.6835792, "tags": {"bus": "yes", "highway": "bus_stop", "name": "\u0645\u0648\u0642\u0641 \u0627\u0644\u0642\u0647\u0648\u0629", "name:ar": "\u0645\u0648\u0642\u0641 \u0627\u0644\u0642\u0647\u0648\u0629", "name:fr": "al Kahwa", "public_transport": "platform"}}, {"type": "node", "id": 4773034725, "lat": 32.4661867, "lon": 3.6915226, "tags": {"bus": "yes", "highway": "bus_stop", "name:fr": "moumou", "operator": "moumou", "public_transport": "platform"}}, {"type": "node", "id": 4773034726, "lat": 32.4757467, "lon": 3.6980938, "tags": {"bus": "yes", "highway": "bus_stop", "name": "Porte Orientale", "name:ar": "\u0627\u0644\u0628\u0627\u0628 \u0627\u0644\u0634\u0631\u0642\u064a", "name:fr": "Porte Orientale", "public_transport": "platform"}}, {"type": "node", "id": 4773071923, "lat": 32.472183, "lon": 3.6960572, "tags": {"bus": "yes", "highway": "bus_stop", "name": "\u0627\u0644\u0632\u0646\u0642\u062a", "name:ar": "\u0627\u0644\u0632\u0646\u0642\u062a", "name:fr": "Alzunaqat", "public_transport": "platform"}}, {"type": "node", "id": 4773071924, "lat": 32.4722319, "lon": 3.6935736, "tags": {"bus": "yes", "highway": "bus_stop", "name": "Porte Occidentale", "name:ar": "\u0627\u0644\u0628\u0627\u0628 \u0627\u0644\u063a\u0631\u0628\u064a", "name:fr": "Porte Occidentale", "public_transport": "platform"}}, {"type": "node", "id": 4773071925, "lat": 32.4763887, "lon": 3.697195, "tags": {"bus": "yes", "highway": "bus_stop", "name": "\u0627\u0644\u0628\u0627\u0628 \u0627\u0644\u0634\u0631\u0642\u064a", "name:ar": "\u0627\u0644\u0628\u0627\u0628 \u0627\u0644\u0634\u0631\u0642\u064a", "name:fr": "albab al sharqi", "public_transport": "platform"}}, {"type": "node", "id": 6261863243, "lat": 32.4797523, "lon": 3.6964796, "tags": {"bus": "yes", "highway": "bus_stop", "name": "Sidi abbaz ala bara", "public_transport": "platform"}}, {"type": "node", "id": 6261863245, "lat": 32.4789309, "lon": 3.6937654, "tags": {"bus": "yes", "highway": "bus_stop", "name": "La poste", "public_transport": "platform"}}, {"type": "node", "id": 6261863246, "lat": 32.4782991, "lon": 3.6890809, "tags": {"bus": "yes", "highway": "bus_stop", "name": "Marghoub universitaire", "public_transport": "platform"}}, {"type": "node", "id": 6261863247, "lat": 32.4787618, "lon": 3.6876701, "tags": {"bus": "yes", "highway": "bus_stop", "name": "Marghoub universitaire", "public_transport": "platform"}}, {"type": "node", "id": 6261863248, "lat": 32.4818368, "lon": 3.6825378, "tags": {"bus": "yes", "highway": "bus_stop", "name": "Marakchi", "public_transport": "platform"}}, {"type": "node", "id": 6261863249, "lat": 32.4836884, "lon": 3.6797833, "tags": {"bus": "yes", "highway": "bus_stop", "name": "Wilaya", "public_transport": "platform"}}, {"type": "node", "id": 6261863250, "lat": 32.4852193, "lon": 3.6780664, "tags": {"bus": "yes", "highway": "bus_stop", "name": "Actel, baladia, Lycee", "public_transport": "platform"}}, {"type": "node", "id": 6261863251, "lat": 32.4851049, "lon": 3.6778572, "tags": {"bus": "yes", "highway": "bus_stop", "name": "Actel, baladia, Lycee", "public_transport": "platform"}}, {"type": "node", "id": 6261863252, "lat": 32.4861853, "lon": 3.6760319, "tags": {"bus": "yes", "highway": "bus_stop", "name": "Societ general", "public_transport": "platform"}}, {"type": "node", "id": 6261863259, "lat": 32.4806618, "lon": 3.6810933, "tags": {"bus": "yes", "highway": "bus_stop", "name": "Muhafada", "public_transport": "platform"}}, {"type": "node", "id": 6261863260, "lat": 32.4824657, "lon": 3.6801773, "tags": {"bus": "yes", "highway": "bus_stop", "name": "BNA", "public_transport": "platform"}}, {"type": "node", "id": 6262201683, "lat": 32.4792789, "lon": 3.6825151, "tags": {"bus": "yes", "highway": "bus_stop", "name": "\u0645\u0648\u0642\u0641 \u0627\u0644\u0642\u0647\u0648\u0629", "name:ar": "\u0645\u0648\u0642\u0641 \u0627\u0644\u0642\u0647\u0648\u0629", "name:fr": "al Kahwa", "public_transport": "platform"}}, {"type": "node", "id": 6262201684, "lat": 32.4778419, "lon": 3.6857171, "tags": {"bus": "yes", "highway": "bus_stop", "name": "\u0645\u0648\u0642\u0641 \u0627\u0644\u0645\u062d\u0637\u0629", "name:ar": "\u0645\u0648\u0642\u0641 \u0627\u0644\u0645\u062d\u0637\u0629", "name:fr": "Station", "public_transport": "platform"}}, {"type": "node", "id": 6262202285, "lat": 32.4776701, "lon": 3.6873619, "tags": {"bus": "yes", "highway": "bus_stop", "name": "Marghoub el thenia", "public_transport": "platform"}}, {"type": "node", "id": 6262202291, "lat": 32.4856577, "lon": 3.6981632, "tags": {"bus": "yes", "highway": "bus_stop", "name": "Lakwass", "public_transport": "platform"}}, {"type": "node", "id": 9045632438, "lat": 32.4866397, "lon": 3.6747548, "tags": {"bus": "yes", "highway": "bus_stop", "name": "Lablad/Soug/Centre ville", "public_transport": "platform"}}, {"type": "node", "id": 9045632439, "lat": 32.4860815, "lon": 3.6759681, "tags": {"bus": "yes", "highway": "bus_stop", "name": "Societ general", "public_transport": "platform"}}, {"type": "node", "id": 9045632441, "lat": 32.4824886, "lon": 3.6802644, "tags": {"bus": "yes", "highway": "bus_stop", "name": "BNA", "public_transport": "platform"}}, {"type": "node", "id": 9045632442, "lat": 32.4817816, "lon": 3.6824631, "tags": {"bus": "yes", "highway": "bus_stop", "name": "Marakchi", "public_transport": "platform"}}, {"type": "node", "id": 9045632445, "lat": 32.4789968, "lon": 3.6848469, "tags": {"bus": "yes", "highway": "bus_stop", "name": "Thenia universitaire", "public_transport": "platform"}}, {"type": "node", "id": 9045632446, "lat": 32.4791292, "lon": 3.6937411, "tags": {"bus": "yes", "highway": "bus_stop", "name": "La poste", "public_transport": "platform"}}, {"type": "node", "id": 9045632459, "lat": 32.4809747, "lon": 3.7005163, "tags": {"bus": "yes", "highway": "bus_stop", "name": "al ateuf rond poind", "public_transport": "platform"}}, {"type": "node", "id": 9045632460, "lat": 32.4866601, "lon": 3.6747665, "tags": {"bus": "yes", "highway": "bus_stop", "name": "Lablad/Soug/Centre ville", "public_transport": "platform"}}, {"type": "node", "id": 9046312641, "lat": 32.4836095, "lon": 3.6796201, "tags": {"bus": "yes", "highway": "bus_stop", "name": "Wilaya", "public_transport": "platform"}}, {"type": "node", "id": 9046312642, "lat": 32.4855809, "lon": 3.6979593, "tags": {"bus": "yes", "highway": "bus_stop", "name": "Lakwass", "public_transport": "platform"}}, {"type": "node", "id": 9048116881, "lat": 32.4800426, "lon": 3.6970162, "tags": {"bus": "yes", "highway": "bus_stop", "name": "sidi abbaz ala bara el oued", "public_transport": "platform"}}, {"type": "node", "id": 9048116882, "lat": 32.4801592, "lon": 3.6968508, "tags": {"bus": "yes", "highway": "bus_stop", "name": "sidi abbaz ala bara el oued", "public_transport": "platform"}}]}