{"version": 0.6, "generator": "Overpass API 0.7.62.5 1bd436f1", "osm3s": {"timestamp_osm_base": "2025-04-09T14:38:15Z", "copyright": "The data included in this document is from www.openstreetmap.org. The data is made available under ODbL."}, "elements": [{"type": "node", "id": 625056, "lat": 42.5330044, "lon": 1.5784214, "tags": {"bus": "yes", "highway": "bus_stop", "public_transport": "stop_position"}}, {"type": "node", "id": 51404642, "lat": 42.5073157, "lon": 1.5280457, "tags": {"bus": "yes", "highway": "bus_stop", "public_transport": "stop_position"}}, {"type": "node", "id": 146317069, "lat": 42.3460221, "lon": 1.8323599, "tags": {"bus": "yes", "highway": "bus_stop", "name": "Riu de Cerdanya", "public_transport": "stop_position", "route_ref": "L0393"}}, {"type": "node", "id": 148644921, "lat": 42.3597389, "lon": 1.6966184, "tags": {"bus": "yes", "highway": "bus_stop", "name": "Martinet", "public_transport": "stop_position", "route_ref": "L0393 L0576"}}, {"type": "node", "id": 148655428, "lat": 42.3686402, "lon": 1.5949484, "tags": {"bus": "yes", "highway": "bus_stop", "name": "Els Banys de Sant Vicen\u00e7", "public_transport": "stop_position", "route_ref": "L0393 L0576"}}, {"type": "node", "id": 148655430, "lat": 42.3686229, "lon": 1.5944272, "tags": {"bus": "yes", "highway": "bus_stop", "name": "Els Banys de Sant Vicen\u00e7", "public_transport": "stop_position", "route_ref": "L0393 L0576"}}, {"type": "node", "id": 148690184, "lat": 42.4101427, "lon": 1.8462275, "tags": {"bus": "yes", "highway": "bus_stop", "name": "Ger", "public_transport": "stop_position", "route_ref": "L0576"}}, {"type": "node", "id": 522788283, "lat": 42.5771889, "lon": 1.4797788, "tags": {"bus": "yes", "highway": "bus_stop", "public_transport": "platform"}}, {"type": "node", "id": 895601487, "lat": 42.5174397, "lon": 1.5684365, "tags": {"highway": "bus_stop", "shelter": "no"}}, {"type": "node", "id": 920862258, "lat": 42.3573056, "lon": 1.5045901, "tags": {"bus": "yes", "highway": "bus_stop", "name": "Al\u00e0s", "public_transport": "stop_position", "route_ref": "L0393 L0576"}}, {"type": "node", "id": 947221192, "lat": 42.3515658, "lon": 1.5048319, "tags": {"bus": "yes", "highway": "bus_stop", "public_transport": "platform"}}, {"type": "node", "id": 947221198, "lat": 42.3860169, "lon": 1.8287456, "tags": {"bus": "yes", "highway": "bus_stop", "public_transport": "platform", "shelter": "no"}}, {"type": "node", "id": 947221202, "lat": 42.3596541, "lon": 1.696505, "tags": {"bus": "yes", "highway": "bus_stop", "name": "Martinet", "public_transport": "platform", "route_ref": "L0393 L0576"}}, {"type": "node", "id": 947221218, "lat": 42.3575065, "lon": 1.5040651, "tags": {"bus": "yes", "highway": "bus_stop", "name": "Al\u00e0s", "public_transport": "platform", "route_ref": "L0393 L0576"}}, {"type": "node", "id": 947221339, "lat": 42.3714972, "lon": 1.6019649, "tags": {"bus": "yes", "highway": "bus_stop", "name": "El Pont de Bar", "public_transport": "platform", "route_ref": "L0393 L0576"}}, {"type": "node", "id": 947221343, "lat": 42.3777123, "lon": 1.8184677, "tags": {"bus": "yes", "highway": "bus_stop", "name": "Is\u00f2vol", "public_transport": "platform", "route_ref": "L0576"}}, {"type": "node", "id": 950845011, "lat": 42.365667, "lon": 1.6485251, "tags": {"bus": "yes", "highway": "bus_stop", "name": "Els Arenys", "public_transport": "platform", "route_ref": "L0393 L0576", "shelter": "no"}}, {"type": "node", "id": 1568150427, "lat": 42.5794123, "lon": 1.6497175, "tags": {"bus": "yes", "highway": "bus_stop", "name": "152 El Tarter", "network": "L4", "operator": "Cooperativa Interurbana Andorrana", "public_transport": "platform"}}, {"type": "node", "id": 1568150486, "lat": 42.5794638, "lon": 1.649411, "tags": {"bus": "yes", "highway": "bus_stop", "name": "151 El Tarter", "network": "L4", "operator": "Cooperativa Interurbana Andorrana", "public_transport": "platform"}}, {"type": "node", "id": 1823132715, "lat": 42.3971613, "lon": 1.8394964, "tags": {"bus": "yes", "highway": "bus_stop", "name": "All", "public_transport": "stop_position", "route_ref": "L0576"}}, {"type": "node", "id": 1870046288, "lat": 42.4766272, "lon": 1.4902601, "tags": {"bus": "yes", "highway": "bus_stop", "public_transport": "stop_position"}}, {"type": "node", "id": 2121251517, "lat": 42.5767875, "lon": 1.6669618, "tags": {"bin": "no", "bus": "yes", "highway": "bus_stop", "mapillary": "944825689667231", "name": "171 Soldeu", "network": "L4", "operator": "Cooperativa Interurbana Andorrana", "pole": "yes", "public_transport": "platform", "shelter": "no", "survey:date": "2018-08-07"}}, {"type": "node", "id": 2121283100, "lat": 42.5435609, "lon": 1.7339901, "tags": {"bench": "yes", "bus": "yes", "highway": "bus_stop", "name": "201 L'Esgl\u00e9sia", "public_transport": "platform", "shelter": "yes"}}, {"type": "node", "id": 2261676064, "lat": 42.5899496, "lon": 1.8008503, "tags": {"ele": "1429", "name": "Andorre - L'Hospitalet", "network": "TER Occitanie", "network:wikidata": "Q37941081", "official_name": "Andorre l'Hospitalet", "operator": "SNCF", "operator:wikidata": "Q13646", "public_transport": "station", "railway": "station", "source": "SNCF - 06/2013", "train": "yes", "uic_ref": "8761151", "wikidata": "Q2187825", "wikipedia": "fr:Gare d'Andorre - L'Hospitalet"}}, {"type": "node", "id": 2311468080, "lat": 42.4310016, "lon": 1.4666522, "tags": {"bus": "yes", "highway": "bus_stop", "name": "La Farga de Moles", "public_transport": "stop_position", "route_ref": "L0393"}}, {"type": "node", "id": 2432594671, "lat": 42.410094, "lon": 1.8462218, "tags": {"bench": "no", "bus": "yes", "highway": "bus_stop", "name": "Ger", "public_transport": "platform", "route_ref": "L0576", "shelter": "no"}}, {"type": "node", "id": 2432594675, "lat": 42.4103656, "lon": 1.846124, "tags": {"bench": "yes", "bus": "yes", "highway": "bus_stop", "public_transport": "platform", "shelter": "yes"}}, {"type": "node", "id": 2432594807, "lat": 42.3977257, "lon": 1.8401118, "tags": {"bus": "yes", "highway": "bus_stop", "public_transport": "platform"}}, {"type": "node", "id": 2473717291, "lat": 42.3463946, "lon": 1.8328454, "tags": {"bus": "yes", "highway": "bus_stop", "public_transport": "platform"}}, {"type": "node", "id": 2966743140, "lat": 42.54863, "lon": 1.5127371, "tags": {"bench": "yes", "bin": "yes", "bus": "yes", "highway": "bus_stop", "name": "Busstop, Freebus", "note": "free skibus in winter: Andorra, Arcalis ask for times in a hotel or tourist information", "operator": "Vall Nord", "public_transport": "platform", "shelter": "yes"}}, {"type": "node", "id": 2966745891, "lat": 42.5490134, "lon": 1.5126673, "tags": {"bench": "yes", "bin": "yes", "bus": "yes", "highway": "bus_stop", "name": "Busstop, Freebus", "note": "free skibus in winter: Arinsal, ask for times in a hotel or tourist information", "public_transport": "platform", "shelter": "yes"}}, {"type": "node", "id": 3076247109, "lat": 42.5092997, "lon": 1.5373401, "tags": {"bus": "yes", "highway": "bus_stop", "name": "707 Arnaldeta de Caboet", "network": "L2, L4", "public_transport": "platform"}}, {"type": "node", "id": 3268159305, "lat": 42.5332143, "lon": 1.5195324, "tags": {"bus": "yes", "highway": "bus_stop", "public_transport": "stop_position"}}, {"type": "node", "id": 3268159479, "lat": 42.5377317, "lon": 1.5198148, "tags": {"bus": "yes", "highway": "bus_stop", "public_transport": "stop_position"}}, {"type": "node", "id": 3430588446, "lat": 42.3769739, "lon": 1.4558556, "tags": {"bus": "yes", "highway": "bus_stop", "name": "Anserall", "public_transport": "stop_position", "route_ref": "L0393"}}, {"type": "node", "id": 3634969297, "lat": 42.5221047, "lon": 1.5596416, "tags": {"bus": "yes", "highway": "bus_stop", "name": "224 Prat de la Bartra", "network": "L2, L4", "public_transport": "platform", "shelter": "yes"}}, {"type": "node", "id": 3733203379, "lat": 42.3776758, "lon": 1.4572179, "tags": {"bus": "yes", "highway": "bus_stop", "name": "Anserall", "public_transport": "platform", "route_ref": "L0393"}}, {"type": "node", "id": 3870497813, "lat": 42.5095146, "lon": 1.5406636, "tags": {"bus": "yes", "highway": "bus_stop", "public_transport": "platform"}}, {"type": "node", "id": 3874336518, "lat": 42.6104255, "lon": 1.5385308, "tags": {"bus": "yes", "highway": "bus_stop", "name": "358 Les Salines", "network": "L6", "public_transport": "platform"}}, {"type": "node", "id": 3885839702, "lat": 42.5838875, "lon": 1.6634033, "tags": {"bin": "no", "bus": "yes", "highway": "bus_stop", "mapillary": "1860493650781497", "name": "164 Val d'Incles", "network": "L4", "operator": "Cooperativa Interurbana Andorrana", "public_transport": "platform", "shelter": "no", "survey:date": "2018-08-06"}}, {"type": "node", "id": 3902651622, "lat": 42.5798302, "lon": 1.6592758, "tags": {"bus": "yes", "highway": "bus_stop", "name": "162 Moles", "network": "L4", "operator": "Cooperativa Interurbana Andorrana", "public_transport": "platform"}}, {"type": "node", "id": 3998656076, "lat": 42.5380688, "lon": 1.2973613, "tags": {"bus": "yes", "highway": "bus_stop", "public_transport": "platform"}}, {"type": "node", "id": 3998661357, "lat": 42.5354447, "lon": 1.2636137, "tags": {"bus": "yes", "highway": "bus_stop", "public_transport": "platform"}}, {"type": "node", "id": 4073381656, "lat": 42.5301865, "lon": 1.5991447, "tags": {"highway": "bus_stop", "name": "les Pardines", "name:ca": "les Pardines"}}, {"type": "node", "id": 4351647294, "lat": 42.5600725, "lon": 1.6851718, "tags": {"bus": "yes", "highway": "bus_stop", "mapillary": "166184102097085", "name": "182 Bordes d'Envalira", "network": "L4", "operator": "Cooperativa Interurbana Andorrana", "pole": "yes", "public_transport": "platform", "shelter": "no", "survey:date": "2018-08-06"}}, {"type": "node", "id": 4351647295, "lat": 42.560037, "lon": 1.685035, "tags": {"bus": "yes", "highway": "bus_stop", "name": "181 Bordes d'Envalira", "network": "L4", "operator": "Cooperativa Interurbana Andorrana", "public_transport": "platform"}}, {"type": "node", "id": 4351647296, "lat": 42.5642607, "lon": 1.679794, "tags": {"bench": "no", "bus": "yes", "highway": "bus_stop", "name": "175 Peretol", "network": "L4", "operator": "Cooperativa Interurbana Andorrana", "public_transport": "platform", "shelter": "no"}}, {"type": "node", "id": 4351652876, "lat": 42.5770517, "lon": 1.6664472, "tags": {"addr:city": "Soldeu", "addr:postcode": "AD100", "highway": "bus_stop", "information": "office", "mapillary": "300237708299987", "name": "172 Soldeu", "network": "L4", "operator": "Cooperativa Interurbana Andorrana", "public_transport": "platform", "shelter": "yes", "survey:date": "2018-08-06", "tourism": "information"}}, {"type": "node", "id": 4351652877, "lat": 42.5801965, "lon": 1.6641271, "tags": {"bus": "yes", "highway": "bus_stop", "name": "166 Roc de Sant Miquel", "network": "L4", "operator": "Cooperativa Interurbana Andorrana", "public_transport": "platform", "shelter": "yes"}}, {"type": "node", "id": 4351657189, "lat": 42.5826864, "lon": 1.6626478, "tags": {"bench": "yes", "bin": "yes", "bus": "yes", "highway": "bus_stop", "name": "163 Val d'Incles", "network": "L4", "public_transport": "platform", "shelter": "yes"}}, {"type": "node", "id": 4351657190, "lat": 42.5800192, "lon": 1.645763, "tags": {"bus": "yes", "highway": "bus_stop", "name": "146 Cru\u00eflla de Ransol", "network": "L4", "operator": "Cooperativa Interurbana Andorrana", "public_transport": "platform"}}, {"type": "node", "id": 4351657191, "lat": 42.5794959, "lon": 1.6428394, "tags": {"bus": "yes", "highway": "bus_stop", "name": "143 La Costa", "network": "L4", "operator": "Cooperativa Interurbana Andorrana", "public_transport": "platform"}}, {"type": "node", "id": 4351657192, "lat": 42.5777114, "lon": 1.6287283, "tags": {"bench": "yes", "bus": "yes", "highway": "bus_stop", "mapillary": "529453198057419", "name": "131 La Creu de l'Aldosa", "network": "L4", "public_transport": "platform", "survey:date": "2018-08-06"}}, {"type": "node", "id": 4351660831, "lat": 42.5708328, "lon": 1.6069783, "tags": {"bus": "yes", "highway": "bus_stop", "name": "119 St. Joan de Caselles", "network": "L4", "operator": "Cooperativa Interurbana Andorrana", "public_transport": "platform"}}, {"type": "node", "id": 4351660832, "lat": 42.5697069, "lon": 1.6048433, "tags": {"bin": "no", "bus": "yes", "highway": "bus_stop", "image": "https://storage2.openstreetcam.org/files/photo/2016/11/10/lth/27054_e71d3_582461c5cd0d6.jpg", "name": "117 Aina", "network": "L4", "operator": "Cooperativa Interurbana Andorrana", "public_transport": "platform", "survey:date": "2016-11-10"}}, {"type": "node", "id": 4351660833, "lat": 42.5698689, "lon": 1.6047172, "tags": {"bus": "yes", "highway": "bus_stop", "name": "118 Aina", "network": "L4", "operator": "Cooperativa Interurbana Andorrana", "public_transport": "platform"}}, {"type": "node", "id": 4351660834, "lat": 42.5675834, "lon": 1.6018392, "tags": {"bus": "yes", "highway": "bus_stop", "name": "115 El Mol\u00ed", "network": "L4", "operator": "Cooperativa Interurbana Andorrana", "public_transport": "platform", "shelter": "yes"}}, {"type": "node", "id": 4351660835, "lat": 42.5670915, "lon": 1.6007019, "tags": {"bench": "yes", "bin": "yes", "bus": "yes", "highway": "bus_stop", "lit": "yes", "name": "114 Pl. de l'Areny", "network": "L4", "operator": "Cooperativa Interurbana Andorrana", "public_transport": "platform", "shelter": "yes"}}, {"type": "node", "id": 4351660836, "lat": 42.5658022, "lon": 1.5976446, "tags": {"bench": "yes", "bus": "yes", "highway": "bus_stop", "mapillary": "327615388935967", "name": "111 Palau de Gel", "network": "L4", "operator": "Cooperativa Interurbana Andorrana", "public_transport": "platform", "shelter": "no", "survey:date": "2018-08-06"}}, {"type": "node", "id": 4351660837, "lat": 42.5659744, "lon": 1.5977079, "tags": {"bench": "yes", "bin": "yes", "bus": "yes", "highway": "bus_stop", "lit": "yes", "name": "112 Palau de Gel", "network": "L4", "operator": "Cooperativa Interurbana Andorrana", "public_transport": "platform", "shelter": "yes"}}, {"type": "node", "id": 4351669595, "lat": 42.5509405, "lon": 1.5911747, "tags": {"bench": "yes", "bin": "no", "bus": "yes", "highway": "bus_stop", "name": "101 Meritxell", "network": "L4", "operator": "Cooperativa Interurbana Andorrana", "public_transport": "platform", "shelter": "yes"}}, {"type": "node", "id": 4351669596, "lat": 42.5356934, "lon": 1.5886347, "tags": {"bus": "yes", "highway": "bus_stop", "name": "259 Cru\u00eflla dels Cortals", "operator": "Cooperativa Interurbana Andorrana", "public_transport": "platform"}}, {"type": "node", "id": 4351669597, "lat": 42.5353465, "lon": 1.5854536, "tags": {"bus": "yes", "highway": "bus_stop", "name": "209 Els Pastoressos", "network": "L2, L4", "operator": "Cooperativa Interurbana Andorrana", "public_transport": "platform", "shelter": "yes"}}, {"type": "node", "id": 4351669604, "lat": 42.5321614, "lon": 1.5739093, "tags": {"bus": "yes", "highway": "bus_stop", "name": "208 Riu Blanc", "network": "L2, L4", "operator": "Cooperativa Interurbana Andorrana", "public_transport": "platform"}}, {"type": "node", "id": 4351669605, "lat": 42.5318353, "lon": 1.5736438, "tags": {"bus": "yes", "highway": "bus_stop", "name": "207 Riu Blanc", "network": "L2, L4", "operator": "Cooperativa Interurbana Andorrana", "public_transport": "platform"}}, {"type": "node", "id": 4351674613, "lat": 42.5121016, "lon": 1.5503756, "tags": {"bus": "yes", "description": "L2-L3-L4-ee", "highway": "bus_stop", "name": "743 Cru\u00eflla d'Engolasters", "network": "L2, L4", "operator": "Cooperativa Interurbana Andorrana", "public_transport": "platform"}}, {"type": "node", "id": 4351674614, "lat": 42.5121688, "lon": 1.5502147, "tags": {"bus": "yes", "description": "L2-L3-L4", "highway": "bus_stop", "name": "742 Cru\u00eflla d'Engolasters", "network": "LC, L2, L4", "operator": "Cooperativa Interurbana Andorrana", "public_transport": "platform"}}, {"type": "node", "id": 4351674615, "lat": 42.5108372, "lon": 1.5484187, "tags": {"bus": "yes", "description": "ee", "highway": "bus_stop", "name": "746", "operator": "Cooperativa Interurbana Andorrana", "public_transport": "platform"}}, {"type": "node", "id": 4351674620, "lat": 42.509399, "lon": 1.5450867, "tags": {"bus": "yes", "highway": "bus_stop", "name": "740 La Tosca", "network": "LC, L2, L4", "operator": "Cooperativa Interurbana Andorrana", "public_transport": "platform"}}, {"type": "node", "id": 4351674621, "lat": 42.5094068, "lon": 1.5453975, "tags": {"bus": "yes", "highway": "bus_stop", "name": "741 La Tosca", "network": "L2, L4", "operator": "Cooperativa Interurbana Andorrana", "public_transport": "platform"}}, {"type": "node", "id": 4351684442, "lat": 42.5082584, "lon": 1.5517637, "tags": {"bus": "yes", "highway": "bus_stop", "operator": "bus-engolasters", "public_transport": "platform"}}, {"type": "node", "id": 4351684443, "lat": 42.5082089, "lon": 1.5518535, "tags": {"bus": "yes", "highway": "bus_stop", "operator": "bus-engolasters", "public_transport": "platform"}}, {"type": "node", "id": 4351684444, "lat": 42.512323, "lon": 1.5594777, "tags": {"highway": "bus_stop", "operator": "bus-engolasters"}}, {"type": "node", "id": 4351684445, "lat": 42.5118287, "lon": 1.5604165, "tags": {"highway": "bus_stop", "operator": "bus-engolasters"}}, {"type": "node", "id": 4351684449, "lat": 42.5056053, "lon": 1.5475084, "tags": {"bus": "yes", "highway": "bus_stop", "operator": "bus-engolasters", "public_transport": "platform"}}, {"type": "node", "id": 4351684450, "lat": 42.506066, "lon": 1.5458749, "tags": {"bus": "yes", "highway": "bus_stop", "operator": "bus-engolasters", "public_transport": "platform"}}, {"type": "node", "id": 4351684452, "lat": 42.5046225, "lon": 1.5398802, "tags": {"bus": "yes", "highway": "bus_stop", "name": "Ctra. de la plana", "operator": "bus-engolasters", "public_transport": "platform"}}, {"type": "node", "id": 4397901695, "lat": 42.3619187, "lon": 1.5871146, "tags": {"bus": "yes", "highway": "bus_stop", "name": "El Pont d'Ars\u00e8guel", "public_transport": "platform", "route_ref": "L0393 L0576"}}, {"type": "node", "id": 4397901696, "lat": 42.3619455, "lon": 1.5871796, "tags": {"bus": "yes", "highway": "bus_stop", "name": "El Pont d'Ars\u00e8guel", "public_transport": "stop_position", "route_ref": "L0393 L0576"}}, {"type": "node", "id": 4397955549, "lat": 42.3574662, "lon": 1.5039143, "tags": {"bus": "yes", "highway": "bus_stop", "name": "Al\u00e0s", "public_transport": "stop_position", "route_ref": "L0393 L0576"}}, {"type": "node", "id": 4397976444, "lat": 42.3711919, "lon": 1.6024355, "tags": {"bus": "yes", "highway": "bus_stop", "name": "El Pont de Bar", "public_transport": "platform", "route_ref": "L0393 L0576"}}, {"type": "node", "id": 4397976447, "lat": 42.371223, "lon": 1.6024483, "tags": {"bus": "yes", "highway": "bus_stop", "name": "El Pont de Bar", "public_transport": "stop_position", "route_ref": "L0393 L0576"}}, {"type": "node", "id": 4397976502, "lat": 42.3714492, "lon": 1.6017903, "tags": {"bus": "yes", "highway": "bus_stop", "name": "El Pont de Bar", "public_transport": "stop_position", "route_ref": "L0393 L0576"}}, {"type": "node", "id": 4448379097, "lat": 42.5076653, "lon": 1.5341986, "tags": {"bus": "yes", "highway": "bus_stop", "name": "710 La Uni\u00f3", "network": "Expr\u00e9s", "public_transport": "platform"}}, {"type": "node", "id": 4448379098, "lat": 42.5098324, "lon": 1.5343023, "tags": {"bench": "yes", "bin": "no", "bus": "yes", "highway": "bus_stop", "lit": "yes", "name": "709 Dama de Gel", "network": "L1, L2, L4, L5, L6", "public_transport": "platform", "shelter": "yes"}}, {"type": "node", "id": 4526118073, "lat": 42.5600332, "lon": 1.5899064, "tags": {"bus": "yes", "highway": "bus_stop", "name": "103 Mereig", "network": "L4", "public_transport": "platform"}}, {"type": "node", "id": 4526118074, "lat": 42.5598206, "lon": 1.5892629, "tags": {"bin": "no", "bus": "yes", "highway": "bus_stop", "mapillary": "484501992979589", "name": "104 Mereig", "network": "L4", "public_transport": "platform", "survey:date": "2017-12-21"}}, {"type": "node", "id": 4665692090, "lat": 42.5080476, "lon": 1.5288909, "tags": {"bus": "yes", "highway": "bus_stop", "public_transport": "platform", "shelter": "yes"}}, {"type": "node", "id": 4689637109, "lat": 42.4977983, "lon": 1.5034905, "tags": {"bench": "yes", "bin": "no", "bus": "yes", "highway": "bus_stop", "image": "https://storage2.openstreetcam.org/files/photo/2016/11/10/lth/27053_8851f_5824615707908.jpg", "name": "5110 El Cedre", "network": "L1", "public_transport": "platform", "shelter": "yes", "survey:date": "2016-11-10"}}, {"type": "node", "id": 4706195792, "lat": 42.5104306, "lon": 1.5329683, "tags": {"bench": "no", "bus": "yes", "highway": "bus_stop", "name": "5010 Mitjavilla", "network": "LC, L5, L6", "public_transport": "platform", "shelter": "no"}}, {"type": "node", "id": 4706240589, "lat": 42.5090224, "lon": 1.5290632, "tags": {"bus": "yes", "highway": "bus_stop", "name": "5008 Rotonda", "network": "L1, L2, LC, L4, L5, L6", "public_transport": "platform"}}, {"type": "node", "id": 4706240690, "lat": 42.5081571, "lon": 1.5216, "tags": {"bus": "yes", "highway": "bus_stop", "name": "5002 Pla\u00e7a Guillem\u00f3", "name:ca": "5002 Pla\u00e7a Guillem\u00f3", "public_transport": "platform"}}, {"type": "node", "id": 4706534641, "lat": 42.5077497, "lon": 1.5286671, "tags": {"bus": "yes", "highway": "bus_stop", "mapillary": "390667588607436", "name": "5009 La Sardana", "network": "L1, L2, LC, L4, L5, L6", "public_transport": "platform", "shelter": "yes", "survey:date": "2016-11-28"}}, {"type": "node", "id": 4706548691, "lat": 42.5074287, "lon": 1.5212053, "tags": {"bus": "yes", "highway": "bus_stop", "name": "5001 Princep Benlloch", "name:ca": "5001 Pr\u00edncep Benlloch", "public_transport": "platform"}}, {"type": "node", "id": 4715547702, "lat": 42.5094795, "lon": 1.5390475, "tags": {"bus": "yes", "highway": "bus_stop", "name": "705 Pla\u00e7a Copr\u00ednceps", "network": "L2, L4", "public_transport": "platform"}}, {"type": "node", "id": 4715569591, "lat": 42.5093076, "lon": 1.5356593, "tags": {"bus": "yes", "highway": "bus_stop", "name": "706 Consell de la Terra", "network": "L1, L2, L4", "public_transport": "platform"}}, {"type": "node", "id": 4715569992, "lat": 42.5270457, "lon": 1.5676574, "tags": {"bus": "yes", "highway": "bus_stop", "name": "214 Valira Nova", "network": "L2, L4", "public_transport": "platform"}}, {"type": "node", "id": 4715569993, "lat": 42.5097595, "lon": 1.5387201, "tags": {"bus": "yes", "highway": "bus_stop", "name": "704 Pla\u00e7a Copr\u00ednceps", "network": "L1, L2, L4", "public_transport": "platform"}}, {"type": "node", "id": 4780988322, "lat": 42.5069027, "lon": 1.5242783, "tags": {"bench": "no", "bin": "no", "bus": "yes", "highway": "bus_stop", "image": "https://storage2.openstreetcam.org/files/photo/2016/11/10/lth/27054_72e79_582461a284ef4.jpg", "name": "5200 Ambaixada d'Espanya", "name:es": "5200 Embajada de Espa\u00f1a", "network": "L1, L2, L4, L5, L6", "public_transport": "platform", "shelter": "yes", "survey:date": "2016-11-10"}}, {"type": "node", "id": 4780988323, "lat": 42.5068533, "lon": 1.5244205, "tags": {"bus": "yes", "highway": "bus_stop", "mapillary": "1116645508847237", "name": "5201 Ambaixada d'Espanya", "name:es": "5201 Embajada de Espa\u00f1a", "network": "L1, L2, L4, L5, L6", "public_transport": "platform", "shelter": "yes", "survey:date": "2016-11-28"}}, {"type": "node", "id": 4788617821, "lat": 42.5300473, "lon": 1.5198168, "tags": {"bin": "no", "bus": "yes", "highway": "bus_stop", "mapillary": "494874815044539", "name": "401 L'Obac de Sispony", "network": "L5, L6", "pole": "yes", "public_transport": "platform", "shelter": "no", "survey:date": "2017-10-17"}}, {"type": "node", "id": 4809492164, "lat": 42.4524843, "lon": 1.4870457, "tags": {"bus": "yes", "highway": "bus_stop", "public_transport": "stop_position"}}, {"type": "node", "id": 4874439755, "lat": 42.5556836, "lon": 1.5341551, "tags": {"bench": "yes", "bus": "yes", "highway": "bus_stop", "name": "303 Camp de la Tenada / Cultia", "network": "L6", "public_transport": "platform", "shelter": "yes"}}, {"type": "node", "id": 4874445626, "lat": 42.5560622, "lon": 1.5326999, "tags": {"bus": "yes", "highway": "bus_stop", "name": "306 La Closa / Oficina de Turisme", "network": "L6", "public_transport": "platform"}}, {"type": "node", "id": 4903229021, "lat": 42.5801133, "lon": 1.6475807, "tags": {"bus": "yes", "description": "Bus to Andorre L'Hospitallet/France", "highway": "bus_stop", "name": "145 Cru\u00eflla de Ransol", "network": "L4", "public_transport": "platform"}}, {"type": "node", "id": 5027210670, "lat": 42.514878, "lon": 1.5317383, "tags": {"bus": "yes", "highway": "bus_stop", "public_transport": "stop_position"}}, {"type": "node", "id": 5288596421, "lat": 42.5466547, "lon": 1.513848, "tags": {"bus": "yes", "highway": "bus_stop", "mapillary": "149248633834487", "name": "416 Centre de la Vila", "network": "L5, L6", "pole": "no", "public_transport": "platform", "shelter": "no", "survey:date": "2017-10-17"}}, {"type": "node", "id": 5288596521, "lat": 42.5467466, "lon": 1.515667, "tags": {"bench": "yes", "bus": "yes", "highway": "bus_stop", "name": "418 El Pui", "network": "L6", "public_transport": "platform", "shelter": "yes"}}, {"type": "node", "id": 5288596522, "lat": 42.5419951, "lon": 1.5177813, "tags": {"bench": "no", "bus": "yes", "highway": "bus_stop", "name": "409 Les Costes", "network": "L5, L6", "public_transport": "platform", "shelter": "no"}}, {"type": "node", "id": 5288596527, "lat": 42.5466025, "lon": 1.5140408, "tags": {"bus": "yes", "highway": "bus_stop", "name": "415 Centre de la Vila", "network": "L5, L6", "public_transport": "platform"}}, {"type": "node", "id": 5288596721, "lat": 42.5450205, "lon": 1.5152888, "tags": {"bench": "yes", "bus": "yes", "highway": "bus_stop", "mapillary": "1054585551737165", "name": "412 Les Entrades", "network": "L5, L6", "public_transport": "platform", "shelter": "yes", "survey:date": "2017-10-17"}}, {"type": "node", "id": 5288596722, "lat": 42.5399336, "lon": 1.5192026, "tags": {"bench": "yes", "bus": "yes", "highway": "bus_stop", "name": "408 La Cabanota", "network": "L5, L6", "public_transport": "platform", "shelter": "yes"}}, {"type": "node", "id": 5288596724, "lat": 42.5441722, "lon": 1.5160131, "tags": {"bench": "no", "bin": "yes", "bus": "yes", "highway": "bus_stop", "name": "411 Les Entrades", "network": "L5, L6", "public_transport": "platform", "shelter": "no"}}, {"type": "node", "id": 5288596726, "lat": 42.5455211, "lon": 1.5182586, "tags": {"bus": "yes", "highway": "bus_stop", "name": "420 El Trav\u00e9s", "network": "L6", "public_transport": "platform"}}, {"type": "node", "id": 5288596821, "lat": 42.5424387, "lon": 1.5172775, "tags": {"bench": "no", "bin": "yes", "bus": "yes", "highway": "bus_stop", "lit": "yes", "name": "410 Les Costes", "network": "L5, L6", "public_transport": "platform", "shelter": "no"}}, {"type": "node", "id": 5289767323, "lat": 42.5454359, "lon": 1.5194517, "tags": {"bus": "yes", "highway": "bus_stop", "name": "419 El Trav\u00e9s", "network": "L6", "public_transport": "platform"}}, {"type": "node", "id": 5290561321, "lat": 42.5088603, "lon": 1.5312273, "tags": {"bus": "yes", "highway": "bus_stop", "name": "5011 Consell d'Europa", "name:fr": "5011 Conseil de l'Europe", "network": "L1, L2, LC, L4, L5, L6", "public_transport": "platform"}}, {"type": "node", "id": 5292726241, "lat": 42.4363298, "lon": 1.4744247, "tags": {"bus": "yes", "highway": "bus_stop", "public_transport": "stop_position"}}, {"type": "node", "id": 5292765259, "lat": 42.4716755, "lon": 1.4933601, "tags": {"bus": "yes", "highway": "bus_stop", "public_transport": "stop_position"}}, {"type": "node", "id": 5333957821, "lat": 42.5051334, "lon": 1.5263434, "tags": {"bus": "yes", "highway": "bus_stop", "mapillary": "174699911212603", "name": "5419 Els Marginets", "network": "Expr\u00e9s", "public_transport": "platform", "shelter": "yes", "survey:date": "2017-10-16"}}, {"type": "node", "id": 5333957822, "lat": 42.5020826, "lon": 1.5138007, "tags": {"bench": "no", "bin": "yes", "bus": "yes", "highway": "bus_stop", "lit": "yes", "mapillary": "958646284883919", "name": "5413 Estadi communal", "network": "Expr\u00e9s", "public_transport": "platform", "shelter": "yes", "survey:date": "2017-10-16"}}, {"type": "node", "id": 5333957921, "lat": 42.5041614, "lon": 1.5208681, "tags": {"bus": "yes", "highway": "bus_stop", "name": "5556 Estaci\u00f3 Nacional d'Autobusos", "name:es": "5556 Estaci\u00f3n Nacional de Autobuses", "network": "Expr\u00e9s", "public_transport": "platform"}}, {"type": "node", "id": 5604155027, "lat": 42.5594976, "lon": 1.5318718, "tags": {"bus": "yes", "highway": "bus_stop", "name": "325 Les Moles", "network": "L6", "public_transport": "platform"}}, {"type": "node", "id": 5604155385, "lat": 42.5592987, "lon": 1.5318686, "tags": {"bus": "yes", "highway": "bus_stop", "name": "326 Les Moles", "network": "L6", "public_transport": "platform", "shelter": "yes"}}, {"type": "node", "id": 5604534493, "lat": 42.5759078, "lon": 1.5186199, "tags": {"bus": "yes", "highway": "bus_stop", "name": "345 Pla\u00e7a de la Cortinada", "network": "L6", "public_transport": "platform"}}, {"type": "node", "id": 5604534494, "lat": 42.604385, "lon": 1.536117, "tags": {"bus": "yes", "highway": "bus_stop", "name": "376 Els Teiers", "network": "L6", "public_transport": "platform"}}, {"type": "node", "id": 5604534516, "lat": 42.5995749, "lon": 1.5318663, "tags": {"bus": "yes", "highway": "bus_stop", "name": "371 Les Mines de Llorts", "network": "L6", "public_transport": "platform"}}, {"type": "node", "id": 5604534517, "lat": 42.5892772, "lon": 1.5236628, "tags": {"bus": "yes", "highway": "bus_stop", "name": "377 Xalet el Cresp", "network": "L6", "public_transport": "platform"}}, {"type": "node", "id": 5604534518, "lat": 42.5778217, "lon": 1.5176706, "tags": {"bus": "yes", "highway": "bus_stop", "name": "339 Mas d'en Soler", "network": "L6", "public_transport": "platform"}}, {"type": "node", "id": 5604534519, "lat": 42.5615012, "lon": 1.4963845, "tags": {"bench": "yes", "bin": "yes", "bus": "yes", "highway": "bus_stop", "lit": "yes", "name": "456 Erts", "network": "L5", "public_transport": "platform", "shelter": "yes"}}, {"type": "node", "id": 5604536423, "lat": 42.6176595, "lon": 1.5379271, "tags": {"bus": "yes", "highway": "bus_stop", "name": "380 Aparthotel Rialb", "network": "L6", "public_transport": "platform"}}, {"type": "node", "id": 5604537509, "lat": 42.5632132, "lon": 1.5270954, "tags": {"bus": "yes", "highway": "bus_stop", "name": "322 Cru\u00eflla de Sorn\u00e0s", "network": "L6", "public_transport": "platform"}}, {"type": "node", "id": 5604537510, "lat": 42.5718727, "lon": 1.5198123, "tags": {"bus": "yes", "highway": "bus_stop", "name": "378 Edifici Eagle", "network": "L6", "public_transport": "platform"}}, {"type": "node", "id": 5604537512, "lat": 42.5747116, "lon": 1.5181875, "tags": {"bus": "yes", "highway": "bus_stop", "name": "343 La Cortinada", "network": "L6", "public_transport": "platform"}}, {"type": "node", "id": 5604537513, "lat": 42.619968, "lon": 1.5402552, "tags": {"bus": "yes", "highway": "bus_stop", "name": "369 Les Sobiranes", "network": "L6", "public_transport": "platform"}}, {"type": "node", "id": 5604537514, "lat": 42.6159127, "lon": 1.5382992, "tags": {"bus": "yes", "highway": "bus_stop", "name": "364 Hostal del Serrat", "network": "L6", "public_transport": "platform"}}, {"type": "node", "id": 5604537515, "lat": 42.5981412, "lon": 1.5291595, "tags": {"bus": "yes", "highway": "bus_stop", "name": "355 Xalets la Closa", "network": "L6", "public_transport": "platform"}}, {"type": "node", "id": 5604537517, "lat": 42.5801654, "lon": 1.5189672, "tags": {"bus": "yes", "highway": "bus_stop", "name": "374 Hotel Cal Daina", "network": "L6", "public_transport": "platform"}}, {"type": "node", "id": 5604537520, "lat": 42.5455363, "lon": 1.4747879, "tags": {"bus": "yes", "highway": "bus_stop", "name": "Pal Pobla", "public_transport": "platform"}}, {"type": "node", "id": 5604539241, "lat": 42.6184109, "lon": 1.5387165, "tags": {"bus": "yes", "highway": "bus_stop", "name": "367 Sant Pere", "network": "L6", "public_transport": "platform"}}, {"type": "node", "id": 5604540162, "lat": 42.5661227, "lon": 1.523741, "tags": {"bus": "yes", "highway": "bus_stop", "name": "324 C\u00e0mping Ansalonga", "network": "L6", "public_transport": "platform"}}, {"type": "node", "id": 5604540163, "lat": 42.5736869, "lon": 1.5183954, "tags": {"bus": "yes", "highway": "bus_stop", "name": "342 Bordes del Riu", "network": "L6", "public_transport": "platform"}}, {"type": "node", "id": 5604540164, "lat": 42.5823352, "lon": 1.5190373, "tags": {"bus": "yes", "highway": "bus_stop", "name": "348 Cru\u00eflla d'Arans", "network": "L6", "public_transport": "platform"}}, {"type": "node", "id": 5604540166, "lat": 42.5961086, "lon": 1.5266718, "tags": {"bus": "yes", "highway": "bus_stop", "name": "353 Llorts", "network": "L6", "public_transport": "platform"}}, {"type": "node", "id": 5604540167, "lat": 42.5773209, "lon": 1.5172262, "tags": {"bus": "yes", "highway": "bus_stop", "name": "340 Fontblanca", "network": "L6", "public_transport": "platform"}}, {"type": "node", "id": 5604540169, "lat": 42.55802, "lon": 1.5048539, "tags": {"bench": "no", "bin": "no", "bus": "yes", "highway": "bus_stop", "name": "543 Prat de la Solana", "network": "L5", "public_transport": "platform", "shelter": "no"}}, {"type": "node", "id": 5604540170, "lat": 42.5445004, "lon": 1.4751792, "tags": {"bus": "yes", "highway": "bus_stop", "name": "Super Pal", "name:ca": "Super Pal", "public_transport": "platform"}}, {"type": "node", "id": 5604540231, "lat": 42.5686656, "lon": 1.5215616, "tags": {"bus": "yes", "highway": "bus_stop", "name": "331 Pont d'Ansalonga", "network": "L6", "public_transport": "platform"}}, {"type": "node", "id": 5604925706, "lat": 42.5538355, "lon": 1.5068749, "tags": {"bench": "yes", "bin": "yes", "bus": "yes", "highway": "bus_stop", "name": "450 Zona Industrial Teixid\u00f3", "network": "L5", "public_transport": "platform", "shelter": "yes"}}, {"type": "node", "id": 5604932892, "lat": 42.5479162, "lon": 1.4851407, "tags": {"bench": "no", "bin": "no", "highway": "bus_stop", "name": "El Mamo", "shelter": "no"}}, {"type": "node", "id": 6127269569, "lat": 42.3687472, "lon": 1.7880658, "tags": {"bus": "yes", "highway": "bus_stop", "name": "Riu de Santa Maria", "public_transport": "stop_position", "route_ref": "L0576"}}, {"type": "node", "id": 6254651925, "lat": 42.5338439, "lon": 1.5848125, "tags": {"bus": "yes", "highway": "bus_stop", "name": "215 Els Pialassos", "network": "L2, L4", "public_transport": "platform"}}, {"type": "node", "id": 6254651926, "lat": 42.5344479, "lon": 1.5855994, "tags": {"bus": "yes", "highway": "bus_stop", "name": "216 El Tirader", "network": "L2, L4", "public_transport": "platform"}}, {"type": "node", "id": 6313157285, "lat": 42.526526, "lon": 1.5672983, "tags": {"bench": "yes", "bin": "yes", "highway": "bus_stop", "name": "213\u00a0Valira Nova", "network": "L2, L4", "shelter": "yes"}}, {"type": "node", "id": 6313171685, "lat": 42.5218262, "lon": 1.5595778, "tags": {"bus": "yes", "highway": "bus_stop", "name": "223 Prat de la Bartra", "network": "L2, L4", "public_transport": "platform"}}, {"type": "node", "id": 6313727810, "lat": 42.5104004, "lon": 1.5410492, "tags": {"bus": "yes", "highway": "bus_stop", "name": "735 Parnal", "network": "L2, L4", "public_transport": "platform"}}, {"type": "node", "id": 6313770871, "lat": 42.4363167, "lon": 1.4737329, "tags": {"bench": "yes", "bin": "yes", "bus": "yes", "highway": "bus_stop", "lit": "yes", "name": "626 Frontera del Riu Runer", "public_transport": "platform", "shelter": "yes"}}, {"type": "node", "id": 6376044961, "lat": 42.3706165, "lon": 1.7776528, "tags": {"bus": "yes", "highway": "bus_stop", "name": "Bellver de Cerdanya", "name:ca": "Bellver de Cerdanya", "public_transport": "platform"}}, {"type": "node", "id": 6788186564, "lat": 42.5465713, "lon": 1.5157668, "tags": {"bus": "yes", "highway": "bus_stop", "name": "417 El Pui", "network": "L6", "public_transport": "platform", "shelter": "yes"}}, {"type": "node", "id": 7256249952, "lat": 42.5137324, "lon": 1.5526647, "tags": {"bus": "yes", "highway": "bus_stop", "name": "728 Central de FEDA", "network": "L2, L4", "public_transport": "platform"}}, {"type": "node", "id": 7264167476, "lat": 42.5710334, "lon": 1.6073628, "tags": {"bus": "yes", "highway": "bus_stop", "name": "120 St. Joan de Caselles", "network": "L4", "public_transport": "platform", "shelter": "no"}}, {"type": "node", "id": 7264167477, "lat": 42.5727439, "lon": 1.6153264, "tags": {"bus": "yes", "highway": "bus_stop", "name": "126 Cascada de les Moles", "network": "L4", "public_transport": "platform"}}, {"type": "node", "id": 7264167478, "lat": 42.5728842, "lon": 1.616367, "tags": {"bus": "yes", "highway": "bus_stop", "name": "125 Cascada de les Moles", "network": "L4", "public_transport": "platform"}}, {"type": "node", "id": 7264181384, "lat": 42.513905, "lon": 1.5531259, "tags": {"bus": "yes", "highway": "bus_stop", "name": "727 Central de FEDA", "network": "L2, L4", "public_transport": "platform"}}, {"type": "node", "id": 7264182485, "lat": 42.5182762, "lon": 1.5558959, "tags": {"bus": "yes", "highway": "bus_stop", "name": "231 Prada Ramonet", "network": "L2, L4", "public_transport": "platform"}}, {"type": "node", "id": 7264182486, "lat": 42.5184007, "lon": 1.5558027, "tags": {"bus": "yes", "highway": "bus_stop", "name": "232 Prada Ramonet", "network": "L2, L4", "public_transport": "platform"}}, {"type": "node", "id": 7264182487, "lat": 42.5296406, "lon": 1.5719228, "tags": {"bus": "yes", "highway": "bus_stop", "name": "217 Prada de Moles", "network": "L2, L4", "public_transport": "platform"}}, {"type": "node", "id": 7264182488, "lat": 42.5298165, "lon": 1.571888, "tags": {"bus": "yes", "highway": "bus_stop", "name": "218 Prada de Moles", "network": "L2, L4", "public_transport": "platform"}}, {"type": "node", "id": 7264182489, "lat": 42.5349899, "lon": 1.58789, "tags": {"bus": "yes", "highway": "bus_stop", "name": "259 Cru\u00eflla dels Cortals", "network": "L2, L4", "public_transport": "platform"}}, {"type": "node", "id": 7264464369, "lat": 42.5746871, "lon": 1.621423, "tags": {"bus": "yes", "highway": "bus_stop", "name": "123 La Traba", "network": "L4", "public_transport": "platform", "shelter": "no"}}, {"type": "node", "id": 7264464370, "lat": 42.5778351, "lon": 1.6287159, "tags": {"bus": "yes", "highway": "bus_stop", "name": "132 La Creu de l'Aldosa", "network": "L4", "public_transport": "platform"}}, {"type": "node", "id": 7264464371, "lat": 42.5782992, "lon": 1.6342627, "tags": {"bus": "yes", "highway": "bus_stop", "name": "134 L'Aldosa", "network": "L4", "public_transport": "platform"}}, {"type": "node", "id": 7264464372, "lat": 42.5795613, "lon": 1.6416898, "tags": {"bus": "yes", "highway": "bus_stop", "name": "144 La Costa", "network": "L4", "public_transport": "platform"}}, {"type": "node", "id": 7264464374, "lat": 42.579926, "lon": 1.6597209, "tags": {"bus": "yes", "highway": "bus_stop", "name": "161 Moles", "network": "L4", "public_transport": "platform"}}, {"type": "node", "id": 7264464375, "lat": 42.5802243, "lon": 1.6639078, "tags": {"bus": "yes", "highway": "bus_stop", "name": "165 Roc de Sant Miquel", "network": "L4", "public_transport": "platform"}}, {"type": "node", "id": 7264464376, "lat": 42.5764843, "lon": 1.6685561, "tags": {"bus": "yes", "highway": "bus_stop", "name": "173 Pla\u00e7a Sant Bartomeu", "network": "L4", "public_transport": "platform", "shelter": "no"}}, {"type": "node", "id": 7264482177, "lat": 42.5023634, "lon": 1.5138409, "tags": {"bench": "yes", "bin": "yes", "bus": "yes", "highway": "bus_stop", "lit": "yes", "name": "5412 Estadi Comunal", "network": "Expr\u00e9s", "public_transport": "platform", "shelter": "yes"}}, {"type": "node", "id": 7264482178, "lat": 42.4982242, "lon": 1.5109589, "tags": {"bus": "yes", "highway": "bus_stop", "name": "5411 Les Costes", "network": "Expr\u00e9s", "public_transport": "platform"}}, {"type": "node", "id": 7264482179, "lat": 42.4953171, "lon": 1.5041608, "tags": {"bus": "yes", "highway": "bus_stop", "name": "5408 Prat de Salit", "network": "Expr\u00e9s", "public_transport": "platform"}}, {"type": "node", "id": 7264482180, "lat": 42.4935666, "lon": 1.5005023, "tags": {"bench": "yes", "bin": "yes", "bus": "yes", "highway": "bus_stop", "name": "5407 Pont de Santa Coloma", "network": "Expr\u00e9s", "public_transport": "platform", "shelter": "yes"}}, {"type": "node", "id": 7264482181, "lat": 42.4938178, "lon": 1.5006284, "tags": {"bus": "yes", "highway": "bus_stop", "name": "5408 Pont de Santa Coloma", "network": "Expr\u00e9s", "public_transport": "platform"}}, {"type": "node", "id": 7264482183, "lat": 42.491042, "lon": 1.4965165, "tags": {"bus": "yes", "highway": "bus_stop", "name": "5405 Pont Poblad\u00f3", "network": "Expr\u00e9s", "public_transport": "platform"}}, {"type": "node", "id": 7264482184, "lat": 42.490951, "lon": 1.4963087, "tags": {"bus": "yes", "highway": "bus_stop", "name": "5404 Pont Poblad\u00f3", "network": "Expr\u00e9s", "public_transport": "platform"}}, {"type": "node", "id": 7264609888, "lat": 42.4685049, "lon": 1.4927588, "tags": {"bench": "yes", "bin": "no", "bus": "yes", "highway": "bus_stop", "lit": "yes", "name": "610 Prat Nou", "network": "L1, Expr\u00e9s", "public_transport": "platform", "shelter": "yes"}}, {"type": "node", "id": 7264609889, "lat": 42.4673989, "lon": 1.4921204, "tags": {"bench": "yes", "bin": "yes", "bus": "yes", "highway": "bus_stop", "lit": "yes", "name": "612 Pont de Molines", "network": "L1, Expr\u00e9s", "public_transport": "platform", "shelter": "yes"}}, {"type": "node", "id": 7264609894, "lat": 42.4601688, "lon": 1.4893175, "tags": {"bench": "yes", "bin": "no", "bus": "yes", "highway": "bus_stop", "lit": "yes", "name": "618 La Planella", "network": "L1", "public_transport": "platform", "shelter": "yes"}}, {"type": "node", "id": 7264609895, "lat": 42.458, "lon": 1.4875016, "tags": {"bench": "yes", "bin": "no", "bus": "yes", "highway": "bus_stop", "lit": "yes", "name": "620 Riu d'Aubiny\u00e0", "network": "L1", "public_transport": "platform", "shelter": "yes"}}, {"type": "node", "id": 7264739191, "lat": 42.4549011, "lon": 1.4869377, "tags": {"bench": "yes", "bin": "no", "bus": "yes", "highway": "bus_stop", "lit": "yes", "name": "605 La Riberola", "network": "L1", "public_transport": "platform", "shelter": "yes"}}, {"type": "node", "id": 7264739192, "lat": 42.4548892, "lon": 1.4866883, "tags": {"bench": "yes", "bin": "no", "bus": "yes", "highway": "bus_stop", "lit": "yes", "name": "620 La Riberola", "network": "L1", "public_transport": "platform", "shelter": "yes"}}, {"type": "node", "id": 7264739193, "lat": 42.4485938, "lon": 1.482547, "tags": {"bench": "yes", "bin": "no", "bus": "yes", "highway": "bus_stop", "lit": "yes", "name": "624 La Portalada", "network": "L1", "public_transport": "platform", "shelter": "no"}}, {"type": "node", "id": 7264739194, "lat": 42.4467928, "lon": 1.4823243, "tags": {"bench": "yes", "bin": "yes", "bus": "yes", "highway": "bus_stop", "lit": "yes", "name": "603 La Portalada", "network": "L1", "public_transport": "platform", "shelter": "yes"}}, {"type": "node", "id": 7264739196, "lat": 42.4919334, "lon": 1.4962852, "tags": {"bench": "no", "bus": "yes", "highway": "bus_stop", "name": "5126 Riu d'Enclar", "network": "L1", "public_transport": "platform", "shelter": "no"}}, {"type": "node", "id": 7264739199, "lat": 42.4958572, "lon": 1.4994234, "tags": {"bus": "yes", "highway": "bus_stop", "name": "5122 Sant Vicen\u00e7", "network": "L1", "public_transport": "platform"}}, {"type": "node", "id": 7264739200, "lat": 42.4965336, "lon": 1.5008074, "tags": {"bus": "yes", "highway": "bus_stop", "name": "5120 Moss\u00e8n Llu\u00eds Pujol", "network": "L1", "public_transport": "platform"}}, {"type": "node", "id": 7264739201, "lat": 42.4964545, "lon": 1.5008691, "tags": {"bus": "yes", "highway": "bus_stop", "name": "5121 Moss\u00e8n Llu\u00eds Pujol", "network": "L1", "public_transport": "platform", "shelter": "yes"}}, {"type": "node", "id": 7264739203, "lat": 42.4999485, "lon": 1.5078026, "tags": {"bus": "yes", "highway": "bus_stop", "name": "5108 Les Prades", "network": "L1", "public_transport": "platform"}}, {"type": "node", "id": 7264739206, "lat": 42.5011627, "lon": 1.5105412, "tags": {"bench": "no", "bin": "yes", "bus": "yes", "highway": "bus_stop", "lit": "yes", "name": "5107 Gil Torres", "network": "L1", "public_transport": "platform", "shelter": "no"}}, {"type": "node", "id": 7264739210, "lat": 42.506005, "lon": 1.5209186, "tags": {"bench": "yes", "bin": "yes", "bus": "yes", "highway": "bus_stop", "name": "5204 La Grau", "network": "L1", "public_transport": "platform", "shelter": "yes"}}, {"type": "node", "id": 7264739211, "lat": 42.5112133, "lon": 1.5355469, "tags": {"bus": "yes", "highway": "bus_stop", "name": "722 Esteve Albert", "network": "L1, L5, L6", "public_transport": "platform"}}, {"type": "node", "id": 7264739212, "lat": 42.5113467, "lon": 1.5388451, "tags": {"bus": "yes", "highway": "bus_stop", "name": "720 Caldea", "network": "L1", "public_transport": "platform"}}, {"type": "node", "id": 7264739214, "lat": 42.5043295, "lon": 1.5209673, "tags": {"bench": "yes", "bin": "no", "bus": "yes", "highway": "bus_stop", "lit": "yes", "name": "5555 Estaci\u00f3 Nacional d'Autobusos", "name:es": "5555 Estaci\u00f3n Nacional de Autobuses", "network": "L2, L4, L5, L6, Expr\u00e9s", "public_transport": "platform", "shelter": "yes"}}, {"type": "node", "id": 7264739215, "lat": 42.5046874, "lon": 1.5234403, "tags": {"bench": "yes", "bin": "no", "bus": "yes", "highway": "bus_stop", "name": "5417 Terra Vella", "network": "Expr\u00e9s", "public_transport": "platform", "shelter": "yes"}}, {"type": "node", "id": 7264739216, "lat": 42.5053281, "lon": 1.5268521, "tags": {"bus": "yes", "highway": "bus_stop", "name": "5418 Els Marginets", "network": "Expr\u00e9s", "public_transport": "platform"}}, {"type": "node", "id": 7264739217, "lat": 42.5061586, "lon": 1.5319993, "tags": {"bus": "yes", "highway": "bus_stop", "name": "5024 Rotonda Escaler", "network": "Expr\u00e9s", "public_transport": "platform"}}, {"type": "node", "id": 7267432099, "lat": 42.5088907, "lon": 1.5477835, "tags": {"bus": "yes", "highway": "bus_stop", "name": "745 Carretera de l'Obac", "network": "LC", "public_transport": "platform"}}, {"type": "node", "id": 7267432100, "lat": 42.5106643, "lon": 1.5486177, "tags": {"bus": "yes", "highway": "bus_stop", "name": "744 Carretera d'Engolasters", "network": "LC", "public_transport": "platform"}}, {"type": "node", "id": 7267432101, "lat": 42.5118901, "lon": 1.5405979, "tags": {"bus": "yes", "highway": "bus_stop", "name": "733 La Grau", "network": "LC", "public_transport": "platform"}}, {"type": "node", "id": 7267432102, "lat": 42.5128892, "lon": 1.5372867, "tags": {"bus": "yes", "highway": "bus_stop", "name": "731 Hortalets de Guern", "network": "LC", "public_transport": "platform"}}, {"type": "node", "id": 7267432107, "lat": 42.513252, "lon": 1.5359147, "tags": {"bus": "yes", "highway": "bus_stop", "name": "713 Els Escalls", "network": "L5, L6", "public_transport": "platform"}}, {"type": "node", "id": 7267432109, "lat": 42.5113039, "lon": 1.5339406, "tags": {"bench": "yes", "bin": "no", "bus": "yes", "highway": "bus_stop", "lit": "yes", "name": "712 La Trenca", "network": "LC, L5, L6", "public_transport": "platform", "shelter": "yes"}}, {"type": "node", "id": 7270120605, "lat": 42.5251097, "lon": 1.5205248, "tags": {"bus": "yes", "highway": "bus_stop", "name": "425 L'Oratori de Sant Antoni", "network": "L5, L6", "public_transport": "platform"}}, {"type": "node", "id": 7270120606, "lat": 42.5538752, "lon": 1.5070279, "tags": {"bus": "yes", "highway": "bus_stop", "name": "449 Zona Industrial Teixid\u00f3", "network": "L5", "public_transport": "platform", "shelter": "no"}}, {"type": "node", "id": 7307264384, "lat": 42.5493112, "lon": 1.5235364, "tags": {"bus": "yes", "highway": "bus_stop", "name": "309 Pont d'Ordino", "network": "L6", "public_transport": "platform"}}, {"type": "node", "id": 7307276722, "lat": 42.5577627, "lon": 1.5046626, "tags": {"bench": "yes", "bin": "yes", "bus": "yes", "highway": "bus_stop", "lit": "no", "name": "545 Prat de la Solana", "network": "L5", "public_transport": "platform", "shelter": "yes"}}, {"type": "node", "id": 7307276723, "lat": 42.561583, "lon": 1.4970264, "tags": {"bench": "no", "bus": "yes", "highway": "bus_stop", "name": "455 Erts", "network": "L5", "public_transport": "platform", "shelter": "no"}}, {"type": "node", "id": 7307276724, "lat": 42.5650125, "lon": 1.4917424, "tags": {"bus": "yes", "highway": "bus_stop", "name": "457 El Puiol del Pui", "network": "L5", "public_transport": "platform", "shelter": "yes"}}, {"type": "node", "id": 7307276725, "lat": 42.5652495, "lon": 1.4913401, "tags": {"bench": "yes", "bus": "yes", "highway": "bus_stop", "name": "458 El Puiol del Pui", "network": "L5", "public_transport": "platform", "shelter": "yes"}}, {"type": "node", "id": 7307276726, "lat": 42.5672487, "lon": 1.4897308, "tags": {"bench": "no", "bin": "yes", "bus": "yes", "highway": "bus_stop", "name": "469 El Barric\u00f3", "network": "L5", "public_transport": "platform", "shelter": "no"}}, {"type": "node", "id": 7307276727, "lat": 42.5669721, "lon": 1.4898166, "tags": {"bench": "yes", "bus": "yes", "highway": "bus_stop", "name": "470 El Barric\u00f3", "network": "L5", "public_transport": "platform", "shelter": "yes"}}, {"type": "node", "id": 7307276728, "lat": 42.5691332, "lon": 1.4882395, "tags": {"bench": "yes", "bin": "yes", "bus": "yes", "highway": "bus_stop", "lit": "yes", "name": "460 Prat de la Mola", "network": "L5", "public_transport": "platform", "shelter": "yes"}}, {"type": "node", "id": 7307276729, "lat": 42.569307, "lon": 1.48821, "tags": {"bench": "no", "bin": "yes", "bus": "yes", "highway": "bus_stop", "name": "459 Prat de la Mola", "network": "L5", "public_transport": "platform", "shelter": "no"}}, {"type": "node", "id": 7307276730, "lat": 42.5711599, "lon": 1.4861635, "tags": {"bus": "yes", "highway": "bus_stop", "name": "461 Prat de Moles", "network": "L5", "public_transport": "platform"}}, {"type": "node", "id": 7307276731, "lat": 42.5714621, "lon": 1.4854527, "tags": {"bench": "yes", "bus": "yes", "highway": "bus_stop", "name": "462 Prat de Moles", "network": "L5", "public_transport": "platform", "shelter": "yes"}}, {"type": "node", "id": 7307276733, "lat": 42.5727645, "lon": 1.4837375, "tags": {"bench": "yes", "bus": "yes", "highway": "bus_stop", "name": "464 Pla\u00e7a d'Arinsal", "network": "L5", "public_transport": "platform", "shelter": "yes"}}, {"type": "node", "id": 7307276735, "lat": 42.5726421, "lon": 1.4838877, "tags": {"bus": "yes", "highway": "bus_stop", "name": "463 Pla\u00e7a d'Arinsal", "network": "L5", "public_transport": "platform"}}, {"type": "node", "id": 7307276736, "lat": 42.5757984, "lon": 1.481522, "tags": {"bus": "yes", "highway": "bus_stop", "name": "465 Sant Andreu", "network": "L5", "public_transport": "platform"}}, {"type": "node", "id": 7307276737, "lat": 42.5760808, "lon": 1.4812993, "tags": {"bus": "yes", "highway": "bus_stop", "name": "466 Sant Andreu", "network": "L5", "public_transport": "platform"}}, {"type": "node", "id": 7307276738, "lat": 42.5783384, "lon": 1.4788666, "tags": {"bus": "yes", "highway": "bus_stop", "name": "458 Aparcament d'Arinsal", "network": "L5", "public_transport": "platform"}}, {"type": "node", "id": 7307457187, "lat": 42.5508327, "lon": 1.5265083, "tags": {"bus": "yes", "highway": "bus_stop", "name": "307 Grau Sobir\u00e0 / Cru\u00eflla de l'Aldosa", "network": "L6", "public_transport": "platform"}}, {"type": "node", "id": 7307457188, "lat": 42.5540249, "lon": 1.5287667, "tags": {"bus": "yes", "highway": "bus_stop", "name": "306 Clota Verda", "network": "L6", "public_transport": "platform"}}, {"type": "node", "id": 7307457190, "lat": 42.5567199, "lon": 1.5346649, "tags": {"bus": "yes", "highway": "bus_stop", "name": "320 Portal del Riu", "network": "L6", "public_transport": "platform"}}, {"type": "node", "id": 7307457191, "lat": 42.5569155, "lon": 1.5325862, "tags": {"bench": "yes", "bin": "yes", "bus": "yes", "highway": "bus_stop", "name": "327 El Raval", "network": "L6", "public_transport": "platform", "shelter": "yes"}}, {"type": "node", "id": 7307457192, "lat": 42.5634556, "lon": 1.5269804, "tags": {"bus": "yes", "highway": "bus_stop", "name": "321 Cru\u00eflla de Sorn\u00e0s", "network": "L6", "public_transport": "platform"}}, {"type": "node", "id": 7308771127, "lat": 42.5661743, "lon": 1.523838, "tags": {"bus": "yes", "highway": "bus_stop", "name": "323 C\u00e0mping Ansalonga", "network": "L6", "public_transport": "platform"}}, {"type": "node", "id": 7308771128, "lat": 42.5686929, "lon": 1.5213329, "tags": {"bus": "yes", "highway": "bus_stop", "name": "332 Pont d'Ansalonga", "network": "L6", "public_transport": "platform"}}, {"type": "node", "id": 7308771129, "lat": 42.5729181, "lon": 1.5188572, "tags": {"bus": "yes", "highway": "bus_stop", "name": "341 Bordes del Riu", "network": "L6", "public_transport": "platform"}}, {"type": "node", "id": 7308771130, "lat": 42.5751896, "lon": 1.5179769, "tags": {"bus": "yes", "highway": "bus_stop", "name": "344 La Cortinada", "network": "L6", "public_transport": "platform"}}, {"type": "node", "id": 7308771131, "lat": 42.5801409, "lon": 1.5190999, "tags": {"bus": "yes", "highway": "bus_stop", "name": "373 Hotel Cal Daina", "network": "L6", "public_transport": "platform"}}, {"type": "node", "id": 7308771132, "lat": 42.5826017, "lon": 1.519226, "tags": {"bus": "yes", "highway": "bus_stop", "name": "347 Cru\u00eflla d'Arans", "network": "L6", "public_transport": "platform"}}, {"type": "node", "id": 7308771133, "lat": 42.5846318, "lon": 1.5204062, "tags": {"bus": "yes", "highway": "bus_stop", "name": "349 Bordes d'Arans", "network": "L6", "public_transport": "platform"}}, {"type": "node", "id": 7308771134, "lat": 42.5846042, "lon": 1.5202506, "tags": {"bus": "yes", "highway": "bus_stop", "name": "350 Bordes d'Arans", "network": "L6", "public_transport": "platform"}}, {"type": "node", "id": 7308771135, "lat": 42.5937151, "lon": 1.5256794, "tags": {"bus": "yes", "highway": "bus_stop", "name": "352 Vilar\u00f3", "network": "L6", "public_transport": "platform"}}, {"type": "node", "id": 7308771136, "lat": 42.5932531, "lon": 1.5255828, "tags": {"bus": "yes", "highway": "bus_stop", "name": "351 Vilar\u00f3", "network": "L6", "public_transport": "platform"}}, {"type": "node", "id": 7308771138, "lat": 42.5961457, "lon": 1.5265571, "tags": {"bus": "yes", "highway": "bus_stop", "name": "354 Llorts", "network": "L6", "public_transport": "platform"}}, {"type": "node", "id": 7308771139, "lat": 42.5984563, "lon": 1.5293942, "tags": {"bus": "yes", "highway": "bus_stop", "name": "356 Xalets de la Closa", "network": "L6", "public_transport": "platform"}}, {"type": "node", "id": 7308771140, "lat": 42.5998048, "lon": 1.5320684, "tags": {"bus": "yes", "highway": "bus_stop", "name": "372 Les Mines de Llorts", "network": "L6", "public_transport": "platform"}}, {"type": "node", "id": 7308771141, "lat": 42.604718, "lon": 1.5360336, "tags": {"bus": "yes", "highway": "bus_stop", "name": "375 Els Teiers", "network": "L6", "public_transport": "platform"}}, {"type": "node", "id": 7308771142, "lat": 42.6106518, "lon": 1.5388061, "tags": {"bus": "yes", "highway": "bus_stop", "name": "357 Les Salines", "network": "L6", "public_transport": "platform"}}, {"type": "node", "id": 7308771143, "lat": 42.6160472, "lon": 1.538503, "tags": {"bus": "yes", "highway": "bus_stop", "name": "363 Hostal del Serrat", "network": "L6", "public_transport": "platform"}}, {"type": "node", "id": 7308771144, "lat": 42.6185954, "lon": 1.5389402, "tags": {"bus": "yes", "highway": "bus_stop", "name": "368 Sant Pere", "network": "L6", "public_transport": "platform"}}, {"type": "node", "id": 7308771145, "lat": 42.6200461, "lon": 1.5399943, "tags": {"bus": "yes", "highway": "bus_stop", "name": "370 Les Sobiranes", "network": "L6", "public_transport": "platform"}}, {"type": "node", "id": 7308771146, "lat": 42.63205, "lon": 1.499847, "tags": {"bus": "yes", "highway": "bus_stop", "name": "396 Arcal\u00eds", "network": "L6", "public_transport": "platform"}}, {"type": "node", "id": 8119609732, "lat": 42.5333931, "lon": 1.5848486, "tags": {"bus": "yes", "highway": "bus_stop", "name": "Parada Provisional OBAG", "public_transport": "platform"}}, {"type": "node", "id": 8119609733, "lat": 42.5333357, "lon": 1.5853583, "tags": {"bus": "yes", "highway": "bus_stop", "name": "Parada Provisional OBAG", "public_transport": "platform"}}, {"type": "node", "id": 8119609734, "lat": 42.5336881, "lon": 1.5816376, "tags": {"bus": "yes", "highway": "bus_stop", "public_transport": "platform"}}, {"type": "node", "id": 8119609735, "lat": 42.5338086, "lon": 1.581801, "tags": {"bus": "yes", "highway": "bus_stop", "public_transport": "platform"}}, {"type": "node", "id": 9103932300, "lat": 42.4619943, "lon": 1.4904112, "tags": {"bus": "yes", "highway": "bus_stop", "public_transport": "stop_position"}}, {"type": "node", "id": 9704566804, "lat": 42.5034188, "lon": 1.513646, "tags": {"bus": "yes", "highway": "bus_stop", "public_transport": "stop_position"}}, {"type": "node", "id": 9711043501, "lat": 42.5493483, "lon": 1.5243161, "tags": {"bus": "yes", "highway": "bus_stop", "public_transport": "stop_position"}}, {"type": "node", "id": 9725876833, "lat": 42.5126524, "lon": 1.5353228, "tags": {"bus": "yes", "highway": "bus_stop", "public_transport": "stop_position"}}, {"type": "node", "id": 9740563258, "lat": 42.5149983, "lon": 1.5316185, "tags": {"bus": "yes", "highway": "bus_stop", "public_transport": "stop_position"}}, {"type": "node", "id": 9970961151, "lat": 42.377804, "lon": 1.8184391, "tags": {"bus": "yes", "highway": "bus_stop", "name": "Is\u00f2vol", "public_transport": "stop_position", "route_ref": "L0576"}}, {"type": "node", "id": 10586987366, "lat": 42.4461396, "lon": 1.4819487, "tags": {"bus": "yes", "highway": "bus_stop", "name": "Juberrussa", "public_transport": "platform", "ref": "624"}}, {"type": "node", "id": 10909382776, "lat": 42.4715162, "lon": 1.4934398, "tags": {"bus": "yes", "highway": "bus_stop", "public_transport": "stop_position"}}, {"type": "node", "id": 10914321083, "lat": 42.5532552, "lon": 1.5282516, "tags": {"bus": "yes", "highway": "bus_stop", "public_transport": "stop_position"}}, {"type": "node", "id": 10914321084, "lat": 42.5505551, "lon": 1.5261716, "tags": {"bus": "yes", "highway": "bus_stop", "public_transport": "stop_position"}}, {"type": "node", "id": 10914321085, "lat": 42.5471367, "lon": 1.5214787, "tags": {"bus": "yes", "highway": "bus_stop", "public_transport": "stop_position"}}, {"type": "node", "id": 10914321086, "lat": 42.5472126, "lon": 1.521575, "tags": {"bus": "yes", "highway": "bus_stop", "public_transport": "stop_position"}}, {"type": "node", "id": 10914336423, "lat": 42.5330222, "lon": 1.5197074, "tags": {"bus": "yes", "highway": "bus_stop", "public_transport": "stop_position"}}, {"type": "node", "id": 10914336424, "lat": 42.5387241, "lon": 1.5195049, "tags": {"bus": "yes", "highway": "bus_stop", "public_transport": "stop_position"}}, {"type": "node", "id": 10914336425, "lat": 42.5403199, "lon": 1.5194902, "tags": {"bus": "yes", "highway": "bus_stop", "public_transport": "stop_position"}}, {"type": "node", "id": 10914337857, "lat": 42.5161157, "lon": 1.5299546, "tags": {"bus": "yes", "highway": "bus_stop", "public_transport": "stop_position"}}, {"type": "node", "id": 10916179774, "lat": 42.5357374, "lon": 1.5852955, "tags": {"bus": "yes", "highway": "bus_stop", "public_transport": "stop_position"}}, {"type": "node", "id": 10916179775, "lat": 42.5369151, "lon": 1.5834802, "tags": {"bus": "yes", "highway": "bus_stop", "public_transport": "stop_position"}}, {"type": "node", "id": 10916216627, "lat": 42.5346634, "lon": 1.5872719, "tags": {"bus": "yes", "highway": "bus_stop", "public_transport": "stop_position"}}, {"type": "node", "id": 10916216628, "lat": 42.5343007, "lon": 1.5807912, "tags": {"bus": "yes", "highway": "bus_stop", "public_transport": "stop_position"}}, {"type": "node", "id": 10916226448, "lat": 42.535044, "lon": 1.5813113, "tags": {"bus": "yes", "highway": "bus_stop", "public_transport": "stop_position"}}, {"type": "node", "id": 10916226449, "lat": 42.5348839, "lon": 1.5812001, "tags": {"bus": "yes", "highway": "bus_stop", "public_transport": "stop_position"}}, {"type": "node", "id": 10916227774, "lat": 42.4671645, "lon": 1.4926976, "tags": {"bus": "yes", "highway": "bus_stop", "public_transport": "stop_position"}}, {"type": "node", "id": 10919507653, "lat": 42.3776943, "lon": 1.4571978, "tags": {"bus": "yes", "highway": "bus_stop", "name": "Anserall", "public_transport": "stop_position", "route_ref": "L0393"}}, {"type": "node", "id": 10920215210, "lat": 42.4580266, "lon": 1.487569, "tags": {"bus": "yes", "highway": "bus_stop", "public_transport": "stop_position"}}, {"type": "node", "id": 10920236585, "lat": 42.4639781, "lon": 1.4899102, "tags": {"bus": "yes", "highway": "bus_stop", "public_transport": "stop_position"}}, {"type": "node", "id": 10921255894, "lat": 42.4845953, "lon": 1.4915027, "tags": {"bus": "yes", "highway": "bus_stop", "public_transport": "stop_position"}}, {"type": "node", "id": 10922448442, "lat": 42.4923635, "lon": 1.4969408, "tags": {"bus": "yes", "highway": "bus_stop", "public_transport": "stop_position"}}, {"type": "node", "id": 10922667519, "lat": 42.5007738, "lon": 1.5097471, "tags": {"bus": "yes", "highway": "bus_stop", "public_transport": "stop_position"}}, {"type": "node", "id": 10922667525, "lat": 42.4997869, "lon": 1.5076788, "tags": {"bus": "yes", "highway": "bus_stop", "public_transport": "stop_position"}}, {"type": "node", "id": 10922667541, "lat": 42.4972676, "lon": 1.5024788, "tags": {"bus": "yes", "highway": "bus_stop", "public_transport": "stop_position"}}, {"type": "node", "id": 10922667542, "lat": 42.496306, "lon": 1.5005208, "tags": {"bus": "yes", "highway": "bus_stop", "public_transport": "stop_position"}}, {"type": "node", "id": 10922671704, "lat": 42.5036721, "lon": 1.5139306, "tags": {"bus": "yes", "highway": "bus_stop", "public_transport": "stop_position"}}, {"type": "node", "id": 10924715848, "lat": 42.5079604, "lon": 1.527924, "tags": {"bus": "yes", "highway": "bus_stop", "public_transport": "stop_position"}}, {"type": "node", "id": 10924715851, "lat": 42.5082329, "lon": 1.5260192, "tags": {"bus": "yes", "highway": "bus_stop", "public_transport": "stop_position"}}, {"type": "node", "id": 10924715852, "lat": 42.508107, "lon": 1.5255383, "tags": {"bus": "yes", "highway": "bus_stop", "public_transport": "stop_position"}}, {"type": "node", "id": 11030192605, "lat": 42.3971258, "lon": 1.8395259, "tags": {"bus": "yes", "highway": "bus_stop", "name": "All", "public_transport": "platform", "route_ref": "L0576"}}, {"type": "node", "id": 11044309608, "lat": 42.3738953, "lon": 1.8836377, "tags": {"bus": "yes", "highway": "bus_stop", "public_transport": "stop_position"}}, {"type": "node", "id": 11063867185, "lat": 42.3685402, "lon": 1.7880291, "tags": {"bus": "yes", "highway": "bus_stop", "public_transport": "stop_position"}}, {"type": "node", "id": 11063867186, "lat": 42.368791, "lon": 1.7880777, "tags": {"bus": "yes", "highway": "bus_stop", "name": "Riu de Santa Maria", "public_transport": "platform", "route_ref": "L0576"}}, {"type": "node", "id": 11459214962, "lat": 42.3262845, "lon": 1.3998934, "tags": {"bus": "yes", "highway": "bus_stop", "name": "Adrall", "public_transport": "platform", "route_ref": "L0576"}}, {"type": "node", "id": 11947214112, "lat": 42.5106975, "lon": 1.564675, "tags": {"bus": "yes", "ferry": "no", "highway": "bus_stop", "light_rail": "no", "monorail": "no", "name": "Berenador", "subway": "no", "train": "no", "tram": "no", "trolleybus": "no"}}, {"type": "node", "id": 11959068305, "lat": 42.3597252, "lon": 1.6964867, "tags": {"bus": "yes", "highway": "bus_stop", "name": "Martinet", "public_transport": "stop_position", "route_ref": "L0393 L0576"}}, {"type": "node", "id": 12076971955, "lat": 42.4309984, "lon": 1.4667714, "tags": {"bench": "no", "bin": "no", "bus": "yes", "highway": "bus_stop", "lit": "no", "name": "La Farga de Moles", "public_transport": "platform", "route_ref": "L0393", "shelter": "no", "tactile_paving": "no"}}, {"type": "node", "id": 12079109882, "lat": 42.3656973, "lon": 1.6486092, "tags": {"bus": "yes", "highway": "bus_stop", "name": "Els Arenys", "public_transport": "stop_position", "route_ref": "L0393 L0576"}}, {"type": "node", "id": 12079109883, "lat": 42.3685633, "lon": 1.5949456, "tags": {"bus": "yes", "highway": "bus_stop", "name": "Els Banys de Sant Vicen\u00e7", "public_transport": "platform", "route_ref": "L0393 L0576"}}, {"type": "node", "id": 12079109884, "lat": 42.3619229, "lon": 1.5873293, "tags": {"bus": "yes", "highway": "bus_stop", "name": "El Pont d'Ars\u00e8guel", "public_transport": "stop_position", "route_ref": "L0393 L0576"}}, {"type": "node", "id": 12079109885, "lat": 42.3618989, "lon": 1.5873855, "tags": {"bus": "yes", "highway": "bus_stop", "name": "El Pont d'Ars\u00e8guel", "public_transport": "platform", "route_ref": "L0393 L0576"}}, {"type": "node", "id": 12079109886, "lat": 42.3572708, "lon": 1.5045902, "tags": {"bus": "yes", "highway": "bus_stop", "name": "Al\u00e0s", "public_transport": "platform", "route_ref": "L0393 L0576"}}, {"type": "node", "id": 12079109888, "lat": 42.3598982, "lon": 1.4598276, "tags": {"bus": "yes", "highway": "bus_stop", "name": "La Seu d'Urgell", "public_transport": "stop_position", "route_ref": "L0393 L0576"}}, {"type": "node", "id": 12079109889, "lat": 42.3598681, "lon": 1.4597195, "tags": {"bench": "yes", "bin": "yes", "bus": "yes", "highway": "bus_stop", "lit": "yes", "name": "La Seu d'Urgell", "public_transport": "platform", "route_ref": "L0393 L0576", "shelter": "yes", "tactile_paving": "no"}}, {"type": "node", "id": 12079109890, "lat": 42.3770227, "lon": 1.4558854, "tags": {"bus": "yes", "highway": "bus_stop", "name": "Anserall", "public_transport": "platform", "route_ref": "L0393"}}, {"type": "node", "id": 12079158316, "lat": 42.3459836, "lon": 1.8323134, "tags": {"bus": "yes", "highway": "bus_stop", "name": "Riu de Cerdanya", "public_transport": "platform", "route_ref": "L0393"}}, {"type": "node", "id": 12079158317, "lat": 42.3629971, "lon": 1.8085161, "tags": {"bus": "yes", "highway": "bus_stop", "name": "Baltarga", "public_transport": "stop_position", "route_ref": "L0393"}}, {"type": "node", "id": 12079158318, "lat": 42.3629704, "lon": 1.8085224, "tags": {"bus": "yes", "highway": "bus_stop", "name": "Baltarga", "public_transport": "platform", "route_ref": "L0393"}}, {"type": "node", "id": 12079158319, "lat": 42.3702601, "lon": 1.7795826, "tags": {"bus": "yes", "highway": "bus_stop", "name": "Bellver de Cerdanya", "public_transport": "stop_position", "route_ref": "L0393 L0576"}}, {"type": "node", "id": 12079158320, "lat": 42.3702179, "lon": 1.7795641, "tags": {"bus": "yes", "highway": "bus_stop", "name": "Bellver de Cerdanya", "public_transport": "platform", "route_ref": "L0393 L0576"}}, {"type": "node", "id": 12079158321, "lat": 42.3728178, "lon": 1.7446752, "tags": {"bus": "yes", "highway": "bus_stop", "name": "Prullans", "public_transport": "stop_position", "route_ref": "L0393 L0576"}}, {"type": "node", "id": 12079158322, "lat": 42.3727754, "lon": 1.7446749, "tags": {"bus": "yes", "highway": "bus_stop", "name": "Prullans", "public_transport": "platform", "route_ref": "L0393 L0576"}}, {"type": "node", "id": 12080290571, "lat": 42.3686969, "lon": 1.5944526, "tags": {"bus": "yes", "highway": "bus_stop", "name": "Els Banys de Sant Vicen\u00e7", "public_transport": "platform", "route_ref": "L0393 L0576"}}, {"type": "node", "id": 12080290573, "lat": 42.3597945, "lon": 1.6966072, "tags": {"bus": "yes", "highway": "bus_stop", "name": "Martinet", "public_transport": "platform", "route_ref": "L0393 L0576"}}, {"type": "node", "id": 12080290574, "lat": 42.3730431, "lon": 1.7446351, "tags": {"bus": "yes", "highway": "bus_stop", "name": "Prullans", "public_transport": "stop_position", "route_ref": "L0393 L0576"}}, {"type": "node", "id": 12080290575, "lat": 42.3731317, "lon": 1.7445403, "tags": {"bus": "yes", "highway": "bus_stop", "name": "Prullans", "public_transport": "platform", "route_ref": "L0393 L0576"}}, {"type": "node", "id": 12080290576, "lat": 42.3702773, "lon": 1.7790569, "tags": {"bus": "yes", "highway": "bus_stop", "name": "Bellver de Cerdanya", "public_transport": "stop_position", "route_ref": "L0393 L0576"}}, {"type": "node", "id": 12080290577, "lat": 42.3703288, "lon": 1.7790529, "tags": {"bus": "yes", "highway": "bus_stop", "name": "Bellver de Cerdanya", "public_transport": "platform", "route_ref": "L0393 L0576"}}, {"type": "node", "id": 12080290578, "lat": 42.3630557, "lon": 1.8084875, "tags": {"bus": "yes", "highway": "bus_stop", "name": "Baltarga", "public_transport": "stop_position", "route_ref": "L0393 L0576"}}, {"type": "node", "id": 12080290579, "lat": 42.3631024, "lon": 1.8084727, "tags": {"bus": "yes", "highway": "bus_stop", "name": "Baltarga", "public_transport": "platform", "route_ref": "L0393 L0576"}}, {"type": "node", "id": 12080290580, "lat": 42.3460686, "lon": 1.8340829, "tags": {"bus": "yes", "highway": "bus_stop", "name": "Riu de Cerdanya", "public_transport": "stop_position", "route_ref": "L0393"}}, {"type": "node", "id": 12080290581, "lat": 42.3460283, "lon": 1.8341374, "tags": {"bus": "yes", "highway": "bus_stop", "name": "Riu de Cerdanya", "public_transport": "platform", "route_ref": "L0393"}}, {"type": "node", "id": 12090550549, "lat": 42.3562867, "lon": 1.4429635, "tags": {"bus": "yes", "highway": "bus_stop", "name": "Castellciutat", "public_transport": "stop_position", "route_ref": "L0576"}}, {"type": "node", "id": 12090550550, "lat": 42.3562447, "lon": 1.4430623, "tags": {"bus": "yes", "highway": "bus_stop", "name": "Castellciutat", "public_transport": "platform", "route_ref": "L0576"}}, {"type": "node", "id": 12090550551, "lat": 42.3377993, "lon": 1.4155016, "tags": {"bus": "yes", "highway": "bus_stop", "name": "Arfa", "public_transport": "stop_position", "route_ref": "L0576"}}, {"type": "node", "id": 12090550552, "lat": 42.3377532, "lon": 1.4155509, "tags": {"bench": "no", "bin": "no", "bus": "yes", "highway": "bus_stop", "lit": "no", "name": "Arfa", "public_transport": "platform", "route_ref": "L0576", "shelter": "no", "tactile_paving": "no"}}, {"type": "node", "id": 12090550553, "lat": 42.3263602, "lon": 1.4001511, "tags": {"bus": "yes", "highway": "bus_stop", "name": "Adrall", "public_transport": "stop_position", "route_ref": "L0576"}}, {"type": "node", "id": 12090550554, "lat": 42.3263246, "lon": 1.4001791, "tags": {"bench": "yes", "bus": "yes", "highway": "bus_stop", "name": "Adrall", "public_transport": "platform", "route_ref": "L0576", "shelter": "no"}}, {"type": "node", "id": 12090550555, "lat": 42.3153972, "lon": 1.3825607, "tags": {"bus": "yes", "highway": "bus_stop", "name": "El Pla de Sant Tirs", "public_transport": "stop_position", "route_ref": "L0576"}}, {"type": "node", "id": 12090550556, "lat": 42.3153433, "lon": 1.3825796, "tags": {"bus": "yes", "highway": "bus_stop", "name": "El Pla de Sant Tirs", "public_transport": "platform", "route_ref": "L0576", "shelter": "yes"}}, {"type": "node", "id": 12090550557, "lat": 42.2883666, "lon": 1.3667353, "tags": {"bus": "yes", "highway": "bus_stop", "name": "Palanca de Noves", "public_transport": "stop_position", "route_ref": "L0576"}}, {"type": "node", "id": 12090550558, "lat": 42.288358, "lon": 1.3667945, "tags": {"bus": "yes", "highway": "bus_stop", "name": "Palanca de Noves", "public_transport": "platform", "route_ref": "L0576"}}, {"type": "node", "id": 12090550559, "lat": 42.2779299, "lon": 1.3618556, "tags": {"bus": "yes", "highway": "bus_stop", "name": "Els Hostalets de Tost", "public_transport": "stop_position", "route_ref": "L0576"}}, {"type": "node", "id": 12090550560, "lat": 42.2778974, "lon": 1.3619315, "tags": {"bus": "yes", "highway": "bus_stop", "name": "Els Hostalets de Tost", "public_transport": "platform", "route_ref": "L0576"}}, {"type": "node", "id": 12091008070, "lat": 42.3653732, "lon": 1.649011, "tags": {"bus": "yes", "highway": "bus_stop", "name": "Els Arenys", "public_transport": "stop_position", "route_ref": "L0393 L0576"}}, {"type": "node", "id": 12091008071, "lat": 42.3654148, "lon": 1.6490943, "tags": {"bus": "yes", "highway": "bus_stop", "name": "Els Arenys", "public_transport": "platform", "route_ref": "L0393 L0576"}}, {"type": "node", "id": 12091008072, "lat": 42.3644571, "lon": 1.8372983, "tags": {"bus": "yes", "highway": "bus_stop", "name": "Prats", "public_transport": "stop_position", "route_ref": "L0576"}}, {"type": "node", "id": 12091008073, "lat": 42.3645462, "lon": 1.8372857, "tags": {"bus": "yes", "highway": "bus_stop", "name": "Prats", "public_transport": "platform", "route_ref": "L0576"}}, {"type": "node", "id": 12091008074, "lat": 42.3637002, "lon": 1.8735657, "tags": {"bus": "yes", "highway": "bus_stop", "name": "Das", "public_transport": "stop_position", "route_ref": "L0576"}}, {"type": "node", "id": 12091008075, "lat": 42.3637287, "lon": 1.8735064, "tags": {"bus": "yes", "highway": "bus_stop", "name": "Das", "public_transport": "platform", "route_ref": "L0576"}}, {"type": "node", "id": 12091008076, "lat": 42.3727436, "lon": 1.884566, "tags": {"bus": "yes", "highway": "bus_stop", "name": "Alp", "public_transport": "stop_position", "route_ref": "L0576"}}, {"type": "node", "id": 12091008077, "lat": 42.372693, "lon": 1.8845952, "tags": {"bus": "yes", "highway": "bus_stop", "name": "Alp", "public_transport": "platform", "route_ref": "L0576"}}, {"type": "node", "id": 12092472282, "lat": 42.2780012, "lon": 1.3618965, "tags": {"bus": "yes", "highway": "bus_stop", "name": "Els Hostalets de Tost", "public_transport": "stop_position", "route_ref": "L0576"}}, {"type": "node", "id": 12092472283, "lat": 42.278021, "lon": 1.3618144, "tags": {"bus": "yes", "highway": "bus_stop", "name": "Els Hostalets de Tost", "public_transport": "platform", "route_ref": "L0576"}}, {"type": "node", "id": 12092472284, "lat": 42.2896962, "lon": 1.3674825, "tags": {"bus": "yes", "highway": "bus_stop", "name": "Palanca de Noves", "public_transport": "stop_position", "route_ref": "L0576"}}, {"type": "node", "id": 12092472285, "lat": 42.2897104, "lon": 1.3674426, "tags": {"bus": "yes", "highway": "bus_stop", "name": "Palanca de Noves", "public_transport": "platform", "route_ref": "L0576"}}, {"type": "node", "id": 12092472286, "lat": 42.3153352, "lon": 1.3823378, "tags": {"bus": "yes", "highway": "bus_stop", "name": "El Pla de Sant Tirs", "public_transport": "stop_position", "route_ref": "L0576"}}, {"type": "node", "id": 12092472287, "lat": 42.3153863, "lon": 1.3822963, "tags": {"bus": "yes", "highway": "bus_stop", "name": "El Pla de Sant Tirs", "public_transport": "platform", "route_ref": "L0576", "shelter": "no"}}, {"type": "node", "id": 12092472288, "lat": 42.3262481, "lon": 1.3999297, "tags": {"bus": "yes", "highway": "bus_stop", "name": "Adrall", "public_transport": "stop_position", "route_ref": "L0576"}}, {"type": "node", "id": 12092472289, "lat": 42.3379853, "lon": 1.4157769, "tags": {"bus": "yes", "highway": "bus_stop", "name": "Arfa", "public_transport": "stop_position", "route_ref": "L0576"}}, {"type": "node", "id": 12092472290, "lat": 42.3380247, "lon": 1.4157307, "tags": {"bench": "no", "bin": "no", "bus": "yes", "highway": "bus_stop", "lit": "no", "name": "Arfa", "public_transport": "platform", "route_ref": "L0576", "shelter": "no", "tactile_paving": "no"}}, {"type": "node", "id": 12092472291, "lat": 42.3561671, "lon": 1.4427873, "tags": {"bus": "yes", "highway": "bus_stop", "name": "Castellciutat", "public_transport": "stop_position", "route_ref": "L0576"}}, {"type": "node", "id": 12092472292, "lat": 42.3562221, "lon": 1.4426913, "tags": {"bus": "yes", "highway": "bus_stop", "name": "Castellciutat", "public_transport": "platform", "route_ref": "L0576"}}]}