{"version": 0.6, "generator": "Overpass API 0.7.62.5 1bd436f1", "osm3s": {"timestamp_osm_base": "2025-04-09T14:38:15Z", "copyright": "The data included in this document is from www.openstreetmap.org. The data is made available under ODbL."}, "elements": [{"type": "node", "id": 458425089, "lat": 39.3215308, "lon": 2.9899494, "tags": {"bench": "yes", "bin": "yes", "bus": "yes", "highway": "bus_stop", "lit": "yes", "name": "Primavera", "network": "Consorci de Transports de Mallorca", "public_transport": "platform", "ref": "59006", "route_ref": "517", "shelter": "yes", "tactile_paving": "no", "website": "https://www.tib.org/ca/parades/-/parada/59006"}}, {"type": "node", "id": 461716854, "lat": 39.3193929, "lon": 2.9983249, "tags": {"bench": "yes", "bin": "yes", "bus": "yes", "highway": "bus_stop", "lit": "yes", "name": "Marqu\u00e8s del Palmer", "name:ca": "Marqu\u00e8s del Palmer", "network": "Consorci de Transports de Mallorca", "public_transport": "platform", "ref": "59013", "route_ref": "517", "shelter": "yes", "tactile_paving": "no", "website": "https://www.tib.org/ca/parades/-/parada/59013"}}, {"type": "node", "id": 461716856, "lat": 39.3223433, "lon": 2.9942934, "tags": {"bench": "yes", "bus": "yes", "highway": "bus_stop", "name": "Sa S\u00edquia", "network": "Consorci de Transports de Mallorca", "public_transport": "platform", "ref": "59005", "route_ref": "517", "shelter": "yes", "website": "https://www.tib.org/ca/parades/-/parada/59005"}}, {"type": "node", "id": 2411125505, "lat": 39.3637262, "lon": 2.9540701, "tags": {"bench": "yes", "bus": "yes", "highway": "bus_stop", "local_ref": "2", "name": "Club N\u00e0utic", "public_transport": "platform", "ref": "13005", "route_ref": "508;518", "shelter": "yes", "source": "survey", "website": "https://www.tib.org/ca/parades/-/parada/13005"}}, {"type": "node", "id": 2941329456, "lat": 39.3408066, "lon": 3.0576694, "tags": {"bench": "no", "bin": "yes", "bus": "yes", "highway": "bus_stop", "lit": "no", "local_ref": "1", "name": "Ses Creus", "name:ca": "Ses Creus", "public_transport": "platform", "ref": "59002", "route_ref": "517", "shelter": "yes", "tactile_paving": "no", "website": "https://www.tib.org/ca/parades/-/parada/59002"}}, {"type": "node", "id": 3772008897, "lat": 39.3639009, "lon": 2.9542238, "tags": {"bench": "yes", "bus": "yes", "highway": "bus_stop", "local_ref": "1", "name": "Club N\u00e0utic", "public_transport": "platform", "ref": "13006", "route_ref": "508;518", "shelter": "no", "tactile_paving": "no", "website": "https://www.tib.org/ca/parades/-/parada/13006", "wheelchair": "yes"}}, {"type": "node", "id": 4831015660, "lat": 39.3169247, "lon": 2.9928444, "tags": {"bench": "yes", "bin": "no", "bus": "yes", "highway": "bus_stop", "name": "Constituci\u00f3", "name:ca": "Constituci\u00f3", "network": "Consorci de Transports de Mallorca", "public_transport": "platform", "ref": "59008", "route_ref": "517", "shelter": "yes", "website": "https://www.tib.org/ca/parades/-/parada/59008"}}, {"type": "node", "id": 4988180863, "lat": 39.3545607, "lon": 2.9719139, "tags": {"bus": "yes", "highway": "bus_stop", "name": "ses Covetes / es Trenc", "public_transport": "platform"}}, {"type": "node", "id": 6785043084, "lat": 39.3643237, "lon": 2.9393222, "tags": {"bench": "no", "bus": "yes", "highway": "bus_stop", "local_ref": "1", "name": "Miramar", "name:ca": "Miramar", "network": "Transport p\u00fablic de Mallorca", "operator": "Sagal\u00e9s Caldentey", "public_transport": "platform", "ref": "13004", "route_ref": "508", "shelter": "no", "website": "https://www.tib.org/ca/parades/-/parada/13004"}}, {"type": "node", "id": 9340940980, "lat": 39.3620593, "lon": 2.9173172, "tags": {"bus": "yes", "highway": "bus_stop", "local_ref": "1", "name": "S'Estanyol", "name:ca": "S'Estanyol", "network": "Transport p\u00fablic de Mallorca", "operator": "Sagal\u00e9s Caldentey", "public_transport": "platform", "ref": "31052", "route_ref": "508", "website": "https://www.tib.org/ca/parades/-/parada/31052"}}, {"type": "node", "id": 9340940981, "lat": 39.3631326, "lon": 2.9265131, "tags": {"bus": "yes", "highway": "bus_stop", "local_ref": "1", "name": "Son Biel\u00f3", "network": "Transport p\u00fablic de Mallorca", "operator": "Sagal\u00e9s Caldentey", "public_transport": "platform", "ref": "31054", "route_ref": "508", "website": "https://www.tib.org/ca/parades/-/parada/31054"}}, {"type": "node", "id": 11076817472, "lat": 39.338674, "lon": 3.0503131, "tags": {"bench": "yes", "bin": "yes", "bus": "yes", "highway": "bus_stop", "local_ref": "2", "name": "Maria Ant\u00f2nia Salv\u00e0", "public_transport": "platform", "ref": "59012", "route_ref": "517", "shelter": "yes", "website": "https://www.tib.org/ca/parades/-/parada/59012"}}, {"type": "node", "id": 11076817473, "lat": 39.340836, "lon": 3.0578969, "tags": {"bench": "no", "bin": "no", "bus": "yes", "highway": "bus_stop", "local_ref": "2", "name": "Ses Creus", "public_transport": "platform", "ref": "59001", "route_ref": "517", "shelter": "no", "website": "https://www.tib.org/ca/parades/-/parada/59001"}}, {"type": "node", "id": 11076817475, "lat": 39.3387258, "lon": 3.0501896, "tags": {"bench": "no", "bin": "yes", "bus": "yes", "highway": "bus_stop", "local_ref": "1", "name": "Maria Ant\u00f2nia Salv\u00e0", "public_transport": "platform", "ref": "59011", "route_ref": "517", "shelter": "no", "website": "https://www.tib.org/ca/parades/-/parada/59011"}}, {"type": "node", "id": 11077652488, "lat": 39.3647499, "lon": 2.9422093, "tags": {"bench": "yes", "bin": "yes", "highway": "bus_stop", "name": "Escorball", "public_transport": "platform", "ref": "13026", "route_ref": "518", "shelter": "no", "website": "https://www.tib.org/ca/parades/-/parada/13026"}}, {"type": "node", "id": 11926417369, "lat": 39.3558159, "lon": 2.9695596, "tags": {"bus": "yes", "highway": "bus_stop", "public_transport": "platform"}}, {"type": "node", "id": 12068160978, "lat": 39.3638606, "lon": 2.838242, "tags": {"bus": "yes", "highway": "bus_stop", "name": "Cala Pi", "network": "Transport p\u00fablic de Mallorca", "operator": "Sagal\u00e9s Caldentey", "public_transport": "platform", "ref": "31050", "route_ref": "505", "website": "https://www.tib.org/ca/parades/-/parada/31050"}}, {"type": "node", "id": 12068414970, "lat": 39.3618865, "lon": 2.9172186, "tags": {"bus": "yes", "highway": "bus_stop", "local_ref": "2", "name": "S'Estanyol", "name:ca": "S'Estanyol", "network": "Transport p\u00fablic de Mallorca", "operator": "Sagal\u00e9s Caldentey", "public_transport": "platform", "ref": "31051", "route_ref": "508", "website": "https://www.tib.org/ca/parades/-/parada/31051"}}, {"type": "node", "id": 12068414971, "lat": 39.3630558, "lon": 2.9265919, "tags": {"bus": "yes", "highway": "bus_stop", "local_ref": "2", "name": "Son Biel\u00f3", "network": "Transport p\u00fablic de Mallorca", "operator": "Sagal\u00e9s Caldentey", "public_transport": "platform", "ref": "31053", "route_ref": "508", "website": "https://www.tib.org/ca/parades/-/parada/31053"}}, {"type": "node", "id": 12068414972, "lat": 39.3641312, "lon": 2.9397535, "tags": {"bus": "yes", "highway": "bus_stop", "local_ref": "2", "name": "Miramar", "name:ca": "Miramar", "network": "Transport p\u00fablic de Mallorca", "operator": "Sagal\u00e9s Caldentey", "public_transport": "platform", "ref": "13003", "route_ref": "508", "website": "https://www.tib.org/ca/parades/-/parada/13003"}}]}