{"version": 0.6, "generator": "Overpass API 0.7.62.5 1bd436f1", "osm3s": {"timestamp_osm_base": "2025-04-09T14:34:15Z", "copyright": "The data included in this document is from www.openstreetmap.org. The data is made available under ODbL."}, "elements": [{"type": "node", "id": 347555461, "lat": 41.5725172, "lon": 1.6053633, "tags": {"bus": "yes", "highway": "bus_stop", "name": "Pont 6", "public_transport": "stop_position"}}, {"type": "node", "id": 347572569, "lat": 41.5837756, "lon": 1.6080077, "tags": {"bus": "yes", "highway": "bus_stop", "name": "Av Gaud\u00ed - Resid\u00e8ncia Pare Vilaseca", "public_transport": "stop_position"}}, {"type": "node", "id": 347572571, "lat": 41.5822843, "lon": 1.6063989, "tags": {"bus": "yes", "highway": "bus_stop", "name": "Av Gaud\u00ed - Sentit Santa Margarida", "public_transport": "stop_position"}}, {"type": "node", "id": 347572572, "lat": 41.5822675, "lon": 1.6065658, "tags": {"bus": "yes", "highway": "bus_stop", "name": "Av Gaud\u00ed - Sentit Nord", "public_transport": "platform"}}, {"type": "node", "id": 347572620, "lat": 41.5774777, "lon": 1.6313896, "tags": {"bus": "yes", "highway": "bus_stop", "name": "Igualada", "name:ca": "Igualada", "public_transport": "stop_position", "public_transport:version": "2", "route_ref": "L0092"}}, {"type": "node", "id": 347572636, "lat": 41.5721479, "lon": 1.6348203, "tags": {"bus": "yes", "highway": "bus_stop", "name": "Igualada 25", "public_transport": "stop_position"}}, {"type": "node", "id": 350443828, "lat": 41.5787719, "lon": 1.6059622, "tags": {"bus": "yes", "highway": "bus_stop", "name": "Carrer Igualada - Pla\u00e7a Vistalegre", "public_transport": "stop_position"}}, {"type": "node", "id": 350443847, "lat": 41.5792084, "lon": 1.6193906, "tags": {"bus": "yes", "highway": "bus_stop", "name": "Rambla General Vives 17", "public_transport": "stop_position"}}, {"type": "node", "id": 350444215, "lat": 41.5837408, "lon": 1.6267817, "tags": {"bus": "yes", "highway": "bus_stop", "name": "Av. Barcelona 103", "public_transport": "stop_position"}}, {"type": "node", "id": 358348742, "lat": 41.5766806, "lon": 1.6281305, "tags": {"bus": "yes", "highway": "bus_stop", "name": "Av. Caresmar 35", "public_transport": "stop_position"}}, {"type": "node", "id": 358348750, "lat": 41.5771303, "lon": 1.6254854, "tags": {"bus": "yes", "highway": "bus_stop", "name": "Av. Caresmar - Mercat", "public_transport": "stop_position"}}, {"type": "node", "id": 378741395, "lat": 41.561305, "lon": 1.2865165, "tags": {"bus": "yes", "highway": "bus_stop", "public_transport": "stop_position"}}, {"type": "node", "id": 378741530, "lat": 41.5583025, "lon": 1.307931, "tags": {"bus": "yes", "highway": "bus_stop", "name": "Llorac", "public_transport": "stop_position"}}, {"type": "node", "id": 386507699, "lat": 41.4706026, "lon": 1.5327171, "tags": {"bus": "yes", "highway": "bus_stop", "name": "Carretera d'Igualada amb Carretera de Vilafranca", "public_transport": "stop_position"}}, {"type": "node", "id": 387428847, "lat": 41.4955338, "lon": 1.5673009, "tags": {"bus": "yes", "highway": "bus_stop", "name": "Rofes", "name:ca": "Rofes", "public_transport": "stop_position"}}, {"type": "node", "id": 409817653, "lat": 41.5820276, "lon": 1.6039094, "tags": {"bus": "yes", "highway": "bus_stop", "name": "\u00c0ngel Guimer\u00e0 - Mol\u00ed Nou - Sentit Centre", "public_transport": "stop_position"}}, {"type": "node", "id": 489649130, "lat": 41.3432682, "lon": 1.6920637, "tags": {"bus": "yes", "highway": "bus_stop", "public_transport": "stop_position"}}, {"type": "node", "id": 633167168, "lat": 41.6487191, "lon": 1.1292837, "tags": {"bench": "yes", "bus": "yes", "departures_board": "timetable", "highway": "bus_stop", "name": "15", "public_transport": "platform", "shelter": "no"}}, {"type": "node", "id": 1001105440, "lat": 41.5764831, "lon": 1.6081016, "tags": {"bus": "yes", "highway": "bus_stop", "name": "Carretera de Valls 41", "public_transport": "stop_position"}}, {"type": "node", "id": 1001105455, "lat": 41.5786674, "lon": 1.6047277, "tags": {"bus": "yes", "highway": "bus_stop", "name": "Passeig Espanya - Pla\u00e7a Vistalegre", "public_transport": "stop_position"}}, {"type": "node", "id": 1001105486, "lat": 41.5780099, "lon": 1.6072062, "tags": {"bus": "yes", "highway": "bus_stop", "name": "Carretera de Valls 2", "public_transport": "stop_position"}}, {"type": "node", "id": 1123358209, "lat": 41.5637607, "lon": 1.2374281, "tags": {"bus": "yes", "highway": "bus_stop", "name": "Vallfogona (centre)", "public_transport": "stop_position"}}, {"type": "node", "id": 1123499646, "lat": 41.5640583, "lon": 1.184735, "tags": {"bench": "yes", "bus": "yes", "departures_board": "timetable", "highway": "bus_stop", "name": "Guimer\u00e0", "name:ca": "Guimer\u00e0", "public_transport": "platform", "ref": "ML 0201", "shelter": "yes"}}, {"type": "node", "id": 1123499647, "lat": 41.5604892, "lon": 1.2193254, "tags": {"bus": "yes", "highway": "bus_stop", "name": "Mas de la Cadena", "name:ca": "Mas de la Cadena", "public_transport": "platform"}}, {"type": "node", "id": 1420001699, "lat": 41.5312596, "lon": 1.3815736, "tags": {"bus": "yes", "highway": "bus_stop", "public_transport": "platform"}}, {"type": "node", "id": 1423123485, "lat": 41.5621469, "lon": 1.5229129, "tags": {"bench": "yes", "bin": "yes", "bus": "yes", "highway": "bus_stop", "lit": "yes", "name": "Sant Mart\u00ed de Tous", "name:ca": "Sant Mart\u00ed de Tous", "public_transport": "platform", "shelter": "yes", "tactile_paving": "no"}}, {"type": "node", "id": 1423123491, "lat": 41.5826743, "lon": 1.6162959, "tags": {"bus": "yes", "highway": "bus_stop", "name": "Verdaguer 3 - Pla\u00e7a Catalunya", "name:ca": "Verdaguer 3 - Pla\u00e7a Catalunya", "public_transport": "stop_position"}}, {"type": "node", "id": 1426067379, "lat": 41.5839606, "lon": 1.6109685, "tags": {"bus": "yes", "highway": "bus_stop", "name": "Av Gaud\u00ed - Sor Rita Mercader", "public_transport": "stop_position"}}, {"type": "node", "id": 1426067384, "lat": 41.5363927, "lon": 1.3867884, "tags": {"bus": "yes", "highway": "bus_stop", "public_transport": "platform", "ref": "MT 0236"}}, {"type": "node", "id": 1426067387, "lat": 41.5816254, "lon": 1.6185753, "tags": {"bus": "yes", "highway": "bus_stop", "name": "Passeig de Moss\u00e8n Jacint Verdaguer (antic Correus)", "name:ca": "Passeig de Moss\u00e8n Jacint Verdaguer (antic Correus)", "public_transport": "stop_position"}}, {"type": "node", "id": 1485005775, "lat": 41.2920454, "lon": 1.2548858, "tags": {"bus": "yes", "fixme": "see nearby note", "highway": "bus_stop", "name": "Cementiri", "name:ca": "Cementiri", "public_transport": "stop_position"}}, {"type": "node", "id": 1584912833, "lat": 41.3060436, "lon": 1.1950017, "tags": {"name": "la Plana - Picamoixons", "name:ca": "la Plana - Picamoixons", "operator": "Adif", "public_transport": "station", "railway": "station", "uic_ref": "7173100", "wikidata": "Q8779980", "wikipedia": "ca:Estaci\u00f3 de la Plana - Picamoixons"}}, {"type": "node", "id": 1668546089, "lat": 41.2822676, "lon": 1.2489348, "tags": {"bus": "yes", "fixme": "Parada de bus possiblement inutilitzada o amb afectacions importants degut a les obres de la Muralla Sant Francesc. Caldria revisar aviam si segueix activa i si t\u00e9 canvis", "highway": "bus_stop", "name": "Pla\u00e7a del Carme", "name:ca": "Pla\u00e7a del Carme", "public_transport": "stop_position"}}, {"type": "node", "id": 1668546647, "lat": 41.2902726, "lon": 1.2466035, "tags": {"bus": "yes", "fixme": "position guesstimated", "highway": "bus_stop", "name": "Creu Roja - Sant Josep Obrer", "name:ca": "Creu Roja - Sant Josep Obrer", "public_transport": "stop_position"}}, {"type": "node", "id": 1811698844, "lat": 41.5816352, "lon": 1.6194585, "tags": {"bus": "yes", "highway": "bus_stop", "name": "Verdaguer 45 - \u00d2dena", "name:ca": "Pg.Verdaguer, 45 - C/ Odena", "public_transport": "stop_position", "shelter": "no", "tactile_paving": "yes"}}, {"type": "node", "id": 1908671365, "lat": 41.4787513, "lon": 1.6121575, "tags": {"bus": "yes", "highway": "bus_stop", "name": "Avinguda de Montserrat (Hostal)", "name:ca": "Avinguda de Montserrat (Hostal)", "public_transport": "stop_position"}}, {"type": "node", "id": 1979018236, "lat": 41.585872, "lon": 1.6067744, "tags": {"bus": "yes", "highway": "bus_stop", "name": "Ronda F\u00e0tima - Fontsanta", "public_transport": "stop_position"}}, {"type": "node", "id": 2209660914, "lat": 41.3765162, "lon": 1.1657117, "tags": {"name": "Montblanc", "name:ca": "Montblanc", "operator": "Adif", "public_transport": "station", "railway": "station", "source": "https://github.com/trainline-eu/stations", "train": "yes", "uic_ref": "7173008", "wikidata": "Q11681662", "wikipedia": "ca:Estaci\u00f3 de Montblanc"}}, {"type": "node", "id": 2242865317, "lat": 41.6501865, "lon": 1.1387391}, {"type": "node", "id": 2242865319, "lat": 41.6503107, "lon": 1.1389921}, {"type": "node", "id": 2242865342, "lat": 41.6558218, "lon": 1.4205517, "tags": {"name": "Sant Guim de Freixenet", "name:ca": "Sant Guim de Freixenet", "public_transport": "station", "railway": "station", "wikidata": "Q634470", "wikipedia": "ca:Estaci\u00f3 de tren de Sant Guim de Freixenet"}}, {"type": "node", "id": 2242865371, "lat": 41.6736421, "lon": 1.2747713, "tags": {"name": "Cervera", "name:ca": "Cervera", "public_transport": "station", "railway": "station", "toilets:wheelchair": "yes", "train": "yes", "wheelchair": "yes", "wikidata": "Q634450", "wikipedia": "ca:Estaci\u00f3 de Cervera"}}, {"type": "node", "id": 2242865394, "lat": 41.7012753, "lon": 1.486246, "tags": {"name": "Sant Mart\u00ed de Sesgueioles", "name:ca": "Sant Mart\u00ed de Sesgueioles", "public_transport": "station", "railway": "station", "wikidata": "Q634480", "wikipedia": "ca:Estaci\u00f3 de Sant Mart\u00ed Sesgueioles"}}, {"type": "node", "id": 2248087728, "lat": 41.7332768, "lon": 1.5263319, "tags": {"bus": "yes", "highway": "bus_stop", "name": "Bombers Calaf", "name:ca": "Bombers Calaf", "public_transport": "platform"}}, {"type": "node", "id": 2248087729, "lat": 41.7334118, "lon": 1.5263403, "tags": {"bus": "yes", "highway": "bus_stop", "name": "Bombers Calaf", "name:ca": "Bombers Calaf", "public_transport": "platform"}}, {"type": "node", "id": 2248087745, "lat": 41.7320359, "lon": 1.5575756, "tags": {"bus": "yes", "highway": "bus_stop", "name": "Carretera de la Llavinera", "name:ca": "Carretera de la Llavinera", "public_transport": "platform"}}, {"type": "node", "id": 2248087746, "lat": 41.7321212, "lon": 1.5576523, "tags": {"bus": "yes", "highway": "bus_stop", "name": "Carretera de la Llavinera", "name:ca": "Carretera de la Llavinera", "public_transport": "platform"}}, {"type": "node", "id": 2248087747, "lat": 41.7305707, "lon": 1.5149331, "tags": {"bus": "yes", "highway": "bus_stop", "name": "Estaci\u00f3 Rodalies de Calaf", "name:ca": "Estaci\u00f3 Rodalies de Calaf", "public_transport": "platform"}}, {"type": "node", "id": 2590697030, "lat": 41.5916176, "lon": 1.6108803, "tags": {"bus": "yes", "highway": "bus_stop", "name": "Av. Catalunya - zona escolar Dolors Mart\u00ed", "public_transport": "stop_position"}}, {"type": "node", "id": 2659402944, "lat": 41.377692, "lon": 1.1633968, "tags": {"bench": "yes", "bin": "yes", "bus": "yes", "highway": "bus_stop", "name": "Montblanc", "name:ca": "Montblanc", "public_transport": "platform", "shelter": "yes"}}, {"type": "node", "id": 2713605723, "lat": 41.6501792, "lon": 1.1387454}, {"type": "node", "id": 2713605724, "lat": 41.6502939, "lon": 1.1390068}, {"type": "node", "id": 2820304010, "lat": 41.3559704, "lon": 1.7049705, "tags": {"bus": "yes", "highway": "bus_stop", "name": "Hospital", "name:ca": "Hospital", "public_transport": "stop_position"}}, {"type": "node", "id": 2820304011, "lat": 41.3535755, "lon": 1.7022883, "tags": {"bus": "yes", "highway": "bus_stop", "name": "Balt\u00e0 de Cela / Gelida", "name:ca": "Balt\u00e0 de Cela / Gelida", "public_transport": "stop_position"}}, {"type": "node", "id": 2820304012, "lat": 41.3519754, "lon": 1.7014397, "tags": {"bus": "yes", "highway": "bus_stop", "name": "La Granada / Espirall", "public_transport": "stop_position", "public_transport:version": "2"}}, {"type": "node", "id": 2820304013, "lat": 41.3508579, "lon": 1.7037093, "tags": {"bus": "yes", "highway": "bus_stop", "name": "La Granada / Mas i Jornet", "public_transport": "stop_position"}}, {"type": "node", "id": 2820304014, "lat": 41.3486641, "lon": 1.7035082, "tags": {"bus": "yes", "highway": "bus_stop", "name": "Igualada / General Zurbano", "public_transport": "stop_position"}}, {"type": "node", "id": 2820304015, "lat": 41.3463656, "lon": 1.7014401, "tags": {"bus": "yes", "highway": "bus_stop", "name": "Santa Clara / Muralla de Sant Mag\u00ed", "public_transport": "stop_position"}}, {"type": "node", "id": 2820304016, "lat": 41.3449088, "lon": 1.7018308, "tags": {"bus": "yes", "highway": "bus_stop", "name": "Santa Digna / Am\u00e0lia Soler", "public_transport": "stop_position"}}, {"type": "node", "id": 2820304024, "lat": 41.3451167, "lon": 1.7068637, "tags": {"bus": "yes", "highway": "bus_stop", "name": "Bisbe Estadella / Meli\u00f3", "public_transport": "stop_position"}}, {"type": "node", "id": 2820304026, "lat": 41.3440593, "lon": 1.7000241, "tags": {"bus": "yes", "highway": "bus_stop", "name": "Cal Bolet / Migdia", "name:ca": "Cal Bolet / Migdia", "public_transport": "stop_position"}}, {"type": "node", "id": 2820304027, "lat": 41.3439845, "lon": 1.6979904, "tags": {"bus": "yes", "highway": "bus_stop", "name": "Av. Tarragona / Vidal", "public_transport": "stop_position"}}, {"type": "node", "id": 2820304028, "lat": 41.3423434, "lon": 1.6957843, "tags": {"bench": "yes", "bin": "yes", "bus": "yes", "highway": "bus_stop", "lit": "yes", "name": "Av. Tarragona / Verdaguer", "public_transport": "platform", "shelter": "no", "tactile_paving": "no"}}, {"type": "node", "id": 2820336529, "lat": 41.3418759, "lon": 1.6934042, "tags": {"bus": "yes", "highway": "bus_stop", "name": "Francesc Maci\u00e0 (Mercat de Sant Salvador)", "public_transport": "stop_position"}}, {"type": "node", "id": 2820336530, "lat": 41.3439085, "lon": 1.6924996, "tags": {"bus": "yes", "highway": "bus_stop", "name": "Eugeni d'Ors / St. Antoni Maria Claret", "name:ca": "Eugeni d'Ors / St. Antoni Maria Claret", "public_transport": "stop_position"}}, {"type": "node", "id": 2820336531, "lat": 41.3461826, "lon": 1.6937554, "tags": {"bus": "yes", "highway": "bus_stop", "name": "Eugeni d'Ors / Sant F\u00e8lix - Av. Catalunya", "public_transport": "stop_position"}}, {"type": "node", "id": 2820336532, "lat": 41.3479309, "lon": 1.6901882, "tags": {"bus": "yes", "highway": "bus_stop", "name": "Av. Pla del Diable / Av. Catalunya", "public_transport": "stop_position"}}, {"type": "node", "id": 2820336533, "lat": 41.3494639, "lon": 1.6943188, "tags": {"bus": "yes", "highway": "bus_stop", "name": "Sant Jordi / Torrelles de Foix", "name:ca": "Sant Jordi / Torrelles de Foix", "public_transport": "stop_position"}}, {"type": "node", "id": 2820336534, "lat": 41.3492074, "lon": 1.6970437, "tags": {"bus": "yes", "highway": "bus_stop", "name": "Escorxador / Peguera", "name:ca": "Escorxador / Peguera", "public_transport": "stop_position"}}, {"type": "node", "id": 2820336535, "lat": 41.3497299, "lon": 1.6980829, "tags": {"bus": "yes", "highway": "bus_stop", "name": "Escorxador / Pl. Verema", "name:ca": "Escorxador / Pl. Verema", "public_transport": "stop_position"}}, {"type": "node", "id": 2820336536, "lat": 41.3501771, "lon": 1.6995017, "tags": {"bus": "yes", "highway": "bus_stop", "name": "A. Mestres Jan\u00e9 / Baldomer Lostau", "public_transport": "stop_position"}}, {"type": "node", "id": 2820336537, "lat": 41.3513484, "lon": 1.7010918, "tags": {"bus": "yes", "highway": "bus_stop", "name": "Pl. Pedr\u00f3 (Cementiri)", "public_transport": "stop_position"}}, {"type": "node", "id": 2820336538, "lat": 41.3528197, "lon": 1.7029096, "tags": {"bus": "yes", "highway": "bus_stop", "name": "Espirall / Ptge. Llu\u00eds Mata", "name:ca": "Espirall / Ptge. Llu\u00eds Mata", "public_transport": "stop_position"}}, {"type": "node", "id": 2820336539, "lat": 41.3524211, "lon": 1.7009874, "tags": {"bus": "yes", "highway": "bus_stop", "name": "Guardiola (Cementiri)", "name:ca": "Guardiola (Cementiri)", "public_transport": "stop_position"}}, {"type": "node", "id": 2820336540, "lat": 41.3494602, "lon": 1.6991354, "tags": {"bus": "yes", "highway": "bus_stop", "public_transport": "stop_position"}}, {"type": "node", "id": 2820336541, "lat": 41.3483823, "lon": 1.6974744, "tags": {"bus": "yes", "highway": "bus_stop", "name": "Benefici\u00e8ncia (Casal de la Gent Gran)", "public_transport": "stop_position"}}, {"type": "node", "id": 2820336542, "lat": 41.3486703, "lon": 1.6930502, "tags": {"bus": "yes", "highway": "bus_stop", "public_transport": "stop_position"}}, {"type": "node", "id": 2820336543, "lat": 41.3480726, "lon": 1.6847873, "tags": {"bus": "yes", "highway": "bus_stop", "name": "Complex Aqu\u00e0tic - Av. Catalunya", "public_transport": "stop_position"}}, {"type": "node", "id": 2820336544, "lat": 41.3486402, "lon": 1.6867989, "tags": {"bus": "yes", "highway": "bus_stop", "name": "Zona Esportiva", "name:ca": "Zona Esportiva", "public_transport": "stop_position"}}, {"type": "node", "id": 2820336545, "lat": 41.3489405, "lon": 1.688924, "tags": {"bus": "yes", "highway": "bus_stop", "name": "Av. Catalunya (Fassina)", "public_transport": "stop_position"}}, {"type": "node", "id": 2820336547, "lat": 41.3425098, "lon": 1.6940095, "tags": {"bus": "yes", "highway": "bus_stop", "name": "Pere el Gran / Jaume Balmes", "name:ca": "Pere el Gran / Jaume Balmes", "public_transport": "stop_position"}}, {"type": "node", "id": 2820336552, "lat": 41.343463, "lon": 1.7008732, "tags": {"bus": "yes", "highway": "bus_stop", "name": "Am\u00e0lia Soler / Can Bolet", "name:ca": "Am\u00e0lia Soler / Can Bolet", "public_transport": "stop_position"}}, {"type": "node", "id": 2820336553, "lat": 41.3449216, "lon": 1.7030896, "tags": {"bus": "yes", "highway": "bus_stop", "name": "Pl. de l'Estaci\u00f3 (Estaci\u00f3 de Rodalies)", "public_transport": "stop_position"}}, {"type": "node", "id": 2820336554, "lat": 41.3460451, "lon": 1.7011565, "tags": {"bus": "yes", "highway": "bus_stop", "name": "C. Cid / C. Igualada", "public_transport": "stop_position"}}, {"type": "node", "id": 2820336555, "lat": 41.3485418, "lon": 1.7014004, "tags": {"bus": "yes", "highway": "bus_stop", "name": "Pl. Manuel Mil\u00e0 i Fontanals", "public_transport": "stop_position"}}, {"type": "node", "id": 2820336556, "lat": 41.3497594, "lon": 1.7044699, "tags": {"bus": "yes", "highway": "bus_stop", "name": "Igualada / la Granada", "public_transport": "stop_position"}}, {"type": "node", "id": 2820336557, "lat": 41.3514792, "lon": 1.704267, "tags": {"bus": "yes", "highway": "bus_stop", "name": "Sant Sadurn\u00ed d'Anoia / Mas i Jornet", "name:ca": "Sant Sadurn\u00ed d'Anoia / Mas i Jornet", "public_transport": "stop_position"}}, {"type": "node", "id": 2892307511, "lat": 41.5779081, "lon": 1.6299301}, {"type": "node", "id": 2892307512, "lat": 41.5779537, "lon": 1.6299567}, {"type": "node", "id": 2892307513, "lat": 41.5779878, "lon": 1.6299767}, {"type": "node", "id": 2892307514, "lat": 41.5780311, "lon": 1.6295542}, {"type": "node", "id": 2892307515, "lat": 41.5780886, "lon": 1.6300356}, {"type": "node", "id": 2892307516, "lat": 41.5782116, "lon": 1.6296597}, {"type": "node", "id": 3005906548, "lat": 41.3610848, "lon": 1.5218926, "tags": {"bus": "yes", "highway": "bus_stop", "name": "Parada escolar", "public_transport": "platform"}}, {"type": "node", "id": 3005906681, "lat": 41.3637792, "lon": 1.5227885, "tags": {"bus": "yes", "highway": "bus_stop", "name": "Parada escolar", "public_transport": "platform"}}, {"type": "node", "id": 3544041111, "lat": 41.6460194, "lon": 1.1413329, "tags": {"bus": "yes", "highway": "bus_stop", "name": "Estaci\u00f3 d'autobusos de T\u00e0rrega", "name:ca": "Estaci\u00f3 d'autobusos de T\u00e0rrega", "public_transport": "stop_position", "route_ref": "L0092"}}, {"type": "node", "id": 3592103996, "lat": 41.3376342, "lon": 1.1764923, "tags": {"name": "Vilaverd", "name:ca": "Vilaverd", "operator": "Adif", "public_transport": "station", "railway": "station", "train": "yes", "wikidata": "Q8842230", "wikipedia": "ca:Estaci\u00f3 de Vilaverd"}}, {"type": "node", "id": 3805861235, "lat": 41.673643, "lon": 1.2739669, "tags": {"addr:city": "Cervera", "addr:housenumber": "14", "addr:postcode": "25200", "addr:street": "Carrer de Vidal de Montpalau", "bench": "yes", "bus": "yes", "covered": "yes", "highway": "bus_stop", "name": "Estaci\u00f3 d'autobusos de Cervera", "name:ca": "Estaci\u00f3 de Cervera", "name:es": "Estaci\u00f3n de Cervera", "operator": "Generalitat de Catalunya", "phone": "+34973533318", "public_transport": "stop_position", "route_ref": "L0092", "shelter": "yes", "wheelchair": "yes"}}, {"type": "node", "id": 3805861236, "lat": 41.6736734, "lon": 1.2736992}, {"type": "node", "id": 3805861237, "lat": 41.673779, "lon": 1.273754}, {"type": "node", "id": 3805861238, "lat": 41.67383, "lon": 1.2740743}, {"type": "node", "id": 3805868500, "lat": 41.6459867, "lon": 1.1414028, "tags": {"bus": "yes", "highway": "bus_stop", "name": "Estaci\u00f3 d'autobusos de T\u00e0rrega", "name:ca": "Estaci\u00f3 d'autobusos de T\u00e0rrega", "public_transport": "platform", "route_ref": "L0092", "wheelchair": "no"}}, {"type": "node", "id": 3977965158, "lat": 41.6472472, "lon": 1.1081545, "tags": {"bench": "yes", "bus": "yes", "departures_board": "timetable", "highway": "bus_stop", "name": "Vilagrassa", "name:ca": "Vilagrassa", "public_transport": "platform", "ref": "ML 0231", "shelter": "yes"}}, {"type": "node", "id": 4057876652, "lat": 41.6649375, "lon": 1.301076, "tags": {"bench": "no", "bus": "yes", "covered": "no", "highway": "bus_stop", "name": "Parada d'autobusos de Verg\u00f3s", "network": "Alsa", "network:wikidata": "Q294510", "network:wikipedia": "en:ALSA (bus company)", "operator": "ALSA", "public_transport": "platform", "shelter": "no"}}, {"type": "node", "id": 4258486487, "lat": 41.6667505, "lon": 1.2694914, "tags": {"bus": "yes", "highway": "bus_stop", "name": "2- Sant Mag\u00ed", "network": "Servei de transport de viatgers Nucli Antic", "operator": "Cots Alsina", "public_transport": "platform"}}, {"type": "node", "id": 4258486488, "lat": 41.6647653, "lon": 1.2758105, "tags": {"bus": "yes", "highway": "bus_stop", "name": "3- Hostal La Savina", "network": "Servei de transport de viatgers Nucli Antic", "operator": "Cots Alsina", "public_transport": "platform"}}, {"type": "node", "id": 4258487189, "lat": 41.6655189, "lon": 1.2729875, "tags": {"bus": "yes", "highway": "bus_stop", "name": "2- Costa de Sant Francesc", "network": "Servei de transport de viatgers Nucli Antic", "operator": "Cots Alsina", "public_transport": "platform"}}, {"type": "node", "id": 5091900383, "lat": 41.2995116, "lon": 1.2592928, "tags": {"bus": "yes", "highway": "bus_stop", "name": "Carrer Eladi Homs", "name:ca": "Carrer Eladi Homs", "public_transport": "stop_position"}}, {"type": "node", "id": 5091980239, "lat": 41.2968982, "lon": 1.2571398, "tags": {"bus": "yes", "highway": "bus_stop", "name": "Blocs Alt Camp", "name:ca": "Blocs Alt Camp", "public_transport": "stop_position"}}, {"type": "node", "id": 5426236792, "lat": 41.3541137, "lon": 1.7062511, "tags": {"bus": "yes", "highway": "bus_stop", "name": "Pelegrina CAP Nord", "name:ca": "Pelegrina CAP Nord", "public_transport": "stop_position"}}, {"type": "node", "id": 5434388023, "lat": 41.7301408, "lon": 1.515029, "tags": {"check_date": "2024-08-22", "name": "Calaf", "name:ca": "Calaf", "public_transport": "station", "railway": "station", "train": "yes", "wikidata": "Q634454", "wikipedia": "ca:Estaci\u00f3 de Calaf"}}, {"type": "node", "id": 5443935580, "lat": 41.3184294, "lon": 1.181359, "tags": {"name": "la Riba", "name:ca": "la Riba", "operator": "Adif", "public_transport": "station", "railway": "station", "wikidata": "Q8779985", "wikipedia": "ca:Estaci\u00f3 de la Riba"}}, {"type": "node", "id": 5474107627, "lat": 41.5827212, "lon": 1.6163168, "tags": {"bench": "no", "bin": "yes", "bus": "yes", "departures_board": "timetable", "highway": "bus_stop", "lit": "yes", "name": "Pla\u00e7a Catalunya", "name:ca": "Pla\u00e7a Catalunya", "public_transport": "platform", "shelter": "no", "tactile_paving": "yes"}}, {"type": "node", "id": 5474108368, "lat": 41.5775546, "lon": 1.6311538}, {"type": "node", "id": 5474108369, "lat": 41.5773113, "lon": 1.6316751}, {"type": "node", "id": 5474108595, "lat": 41.5772976, "lon": 1.6316569}, {"type": "node", "id": 5474108596, "lat": 41.5775682, "lon": 1.631172}, {"type": "node", "id": 5487299865, "lat": 41.3442839, "lon": 1.7035595, "tags": {"bus": "yes", "highway": "bus_stop", "name": "Estaci\u00f3 de Tren / Comer\u00e7", "name:ca": "Estaci\u00f3 de Tren / Comer\u00e7", "public_transport": "stop_position"}}, {"type": "node", "id": 5487300021, "lat": 41.3535922, "lon": 1.7063279, "tags": {"bus": "yes", "highway": "bus_stop", "name": "Igualada / CAP Nord", "public_transport": "stop_position"}}, {"type": "node", "id": 5487300022, "lat": 41.3460583, "lon": 1.7026208, "tags": {"bus": "yes", "highway": "bus_stop", "name": "Av. Barcelona / Miser Rufet", "public_transport": "stop_position"}}, {"type": "node", "id": 5487300023, "lat": 41.3470946, "lon": 1.7082941, "tags": {"bus": "yes", "highway": "bus_stop", "name": "Meli\u00f2 / Av. Barcelona", "public_transport": "stop_position"}}, {"type": "node", "id": 5514980069, "lat": 41.7305348, "lon": 1.5148782, "tags": {"bus": "yes", "highway": "bus_stop", "name": "Estaci\u00f3 Rodalies de Calaf", "name:ca": "Estaci\u00f3 Rodalies de Calaf", "public_transport": "stop_position"}}, {"type": "node", "id": 5584380332, "lat": 41.4787072, "lon": 1.6119092, "tags": {"bus": "yes", "highway": "bus_stop", "name": "Avinguda de Montserrat (Hostal)", "name:ca": "Avinguda de Montserrat (Hostal)", "public_transport": "platform"}}, {"type": "node", "id": 5584380333, "lat": 41.4788312, "lon": 1.6119473, "tags": {"bus": "yes", "highway": "bus_stop", "name": "Avinguda de Montserrat (Hostal)", "name:ca": "Avinguda de Montserrat (Hostal)", "public_transport": "platform", "shelter": "yes"}}, {"type": "node", "id": 5585746659, "lat": 41.4635336, "lon": 1.6663997, "tags": {"bus": "yes", "highway": "bus_stop", "name": "Avinguda de Montserrat 47 (Bar La Pedra)", "name:ca": "Avinguda de Montserrat 47 (Bar La Pedra)", "public_transport": "stop_position"}}, {"type": "node", "id": 5585747429, "lat": 41.4619479, "lon": 1.6668996, "tags": {"bus": "yes", "highway": "bus_stop", "name": "Avinguda de Montserrat 9", "name:ca": "Avinguda de Montserrat 9", "public_transport": "stop_position"}}, {"type": "node", "id": 5585747430, "lat": 41.4635321, "lon": 1.6664739, "tags": {"bus": "yes", "highway": "bus_stop", "name": "Avinguda de Montserrat 47 (Bar La Pedra)", "name:ca": "Avinguda de Montserrat 47 (Bar La Pedra)", "public_transport": "platform"}}, {"type": "node", "id": 5585747432, "lat": 41.4895692, "lon": 1.6557035, "tags": {"bus": "yes", "highway": "bus_stop", "name": "Carrer d'Orient (Sant Pere Sacarrera)", "name:ca": "Carrer d'Orient (Sant Pere Sacarrera)", "public_transport": "stop_position"}}, {"type": "node", "id": 5600929062, "lat": 41.28583, "lon": 1.2534164, "tags": {"bus": "yes", "description": "Node de parada per a les rutes de bus que paren en aquesta estaci\u00f3, per\u00f2 que no tenen una andana definida. Hereta l'historial de l'\u00fanic node de parada de busos que hi havia en aquesta estaci\u00f3 abans de suna divisi\u00f3 en andanes", "description:ca": "Node de parada per a les rutes de bus que paren en aquesta estaci\u00f3, per\u00f2 que no tenen una andana definida. Hereta l'historial de l'\u00fanic node de parada de busos que hi havia en aquesta estaci\u00f3 abans de suna divisi\u00f3 en andanes", "highway": "bus_stop", "name": "Valls", "name:ca": "Valls", "note": "Node de parada per a les rutes de bus que paren en aquesta estaci\u00f3, per\u00f2 que no tenen una andana definida. Hereta l'historial de l'\u00fanic node de parada de busos que hi havia en aquesta estaci\u00f3 abans de suna divisi\u00f3 en andanes", "note:ca": "Node de parada per a les rutes de bus que paren en aquesta estaci\u00f3, per\u00f2 que no tenen una andana definida. Hereta l'historial de l'\u00fanic node de parada de busos que hi havia en aquesta estaci\u00f3 abans de suna divisi\u00f3 en andanes", "public_transport": "stop_position"}}, {"type": "node", "id": 5890212291, "lat": 41.353573, "lon": 1.706401, "tags": {"bus": "yes", "highway": "bus_stop", "name": "Igualada / CAP Nord", "public_transport": "platform"}}, {"type": "node", "id": 5890212292, "lat": 41.3497367, "lon": 1.7045245, "tags": {"bus": "yes", "highway": "bus_stop", "name": "Igualada / la Granada", "public_transport": "platform"}}, {"type": "node", "id": 5890212293, "lat": 41.3486486, "lon": 1.7035469, "tags": {"bus": "yes", "highway": "bus_stop", "name": "Igualada / General Zurbano", "public_transport": "platform"}}, {"type": "node", "id": 5890212294, "lat": 41.3460117, "lon": 1.701219, "tags": {"bus": "yes", "highway": "bus_stop", "name": "C. Cid / C. Igualada", "public_transport": "platform"}}, {"type": "node", "id": 5890212295, "lat": 41.3461412, "lon": 1.7026118, "tags": {"bench": "no", "bin": "no", "bus": "yes", "highway": "bus_stop", "lit": "no", "name": "Av. Barcelona / Miser Rufet", "public_transport": "platform", "shelter": "no", "tactile_paving": "no"}}, {"type": "node", "id": 5890212296, "lat": 41.3470775, "lon": 1.7083342, "tags": {"bus": "yes", "highway": "bus_stop", "name": "Meli\u00f2 / Av. Barcelona", "public_transport": "platform"}}, {"type": "node", "id": 5890212307, "lat": 41.3424629, "lon": 1.6939809, "tags": {"bus": "yes", "highway": "bus_stop", "name": "Pere el Gran / Jaume Balmes", "name:ca": "Pere el Gran / Jaume Balmes", "public_transport": "platform"}}, {"type": "node", "id": 5890212308, "lat": 41.3432486, "lon": 1.6919878, "tags": {"bus": "yes", "highway": "bus_stop", "name": "Eugeni d'Ors / Pere el Gran", "name:ca": "Eugeni d'Ors / Pere el Gran", "public_transport": "platform"}}, {"type": "node", "id": 5890212309, "lat": 41.3488943, "lon": 1.6889094, "tags": {"bus": "yes", "highway": "bus_stop", "name": "Av. Catalunya (Fassina)", "public_transport": "platform"}}, {"type": "node", "id": 5890212310, "lat": 41.3486175, "lon": 1.686822, "tags": {"bus": "yes", "highway": "bus_stop", "name": "Zona Esportiva", "name:ca": "Zona Esportiva", "public_transport": "platform"}}, {"type": "node", "id": 5890212311, "lat": 41.3480108, "lon": 1.6848039, "tags": {"bus": "yes", "highway": "bus_stop", "name": "Complex Aqu\u00e0tic - Av. Catalunya", "public_transport": "platform"}}, {"type": "node", "id": 5890212312, "lat": 41.348711, "lon": 1.6930509, "tags": {"bus": "yes", "highway": "bus_stop", "name": "Torrelles de Foix / IES Mil\u00e0 Fontanals", "name:ca": "Torrelles de Foix / IES Mil\u00e0 Fontanals", "public_transport": "platform"}}, {"type": "node", "id": 5890212313, "lat": 41.3484265, "lon": 1.6974723, "tags": {"bus": "yes", "highway": "bus_stop", "name": "Benefici\u00e8ncia (Casal de la Gent Gran)", "public_transport": "platform"}}, {"type": "node", "id": 5890212314, "lat": 41.349481, "lon": 1.6990942, "tags": {"bus": "yes", "highway": "bus_stop", "name": "A. Mestres Jan\u00e9 / Vilob\u00ed", "public_transport": "platform"}}, {"type": "node", "id": 5890212315, "lat": 41.3524342, "lon": 1.7008974, "tags": {"bus": "yes", "highway": "bus_stop", "name": "Guardiola (Cementiri)", "name:ca": "Guardiola (Cementiri)", "public_transport": "platform"}}, {"type": "node", "id": 5890212316, "lat": 41.3535979, "lon": 1.7022048, "tags": {"bus": "yes", "highway": "bus_stop", "name": "Balt\u00e0 de Cela / Gelida", "name:ca": "Balt\u00e0 de Cela / Gelida", "public_transport": "platform"}}, {"type": "node", "id": 5890212317, "lat": 41.3559939, "lon": 1.7049016, "tags": {"bus": "yes", "highway": "bus_stop", "name": "Hospital", "name:ca": "Hospital", "public_transport": "platform"}}, {"type": "node", "id": 6198477943, "lat": 41.5578628, "lon": 1.092825, "tags": {"bench": "yes", "bus": "yes", "departures_board": "timetable", "highway": "bus_stop", "name": "Parada de bus de Rocafort de Vallbona", "public_transport": "platform", "ref": "ML 0203", "shelter": "yes", "surface": "asphalt"}}, {"type": "node", "id": 6200760794, "lat": 41.5653268, "lon": 1.1120049, "tags": {"bus": "yes", "departures_board": "timetable", "highway": "bus_stop", "name": "Parada de b\u00fas de Nalec", "public_transport": "platform", "ref": "ML 0202", "shelter": "yes"}}, {"type": "node", "id": 6597551838, "lat": 41.5780463, "lon": 1.6300109}, {"type": "node", "id": 6637150393, "lat": 41.6737892, "lon": 1.2740986}, {"type": "node", "id": 6637150395, "lat": 41.6738114, "lon": 1.2740854}, {"type": "node", "id": 6637150396, "lat": 41.6737145, "lon": 1.2737205}, {"type": "node", "id": 6940041464, "lat": 41.3256439, "lon": 1.6170315, "tags": {"bus": "yes", "highway": "bus_stop", "name": "La Munia", "public_transport": "platform"}}, {"type": "node", "id": 6940277550, "lat": 41.3144056, "lon": 1.4530707, "tags": {"bench": "yes", "bus": "yes", "departures_board": "timetable", "highway": "bus_stop", "lit": "yes", "name": "el Montmell", "name:ca": "el Montmell", "network": "Transport Comarcal, Linias Valls - Barcelona, Linia Urbana", "operator": "Izaro (Moventis) Monbus", "public_transport": "platform", "shelter": "yes", "wheelchair": "yes"}}, {"type": "node", "id": 6940277552, "lat": 41.3145768, "lon": 1.4529629, "tags": {"bus": "yes", "highway": "bus_stop", "name": "Bus Escolar", "public_transport": "platform"}}, {"type": "node", "id": 7005850062, "lat": 41.29125, "lon": 1.4724565, "tags": {"bench": "no", "bus": "yes", "departures_board": "timetable", "highway": "bus_stop", "name": "Priorat / Palencia", "network": "SERVEI URBA", "operator": "HIFE", "public_transport": "platform", "shelter": "no", "wheelchair": "limited"}}, {"type": "node", "id": 7005850063, "lat": 41.2918623, "lon": 1.4729586, "tags": {"bench": "no", "bus": "yes", "departures_board": "timetable", "highway": "bus_stop", "name": "Priorat / Huesca", "network": "SERVEI URBA", "operator": "HIFE", "public_transport": "platform", "shelter": "no", "wheelchair": "limited"}}, {"type": "node", "id": 7005850068, "lat": 41.292522, "lon": 1.4699324, "tags": {"bench": "no", "bus": "yes", "departures_board": "timetable", "highway": "bus_stop", "name": "Huesca / La Corunya", "network": "SERVEI URBA", "operator": "HIFE", "public_transport": "platform", "shelter": "no", "wheelchair": "limited"}}, {"type": "node", "id": 7005852604, "lat": 41.2895377, "lon": 1.4719265, "tags": {"bench": "no", "bus": "yes", "departures_board": "timetable", "highway": "bus_stop", "name": "Priorat / Oviedo", "network": "SERVEI URBA", "operator": "HIFE", "public_transport": "platform", "shelter": "no", "wheelchair": "limited"}}, {"type": "node", "id": 7005852605, "lat": 41.2894552, "lon": 1.4718074, "tags": {"bench": "no", "bus": "yes", "departures_board": "timetable", "highway": "bus_stop", "name": "Priorat / Zamora", "network": "SERVEI URBA", "operator": "HIFE", "public_transport": "platform", "shelter": "no", "wheelchair": "limited"}}, {"type": "node", "id": 7204816739, "lat": 41.3446233, "lon": 1.7033853, "tags": {"description": "Vilafranca del Pened\u00e8s \u00e9s una estaci\u00f3 de ferrocarril propietat d'Adif situada a la poblaci\u00f3 de Vilafranca del Pened\u00e8s, a la comarca de l'Alt Pened\u00e8s.", "name": "Vilafranca del Pened\u00e8s", "name:ca": "Vilafranca del Pened\u00e8s", "operator": "Adif", "public_transport": "station", "railway": "station", "train": "yes", "wikidata": "Q321849", "wikipedia": "ca:Estaci\u00f3 de Vilafranca del Pened\u00e8s"}}, {"type": "node", "id": 7321652475, "lat": 41.2673246, "lon": 1.3393864, "tags": {"bus": "yes", "highway": "bus_stop", "name": "Tarragona -Br\u00e0fim", "public_transport": "platform"}}, {"type": "node", "id": 7713503382, "lat": 41.5428349, "lon": 1.3009603, "tags": {"bus": "yes", "highway": "bus_stop", "name": "Savall\u00e0 del Comtat", "name:ca": "Savall\u00e0 del Comtat", "public_transport": "platform", "ref": "MT 0238", "shelter": "yes"}}, {"type": "node", "id": 7720912052, "lat": 41.5342076, "lon": 1.3830419, "tags": {"bus": "yes", "highway": "bus_stop", "public_transport": "platform", "ref": "MT 0235"}}, {"type": "node", "id": 7891321098, "lat": 41.3190575, "lon": 1.1815006, "tags": {"bench": "yes", "bus": "yes", "highway": "bus_stop", "name": "La Riba", "public_transport": "platform", "shelter": "yes"}}, {"type": "node", "id": 7891327300, "lat": 41.318907, "lon": 1.1809301, "tags": {"bench": "yes", "bus": "yes", "highway": "bus_stop", "name": "La Riba Marquesina", "network": "L0693", "public_transport": "platform", "shelter": "yes"}}, {"type": "node", "id": 8067045445, "lat": 41.2871667, "lon": 1.2513221, "tags": {"bench": "no", "bin": "no", "bus": "yes", "departures_board": "timetable", "highway": "bus_stop", "lit": "no", "name": "Font de la Manxa", "name:ca": "Font de la Manxa", "network": "Valls Bus", "public_transport": "platform", "shelter": "no", "tactile_paving": "no"}}, {"type": "node", "id": 8067066580, "lat": 41.2864002, "lon": 1.2408413, "tags": {"bus": "yes", "highway": "bus_stop", "name": "Resid\u00e8ncia", "name:ca": "Resid\u00e8ncia", "network": "Valls Bus", "public_transport": "platform", "shelter": "no"}}, {"type": "node", "id": 8067085853, "lat": 41.2838973, "lon": 1.2517778, "tags": {"bench": "no", "bin": "no", "bus": "yes", "departures_board": "timetable", "fixme": "Parada de bus possiblement inutilitzada o amb afectacions importants degut a les obres de la Muralla Sant Francesc. Caldria revisar aviam si segueix activa i si t\u00e9 canvis", "highway": "bus_stop", "lit": "no", "name": "Hospital", "name:ca": "Hospital", "network": "Valls Bus", "public_transport": "platform", "shelter": "no", "tactile_paving": "no"}}, {"type": "node", "id": 8067104240, "lat": 41.2820017, "lon": 1.246474, "tags": {"bench": "yes", "bin": "no", "bus": "yes", "departures_board": "timetable", "highway": "bus_stop", "lit": "no", "name": "Portal Nou", "name:ca": "Portal Nou", "network": "Valls Bus", "public_transport": "platform", "shelter": "yes", "tactile_paving": "no"}}, {"type": "node", "id": 8067119218, "lat": 41.2810354, "lon": 1.2582424, "tags": {"bench": "yes", "bin": "no", "bus": "yes", "departures_board": "timetable", "highway": "bus_stop", "lit": "no", "name": "Colla Vella", "name:ca": "Colla Vella", "network": "Valls Bus", "public_transport": "platform", "shelter": "yes", "tactile_paving": "no"}}, {"type": "node", "id": 8171826019, "lat": 41.2871788, "lon": 1.268452, "tags": {"bench": "yes", "bus": "yes", "departures_board": "timetable", "highway": "bus_stop", "name": "Bon Sol", "name:ca": "Bon Sol", "network": "Valls Bus", "public_transport": "platform", "shelter": "yes"}}, {"type": "node", "id": 8171864376, "lat": 41.2811652, "lon": 1.2434393, "tags": {"bench": "yes", "bin": "no", "bus": "yes", "departures_board": "timetable", "highway": "bus_stop", "lit": "no", "name": "Mas Clariana", "name:ca": "Mas Clariana", "network": "Valls Bus", "public_transport": "platform", "shelter": "yes", "tactile_paving": "no"}}, {"type": "node", "id": 8171880060, "lat": 41.2883327, "lon": 1.2493234, "tags": {"bench": "no", "bin": "no", "bus": "yes", "departures_board": "timetable", "highway": "bus_stop", "lit": "no", "name": "Carrer Abat Llort", "name:ca": "Carrer Abat Llort", "network": "Valls Bus", "public_transport": "platform", "shelter": "no", "tactile_paving": "no"}}, {"type": "node", "id": 8171880637, "lat": 41.2890946, "lon": 1.2466133, "tags": {"bench": "no", "bin": "no", "bus": "yes", "departures_board": "timetable", "highway": "bus_stop", "lit": "no", "name": "Carrer Pere Catal\u00e0 Pic (IES Jaume Huguet)", "name:ca": "Carrer Pere Catal\u00e0 Pic (IES Jaume Huguet)", "network": "Valls Bus", "public_transport": "platform", "shelter": "no", "tactile_paving": "no"}}, {"type": "node", "id": 8171922846, "lat": 41.2823, "lon": 1.2489135, "tags": {"bench": "no", "bin": "no", "bus": "yes", "departures_board": "timetable", "fixme": "Parada de bus possiblement inutilitzada o amb afectacions importants degut a les obres de la Muralla Sant Francesc. Caldria revisar aviam si segueix activa i si t\u00e9 canvis", "highway": "bus_stop", "lit": "no", "name": "Pla\u00e7a del Carme", "name:ca": "Pla\u00e7a del Carme", "network": "Valls Bus", "public_transport": "platform", "shelter": "no", "tactile_paving": "no"}}, {"type": "node", "id": 8171950005, "lat": 41.2860611, "lon": 1.2512471, "tags": {"alt_name": "El Pati", "bench": "yes", "bin": "no", "bus": "yes", "departures_board": "timetable", "fixme": "Parada de bus possiblement inutilitzada o amb afectacions importants degut a les obres de la Muralla Sant Francesc. Caldria revisar aviam si segueix activa i si t\u00e9 canvis", "highway": "bus_stop", "lit": "no", "name": "Muralla del Castell - El Pati", "name:ca": "Muralla del Castell - El Pati", "network": "Valls Bus", "public_transport": "platform", "shelter": "yes", "tactile_paving": "no"}}, {"type": "node", "id": 8171956169, "lat": 41.2898181, "lon": 1.2535969, "tags": {"bench": "yes", "bin": "no", "bus": "yes", "departures_board": "timetable", "highway": "bus_stop", "lit": "no", "name": "Pla\u00e7a de la Creu", "name:ca": "Pla\u00e7a de la Creu", "network": "Valls Bus", "public_transport": "platform", "shelter": "yes", "tactile_paving": "no"}}, {"type": "node", "id": 8171961277, "lat": 41.2938743, "lon": 1.2551375, "tags": {"bench": "no", "bin": "no", "bus": "yes", "departures_board": "timetable", "highway": "bus_stop", "lit": "no", "name": "Blocs Mu\u00f1oz", "name:ca": "Blocs Mu\u00f1oz", "network": "Valls Bus", "public_transport": "platform", "shelter": "no", "tactile_paving": "no"}}, {"type": "node", "id": 8171983191, "lat": 41.295272, "lon": 1.2574999, "tags": {"bench": "no", "bin": "no", "bus": "yes", "departures_board": "timetable", "highway": "bus_stop", "name": "Avinguda del Forn\u00e0s", "name:ca": "Avinguda del Forn\u00e0s", "network": "Valls Bus", "public_transport": "platform", "shelter": "no", "tactile_paving": "no"}}, {"type": "node", "id": 8171987462, "lat": 41.2998168, "lon": 1.2589776, "tags": {"bench": "no", "bin": "no", "bus": "yes", "departures_board": "timetable", "highway": "bus_stop", "lit": "no", "name": "Urbanitzaci\u00f3 Miramar", "name:ca": "Urbanitzaci\u00f3 Miramar", "network": "Valls Bus", "public_transport": "platform", "shelter": "no", "tactile_paving": "no"}}, {"type": "node", "id": 8171988990, "lat": 41.2967183, "lon": 1.257397, "tags": {"bench": "yes", "bin": "no", "bus": "yes", "covered": "yes", "departures_board": "timetable", "highway": "bus_stop", "lit": "no", "name": "Santa \u00darsula", "name:ca": "Santa \u00darsula", "network": "Valls Bus", "public_transport": "platform", "shelter": "yes", "tactile_paving": "no"}}, {"type": "node", "id": 8171990981, "lat": 41.2875794, "lon": 1.2521828, "tags": {"bench": "no", "bin": "no", "bus": "yes", "departures_board": "timetable", "highway": "bus_stop", "lit": "no", "name": "Carretera del Pla", "name:ca": "Carretera del Pla", "network": "Valls Bus", "public_transport": "platform", "shelter": "no", "tactile_paving": "no"}}, {"type": "node", "id": 8193895805, "lat": 41.4004421, "lon": 1.576138, "tags": {"bus": "yes", "highway": "bus_stop", "name": "Can Coral", "network": "Pontons - Vilafranca", "operator": "MonBus", "public_transport": "stop_position"}}, {"type": "node", "id": 8689081376, "lat": 41.4102639, "lon": 1.2271206, "tags": {"bench": "yes", "bin": "no", "bus": "yes", "departures_board": "timetable", "highway": "bus_stop", "name": "Barber\u00e0 de la Conca", "name:ca": "Barber\u00e0 de la Conca", "public_transport": "platform", "shelter": "yes"}}, {"type": "node", "id": 8848137035, "lat": 41.5906426, "lon": 1.6187132, "tags": {"bus": "yes", "highway": "bus_stop", "name": "Av. Andorra S/N", "public_transport": "stop_position"}}, {"type": "node", "id": 8848137036, "lat": 41.5911775, "lon": 1.6171556, "tags": {"bus": "yes", "highway": "bus_stop", "name": "Av. Pa\u00efsos Catalans - Carrefour", "public_transport": "stop_position"}}, {"type": "node", "id": 8848137037, "lat": 41.5882769, "lon": 1.6193599, "tags": {"bench": "yes", "bin": "yes", "bus": "yes", "highway": "bus_stop", "name": "Av. Catalunya - Hospital", "public_transport": "stop_position", "shelter": "yes"}}, {"type": "node", "id": 8848137038, "lat": 41.5875146, "lon": 1.6145567, "tags": {"bus": "yes", "highway": "bus_stop", "name": "Av. Balmes 59", "public_transport": "stop_position"}}, {"type": "node", "id": 8848137039, "lat": 41.5862789, "lon": 1.6145459, "tags": {"bus": "yes", "highway": "bus_stop", "name": "Av. Barcelona - P. Blanco", "public_transport": "stop_position"}}, {"type": "node", "id": 8848137040, "lat": 41.5857834, "lon": 1.6169302, "tags": {"bus": "yes", "highway": "bus_stop", "name": "Av. Barcelona 22", "public_transport": "stop_position"}}, {"type": "node", "id": 8848137041, "lat": 41.585189, "lon": 1.6197879, "tags": {"bus": "yes", "highway": "bus_stop", "name": "Av. Barcelona - \u00d2dena", "public_transport": "stop_position"}}, {"type": "node", "id": 8848137042, "lat": 41.5848934, "lon": 1.621236, "tags": {"bus": "yes", "highway": "bus_stop", "name": "Av. Barcelona 88", "public_transport": "stop_position"}}, {"type": "node", "id": 8848137043, "lat": 41.5843439, "lon": 1.6239467, "tags": {"bus": "yes", "highway": "bus_stop", "name": "Av. Barcelona 116", "public_transport": "stop_position"}}, {"type": "node", "id": 8848137044, "lat": 41.5837589, "lon": 1.6266612, "tags": {"bus": "yes", "highway": "bus_stop", "name": "Av. Barcelona 164", "public_transport": "stop_position"}}, {"type": "node", "id": 8848137046, "lat": 41.5819491, "lon": 1.6272512, "tags": {"bus": "yes", "highway": "bus_stop", "name": "Doctor Pujades 52", "public_transport": "stop_position"}}, {"type": "node", "id": 8848137047, "lat": 41.5798785, "lon": 1.6298904, "tags": {"bus": "yes", "highway": "bus_stop", "name": "Pau Muntadas 32", "public_transport": "stop_position"}}, {"type": "node", "id": 8848137049, "lat": 41.5777069, "lon": 1.6314943, "tags": {"bus": "yes", "highway": "bus_stop", "name": "Passeig Verdaguer 205 - Nicolau Tous", "name:ca": "Passeig Verdaguer - Nicolau Tous", "public_transport": "stop_position"}}, {"type": "node", "id": 8848137050, "lat": 41.5777463, "lon": 1.6299653, "tags": {"bus": "yes", "highway": "bus_stop", "name": "Passeig Verdaguer - Ambulatori", "name:ca": "Passeig Verdaguer - Ambulatori", "public_transport": "stop_position"}}, {"type": "node", "id": 8848137051, "lat": 41.576885, "lon": 1.6309534, "tags": {"bus": "yes", "highway": "bus_stop", "name": "Av. Montserrat 25", "public_transport": "stop_position"}}, {"type": "node", "id": 8848137056, "lat": 41.5801633, "lon": 1.6133054, "tags": {"bus": "yes", "highway": "bus_stop", "name": "Rambla Sant Ferran 47", "public_transport": "stop_position"}}, {"type": "node", "id": 8848137057, "lat": 41.5806951, "lon": 1.610263, "tags": {"bus": "yes", "highway": "bus_stop", "name": "Pla\u00e7a Castells 6", "public_transport": "stop_position"}}, {"type": "node", "id": 8848137058, "lat": 41.5820234, "lon": 1.6039422, "tags": {"bus": "yes", "highway": "bus_stop", "name": "\u00c0ngel Guimer\u00e0 - Mol\u00ed Nou - Sentit Oest", "public_transport": "stop_position"}}, {"type": "node", "id": 8848137059, "lat": 41.5849869, "lon": 1.5928408, "tags": {"bus": "yes", "highway": "bus_stop", "name": "Av. Pla de la Massa - Campus", "public_transport": "stop_position"}}, {"type": "node", "id": 8848137060, "lat": 41.5848818, "lon": 1.596582, "tags": {"bus": "yes", "highway": "bus_stop", "name": "Maria Trulls Algue - Mahbes", "public_transport": "stop_position"}}, {"type": "node", "id": 8848137061, "lat": 41.5842419, "lon": 1.6013404, "tags": {"bus": "yes", "highway": "bus_stop", "name": "Estadi Atl\u00e8tic - Zona Escolar - Sentit Centre", "public_transport": "stop_position"}}, {"type": "node", "id": 8848137062, "lat": 41.5840018, "lon": 1.6068087, "tags": {"bus": "yes", "highway": "bus_stop", "name": "Ronda F\u00e0tima - Pare Vilaseca", "public_transport": "stop_position"}}, {"type": "node", "id": 8848137064, "lat": 41.5874704, "lon": 1.6061038, "tags": {"bus": "yes", "highway": "bus_stop", "name": "Ronda F\u00e0tima -Pilar", "public_transport": "stop_position"}}, {"type": "node", "id": 8848137065, "lat": 41.5887656, "lon": 1.6088529, "tags": {"bus": "yes", "highway": "bus_stop", "name": "Av. Dr. Pasteur - Les Comes", "public_transport": "stop_position"}}, {"type": "node", "id": 8848137066, "lat": 41.5908198, "lon": 1.6116278, "tags": {"bus": "yes", "highway": "bus_stop", "name": "Av. Mestre Muntaner - Benzinera", "public_transport": "stop_position"}}, {"type": "node", "id": 8919579344, "lat": 41.5753203, "lon": 1.6079619, "tags": {"bus": "yes", "highway": "bus_stop", "name": "Carretera de Valls - Rotonda", "public_transport": "stop_position"}}, {"type": "node", "id": 9210166376, "lat": 41.6724933, "lon": 1.2742592, "tags": {"bus": "yes", "highway": "bus_stop", "name": "1- Bonavista", "network": "Servei de transport de viatgers Nucli Antic", "operator": "Cots Alsina", "public_transport": "platform"}}, {"type": "node", "id": 9362571275, "lat": 41.2897452, "lon": 1.2585145}, {"type": "node", "id": 9362571276, "lat": 41.2896281, "lon": 1.2585083}, {"type": "node", "id": 9362571277, "lat": 41.28957, "lon": 1.2586112}, {"type": "node", "id": 9362571278, "lat": 41.2895569, "lon": 1.2585991}, {"type": "node", "id": 9362571279, "lat": 41.2894995, "lon": 1.2587113}, {"type": "node", "id": 9362571280, "lat": 41.2895139, "lon": 1.2587271}, {"type": "node", "id": 9362571281, "lat": 41.2894598, "lon": 1.2588306}, {"type": "node", "id": 9362571282, "lat": 41.2894508, "lon": 1.2588222}, {"type": "node", "id": 9399745952, "lat": 41.2896222, "lon": 1.2587438, "tags": {"door": "yes", "entrance": "secondary", "indoor": "door"}}, {"type": "node", "id": 9399745953, "lat": 41.2894127, "lon": 1.2588949}, {"type": "node", "id": 9399745954, "lat": 41.2895016, "lon": 1.2589777}, {"type": "node", "id": 9399745955, "lat": 41.2896565, "lon": 1.258432}, {"type": "node", "id": 9399745956, "lat": 41.2896204, "lon": 1.2585011}, {"type": "node", "id": 9812802504, "lat": 41.6054635, "lon": 1.1925856, "tags": {"bench": "yes", "bin": "no", "bus": "yes", "departures_board": "timetable", "highway": "bus_stop", "lit": "yes", "name": "Mas de Bondia", "name:ca": "Mas de Bondia", "public_transport": "platform", "ref": "ML 0147", "shelter": "yes", "tactile_paving": "no"}}, {"type": "node", "id": 10133896511, "lat": 41.5604211, "lon": 1.1388248, "tags": {"bench": "yes", "bus": "yes", "departures_board": "timetable", "highway": "bus_stop", "name": "Ciutadilla", "name:ca": "Ciutadilla", "public_transport": "platform", "shelter": "yes"}}, {"type": "node", "id": 10271133410, "lat": 41.3482678, "lon": 1.2142157, "tags": {"bus": "yes", "highway": "bus_stop", "name": "Lilla", "name:ca": "Lilla", "public_transport": "platform", "ref": "MT 0228", "shelter": "yes"}}, {"type": "node", "id": 10548594945, "lat": 41.6011033, "lon": 1.5470538, "tags": {"bus": "yes", "highway": "bus_stop", "public_transport": "platform", "shelter": "yes"}}, {"type": "node", "id": 10548594946, "lat": 41.6010666, "lon": 1.5475109, "tags": {"bus": "yes", "highway": "bus_stop", "public_transport": "platform"}}, {"type": "node", "id": 10580224231, "lat": 41.3890022, "lon": 1.5700649, "tags": {"bench": "no", "bus": "yes", "denotation": "urban", "departures_board": "no", "highway": "bus_stop", "name": "Torrelles de Foix Nord", "network": "Vilafranca - Pontons", "operator": "MonBus", "public_transport": "platform", "shelter": "no", "source": "https://www.monbus.es/media/file/globalfiles/62cd542b2b3a9.pdf"}}, {"type": "node", "id": 10597199466, "lat": 41.5825781, "lon": 1.6156044, "tags": {"bus": "yes", "highway": "bus_stop", "name": "Pla\u00e7a Catalunya - Joan Maragall", "public_transport": "stop_position"}}, {"type": "node", "id": 10599983483, "lat": 41.3886898, "lon": 1.5704098, "tags": {"bench": "yes", "bus": "yes", "denotation": "urban", "departures_board": "timetable", "highway": "bus_stop", "name": "Torrelles de Foix Nord", "network": "Pontons - Vilafranca", "operator": "MonBus", "public_transport": "platform", "shelter": "yes", "source": "https://www.monbus.es/media/file/globalfiles/62cd542b2b3a9.pdf"}}, {"type": "node", "id": 10599983484, "lat": 41.3864198, "lon": 1.5756492, "tags": {"bench": "no", "bus": "yes", "denotation": "urban", "departures_board": "yes", "highway": "bus_stop", "name": "Torrelles de Foix Sud", "network": "Vilafranca - Pontons", "operator": "MonBus", "public_transport": "platform"}}, {"type": "node", "id": 10599983485, "lat": 41.3862685, "lon": 1.5756084, "tags": {"bench": "yes", "bus": "yes", "denotation": "urban", "departures_board": "timetable", "highway": "bus_stop", "name": "Torrelles de Foix Sud", "network": "Pontons - Vilafranca", "operator": "MonBus", "public_transport": "platform", "shelter": "yes"}}, {"type": "node", "id": 10722337549, "lat": 41.6501757, "lon": 1.1389265, "tags": {"addr:city": "T\u00e0rrega", "addr:housenumber": "4", "addr:street": "Carrer del Segle XX", "entrance": "yes"}}, {"type": "node", "id": 10722337553, "lat": 41.6502105, "lon": 1.1387181}, {"type": "node", "id": 10722337555, "lat": 41.6503398, "lon": 1.1389668}, {"type": "node", "id": 10722337556, "lat": 41.6502388, "lon": 1.139055}, {"type": "node", "id": 10722337558, "lat": 41.6501145, "lon": 1.1388019}, {"type": "node", "id": 10730526562, "lat": 41.6495247, "lon": 1.130744, "tags": {"bench": "yes", "bus": "yes", "departures_board": "timetable", "highway": "bus_stop", "name": "14", "public_transport": "platform", "shelter": "no"}}, {"type": "node", "id": 10733101439, "lat": 41.6479958, "lon": 1.1376168, "tags": {"bench": "yes", "bus": "yes", "departures_board": "timetable", "highway": "bus_stop", "name": "13", "public_transport": "platform", "shelter": "no"}}, {"type": "node", "id": 10733151752, "lat": 41.6473768, "lon": 1.1313285, "tags": {"bench": "yes", "bus": "yes", "departures_board": "timetable", "highway": "bus_stop", "name": "16", "public_transport": "platform", "shelter": "no"}}, {"type": "node", "id": 10733151753, "lat": 41.6474425, "lon": 1.1340721, "tags": {"bench": "yes", "bus": "yes", "departures_board": "timetable", "highway": "bus_stop", "name": "17", "public_transport": "platform", "shelter": "no"}}, {"type": "node", "id": 10733151755, "lat": 41.6455037, "lon": 1.1355918, "tags": {"bench": "yes", "bus": "yes", "departures_board": "timetable", "highway": "bus_stop", "name": "18", "public_transport": "platform", "shelter": "no"}}, {"type": "node", "id": 10733151756, "lat": 41.643027, "lon": 1.1386535, "tags": {"bus": "yes", "departures_board": "timetable", "highway": "bus_stop", "name": "19", "public_transport": "platform", "shelter": "no"}}, {"type": "node", "id": 10733151757, "lat": 41.6417578, "lon": 1.1402105, "tags": {"bus": "yes", "departures_board": "timetable", "highway": "bus_stop", "name": "20", "public_transport": "platform", "shelter": "no"}}, {"type": "node", "id": 10733151758, "lat": 41.6418749, "lon": 1.1422733, "tags": {"bench": "yes", "bus": "yes", "departures_board": "timetable", "highway": "bus_stop", "name": "22", "public_transport": "platform", "shelter": "no"}}, {"type": "node", "id": 10733151759, "lat": 41.6458646, "lon": 1.1422345, "tags": {"bench": "no", "bus": "yes", "departures_board": "timetable", "highway": "bus_stop", "name": "24", "public_transport": "platform", "shelter": "no"}}, {"type": "node", "id": 10733165927, "lat": 41.6402838, "lon": 1.1399455, "tags": {"bench": "no", "bus": "yes", "departures_board": "timetable", "highway": "bus_stop", "name": "21", "public_transport": "platform", "shelter": "no"}}, {"type": "node", "id": 10733165928, "lat": 41.6440071, "lon": 1.1430207, "tags": {"bench": "yes", "bus": "yes", "departures_board": "timetable", "highway": "bus_stop", "name": "23", "public_transport": "platform", "shelter": "no"}}, {"type": "node", "id": 10733191679, "lat": 41.6485286, "lon": 1.1400518, "tags": {"bench": "yes", "bus": "yes", "departures_board": "timetable", "highway": "bus_stop", "name": "12", "public_transport": "platform", "shelter": "no"}}, {"type": "node", "id": 10733211458, "lat": 41.650529, "lon": 1.1396489, "tags": {"bench": "yes", "bus": "yes", "departures_board": "timetable", "highway": "bus_stop", "name": "11", "public_transport": "platform", "shelter": "no"}}, {"type": "node", "id": 10733211459, "lat": 41.6521781, "lon": 1.1388049, "tags": {"bench": "yes", "bus": "yes", "departures_board": "timetable", "highway": "bus_stop", "name": "10", "public_transport": "platform", "shelter": "no"}}, {"type": "node", "id": 10733211460, "lat": 41.6535958, "lon": 1.13793, "tags": {"bench": "yes", "bus": "yes", "departures_board": "timetable", "highway": "bus_stop", "name": "9", "public_transport": "platform", "shelter": "no"}}, {"type": "node", "id": 10733211461, "lat": 41.6547243, "lon": 1.1350847, "tags": {"bench": "yes", "bus": "yes", "departures_board": "timetable", "highway": "bus_stop", "name": "8", "public_transport": "platform", "shelter": "no"}}, {"type": "node", "id": 10733211463, "lat": 41.6545388, "lon": 1.1396755, "tags": {"bench": "yes", "bus": "yes", "departures_board": "timetable", "highway": "bus_stop", "name": "6", "public_transport": "platform", "shelter": "no"}}, {"type": "node", "id": 10733211464, "lat": 41.6543345, "lon": 1.141463, "tags": {"bench": "no", "bus": "yes", "departures_board": "timetable", "highway": "bus_stop", "name": "5", "public_transport": "platform", "shelter": "no"}}, {"type": "node", "id": 10733211465, "lat": 41.651374, "lon": 1.1412651, "tags": {"bench": "yes", "bus": "yes", "departures_board": "timetable", "highway": "bus_stop", "name": "4", "public_transport": "platform", "shelter": "no"}}, {"type": "node", "id": 10733211466, "lat": 41.6516568, "lon": 1.1453997, "tags": {"bench": "yes", "bus": "yes", "departures_board": "timetable", "highway": "bus_stop", "name": "3", "public_transport": "platform", "shelter": "no"}}, {"type": "node", "id": 10733211467, "lat": 41.6520347, "lon": 1.1483301, "tags": {"bench": "no", "bus": "yes", "departures_board": "timetable", "highway": "bus_stop", "name": "2", "public_transport": "platform", "shelter": "no"}}, {"type": "node", "id": 10733211468, "lat": 41.6509675, "lon": 1.1509149, "tags": {"bench": "yes", "bus": "yes", "departures_board": "timetable", "highway": "bus_stop", "name": "1", "public_transport": "platform", "shelter": "no"}}, {"type": "node", "id": 10733211469, "lat": 41.6494765, "lon": 1.1493493, "tags": {"bench": "yes", "bus": "yes", "departures_board": "timetable", "highway": "bus_stop", "name": "30", "public_transport": "platform", "shelter": "no"}}, {"type": "node", "id": 10733211470, "lat": 41.6478732, "lon": 1.1484173, "tags": {"bench": "yes", "bin": "yes", "bus": "yes", "departures_board": "timetable", "highway": "bus_stop", "lit": "yes", "name": "29", "public_transport": "platform", "shelter": "no", "tactile_paving": "no"}}, {"type": "node", "id": 10733211471, "lat": 41.648275, "lon": 1.144478, "tags": {"bench": "yes", "bus": "yes", "departures_board": "timetable", "highway": "bus_stop", "name": "28", "public_transport": "platform", "shelter": "no"}}, {"type": "node", "id": 10733211472, "lat": 41.6496522, "lon": 1.14497, "tags": {"bench": "yes", "bus": "yes", "departures_board": "timetable", "highway": "bus_stop", "name": "27", "public_transport": "platform", "shelter": "no"}}, {"type": "node", "id": 10733211473, "lat": 41.6509638, "lon": 1.1441678, "tags": {"bench": "yes", "bus": "yes", "departures_board": "timetable", "highway": "bus_stop", "name": "26", "public_transport": "platform", "shelter": "no"}}, {"type": "node", "id": 10733211474, "lat": 41.6482422, "lon": 1.1411697, "tags": {"bench": "no", "bus": "yes", "departures_board": "timetable", "highway": "bus_stop", "name": "25", "public_transport": "platform", "shelter": "no"}}, {"type": "node", "id": 10733342169, "lat": 41.6482374, "lon": 1.1645091, "tags": {"bench": "yes", "bus": "yes", "departures_board": "timetable", "highway": "bus_stop", "name": "el Talladell", "name:ca": "el Talladell", "public_transport": "platform", "ref": "ML 0233", "shelter": "yes"}}, {"type": "node", "id": 10807184868, "lat": 41.577904, "lon": 1.619833, "tags": {"bus": "yes", "highway": "bus_stop", "name": "Pla\u00e7a del Rei 8", "public_transport": "stop_position"}}, {"type": "node", "id": 10877434533, "lat": 41.5794987, "lon": 1.6324109, "tags": {"bus": "yes", "highway": "bus_stop", "name": "Pau Muntadas 80", "public_transport": "platform"}}, {"type": "node", "id": 10877434534, "lat": 41.5796002, "lon": 1.631999, "tags": {"bus": "yes", "highway": "bus_stop", "name": "Pau Muntadas 77", "public_transport": "stop_position"}}, {"type": "node", "id": 10877434535, "lat": 41.5798848, "lon": 1.6298429, "tags": {"bus": "yes", "highway": "bus_stop", "name": "Pau Muntadas 23", "public_transport": "stop_position"}}, {"type": "node", "id": 10877434536, "lat": 41.5819454, "lon": 1.6272855, "tags": {"bus": "yes", "highway": "bus_stop", "name": "Doctor Pujades 55", "public_transport": "stop_position"}}, {"type": "node", "id": 10877438043, "lat": 41.5801307, "lon": 1.6134717, "tags": {"bus": "yes", "highway": "bus_stop", "name": "Rambla Sant Ferran 52", "public_transport": "stop_position"}}, {"type": "node", "id": 10877438045, "lat": 41.5806448, "lon": 1.6104882, "tags": {"bus": "yes", "highway": "bus_stop", "name": "Pla\u00e7a Castells 10", "public_transport": "stop_position"}}, {"type": "node", "id": 10877477553, "lat": 41.5767262, "lon": 1.6277719, "tags": {"bus": "yes", "highway": "bus_stop", "name": "Av. Caresmar 36", "public_transport": "stop_position"}}, {"type": "node", "id": 10877477554, "lat": 41.576785, "lon": 1.6303249, "tags": {"bus": "yes", "highway": "bus_stop", "name": "Av. Montserrat 10", "public_transport": "stop_position"}}, {"type": "node", "id": 10877477555, "lat": 41.5775694, "lon": 1.6319123, "tags": {"bus": "yes", "highway": "bus_stop", "name": "Passeig Verdaguer 207 - Nicolau Tous", "name:ca": "Passeig Verdaguer - Nicolau Tous", "public_transport": "stop_position"}}, {"type": "node", "id": 10877601620, "lat": 41.5796212, "lon": 1.6165823, "tags": {"bus": "yes", "highway": "bus_stop", "name": "Rambla Sant Isidre 6", "operator": "Masats Transports Generals", "public_transport": "stop_position", "ref": "087045"}}, {"type": "node", "id": 10877640830, "lat": 41.5734039, "lon": 1.6087823, "tags": {"bus": "yes", "highway": "bus_stop", "name": "Carretera de Valls 75", "public_transport": "platform"}}, {"type": "node", "id": 10877640831, "lat": 41.5734155, "lon": 1.6086875, "tags": {"bus": "yes", "highway": "bus_stop", "name": "Carretera de Valls 58", "public_transport": "stop_position"}}, {"type": "node", "id": 10877640833, "lat": 41.5779751, "lon": 1.6073425, "tags": {"bus": "yes", "highway": "bus_stop", "name": "Carretera de Valls 7", "public_transport": "stop_position"}}, {"type": "node", "id": 10877661045, "lat": 41.5851367, "lon": 1.5935482, "tags": {"bus": "yes", "highway": "bus_stop", "name": "Campus", "public_transport": "stop_position"}}, {"type": "node", "id": 10877848528, "lat": 41.5918334, "lon": 1.6236754, "tags": {"bus": "yes", "highway": "bus_stop", "name": "Av. Pa\u00efsos Catalans - Gran Bretanya", "public_transport": "stop_position"}}, {"type": "node", "id": 10877848529, "lat": 41.5895981, "lon": 1.6201933, "tags": {"bus": "yes", "highway": "bus_stop", "name": "Lecco - Hospital", "public_transport": "stop_position"}}, {"type": "node", "id": 10877848530, "lat": 41.5868786, "lon": 1.6144427, "tags": {"bus": "yes", "highway": "bus_stop", "name": "Av. Balmes 76", "public_transport": "platform"}}, {"type": "node", "id": 10877848531, "lat": 41.5859363, "lon": 1.6162525, "tags": {"bus": "yes", "highway": "bus_stop", "name": "Av. Barcelona 17", "public_transport": "stop_position"}}, {"type": "node", "id": 10877848532, "lat": 41.5852477, "lon": 1.6195057, "tags": {"bus": "yes", "highway": "bus_stop", "name": "Av. Barcelona 37 - Monalco", "public_transport": "stop_position"}}, {"type": "node", "id": 10877848533, "lat": 41.584619, "lon": 1.6225894, "tags": {"bus": "yes", "highway": "bus_stop", "name": "Av. Barcelona 75", "public_transport": "stop_position"}}, {"type": "node", "id": 10877848534, "lat": 41.5771873, "lon": 1.6251522, "tags": {"bus": "yes", "highway": "bus_stop", "name": "Av. Caresmar 2", "public_transport": "stop_position"}}, {"type": "node", "id": 10877862344, "lat": 41.5842522, "lon": 1.6012897, "tags": {"bus": "yes", "highway": "bus_stop", "name": "Estadi Atl\u00e8tic - Zona Escolar - Sentit Oest", "public_transport": "stop_position"}}, {"type": "node", "id": 10877862345, "lat": 41.5835426, "lon": 1.6070898, "tags": {"bus": "yes", "highway": "bus_stop", "name": "Residencial Viu B2", "public_transport": "stop_position"}}, {"type": "node", "id": 10877862349, "lat": 41.5922143, "lon": 1.6199736, "tags": {"bus": "yes", "highway": "bus_stop", "name": "Joan Serra - Maristes", "public_transport": "stop_position"}}, {"type": "node", "id": 10877862350, "lat": 41.5930916, "lon": 1.6215434, "tags": {"bus": "yes", "highway": "bus_stop", "name": "Carles de la Riba 27", "public_transport": "stop_position"}}, {"type": "node", "id": 10877862351, "lat": 41.5944765, "lon": 1.6226979, "tags": {"bus": "yes", "highway": "bus_stop", "name": "Guixeres - Pavell\u00f3", "public_transport": "stop_position"}}, {"type": "node", "id": 10880238207, "lat": 41.556249, "lon": 1.6035286, "tags": {"bus": "yes", "highway": "bus_stop", "name": "Pla\u00e7a Catalunya - Nucli antic", "public_transport": "stop_position"}}, {"type": "node", "id": 10880269381, "lat": 41.5825948, "lon": 1.623221, "tags": {"bus": "yes", "highway": "bus_stop", "name": "Sant Josep - Parc Xipreret", "public_transport": "stop_position"}}, {"type": "node", "id": 10880269382, "lat": 41.5814413, "lon": 1.6209991, "tags": {"bus": "yes", "highway": "bus_stop", "name": "Sant Josep - Piscina Casal", "public_transport": "stop_position"}}, {"type": "node", "id": 10880273769, "lat": 41.5786057, "lon": 1.628675, "tags": {"bus": "yes", "highway": "bus_stop", "name": "Passeig Verdaguer 167 - Avinguda Pau Casals", "public_transport": "stop_position"}}, {"type": "node", "id": 10880286711, "lat": 41.5813338, "lon": 1.6155432, "tags": {"bus": "yes", "highway": "bus_stop", "name": "C/ Santa Caterina (Cal Font)", "operator": "Masats Transports Generals", "public_transport": "stop_position", "ref": "087088"}}, {"type": "node", "id": 10880286712, "lat": 41.5722839, "lon": 1.6067097, "tags": {"bus": "yes", "highway": "bus_stop", "name": "Pilar 30", "public_transport": "stop_position"}}, {"type": "node", "id": 10880286713, "lat": 41.5721837, "lon": 1.6040479, "tags": {"bus": "yes", "highway": "bus_stop", "name": "Zona Esportiva", "public_transport": "stop_position"}}, {"type": "node", "id": 10880296236, "lat": 41.5820376, "lon": 1.6193441, "tags": {"bus": "yes", "highway": "bus_stop", "name": "\u00d2dena 47", "public_transport": "stop_position"}}, {"type": "node", "id": 10880298890, "lat": 41.5797099, "lon": 1.6253104, "tags": {"bus": "yes", "highway": "bus_stop", "name": "Verdaguer - Jutjats", "public_transport": "stop_position"}}, {"type": "node", "id": 10880298891, "lat": 41.5793534, "lon": 1.625461, "tags": {"bus": "yes", "highway": "bus_stop", "name": "Verdaguer 128 - Antic hosptial", "public_transport": "stop_position"}}, {"type": "node", "id": 10880317983, "lat": 41.5841919, "lon": 1.6110708, "tags": {"bus": "yes", "highway": "bus_stop", "name": "Av Gaud\u00ed - Sant Mart\u00ed Sesgueioles", "public_transport": "stop_position"}}, {"type": "node", "id": 10880737707, "lat": 41.5848677, "lon": 1.5968315, "tags": {"bus": "yes", "highway": "bus_stop", "name": "Maria Trulls Algue - Mahbes", "public_transport": "stop_position"}}, {"type": "node", "id": 10880744473, "lat": 41.5784718, "lon": 1.6282611, "tags": {"bus": "yes", "highway": "bus_stop", "name": "Verdaguer 150 - Salvador Murt", "public_transport": "stop_position"}}, {"type": "node", "id": 10882755914, "lat": 41.5734649, "lon": 1.633421, "tags": {"bus": "yes", "highway": "bus_stop", "name": "Av Vilanova - Tanatori - A - Sentit Vilanova", "public_transport": "stop_position"}}, {"type": "node", "id": 10882755915, "lat": 41.5735458, "lon": 1.6333542, "tags": {"bus": "yes", "highway": "bus_stop", "name": "Av Vilanova - Tanatori - T - Sentit centre", "public_transport": "stop_position"}}, {"type": "node", "id": 10882755917, "lat": 41.5761313, "lon": 1.6295784, "tags": {"bus": "yes", "highway": "bus_stop", "name": "Av Vilanova 2 - Sentit Vilanova", "public_transport": "stop_position"}}, {"type": "node", "id": 10882755918, "lat": 41.5761764, "lon": 1.6295286, "tags": {"bus": "yes", "highway": "bus_stop", "name": "Av Vilanova 7 - Sentit centre", "public_transport": "stop_position"}}, {"type": "node", "id": 10882762183, "lat": 41.5716969, "lon": 1.6355471, "tags": {"bus": "yes", "highway": "bus_stop", "name": "Pla\u00e7a Major 8", "public_transport": "stop_position"}}, {"type": "node", "id": 10882795049, "lat": 41.5858914, "lon": 1.6104198, "tags": {"bus": "yes", "highway": "bus_stop", "name": "Comarca 47", "public_transport": "stop_position"}}, {"type": "node", "id": 10882795050, "lat": 41.5871832, "lon": 1.6106156, "tags": {"bus": "yes", "highway": "bus_stop", "name": "Comarca 32", "public_transport": "stop_position"}}, {"type": "node", "id": 10882795051, "lat": 41.5885927, "lon": 1.6115339, "tags": {"bus": "yes", "highway": "bus_stop", "name": "Comarca 46", "public_transport": "stop_position"}}, {"type": "node", "id": 10882795052, "lat": 41.5887578, "lon": 1.6116396, "tags": {"bus": "yes", "highway": "bus_stop", "name": "Comarca 85", "public_transport": "stop_position"}}, {"type": "node", "id": 10887574682, "lat": 41.2678216, "lon": 1.2117613, "tags": {"bench": "yes", "bin": "no", "bus": "yes", "highway": "bus_stop", "public_transport": "platform", "ref": "MT 03389", "shelter": "yes", "tactile_paving": "no"}}, {"type": "node", "id": 11098459454, "lat": 41.6737374, "lon": 1.2741295}, {"type": "node", "id": 11341547563, "lat": 41.5421005, "lon": 1.3582803, "tags": {"bus": "yes", "highway": "bus_stop", "name": "Rauric", "public_transport": "stop_position"}}, {"type": "node", "id": 11341600125, "lat": 41.5627444, "lon": 1.25828, "tags": {"bus": "yes", "highway": "bus_stop", "name": "Vallfogona (Balneari)", "public_transport": "stop_position"}}, {"type": "node", "id": 11343676800, "lat": 41.5947575, "lon": 1.3984397, "tags": {"bus": "yes", "highway": "bus_stop", "public_transport": "stop_position"}}, {"type": "node", "id": 11343676801, "lat": 41.5948941, "lon": 1.3985171, "tags": {"bus": "yes", "highway": "bus_stop", "public_transport": "stop_position"}}, {"type": "node", "id": 11702103411, "lat": 41.3862113, "lon": 1.6112765, "tags": {"bench": "yes", "bus": "yes", "denotation": "urban", "departures_board": "timetable", "highway": "bus_stop", "name": "Sant Mart\u00ed Sarroca", "network": "Pontons - Vilafranca", "operator": "MonBus", "public_transport": "platform", "shelter": "yes"}}, {"type": "node", "id": 11702103412, "lat": 41.3862996, "lon": 1.6112717, "tags": {"bench": "yes", "bus": "yes", "denotation": "urban", "departures_board": "timetable", "highway": "bus_stop", "name": "Sant Mart\u00ed Sarroca", "network": "Vilafranca - Pontons", "operator": "MonBus", "public_transport": "platform", "shelter": "yes"}}, {"type": "node", "id": 11702103413, "lat": 41.38636, "lon": 1.5756495, "tags": {"bus": "yes", "highway": "bus_stop", "name": "Torrelles de Foix Sud", "network": "Pontons - Vilafranca", "operator": "MonBus", "public_transport": "stop_position"}}, {"type": "node", "id": 11702103414, "lat": 41.3863768, "lon": 1.5756215, "tags": {"bus": "yes", "highway": "bus_stop", "name": "Torrelles de Foix Sud", "network": "Vilafranca - Pontons", "operator": "MonBus", "public_transport": "stop_position"}}, {"type": "node", "id": 11702103415, "lat": 41.3889616, "lon": 1.5700264, "tags": {"bus": "yes", "highway": "bus_stop", "name": "Torrelles de Foix Nord", "network": "Vilafranca - Pontons", "operator": "MonBus", "public_transport": "stop_position"}}, {"type": "node", "id": 11702103416, "lat": 41.3887304, "lon": 1.5704294, "tags": {"bus": "yes", "highway": "bus_stop", "name": "Torrelles de Foix Nord", "network": "Pontons - Vilafranca", "operator": "MonBus", "public_transport": "stop_position"}}, {"type": "node", "id": 11702103417, "lat": 41.358063, "lon": 1.6639924, "tags": {"bench": "yes", "bus": "yes", "denotation": "urban", "departures_board": "timetable", "highway": "bus_stop", "name": "Pacs", "network": "Pontons - Vilafranca", "operator": "MonBus", "public_transport": "platform", "shelter": "yes"}}, {"type": "node", "id": 11702103418, "lat": 41.3580946, "lon": 1.6640551, "tags": {"bus": "yes", "highway": "bus_stop", "name": "Pacs", "network": "Pontons - Vilafranca", "operator": "MonBus", "public_transport": "stop_position"}}, {"type": "node", "id": 11702103419, "lat": 41.3583052, "lon": 1.6639718, "tags": {"bench": "no", "bus": "yes", "denotation": "urban", "departures_board": "timetable", "highway": "bus_stop", "name": "Pacs", "network": "Vilafranca - Pontons", "operator": "MonBus", "public_transport": "platform", "shelter": "no"}}, {"type": "node", "id": 11702103420, "lat": 41.3582986, "lon": 1.6639252, "tags": {"bus": "yes", "highway": "bus_stop", "name": "Pacs", "network": "Vilafranca - Pontons", "operator": "MonBus", "public_transport": "stop_position"}}, {"type": "node", "id": 11702103421, "lat": 41.3825124, "lon": 1.6351831, "tags": {"bench": "yes", "bus": "yes", "denotation": "urban", "departures_board": "timetable", "highway": "bus_stop", "name": "Can Sogas", "network": "Pontons - Vilafranca", "operator": "MonBus", "public_transport": "platform", "shelter": "yes"}}, {"type": "node", "id": 11702103422, "lat": 41.3825367, "lon": 1.6352235, "tags": {"bus": "yes", "highway": "bus_stop", "name": "Torrelles de Foix Sud", "network": "Pontons - Vilafranca", "operator": "MonBus", "public_transport": "stop_position"}}, {"type": "node", "id": 11702103426, "lat": 41.3829697, "lon": 1.6350755, "tags": {"bus": "yes", "highway": "bus_stop", "name": "Torrelles de Foix Sud", "network": "Pontons - Vilafranca", "operator": "MonBus", "public_transport": "stop_position"}}, {"type": "node", "id": 11702103427, "lat": 41.3829767, "lon": 1.6351044, "tags": {"bench": "no", "bus": "yes", "denotation": "urban", "departures_board": "no", "highway": "bus_stop", "name": "Can Sogas", "network": "Vilafranca - Pontons", "operator": "MonBus", "public_transport": "platform", "shelter": "no"}}, {"type": "node", "id": 11702103428, "lat": 41.4004945, "lon": 1.5761668, "tags": {"bench": "yes", "bus": "yes", "denotation": "urban", "departures_board": "timetable", "highway": "bus_stop", "name": "Can Coral", "network": "Pontons - Vilafranca", "operator": "MonBus", "public_transport": "platform", "shelter": "yes"}}, {"type": "node", "id": 11702103429, "lat": 41.4150597, "lon": 1.5168605, "tags": {"bus": "yes", "highway": "bus_stop", "name": "Pontons", "network": "Pontons - Vilafranca", "operator": "MonBus", "public_transport": "stop_position"}}, {"type": "node", "id": 11702103430, "lat": 41.4149998, "lon": 1.5168463, "tags": {"bench": "yes", "bus": "yes", "denotation": "urban", "departures_board": "timetable", "highway": "bus_stop", "name": "Pontons", "network": "Pontons - Vilafranca", "operator": "MonBus", "public_transport": "platform", "shelter": "yes"}}, {"type": "node", "id": 11703807110, "lat": 41.3862604, "lon": 1.6112686, "tags": {"bus": "yes", "highway": "bus_stop", "name": "Sant Mart\u00ed Sarroca", "network": "Vilafranca - Pontons", "operator": "MonBus", "public_transport": "stop_position"}}, {"type": "node", "id": 11703837658, "lat": 41.3612294, "lon": 1.6699011, "tags": {"bus": "yes", "highway": "bus_stop", "name": "Pacs", "network": "Vilafranca - Pontons", "operator": "MonBus", "public_transport": "stop_position"}}, {"type": "node", "id": 11703837659, "lat": 41.3612782, "lon": 1.6699671, "tags": {"bench": "no", "bus": "yes", "denotation": "urban", "departures_board": "timetable", "highway": "bus_stop", "name": "Pacs", "network": "Vilafranca - Pontons", "operator": "MonBus", "public_transport": "platform", "shelter": "no"}}, {"type": "node", "id": 12067837625, "lat": 41.3376061, "lon": 1.1766923, "tags": {"bus": "yes", "highway": "bus_stop", "name": "Vilaverd Renfe", "network": "L0693", "public_transport": "platform"}}, {"type": "node", "id": 12067837626, "lat": 41.3376045, "lon": 1.1766311, "tags": {"bus": "yes", "highway": "bus_stop", "name": "Vilaverd Renfe", "network": "L0693", "public_transport": "platform"}}, {"type": "node", "id": 12067837627, "lat": 41.3188425, "lon": 1.1810259, "tags": {"bus": "yes", "highway": "bus_stop", "name": "La Riba Marquesina", "public_transport": "platform"}}, {"type": "node", "id": 12067837628, "lat": 41.3190916, "lon": 1.1814308, "tags": {"bus": "yes", "highway": "bus_stop", "name": "La Riba", "public_transport": "platform"}}, {"type": "node", "id": 12067993144, "lat": 41.3368034, "lon": 1.1767594, "tags": {"bus": "yes", "highway": "bus_stop", "name": "Vilaverd B\u00e0scula", "public_transport": "platform"}}, {"type": "node", "id": 12067993145, "lat": 41.3368138, "lon": 1.1767072, "tags": {"bus": "yes", "highway": "bus_stop", "name": "Vilaverd B\u00e0scula", "public_transport": "platform"}}, {"type": "node", "id": 12141838936, "lat": 41.5605578, "lon": 1.2194422, "tags": {"bus": "yes", "highway": "bus_stop", "name": "Mas de la Cadena", "name:ca": "Mas de la Cadena", "public_transport": "platform"}}, {"type": "node", "id": 12159769596, "lat": 41.647439, "lon": 1.1080855, "tags": {"bench": "yes", "bus": "yes", "departures_board": "timetable", "highway": "bus_stop", "name": "Vilagrassa", "name:ca": "Vilagrassa", "public_transport": "platform", "ref": "ML 0232", "shelter": "yes"}}, {"type": "node", "id": 12211438523, "lat": 41.2810526, "lon": 1.2582015, "tags": {"bus": "yes", "highway": "bus_stop", "name": "Colla Vella", "name:ca": "Colla Vella", "public_transport": "stop_position"}}, {"type": "node", "id": 12214515535, "lat": 41.2897084, "lon": 1.2585845}, {"type": "node", "id": 12214515536, "lat": 41.2895405, "lon": 1.2589037, "tags": {"fixme": "see nearby note", "power": "catenary_mast"}}, {"type": "node", "id": 12214515550, "lat": 41.2895924, "lon": 1.2588008}, {"type": "node", "id": 12214515551, "lat": 41.289652, "lon": 1.2586869}, {"type": "node", "id": 12246614708, "lat": 41.2895282, "lon": 1.2586552, "tags": {"door": "yes", "entrance": "main", "indoor": "door"}}, {"type": "node", "id": 12520945031, "lat": 41.3044265, "lon": 1.2650176, "tags": {"bus": "yes", "highway": "bus_stop", "name": "Pol\u00edgon Industrial Artesans", "name:ca": "Pol\u00edgon Industrial Artesans", "network": "Valls Bus", "public_transport": "platform"}}, {"type": "node", "id": 12520945032, "lat": 41.3044529, "lon": 1.2649322, "tags": {"bus": "yes", "highway": "bus_stop", "name": "Pol\u00edgon Industrial Artesans", "name:ca": "Pol\u00edgon Industrial Artesans", "public_transport": "stop_position"}}, {"type": "node", "id": 12520945033, "lat": 41.3051063, "lon": 1.2638964, "tags": {"bus": "yes", "highway": "bus_stop", "name": "Pol\u00edgon Industrial Manyans", "name:ca": "Pol\u00edgon Industrial Manyans", "public_transport": "stop_position"}}, {"type": "node", "id": 12520945034, "lat": 41.3050454, "lon": 1.2638547, "tags": {"bus": "yes", "highway": "bus_stop", "name": "Pol\u00edgon Industrial Manyans", "name:ca": "Pol\u00edgon Industrial Manyans", "network": "Valls Bus", "public_transport": "platform"}}, {"type": "node", "id": 12520945037, "lat": 41.2994641, "lon": 1.2593161, "tags": {"bus": "yes", "highway": "bus_stop", "name": "Carrer Eladi Homs", "name:ca": "Carrer Eladi Homs", "network": "Valls Bus", "public_transport": "platform"}}, {"type": "node", "id": 12520945038, "lat": 41.299806, "lon": 1.2590184, "tags": {"bus": "yes", "highway": "bus_stop", "name": "Urbanitzaci\u00f3 Miramar", "name:ca": "Urbanitzaci\u00f3 Miramar", "public_transport": "stop_position"}}, {"type": "node", "id": 12520945039, "lat": 41.2952199, "lon": 1.2574769, "tags": {"bus": "yes", "highway": "bus_stop", "name": "Avinguda del Forn\u00e0s", "name:ca": "Avinguda del Forn\u00e0s", "public_transport": "stop_position"}}, {"type": "node", "id": 12520945042, "lat": 41.291159, "lon": 1.2578241, "tags": {"bus": "yes", "highway": "bus_stop", "name": "Molls de l'Estaci\u00f3 - IES Narc\u00eds Oller", "name:ca": "Molls de l'Estaci\u00f3 - IES Narc\u00eds Oller", "public_transport": "stop_position"}}, {"type": "node", "id": 12520945045, "lat": 41.287854, "lon": 1.2522986, "tags": {"bus": "yes", "fixme": "position guesstimated", "highway": "bus_stop", "name": "Carretera del Pla", "name:ca": "Carretera del Pla", "network": "Valls Bus", "public_transport": "platform"}}, {"type": "node", "id": 12520945046, "lat": 41.2878173, "lon": 1.2524259, "tags": {"bus": "yes", "fixme": "position guesstimated", "highway": "bus_stop", "name": "Carretera del Pla", "name:ca": "Carretera del Pla", "network": "Valls Bus", "public_transport": "platform"}}, {"type": "node", "id": 12520945047, "lat": 41.2878356, "lon": 1.2523623, "tags": {"bus": "yes", "fixme": "position guesstimated", "highway": "bus_stop", "name": "Carretera del Pla", "name:ca": "Carretera del Pla", "public_transport": "stop_position"}}, {"type": "node", "id": 12520945048, "lat": 41.2862664, "lon": 1.2501747, "tags": {"bench": "no", "bin": "no", "bus": "yes", "fixme": "position guesstimated", "highway": "bus_stop", "lit": "no", "name": "Sant Roc", "name:ca": "Sant Roc", "network": "Valls Bus", "public_transport": "platform", "shelter": "no", "tactile_paving": "no"}}, {"type": "node", "id": 12520945050, "lat": 41.2848155, "lon": 1.2485903, "tags": {"bench": "no", "bin": "no", "bus": "yes", "fixme": "position guesstimated", "highway": "bus_stop", "lit": "no", "name": "Escales Peixateria", "name:ca": "Escales Peixateria", "network": "Valls Bus", "public_transport": "platform", "shelter": "no", "tactile_paving": "no"}}, {"type": "node", "id": 12520945052, "lat": 41.2847318, "lon": 1.2436404, "tags": {"bus": "yes", "fixme": "position guesstimated", "highway": "bus_stop", "name": "Carrer Alt Camp - Farm\u00e0cia", "name:ca": "Carrer Alt Camp - Farm\u00e0cia", "network": "Valls Bus", "public_transport": "platform"}}, {"type": "node", "id": 12520945058, "lat": 41.284193, "lon": 1.2416019, "tags": {"bus": "yes", "fixme": "position guesstimated", "highway": "bus_stop", "name": "Cam\u00ed del Bosc", "name:ca": "Cam\u00ed del Bosc", "network": "Valls Bus", "public_transport": "platform"}}, {"type": "node", "id": 12520945070, "lat": 41.2832363, "lon": 1.2431811, "tags": {"bus": "yes", "fixme": "position guesstimated", "highway": "bus_stop", "name": "Carrer Alt Camp - Font", "name:ca": "Carrer Alt Camp - Font", "network": "Valls Bus", "public_transport": "platform"}}, {"type": "node", "id": 12520945071, "lat": 41.2902629, "lon": 1.2465717, "tags": {"bus": "yes", "fixme": "position guesstimated", "highway": "bus_stop", "name": "Creu Roja - Sant Josep Obrer", "name:ca": "Creu Roja - Sant Josep Obrer", "network": "Valls Bus", "public_transport": "platform"}}, {"type": "node", "id": 12520945072, "lat": 41.2887122, "lon": 1.2464873, "tags": {"bus": "yes", "fixme": "see nearby note", "highway": "bus_stop", "name": "Fraternal", "name:ca": "Fraternal", "public_transport": "stop_position"}}, {"type": "node", "id": 12520945073, "lat": 41.2887175, "lon": 1.2465501, "tags": {"bus": "yes", "fixme": "see nearby note", "highway": "bus_stop", "name": "Fraternal", "name:ca": "Fraternal", "network": "Valls Bus", "public_transport": "platform"}}, {"type": "node", "id": 12520945079, "lat": 41.2920035, "lon": 1.2548926, "tags": {"bus": "yes", "fixme": "see nearby note", "highway": "bus_stop", "name": "Cementiri", "name:ca": "Cementiri", "network": "Valls Bus", "public_transport": "platform"}}, {"type": "node", "id": 12520945082, "lat": 41.2891292, "lon": 1.2466205, "tags": {"bus": "yes", "highway": "bus_stop", "name": "Carrer Pere Catal\u00e0 Pic (IES Jaume Huguet)", "name:ca": "Carrer Pere Catal\u00e0 Pic (IES Jaume Huguet)", "public_transport": "stop_position"}}, {"type": "node", "id": 12520945084, "lat": 41.2835725, "lon": 1.263039, "tags": {"bus": "yes", "highway": "bus_stop", "name": "Pisos de Clols", "name:ca": "Pisos de Clols", "public_transport": "stop_position"}}, {"type": "node", "id": 12520945085, "lat": 41.2835259, "lon": 1.263075, "tags": {"bench": "yes", "bus": "yes", "highway": "bus_stop", "name": "Pisos de Clols", "name:ca": "Pisos de Clols", "network": "Valls Bus", "public_transport": "platform", "shelter": "yes"}}, {"type": "node", "id": 12520945097, "lat": 41.2872051, "lon": 1.268422, "tags": {"bus": "yes", "highway": "bus_stop", "name": "Bon Sol", "name:ca": "Bon Sol", "public_transport": "stop_position"}}, {"type": "node", "id": 12520945702, "lat": 41.2838641, "lon": 1.2518086, "tags": {"bus": "yes", "fixme": "Parada de bus possiblement inutilitzada o amb afectacions importants degut a les obres de la Muralla Sant Francesc. Caldria revisar aviam si segueix activa i si t\u00e9 canvis", "highway": "bus_stop", "name": "Hospital", "name:ca": "Hospital", "public_transport": "stop_position"}}, {"type": "node", "id": 12520945708, "lat": 41.2860765, "lon": 1.2512688, "tags": {"bus": "yes", "fixme": "Parada de bus possiblement inutilitzada o amb afectacions importants degut a les obres de la Muralla Sant Francesc. Caldria revisar aviam si segueix activa i si t\u00e9 canvis", "highway": "bus_stop", "name": "Muralla del Castell - El Pati", "name:ca": "Muralla del Castell - El Pati", "public_transport": "stop_position"}}, {"type": "node", "id": 12520945757, "lat": 41.2865671, "lon": 1.2475063, "tags": {"bus": "yes", "fixme": "see nearby note", "highway": "bus_stop", "name": "Carrer del Prado", "name:ca": "Carrer del Prado", "network": "Valls Bus", "public_transport": "platform"}}, {"type": "node", "id": 12520945758, "lat": 41.2865985, "lon": 1.2475088, "tags": {"bus": "yes", "fixme": "see nearby note", "highway": "bus_stop", "name": "Carrer del Prado", "name:ca": "Carrer del Prado", "public_transport": "stop_position"}}, {"type": "node", "id": 12520945808, "lat": 41.2883491, "lon": 1.2549964, "tags": {"bus": "yes", "highway": "bus_stop", "name": "Ambulatori", "name:ca": "Ambulatori", "public_transport": "stop_position"}}, {"type": "node", "id": 12520945928, "lat": 41.2871685, "lon": 1.2513666, "tags": {"bus": "yes", "highway": "bus_stop", "name": "Font de la Manxa", "name:ca": "Font de la Manxa", "public_transport": "stop_position"}}, {"type": "node", "id": 12520946035, "lat": 41.2897932, "lon": 1.2534665, "tags": {"bus": "yes", "highway": "bus_stop", "name": "Pla\u00e7a de la Creu", "name:ca": "Pla\u00e7a de la Creu", "public_transport": "stop_position"}}, {"type": "node", "id": 12520946036, "lat": 41.2897944, "lon": 1.2534352, "tags": {"bus": "yes", "highway": "bus_stop", "name": "Pla\u00e7a de la Creu", "name:ca": "Pla\u00e7a de la Creu", "public_transport": "platform"}}, {"type": "node", "id": 12520946058, "lat": 41.2898181, "lon": 1.2535664, "tags": {"bus": "yes", "highway": "bus_stop", "name": "Pla\u00e7a de la Creu", "name:ca": "Pla\u00e7a de la Creu", "public_transport": "stop_position"}}, {"type": "node", "id": 12520946227, "lat": 41.291296, "lon": 1.2541964, "tags": {"bus": "yes", "highway": "bus_stop", "name": "Resid\u00e8ncia Ball\u00fas", "public_transport": "stop_position"}}, {"type": "node", "id": 12520946229, "lat": 41.2938505, "lon": 1.2552945, "tags": {"bus": "yes", "highway": "bus_stop", "name": "Blocs Mu\u00f1oz", "name:ca": "Blocs Mu\u00f1oz", "public_transport": "stop_position"}}, {"type": "node", "id": 12520946238, "lat": 41.2967301, "lon": 1.2573486, "tags": {"bus": "yes", "highway": "bus_stop", "name": "Santa \u00darsula", "name:ca": "Santa \u00darsula", "public_transport": "stop_position"}}, {"type": "node", "id": 12520946243, "lat": 41.2966792, "lon": 1.2573162, "tags": {"bus": "yes", "highway": "bus_stop", "name": "Valls Santa \u00darsula", "name:ca": "Valls Santa \u00darsula", "public_transport": "stop_position"}}, {"type": "node", "id": 12520946461, "lat": 41.2856987, "lon": 1.2538471, "tags": {"bus": "yes", "description": "Node de parada per a les rutes de bus que descarreguen passatgers aqu\u00ed abans d'entrar a una andana de dins l'estaci\u00f3 a carregar passatgers", "description:ca": "Node de parada per a les rutes de bus que descarreguen passatgers aqu\u00ed abans d'entrar a una andana de dins l'estaci\u00f3 a carregar passatgers", "highway": "bus_stop", "name": "Valls (arribades)", "name:ca": "Valls (arribades)", "note": "Node de parada per a les rutes de bus que descarreguen passatgers aqu\u00ed abans d'entrar a una andana de dins l'estaci\u00f3 a carregar passatgers", "note:ca": "Node de parada per a les rutes de bus que descarreguen passatgers aqu\u00ed abans d'entrar a una andana de dins l'estaci\u00f3 a carregar passatgers", "public_transport": "stop_position"}}, {"type": "node", "id": 12520946523, "lat": 41.2858918, "lon": 1.2535915, "tags": {"bus": "yes", "highway": "bus_stop", "name": "Parada Central - Estaci\u00f3 d'Autobusos", "name:ca": "Parada Central - Estaci\u00f3 d'Autobusos", "public_transport": "stop_position", "ref": "1"}}, {"type": "node", "id": 12520946524, "lat": 41.2859278, "lon": 1.2535391, "tags": {"bus": "yes", "highway": "bus_stop", "name": "Valls", "name:ca": "Valls", "public_transport": "stop_position", "ref": "2"}}, {"type": "node", "id": 12520946525, "lat": 41.2859623, "lon": 1.2534897, "tags": {"bus": "yes", "highway": "bus_stop", "name": "Valls", "name:ca": "Valls", "public_transport": "stop_position", "ref": "3"}}, {"type": "node", "id": 12520946526, "lat": 41.2859955, "lon": 1.25344, "tags": {"bus": "yes", "highway": "bus_stop", "name": "Valls", "name:ca": "Valls", "public_transport": "stop_position", "ref": "4"}}, {"type": "node", "id": 12520946527, "lat": 41.2860299, "lon": 1.2533906, "tags": {"bus": "yes", "highway": "bus_stop", "name": "Valls", "name:ca": "Valls", "public_transport": "stop_position", "ref": "5"}}, {"type": "node", "id": 12626816895, "lat": 41.3328248, "lon": 1.2316568, "tags": {"bus": "yes", "highway": "bus_stop", "public_transport": "stop_position"}}, {"type": "node", "id": 12626816900, "lat": 41.3328386, "lon": 1.2316147, "tags": {"bus": "yes", "highway": "bus_stop", "public_transport": "platform"}}, {"type": "node", "id": 12626820052, "lat": 41.2896148, "lon": 1.2587581, "tags": {"amenity": "clock", "attached_to": "wall", "barometer": "no", "covered": "yes", "date": "no", "display": "analog", "faces": "2", "hygrometer": "no", "indoor": "no", "support": "pole", "thermometer": "no", "visibility": "street"}}, {"type": "node", "id": 12720702140, "lat": 41.2944451, "lon": 1.2592948, "tags": {"bus": "yes", "highway": "bus_stop", "name": "Forn\u00e0s (Piscina)", "name:ca": "Forn\u00e0s (Piscina)", "public_transport": "stop_position"}}, {"type": "node", "id": 12720702308, "lat": 41.2883534, "lon": 1.2493635, "tags": {"bus": "yes", "highway": "bus_stop", "name": "Carrer Abat Llort", "name:ca": "Carrer Abat Llort", "public_transport": "stop_position"}}, {"type": "node", "id": 12720703064, "lat": 41.2896524, "lon": 1.2584398, "tags": {"fixme": "position guesstimated;survey", "historic": "memorial", "location": "wall", "memorial": "plaque"}}, {"type": "node", "id": 12720703115, "lat": 41.2895216, "lon": 1.2586679}, {"type": "node", "id": 12720703116, "lat": 41.2895148, "lon": 1.2586814}, {"type": "node", "id": 12720703119, "lat": 41.2895373, "lon": 1.2586377}, {"type": "node", "id": 12720703122, "lat": 41.289544, "lon": 1.2586243}, {"type": "node", "id": 12720703132, "lat": 41.2894319, "lon": 1.2588583, "tags": {"access": "private", "door": "yes", "entrance": "secondary", "indoor": "door"}}, {"type": "node", "id": 12720703134, "lat": 41.2894191, "lon": 1.2588823}, {"type": "node", "id": 12720703135, "lat": 41.2894254, "lon": 1.2588706}, {"type": "node", "id": 12720703137, "lat": 41.2894383, "lon": 1.258846}, {"type": "node", "id": 12720703140, "lat": 41.2894448, "lon": 1.2588339}, {"type": "node", "id": 12720703143, "lat": 41.2896073, "lon": 1.2587723}, {"type": "node", "id": 12720703144, "lat": 41.2895999, "lon": 1.2587865}, {"type": "node", "id": 12720703145, "lat": 41.2896371, "lon": 1.2587154}, {"type": "node", "id": 12720703146, "lat": 41.2896446, "lon": 1.2587011}, {"type": "node", "id": 12720703149, "lat": 41.2896297, "lon": 1.2587296, "tags": {"covered": "yes", "location": "wall"}}, {"type": "way", "id": 214814703, "nodes": [2242865319, 2713605724, 10722337556, 10722337549, 10722337558, 2713605723, 2242865317, 10722337553, 10722337555, 2242865319], "tags": {"addr:city": "T\u00e0rrega", "addr:housenumber": "4", "addr:street": "Carrer del Segle XX", "building": "yes", "building:levels": "2", "name": "T\u00e0rrega", "name:ca": "T\u00e0rrega", "operator": "Renfe", "platforms": "2", "public_transport": "station", "railway": "station", "train": "yes", "wikidata": "Q634460", "wikipedia": "ca:Estaci\u00f3 de T\u00e0rrega"}}, {"type": "way", "id": 285569305, "nodes": [2892307511, 2892307512, 2892307513, 6597551838, 2892307515, 2892307516, 2892307514, 2892307511], "tags": {"building": "yes", "name": "Estaci\u00f3 de trens d'Igualada", "name:ca": "Estaci\u00f3 de trens d'Igualada", "operator": "Ferrocarrils de la Generalitat de Catalunya", "operator:short": "FGC", "public_transport": "station", "railway": "station", "source:date": "2020-04-05", "train": "yes", "wikidata": "Q5805297", "wikipedia": "ca:Estaci\u00f3 d'Igualada"}}, {"type": "way", "id": 377208297, "nodes": [11098459454, 3805861236, 6637150396, 3805861237, 3805861238, 6637150395, 6637150393, 11098459454], "tags": {"addr:city": "Cervera", "addr:housenumber": "14", "addr:postcode": "25200", "addr:street": "Carrer de Vidal de Montpalau", "amenity": "bus_station", "building": "yes", "building:levels": "1", "bus": "yes", "highway": "bus_stop", "public_transport": "platform", "route_ref": "L0092"}}, {"type": "way", "id": 569119144, "nodes": [5474108596, 5474108369, 5474108595, 5474108368, 5474108596], "tags": {"bus": "yes", "highway": "bus_stop", "name": "Igualada", "name:ca": "Igualada", "public_transport": "platform", "route_ref": "L0092"}}, {"type": "way", "id": 1014924821, "nodes": [9362571275, 9399745955, 12720703064, 9399745956, 9362571276, 9362571277, 9362571278, 12720703122, 12720703119, 12246614708, 12720703115, 12720703116, 9362571279, 9362571280, 9362571281, 9362571282, 12720703140, 12720703137, 12720703132, 12720703135, 12720703134, 9399745953, 9399745954, 12214515536, 12214515550, 12720703144, 12720703143, 12626820052, 9399745952, 12720703149, 12720703145, 12720703146, 12214515551, 12214515535, 9362571275], "tags": {"addr:city": "Valls", "addr:full": "Pla\u00e7a de l'Estaci\u00f3, 1, 43800 Valls (Tarragona)", "addr:housenumber": "1", "addr:postcode": "43800", "addr:street": "Pla\u00e7a de l'Estaci\u00f3", "building": "train_station", "building:architecture": "contemporary;eclectic", "building:levels": "2", "building:levels:underground": "0", "building:name": "Estaci\u00f3 de Valls", "building:name:ca": "Estaci\u00f3 de Valls", "construction_date": "on or before 1883/1/31", "name": "Valls", "name:ca": "Valls", "network": "Rodalies de Catalunya", "network:wikidata": "Q3322422", "network:wikimedia_commons": "Category:Rodalies de Catalunya", "network:wikipedia": "ca:Rodalies de Catalunya", "operator": "Renfe", "operator:wikidata": "Q2476154", "public_transport": "station", "railway": "station", "ref:ES:catastro": "4525618CF5742E0001FZ", "start_date": "1883/1/31", "train": "yes", "wheelchair": "limited", "wikidata": "Q8842170", "wikimedia_commons": "Category:Valls train station", "wikipedia": "ca:Estaci\u00f3 de Valls"}}]}