{"version": 0.6, "generator": "Overpass API 0.7.62.5 1bd436f1", "osm3s": {"timestamp_osm_base": "2025-04-09T14:05:45Z", "copyright": "The data included in this document is from www.openstreetmap.org. The data is made available under ODbL."}, "elements": [{"type": "node", "id": 2404109420, "lat": 6.1802622, "lon": 1.2056395, "tags": {"bench": "no", "bus": "yes", "highway": "bus_stop", "name": "Lomegan", "operator": "Sotral", "public_transport": "platform", "shelter": "no", "source": "Sotral;Survey"}}, {"type": "node", "id": 3188317093, "lat": 6.158072, "lon": 1.2563308, "tags": {"bench": "no", "highway": "bus_stop", "name": "Arr\u00eat de bus SOTRAL Ligne 11: Attikpodji-Kpota-Atti\u00e9gou", "shelter": "no", "source": "bing,survey", "tactile_paving": "no"}}, {"type": "node", "id": 4032771695, "lat": 6.1993712, "lon": 1.1797743, "tags": {"bus": "yes", "highway": "bus_stop", "public_transport": "platform"}}, {"type": "node", "id": 4059932138, "lat": 6.1593863, "lon": 1.2618791, "tags": {"highway": "bus_stop", "name": "Arr\u00eat de bus SOTRAL Ligne 11: Attikpodji-Kpota-Atti\u00e9gou"}}, {"type": "node", "id": 4887477223, "lat": 6.3200352, "lon": 1.2235675, "tags": {"highway": "bus_stop", "name": "Adeticope", "name:fr": "Adeticope"}}, {"type": "node", "id": 5017201521, "lat": 6.1863333, "lon": 1.202735, "tags": {"bus": "yes", "highway": "bus_stop", "public_transport": "platform"}}, {"type": "node", "id": 5046544876, "lat": 6.1887676, "lon": 1.1632099, "tags": {"source": "SOTRAL;survey"}}, {"type": "node", "id": 5046544877, "lat": 6.1890344, "lon": 1.1638962, "tags": {"source": "SOTRAL;survey"}}, {"type": "node", "id": 5046544878, "lat": 6.1890605, "lon": 1.1638984, "tags": {"source": "SOTRAL;survey"}}, {"type": "node", "id": 5046544879, "lat": 6.1887715, "lon": 1.1631381, "tags": {"source": "SOTRAL;survey"}}, {"type": "node", "id": 5590118766, "lat": 6.1653271, "lon": 1.2707582, "tags": {"highway": "bus_stop"}}, {"type": "node", "id": 5853553169, "lat": 6.1774742, "lon": 1.2404217, "tags": {"bench": "no", "bus": "yes", "highway": "bus_stop", "name": "Grand S\u00e9minaire", "operator": "SOTRAL", "public_transport": "platform", "shelter": "no", "source": "SOTRAL;survey"}}, {"type": "node", "id": 5853811018, "lat": 6.189986, "lon": 1.1532721, "tags": {"bench": "no", "bin": "no", "bus": "yes", "covered": "no", "highway": "bus_stop", "name": "Bar Orlane", "network": "SOTRAL", "operator": "SOTRAL", "public_transport": "platform", "shelter": "no", "source": "SOTRAL;survey"}}, {"type": "node", "id": 6094979287, "lat": 6.1533288, "lon": 1.2663789, "tags": {"bus": "yes", "description": "Ce travail \u00e0 \u00e9t\u00e9 fait effect\u00e9 par le cabinet KALAMAR (OSM ID: hermann106 pour @it_kalamar) pour la SOTRAL(Soci\u00e9t\u00e9 de TRAnsport de Lom\u00e9", "highway": "bus_stop", "name": "Arr\u00eat Wages", "network": "SOTRAL", "operator": "SOTRAL", "public_transport": "stop_position", "ref": "R0380", "source": "SOTRAL;survey"}}, {"type": "node", "id": 7358607650, "lat": 6.1580115, "lon": 1.2018201, "tags": {"bench": "no", "bus": "yes", "highway": "bus_stop", "name": "Todman", "operator": "Sotral", "public_transport": "platform", "shelter": "no", "source": "SOTRAL;survey"}}, {"type": "node", "id": 7358607651, "lat": 6.1540674, "lon": 1.2016042, "tags": {"bench": "yes", "bus": "yes", "highway": "bus_stop", "name": "Coll\u00e8ge Plateau", "operator": "Sotral", "public_transport": "platform", "shelter": "yes", "source": "SOTRAL;survey"}}, {"type": "node", "id": 7358607652, "lat": 6.1538047, "lon": 1.2014446, "tags": {"bench": "no", "bus": "yes", "highway": "bus_stop", "name": "Coll\u00e8ge Plateau", "public_transport": "platform", "shelter": "no", "source": "SOTRAL;survey"}}, {"type": "node", "id": 7358607653, "lat": 6.1504199, "lon": 1.2013071, "tags": {"bench": "no", "bus": "yes", "highway": "bus_stop", "name": "Cap Cassablanca", "public_transport": "platform", "shelter": "no", "source": "SOTRAL;survey"}}, {"type": "node", "id": 7358607654, "lat": 6.1477391, "lon": 1.2028112, "tags": {"bench": "yes", "bus": "yes", "highway": "bus_stop", "name": "Coll\u00e8ge Protestant", "operator": "Sotral", "public_transport": "platform", "shelter": "yes", "source": "SOTRAL;survey"}}, {"type": "node", "id": 7358607655, "lat": 6.1463378, "lon": 1.2038974, "tags": {"bench": "no", "bus": "yes", "highway": "bus_stop", "name": "Coll\u00e8ge Protestant", "public_transport": "platform", "shelter": "no", "source": "SOTRAL;survey"}}, {"type": "node", "id": 7358607656, "lat": 6.1430723, "lon": 1.2071469, "tags": {"bench": "yes", "bus": "yes", "highway": "bus_stop", "name": "CHU Sylvanus Olympio", "public_transport": "platform", "shelter": "yes", "source": "SOTRAL;survey"}}, {"type": "node", "id": 7358607657, "lat": 6.1426696, "lon": 1.2073441, "tags": {"bench": "no", "bus": "yes", "highway": "bus_stop", "name": "CHU Sylvanus Olympio", "operator": "Sotral", "public_transport": "platform", "shelter": "no", "source": "SOTRAL;survey"}}, {"type": "node", "id": 7362602486, "lat": 6.1936925, "lon": 1.1386165, "tags": {"bench": "no", "bus": "yes", "highway": "bus_stop", "name": "Baobab", "operator": "Sotral", "public_transport": "platform", "shelter": "no", "source": "SOTRAL;survey"}}, {"type": "node", "id": 7362602487, "lat": 6.1938258, "lon": 1.1377729, "tags": {"bench": "no", "bus": "yes", "highway": "bus_stop", "name": "Baobab", "operator": "Sotral", "public_transport": "platform", "shelter": "no", "source": "SOTRAL;survey"}}, {"type": "node", "id": 7362602488, "lat": 6.1935845, "lon": 1.1340862, "tags": {"bench": "no", "bus": "yes", "highway": "bus_stop", "name": "\u00c8glise ma Banni\u00e8re", "operator": "Sotral", "public_transport": "platform", "shelter": "no", "source": "SOTRAL;survey"}}, {"type": "node", "id": 7362602489, "lat": 6.1936218, "lon": 1.1327545, "tags": {"bench": "no", "bus": "yes", "highway": "bus_stop", "name": "\u00c8glise ma Banni\u00e8re", "operator": "Sotral", "public_transport": "platform", "shelter": "no", "source": "SOTRAL;survey"}}, {"type": "node", "id": 7362602490, "lat": 6.1934872, "lon": 1.1292596, "tags": {"bench": "no", "bus": "yes", "highway": "bus_stop", "name": "\u00c8glise Catholique", "operator": "Sotral", "public_transport": "platform", "shelter": "no", "source": "SOTRAL;survey"}}, {"type": "node", "id": 7362602491, "lat": 6.1935632, "lon": 1.1283423, "tags": {"bench": "no", "bus": "yes", "highway": "bus_stop", "name": "\u00c8glise Catholique", "operator": "Sotral", "public_transport": "platform", "shelter": "no", "source": "SOTRAL;survey"}}, {"type": "node", "id": 7362602492, "lat": 6.1934965, "lon": 1.1265922, "tags": {"bench": "no", "bus": "yes", "highway": "bus_stop", "name": "Logot\u00e9", "operator": "Sotral", "public_transport": "platform", "shelter": "no", "source": "SOTRAL;survey"}}, {"type": "node", "id": 7362602493, "lat": 6.1935672, "lon": 1.1255434, "tags": {"bench": "no", "bus": "yes", "highway": "bus_stop", "name": "Logot\u00e9", "operator": "Sotral", "public_transport": "platform", "shelter": "no", "source": "SOTRAL;survey"}}, {"type": "node", "id": 7362602494, "lat": 6.1937045, "lon": 1.1206551, "tags": {"bench": "no", "bus": "yes", "highway": "bus_stop", "name": "Mivea", "operator": "Sotral", "public_transport": "platform", "shelter": "no", "source": "SOTRAL;survey"}}, {"type": "node", "id": 7362602495, "lat": 6.1939005, "lon": 1.1192858, "tags": {"bench": "no", "bus": "yes", "highway": "bus_stop", "name": "Mivea", "operator": "Sotral", "public_transport": "platform", "shelter": "no", "source": "SOTRAL;survey"}}, {"type": "node", "id": 7362602496, "lat": 6.1939645, "lon": 1.1171052, "tags": {"bench": "no", "bus": "yes", "highway": "bus_stop", "name": "Complexe Esso", "operator": "Sotral", "public_transport": "platform", "shelter": "no", "source": "SOTRAL;survey"}}, {"type": "node", "id": 7362602497, "lat": 6.1940992, "lon": 1.1163153, "tags": {"bench": "no", "bus": "yes", "highway": "bus_stop", "name": "Complexe Esso", "operator": "Sotral", "public_transport": "platform", "shelter": "no", "source": "SOTRAL;survey"}}, {"type": "node", "id": 7362602498, "lat": 6.1935519, "lon": 1.112644, "tags": {"bench": "no", "bus": "yes", "highway": "bus_stop", "name": "Poste de Police", "operator": "Sotral", "public_transport": "platform", "shelter": "no", "source": "SOTRAL;survey"}}, {"type": "node", "id": 7362602499, "lat": 6.1933379, "lon": 1.1126782, "tags": {"bench": "no", "bus": "yes", "highway": "bus_stop", "name": "Poste de Police", "public_transport": "platform", "ref": "A0127", "shelter": "no", "source": "SOTRAL;survey"}}, {"type": "node", "id": 7362673657, "lat": 6.1897527, "lon": 1.1536959, "tags": {"bench": "no", "bin": "no", "bus": "yes", "covered": "no", "highway": "bus_stop", "name": "Bar Orlane", "network": "SOTRAL", "operator": "SOTRAL", "public_transport": "platform", "shelter": "no", "source": "SOTRAL;survey"}}, {"type": "node", "id": 7362673659, "lat": 6.1904433, "lon": 1.1511102, "tags": {"bench": "no", "bus": "yes", "highway": "bus_stop", "name": "EPP Wonyom\u00e9", "operator": "Sotral", "public_transport": "platform", "shelter": "no", "source": "SOTRAL;survey"}}, {"type": "node", "id": 7362673660, "lat": 6.1909406, "lon": 1.1500025, "tags": {"bench": "no", "bus": "yes", "highway": "bus_stop", "name": "EPP Wonyom\u00e9", "operator": "Sotral", "public_transport": "platform", "shelter": "no", "source": "SOTRAL;survey"}}, {"type": "node", "id": 7362673661, "lat": 6.1919579, "lon": 1.1460033, "tags": {"amenity": "place_of_worship", "bench": "no", "bus": "yes", "highway": "bus_stop", "operator": "Sotral", "public_transport": "platform", "religion": "muslim", "shelter": "no", "source": "SOTRAL;survey"}}, {"type": "node", "id": 7362673662, "lat": 6.1918299, "lon": 1.1460972, "tags": {"amenity": "place_of_worship", "bench": "no", "bus": "yes", "highway": "bus_stop", "operator": "Sotral", "public_transport": "platform", "religion": "muslim", "shelter": "no", "source": "SOTRAL;survey"}}, {"type": "node", "id": 7362673663, "lat": 6.1927446, "lon": 1.142621, "tags": {"bench": "no", "bus": "yes", "highway": "bus_stop", "name": "Les Id\u00e9es", "operator": "Sotral", "public_transport": "platform", "shelter": "no", "source": "SOTRAL;survey"}}, {"type": "node", "id": 7362673664, "lat": 6.1931126, "lon": 1.1416742, "tags": {"bench": "no", "bus": "yes", "highway": "bus_stop", "name": "Les Id\u00e9es", "operator": "Sotral", "public_transport": "platform", "shelter": "no", "source": "SOTRAL;survey"}}, {"type": "node", "id": 7362723888, "lat": 6.1877741, "lon": 1.1633921, "tags": {"bench": "yes", "bus": "yes", "highway": "bus_stop", "name": "Douane Adidogom\u00e9", "operator": "SOTRAL", "public_transport": "platform", "shelter": "yes", "source": "SOTRAL;survey"}}, {"type": "node", "id": 7362772435, "lat": 6.1675469, "lon": 1.2013393, "tags": {"bench": "no", "bus": "yes", "highway": "bus_stop", "name": "Total Atikoum\u00e9", "operator": "Sotral", "public_transport": "platform", "shelter": "no", "source": "SOTRAL;survey"}}, {"type": "node", "id": 7362772436, "lat": 6.1674517, "lon": 1.2016189, "tags": {"bench": "yes", "bus": "yes", "highway": "bus_stop", "name": "Total Atikoum\u00e9", "operator": "Sotral", "public_transport": "platform", "shelter": "yes", "source": "SOTRAL;survey"}}, {"type": "node", "id": 7362772437, "lat": 6.1700943, "lon": 1.1950167, "tags": {"bench": "no", "bus": "yes", "highway": "bus_stop", "name": "Teck Massif", "operator": "SOTRAL", "public_transport": "platform", "shelter": "no", "source": "SOTRAL;survey"}}, {"type": "node", "id": 7362772438, "lat": 6.1704556, "lon": 1.1938807, "tags": {"bench": "no", "bus": "yes", "highway": "bus_stop", "name": "Teck Massif", "operator": "SOTRAL", "public_transport": "platform", "shelter": "no", "source": "SOTRAL;survey"}}, {"type": "node", "id": 7362772439, "lat": 6.1713957, "lon": 1.1903067, "tags": {"bench": "no", "bus": "yes", "highway": "bus_stop", "name": "Pharmacie de la Cit\u00e9e", "operator": "SOTRAL", "public_transport": "platform", "shelter": "no", "source": "SOTRAL;survey"}}, {"type": "node", "id": 7362772440, "lat": 6.1721143, "lon": 1.1892204, "tags": {"bench": "yes", "bus": "yes", "highway": "bus_stop", "name": "Pharmacie de la Cit\u00e9e", "operator": "SOTRAL", "public_transport": "platform", "shelter": "yes", "source": "SOTRAL;survey"}}, {"type": "node", "id": 7362772441, "lat": 6.1724037, "lon": 1.1881784, "tags": {"bench": "no", "bus": "yes", "highway": "bus_stop", "name": "Total Avenou", "operator": "SOTRAL", "public_transport": "platform", "shelter": "no", "source": "SOTRAL;survey"}}, {"type": "node", "id": 7362772442, "lat": 6.1733743, "lon": 1.1862753, "tags": {"bench": "no", "bus": "yes", "highway": "bus_stop", "name": "Total Avenou", "operator": "SOTRAL", "public_transport": "platform", "shelter": "no", "source": "SOTRAL;survey"}}, {"type": "node", "id": 7362772443, "lat": 6.1744897, "lon": 1.1836005, "tags": {"bench": "no", "bus": "yes", "highway": "bus_stop", "name": "Av\u00e9 Maria", "operator": "SOTRAL", "public_transport": "platform", "shelter": "no", "source": "SOTRAL;survey"}}, {"type": "node", "id": 7362772444, "lat": 6.1754863, "lon": 1.1817116, "tags": {"bench": "no", "bus": "yes", "highway": "bus_stop", "name": "Av\u00e9 Maria", "operator": "SOTRAL", "public_transport": "platform", "shelter": "no", "source": "SOTRAL;survey"}}, {"type": "node", "id": 7362772445, "lat": 6.1766223, "lon": 1.1790387, "tags": {"bench": "no", "bus": "yes", "highway": "bus_stop", "name": "Boukarou", "operator": "SOTRAL", "public_transport": "platform", "shelter": "no", "source": "SOTRAL;survey"}}, {"type": "node", "id": 7362772446, "lat": 6.1771503, "lon": 1.1782166, "tags": {"bench": "no", "bus": "yes", "highway": "bus_stop", "name": "Boukarou", "operator": "SOTRAL", "public_transport": "platform", "shelter": "no", "source": "SOTRAL;survey"}}, {"type": "node", "id": 7362772447, "lat": 6.1788001, "lon": 1.1751031, "tags": {"bench": "no", "bus": "yes", "highway": "bus_stop", "name": "Franciscain", "operator": "SOTRAL", "public_transport": "platform", "shelter": "no", "source": "SOTRAL;survey"}}, {"type": "node", "id": 7362772448, "lat": 6.1795983, "lon": 1.1738902, "tags": {"bench": "no", "bus": "yes", "highway": "bus_stop", "name": "Franciscain", "operator": "SOTRAL", "public_transport": "platform", "shelter": "no", "source": "SOTRAL;survey"}}, {"type": "node", "id": 7362772449, "lat": 6.1809314, "lon": 1.171217, "tags": {"bench": "yes", "bus": "yes", "highway": "bus_stop", "name": "La Pampa", "operator": "SOTRAL", "public_transport": "platform", "shelter": "yes", "source": "SOTRAL;survey"}}, {"type": "node", "id": 7362772450, "lat": 6.1811062, "lon": 1.1711369, "tags": {"bench": "no", "bus": "yes", "highway": "bus_stop", "name": "La Pampa", "operator": "SOTRAL", "public_transport": "platform", "shelter": "no", "source": "SOTRAL;survey"}}, {"type": "node", "id": 7362772452, "lat": 6.1852088, "lon": 1.1662889, "tags": {"bench": "no", "bus": "yes", "highway": "bus_stop", "name": "Pharmacie Adidogom\u00e9", "operator": "SOTRAL", "public_transport": "platform", "shelter": "no", "source": "SOTRAL;survey"}}, {"type": "node", "id": 7372065121, "lat": 6.2317708, "lon": 1.196968, "tags": {"bench": "yes", "bus": "yes", "highway": "bus_stop", "name": "March\u00e9 Ago\u00e8 Assiy\u00e9y\u00e9", "operator": "Sotral", "public_transport": "platform", "shelter": "yes", "source": "Sotral;Survey"}}, {"type": "node", "id": 7372065122, "lat": 6.2322162, "lon": 1.1969545, "tags": {"bench": "yes", "bus": "yes", "highway": "bus_stop", "name": "March\u00e9 Ago\u00e8 Assiy\u00e9y\u00e9", "operator": "Sotral", "public_transport": "platform", "shelter": "yes", "source": "Sotral;Survey"}}, {"type": "node", "id": 7372065123, "lat": 6.2287259, "lon": 1.1949603, "tags": {"bench": "no", "bus": "yes", "highway": "bus_stop", "name": "Bar Robinet", "operator": "Sotral", "public_transport": "platform", "shelter": "no", "source": "Sotral;Survey"}}, {"type": "node", "id": 7372065124, "lat": 6.2291525, "lon": 1.1947511, "tags": {"bench": "no", "bus": "yes", "highway": "bus_stop", "name": "Bar Robinet", "operator": "Sotral", "public_transport": "platform", "shelter": "no", "source": "Sotral;Survey"}}, {"type": "node", "id": 7372065125, "lat": 6.2265654, "lon": 1.1939451, "tags": {"bench": "no", "bus": "yes", "highway": "bus_stop", "name": "EPP Ago\u00e8 Assiy\u00e9y\u00e9", "operator": "Sotral", "public_transport": "platform", "shelter": "no", "source": "Sotral;Survey"}}, {"type": "node", "id": 7372065126, "lat": 6.2265994, "lon": 1.193575, "tags": {"bench": "no", "bus": "yes", "highway": "bus_stop", "name": "EPP Ago\u00e8 Assiy\u00e9y\u00e9", "operator": "Sotral", "public_transport": "platform", "shelter": "no", "source": "Sotral;Survey"}}, {"type": "node", "id": 7372065127, "lat": 6.2210393, "lon": 1.1911851, "tags": {"bench": "no", "bus": "yes", "highway": "bus_stop", "name": "Lyc\u00e9e Ago\u00e8", "operator": "Sotral", "public_transport": "platform", "shelter": "no", "source": "Sotral;Survey"}}, {"type": "node", "id": 7372065128, "lat": 6.220528, "lon": 1.1903094, "tags": {"bench": "no", "bus": "yes", "highway": "bus_stop", "name": "Lyc\u00e9e Ago\u00e8", "operator": "Sotral", "public_transport": "platform", "shelter": "no", "source": "Sotral;Survey"}}, {"type": "node", "id": 7372065129, "lat": 6.2185669, "lon": 1.1894068, "tags": {"bench": "no", "bus": "yes", "highway": "bus_stop", "name": "Pharmacie Notre Dame de Lourdes", "operator": "Sotral", "public_transport": "platform", "shelter": "no", "source": "Sotral;Survey"}}, {"type": "node", "id": 7372065130, "lat": 6.2156258, "lon": 1.18835, "tags": {"bench": "no", "bus": "yes", "highway": "bus_stop", "name": "Pharmacie Notre Dame de Lourdes", "operator": "Sotral", "public_transport": "platform", "shelter": "no", "source": "Sotral;Survey"}}, {"type": "node", "id": 7372065131, "lat": 6.2141079, "lon": 1.1886921, "tags": {"bench": "no", "bus": "yes", "highway": "bus_stop", "name": "Maison Blanche", "operator": "Sotral", "public_transport": "platform", "shelter": "no", "source": "Sotral;Survey"}}, {"type": "node", "id": 7372065132, "lat": 6.2118954, "lon": 1.1883473, "tags": {"bench": "no", "bus": "yes", "highway": "bus_stop", "name": "Maison Blanche", "operator": "Sotral", "public_transport": "platform", "shelter": "no", "source": "Sotral;Survey"}}, {"type": "node", "id": 7372065133, "lat": 6.2097156, "lon": 1.1890554, "tags": {"bench": "no", "bus": "yes", "highway": "bus_stop", "name": "Maison de l'enfant", "operator": "Sotral", "public_transport": "platform", "shelter": "no", "source": "Sotral;Survey"}}, {"type": "node", "id": 7372065134, "lat": 6.2095876, "lon": 1.1886598, "tags": {"bench": "no", "bus": "yes", "highway": "bus_stop", "name": "Maison de l'enfant", "operator": "Sotral", "public_transport": "platform", "shelter": "no", "source": "Sotral;Survey"}}, {"type": "node", "id": 7372065135, "lat": 6.2069811, "lon": 1.1900237, "tags": {"bench": "no", "bus": "yes", "highway": "bus_stop", "name": "Carrefour cam\u00e9l\u00e9on", "operator": "Sotral", "public_transport": "platform", "shelter": "no", "source": "Sotral;Survey"}}, {"type": "node", "id": 7372065136, "lat": 6.2049066, "lon": 1.1901659, "tags": {"bench": "no", "bus": "yes", "highway": "bus_stop", "name": "Carrefour cam\u00e9l\u00e9on", "operator": "Sotral", "public_transport": "platform", "shelter": "no", "source": "Sotral;Survey"}}, {"type": "node", "id": 7372065137, "lat": 6.2028861, "lon": 1.1920273, "tags": {"bench": "no", "bus": "yes", "highway": "bus_stop", "name": "KG Afrique", "operator": "Sotral", "public_transport": "platform", "shelter": "no", "source": "Sotral;Survey"}}, {"type": "node", "id": 7372065138, "lat": 6.2023601, "lon": 1.1921762, "tags": {"bus": "yes", "highway": "bus_stop", "name": "KG Afrique", "operator": "Sotral", "public_transport": "platform", "ref": "A0234", "shelter": "no"}}, {"type": "node", "id": 7372065139, "lat": 6.2016721, "lon": 1.1944655, "tags": {"bench": "no", "bus": "yes", "highway": "bus_stop", "name": "Lossossim\u00e8", "operator": "Sotral", "public_transport": "platform", "shelter": "no", "source": "Sotral;Survey"}}, {"type": "node", "id": 7372065140, "lat": 6.2013148, "lon": 1.1943179, "tags": {"bus": "yes", "highway": "bus_stop", "name": "Lossossim\u00e8", "operator": "Sotral", "public_transport": "platform", "ref": "A0235", "source": "Sotral;Survey"}}, {"type": "node", "id": 7372065141, "lat": 6.2007095, "lon": 1.1962169, "tags": {"bench": "no", "bus": "yes", "highway": "bus_stop", "name": "Fan milk", "operator": "Sotral", "public_transport": "platform", "shelter": "no", "source": "Sotral;Survey"}}, {"type": "node", "id": 7372065142, "lat": 6.1990616, "lon": 1.1983386, "tags": {"bench": "no", "bus": "yes", "highway": "bus_stop", "name": "Fan milk", "operator": "Sotral", "public_transport": "platform", "shelter": "no", "source": "Sotral;Survey"}}, {"type": "node", "id": 7372065143, "lat": 6.198137, "lon": 1.2000357, "tags": {"bench": "no", "bus": "yes", "highway": "bus_stop", "name": "La Poste", "operator": "Sotral", "public_transport": "platform", "shelter": "no", "source": "Sotral;Survey"}}, {"type": "node", "id": 7372065144, "lat": 6.1986109, "lon": 1.1999238, "tags": {"bench": "no", "bus": "yes", "highway": "bus_stop", "name": "La Poste", "operator": "Sotral", "public_transport": "platform", "shelter": "no", "source": "Sotral;Survey"}}, {"type": "node", "id": 7372065145, "lat": 6.197067, "lon": 1.2024598, "tags": {"bench": "no", "bus": "yes", "highway": "bus_stop", "name": "Maman SOTRAL", "operator": "Sotral", "public_transport": "platform", "shelter": "no", "source": "Sotral;Survey"}}, {"type": "node", "id": 7372065146, "lat": 6.196491, "lon": 1.2031451, "tags": {"bench": "no", "bus": "yes", "highway": "bus_stop", "name": "Maman SOTRAL", "operator": "Sotral", "public_transport": "platform", "shelter": "no", "source": "Sotral;Survey"}}, {"type": "node", "id": 7372065147, "lat": 6.1942378, "lon": 1.2077759, "tags": {"bench": "no", "bus": "yes", "highway": "bus_stop", "name": "MRS GTA", "operator": "Sotral", "public_transport": "platform", "shelter": "no", "source": "Sotral;Survey"}}, {"type": "node", "id": 7372065148, "lat": 6.1944205, "lon": 1.2077759, "tags": {"bench": "no", "bus": "yes", "highway": "bus_stop", "name": "MRS GTA", "operator": "Sotral", "public_transport": "platform", "shelter": "no", "source": "Sotral;Survey"}}, {"type": "node", "id": 7372065149, "lat": 6.1913413, "lon": 1.2085403, "tags": {"bench": "no", "bin": "no", "bus": "yes", "highway": "bus_stop", "name": "Total GTA", "operator": "Sotral", "public_transport": "platform", "shelter": "no", "source": "SOTRAL;survey"}}, {"type": "node", "id": 7372065150, "lat": 6.1913386, "lon": 1.208427, "tags": {"bench": "no", "bus": "yes", "highway": "bus_stop", "name": "Total GTA", "operator": "Sotral", "public_transport": "platform", "shelter": "no", "source": "SOTRAL;survey"}}, {"type": "node", "id": 7372065151, "lat": 6.1870568, "lon": 1.2074929, "tags": {"bench": "yes", "bus": "yes", "highway": "bus_stop", "name": "Minist\u00e8re de la fonction publique et du dialogue social", "operator": "Sotral", "public_transport": "platform", "shelter": "yes", "source": "Sotral;Survey"}}, {"type": "node", "id": 7372065152, "lat": 6.1870088, "lon": 1.2073159, "tags": {"bench": "yes", "bus": "yes", "highway": "bus_stop", "name": "Direction Togocel", "operator": "Sotral", "public_transport": "platform", "shelter": "yes", "source": "Sotral;Survey"}}, {"type": "node", "id": 7372065153, "lat": 6.1806569, "lon": 1.2058769, "tags": {"bench": "no", "bus": "yes", "highway": "bus_stop", "name": "Lomegan", "operator": "Sotral", "public_transport": "platform", "shelter": "no", "source": "Sotral;Survey"}}, {"type": "node", "id": 7372065155, "lat": 6.1763023, "lon": 1.204749, "tags": {"bench": "no", "bin": "no", "bus": "yes", "highway": "bus_stop", "lit": "no", "name": "Eglise catholique", "operator": "Sotral", "public_transport": "platform", "shelter": "no", "source": "Sotral;Survey"}}, {"type": "node", "id": 7372065156, "lat": 6.1750063, "lon": 1.2042984, "tags": {"bench": "no", "bin": "no", "bus": "yes", "highway": "bus_stop", "lit": "yes", "name": "Eglise catholique", "operator": "Sotral", "public_transport": "platform", "shelter": "no", "source": "Sotral;Survey"}}, {"type": "node", "id": 7372065157, "lat": 6.170809, "lon": 1.203357, "tags": {"bench": "no", "bus": "yes", "highway": "bus_stop", "name": "ESTAO", "operator": "Sotral", "public_transport": "platform", "shelter": "no", "source": "Sotral;Survey"}}, {"type": "node", "id": 7372065158, "lat": 6.169089, "lon": 1.20285, "tags": {"bench": "no", "bin": "yes", "bus": "yes", "highway": "bus_stop", "lit": "yes", "name": "ESTAO", "operator": "Sotral", "public_transport": "platform", "shelter": "no", "source": "SOTRAL; Survey; Bing"}}, {"type": "node", "id": 7372065159, "lat": 6.166827, "lon": 1.2024068, "tags": {"bench": "no", "bus": "yes", "highway": "bus_stop", "name": "Concorde", "operator": "Sotral", "public_transport": "platform", "shelter": "no", "source": "SOTRAL;survey"}}, {"type": "node", "id": 7372065160, "lat": 6.1666029, "lon": 1.2023451, "tags": {"bench": "no", "bus": "yes", "highway": "bus_stop", "name": "Concorde", "operator": "Sotral", "public_transport": "platform", "shelter": "no", "source": "SOTRAL;survey"}}, {"type": "node", "id": 7372707757, "lat": 6.1705957, "lon": 1.1993974, "tags": {"bench": "no", "bus": "yes", "highway": "bus_stop", "name": "Arr\u00eat Commissariat Donou", "operator": "Sotral", "public_transport": "platform", "shelter": "no", "source": "SOTRAL;survey"}}, {"type": "node", "id": 7372707758, "lat": 6.170473, "lon": 1.1992358, "tags": {"bench": "no", "bus": "yes", "highway": "bus_stop", "name": "Arr\u00eat Commissariat Donou", "operator": "Sotral", "public_transport": "platform", "shelter": "no", "source": "SOTRAL;survey"}}, {"type": "node", "id": 7372707759, "lat": 6.174021, "lon": 1.1982085, "tags": {"bench": "no", "bus": "yes", "highway": "bus_stop", "name": "Arr\u00eat EPP GAKLI", "operator": "Sotral", "public_transport": "platform", "shelter": "no", "source": "SOTRAL;survey"}}, {"type": "node", "id": 7372707760, "lat": 6.1750556, "lon": 1.1980227, "tags": {"amenity": "bus_station", "bench": "no", "bus": "yes", "highway": "bus_stop", "name": "Arr\u00eat EPP GAKLI", "operator": "Sotral", "public_transport": "platform", "shelter": "no", "source": "Sotral;survey"}}, {"type": "node", "id": 7372707761, "lat": 6.177671, "lon": 1.1966307, "tags": {"bench": "no", "highway": "bus_stop", "name": "Arr\u00eat Baobab", "operator": "Sotral", "public_transport": "platform", "shelter": "no", "source": "Sotral;survey"}}, {"type": "node", "id": 7372707762, "lat": 6.1786783, "lon": 1.1964047, "tags": {"amenity": "bus_station", "bench": "no", "bus": "yes", "highway": "bus_stop", "name": "Arr\u00eat Baobab", "operator": "Sotral", "public_transport": "platform", "shelter": "no", "source": "Sotral;survey"}}, {"type": "node", "id": 7372707763, "lat": 6.1810589, "lon": 1.1953861, "tags": {"amenity": "transportation", "bench": "no", "bus": "yes", "highway": "bus_stop", "name": "Arr\u00eat Pharmacie Djidjol\u00e9", "operator": "Sotral", "public_transport": "platform", "shelter": "no", "source": "Sotral;survey"}}, {"type": "node", "id": 7372707764, "lat": 6.1810536, "lon": 1.1951736, "tags": {"amenity": "transportation", "bench": "no", "bus": "yes", "highway": "bus_stop", "name": "Arr\u00eat Pharmacie Djidjol\u00e9", "operator": "Sotral", "public_transport": "platform", "shelter": "no", "source": "Sotral;survey"}}, {"type": "node", "id": 7372707765, "lat": 6.1844648, "lon": 1.1942857, "tags": {"amenity": "transportation", "bench": "no", "bus": "yes", "highway": "bus_stop", "name": "Arr\u00eat Commissariat 6\u00e8me arrondissement", "operator": "Sotral", "public_transport": "platform", "shelter": "no", "source": "Sotral;survey"}}, {"type": "node", "id": 7372707766, "lat": 6.1844255, "lon": 1.1941329, "tags": {"bench": "no", "highway": "bus_stop", "name": "Arr\u00eat Commissariat 6\u00e8me arrondissement", "operator": "Sotral", "public_transport": "platform", "shelter": "no", "source": "Sotral;survey"}}, {"type": "node", "id": 7372707767, "lat": 6.1869354, "lon": 1.1933148, "tags": {"amenity": "transportation", "bench": "no", "bus": "yes", "highway": "bus_stop", "name": "Arr\u00eat ADEBAYOR", "operator": "Sotral", "public_transport": "platform", "shelter": "no", "source": "Sotral;survey"}}, {"type": "node", "id": 7372707768, "lat": 6.1862808, "lon": 1.1933483, "tags": {"bench": "no", "highway": "bus_stop", "name": "Arr\u00eat ADEBAYOR", "operator": "Sotral", "public_transport": "platform", "shelter": "no", "source": "Sotral;survey"}}, {"type": "node", "id": 7372707769, "lat": 6.1912679, "lon": 1.1913829, "tags": {"bench": "no", "bus": "yes", "highway": "bus_stop", "name": "Arr\u00eat Carrefour Gblinkom\u00e8", "operator": "Sotral", "public_transport": "platform", "shelter": "no", "source": "Sotral;survey"}}, {"type": "node", "id": 7372707770, "lat": 6.1910873, "lon": 1.1912944, "tags": {"bench": "no", "bus": "yes", "highway": "bus_stop", "name": "Arr\u00eat Carrefour Gblinkom\u00e8", "operator": "Sotral", "public_transport": "platform", "shelter": "no", "source": "Sotral;survey"}}, {"type": "node", "id": 7372707771, "lat": 6.1947525, "lon": 1.1894162, "tags": {"bench": "no", "highway": "bus_stop", "name": "Arr\u00eat March\u00e9 Totsi", "operator": "Sotral", "public_transport": "platform", "shelter": "no", "source": "Sotral;survey"}}, {"type": "node", "id": 7372707772, "lat": 6.1946725, "lon": 1.1892539, "tags": {"bench": "no", "highway": "bus_stop", "name": "Arr\u00eat March\u00e9 Totsi", "operator": "Sotral", "public_transport": "platform", "shelter": "no", "source": "Sotral;survey"}}, {"type": "node", "id": 7372707773, "lat": 6.1988133, "lon": 1.1884804, "tags": {"bench": "no", "highway": "bus_stop", "name": "Arr\u00eat Jess H\u00f4tel", "operator": "Sotral", "public_transport": "platform", "shelter": "no", "source": "Sotral;survey"}}, {"type": "node", "id": 7372707774, "lat": 6.2002829, "lon": 1.1883413, "tags": {"bench": "no", "highway": "bus_stop", "name": "Arr\u00eat Jess H\u00f4tel", "operator": "Sotral", "public_transport": "platform", "shelter": "no", "source": "Sotral;survey"}}, {"type": "node", "id": 7372707775, "lat": 6.2036747, "lon": 1.1871893, "tags": {"bench": "no", "highway": "bus_stop", "name": "Arr\u00eat Fin pav\u00e9 Adidoadin", "operator": "Sotral", "public_transport": "platform", "shelter": "no", "source": "Sotral;survey"}}, {"type": "node", "id": 7372707776, "lat": 6.2039826, "lon": 1.1871685, "tags": {"bench": "no", "highway": "bus_stop", "name": "Arr\u00eat Fin pav\u00e9 Adidoadin", "operator": "Sotral", "public_transport": "platform", "shelter": "no", "source": "Sotral;survey"}}, {"type": "node", "id": 7372707778, "lat": 6.2036867, "lon": 1.1844635, "tags": {"bench": "no", "highway": "bus_stop", "name": "Arr\u00eat H\u00f4tel Nathanael", "operator": "Sotral", "public_transport": "platform", "shelter": "no", "source": "Sotral;survey"}}, {"type": "node", "id": 7372707779, "lat": 6.2037773, "lon": 1.1843622, "tags": {"bench": "no", "highway": "bus_stop", "name": "Arr\u00eat H\u00f4tel Nathanael", "operator": "Sotral", "public_transport": "platform", "shelter": "no", "source": "Sotral;survey"}}, {"type": "node", "id": 7372707780, "lat": 6.2014895, "lon": 1.1815627, "tags": {"bench": "no", "highway": "bus_stop", "name": "Arr\u00eat Orabank / Limousine", "operator": "Sotral", "public_transport": "platform", "shelter": "no", "source": "Sotral;survey"}}, {"type": "node", "id": 7372707781, "lat": 6.2014535, "lon": 1.1812261, "tags": {"bench": "no", "highway": "bus_stop", "name": "Arr\u00eat Orabank / Limousine", "operator": "Sotral", "public_transport": "platform", "shelter": "no", "source": "Sotral;survey"}}, {"type": "node", "id": 7372707782, "lat": 6.2047119, "lon": 1.1819154, "tags": {"bench": "no", "highway": "bus_stop", "name": "Arr\u00eat Complexe scolaire le Jourdain", "operator": "Sotral", "public_transport": "platform", "shelter": "no", "source": "Sotral;survey"}}, {"type": "node", "id": 7372707783, "lat": 6.2053612, "lon": 1.1824009, "tags": {"bench": "no", "highway": "bus_stop", "name": "Arr\u00eat Complexe scolaire le Jourdain", "operator": "Sotral", "public_transport": "platform", "shelter": "no", "source": "Sotral;survey"}}, {"type": "node", "id": 7372707784, "lat": 6.2074784, "lon": 1.1817491, "tags": {"bench": "no", "highway": "bus_stop", "name": "Arr\u00eat Bar la FIESTA", "operator": "Sotral", "public_transport": "platform", "shelter": "no", "source": "Sotral;survey"}}, {"type": "node", "id": 7372710485, "lat": 6.2077224, "lon": 1.1817464, "tags": {"bench": "no", "highway": "bus_stop", "name": "Arr\u00eat Bar la FIESTA", "operator": "Sotral", "public_transport": "platform", "shelter": "no", "source": "Sotral;survey"}}, {"type": "node", "id": 7372710486, "lat": 6.2093463, "lon": 1.1796087, "tags": {"bench": "no", "highway": "bus_stop", "name": "Arr\u00eat Complexe scolaire la Volont\u00e9", "operator": "Sotral", "public_transport": "platform", "shelter": "no", "source": "Sotral;survey"}}, {"type": "node", "id": 7372710487, "lat": 6.2100982, "lon": 1.1789663, "tags": {"bench": "no", "highway": "bus_stop", "name": "Arr\u00eat Complexe scolaire la Volont\u00e9", "operator": "Sotral", "public_transport": "platform", "shelter": "no", "source": "Sotral;survey"}}, {"type": "node", "id": 7372710488, "lat": 6.2112821, "lon": 1.177353, "tags": {"bench": "no", "highway": "bus_stop", "name": "Arr\u00eat Pharmacie des Orchid\u00e9es", "operator": "Sotral", "public_transport": "platform", "shelter": "no", "source": "Sotral;survey"}}, {"type": "node", "id": 7372710489, "lat": 6.2122727, "lon": 1.1764611, "tags": {"bench": "no", "highway": "bus_stop", "name": "Arr\u00eat Pharmacie des Orchid\u00e9es", "operator": "Sotral", "public_transport": "platform", "shelter": "no", "source": "Sotral;survey"}}, {"type": "node", "id": 7372710490, "lat": 6.2127513, "lon": 1.1756028, "tags": {"bench": "no", "highway": "bus_stop", "name": "Arr\u00eat Antenne Moov", "operator": "Sotral", "public_transport": "platform", "shelter": "no", "source": "Sotral;survey"}}, {"type": "node", "id": 7372710491, "lat": 6.2136086, "lon": 1.1748813, "tags": {"bench": "no", "highway": "bus_stop", "name": "Arr\u00eat Antenne Moov", "operator": "Sotral", "public_transport": "platform", "shelter": "no", "source": "Sotral;survey"}}, {"type": "node", "id": 7372710492, "lat": 6.2156364, "lon": 1.1722635, "tags": {"bench": "no", "highway": "bus_stop", "name": "Arr\u00eat Pharmacie Dieu Donn\u00e9e", "operator": "Sotral", "public_transport": "platform", "shelter": "no", "source": "Sotral;survey"}}, {"type": "node", "id": 7372710493, "lat": 6.2162071, "lon": 1.1718558, "tags": {"bench": "no", "highway": "bus_stop", "name": "Arr\u00eat Pharmacie Dieu Donn\u00e9e", "operator": "Sotral", "public_transport": "platform", "shelter": "no", "source": "Sotral;survey"}}, {"type": "node", "id": 7372710494, "lat": 6.2185962, "lon": 1.1690783, "tags": {"bench": "no", "highway": "bus_stop", "name": "Arr\u00eat Entreprise de l'union", "operator": "Sotral", "public_transport": "platform", "shelter": "no", "source": "Sotral;survey"}}, {"type": "node", "id": 7372710495, "lat": 6.2184829, "lon": 1.1689764, "tags": {"bench": "no", "highway": "bus_stop", "name": "Arr\u00eat Entreprise de l'union", "operator": "Sotral", "public_transport": "platform", "shelter": "no", "source": "Sotral;survey"}}, {"type": "node", "id": 7375250073, "lat": 6.1586702, "lon": 1.2257843, "tags": {"bench": "no", "bus": "yes", "highway": "bus_stop", "name": "Garage Central", "operator": "Sotral", "public_transport": "platform", "shelter": "no", "source": "SOTRAL;survey"}}, {"type": "node", "id": 7375250074, "lat": 6.1546781, "lon": 1.2279488, "tags": {"bench": "yes", "bus": "yes", "highway": "bus_stop", "name": "Eda Oba", "operator": "Sotral", "public_transport": "platform", "shelter": "yes", "source": "SOTRAL;survey"}}, {"type": "node", "id": 7375250075, "lat": 6.1545594, "lon": 1.2282586, "tags": {"bench": "yes", "bus": "yes", "highway": "bus_stop", "name": "Eda Oba", "operator": "Sotral", "public_transport": "platform", "shelter": "yes", "source": "SOTRAL;survey"}}, {"type": "node", "id": 7375250076, "lat": 6.1486672, "lon": 1.2301053, "tags": {"bench": "no", "bus": "yes", "highway": "bus_stop", "name": "Colombe de la Paix", "operator": "Sotral", "public_transport": "platform", "shelter": "no", "source": "SOTRAL;survey"}}, {"type": "node", "id": 7375250077, "lat": 6.1481912, "lon": 1.2299082, "tags": {"bench": "no", "bus": "yes", "highway": "bus_stop", "name": "Colombe de la Paix", "operator": "Sotral", "public_transport": "platform", "shelter": "no", "source": "SOTRAL;survey"}}, {"type": "node", "id": 7375250078, "lat": 6.144911, "lon": 1.22999, "tags": {"bench": "no", "bus": "yes", "highway": "bus_stop", "name": "Lagune", "operator": "Sotral", "public_transport": "platform", "shelter": "no", "source": "SOTRAL;survey"}}, {"type": "node", "id": 7375250079, "lat": 6.1411482, "lon": 1.2297982, "tags": {"bench": "no", "bus": "yes", "highway": "bus_stop", "name": "March\u00e9 Amouti\u00e9v\u00e9", "operator": "Sotral", "public_transport": "platform", "shelter": "no", "source": "SOTRAL;survey"}}, {"type": "node", "id": 7384839559, "lat": 6.3206457, "lon": 1.2179757, "tags": {"bench": "no", "bus": "yes", "highway": "bus_stop", "name": "Fucec Ad\u00e9ticop\u00e9", "operator": "Sotral", "public_transport": "platform", "shelter": "no", "source": "SOTRAL;survey"}}, {"type": "node", "id": 7384839560, "lat": 6.3206504, "lon": 1.2176478, "tags": {"bench": "no", "bus": "yes", "highway": "bus_stop", "name": "Fucec Ad\u00e9ticop\u00e9", "operator": "Sotral", "public_transport": "platform", "shelter": "no", "source": "SOTRAL;survey"}}, {"type": "node", "id": 7384839561, "lat": 6.2982356, "lon": 1.2141938, "tags": {"bench": "no", "bus": "yes", "highway": "bus_stop", "name": "Garage AK", "operator": "Sotral", "public_transport": "platform", "shelter": "no", "source": "SOTRAL;survey"}}, {"type": "node", "id": 7384839562, "lat": 6.2982709, "lon": 1.2138699, "tags": {"bench": "no", "bus": "yes", "highway": "bus_stop", "name": "Garage AK", "operator": "Sotral", "public_transport": "platform", "shelter": "no", "source": "SOTRAL;survey"}}, {"type": "node", "id": 7384839563, "lat": 6.281662, "lon": 1.2117852, "tags": {"bench": "no", "bus": "yes", "highway": "bus_stop", "name": "H\u00f4tel Enyo", "operator": "Sotral", "public_transport": "platform", "shelter": "no", "source": "SOTRAL;survey"}}, {"type": "node", "id": 7384839564, "lat": 6.28168, "lon": 1.2119354, "tags": {"bench": "no", "bus": "yes", "highway": "bus_stop", "name": "H\u00f4tel Enyo", "operator": "Sotral", "public_transport": "platform", "shelter": "no", "source": "SOTRAL;survey"}}, {"type": "node", "id": 7384839565, "lat": 6.2775162, "lon": 1.2114693, "tags": {"bench": "no", "bus": "yes", "highway": "bus_stop", "name": "Epp Togbl\u00e9kop\u00e9", "operator": "Sotral", "public_transport": "platform", "shelter": "no", "source": "SOTRAL;survey"}}, {"type": "node", "id": 7384839567, "lat": 6.2702936, "lon": 1.2098197, "tags": {"bench": "no", "bus": "yes", "highway": "bus_stop", "name": "Hermann", "operator": "Sotral", "public_transport": "platform", "shelter": "no", "source": "SOTRAL;survey"}}, {"type": "node", "id": 7384839568, "lat": 6.2706849, "lon": 1.210088, "tags": {"bench": "no", "bus": "yes", "highway": "bus_stop", "name": "Hermann", "operator": "Sotral", "public_transport": "platform", "shelter": "no", "source": "SOTRAL;survey"}}, {"type": "node", "id": 7384839569, "lat": 6.2632943, "lon": 1.208244, "tags": {"bench": "no", "bus": "yes", "highway": "bus_stop", "name": "Togo Brik", "operator": "Sotral", "public_transport": "platform", "shelter": "no", "source": "SOTRAL;survey"}}, {"type": "node", "id": 7384839570, "lat": 6.2635995, "lon": 1.2084438, "tags": {"bench": "no", "bus": "yes", "highway": "bus_stop", "name": "Togo Brik", "operator": "Sotral", "public_transport": "platform", "shelter": "no", "source": "SOTRAL;survey"}}, {"type": "node", "id": 7384839571, "lat": 6.2600095, "lon": 1.2082909, "tags": {"bench": "no", "bus": "yes", "highway": "bus_stop", "name": "MRS Zongo", "operator": "Sotral", "public_transport": "platform", "shelter": "no", "source": "SOTRAL;survey"}}, {"type": "node", "id": 7384839572, "lat": 6.2591896, "lon": 1.2081501, "tags": {"bench": "no", "bus": "yes", "highway": "bus_stop", "name": "MRS Zongo", "operator": "Sotral", "public_transport": "platform", "shelter": "no", "source": "SOTRAL;survey"}}, {"type": "node", "id": 7384839573, "lat": 6.2540945, "lon": 1.2088367, "tags": {"bench": "no", "bus": "yes", "highway": "bus_stop", "name": "March\u00e9 Zongo", "operator": "Sotral", "public_transport": "platform", "shelter": "no", "source": "SOTRAL;survey"}}, {"type": "node", "id": 7384839574, "lat": 6.2529533, "lon": 1.2087174, "tags": {"bench": "no", "bus": "yes", "highway": "bus_stop", "name": "March\u00e9 Zongo", "operator": "Sotral", "public_transport": "platform", "shelter": "no", "source": "SOTRAL;survey"}}, {"type": "node", "id": 7384839575, "lat": 6.2490846, "lon": 1.209408, "tags": {"bench": "no", "bus": "yes", "highway": "bus_stop", "name": "FOPADESC", "operator": "Sotral", "public_transport": "platform", "shelter": "no", "source": "SOTRAL;survey"}}, {"type": "node", "id": 7384839576, "lat": 6.248498, "lon": 1.2092538, "tags": {"bench": "no", "bus": "yes", "highway": "bus_stop", "name": "FOPADESC", "operator": "Sotral", "public_transport": "platform", "shelter": "no", "source": "SOTRAL;survey"}}, {"type": "node", "id": 7384839577, "lat": 6.246327, "lon": 1.2096836, "tags": {"bench": "no", "bus": "yes", "highway": "bus_stop", "name": "Cin\u00e9ma Monou", "operator": "Sotral", "public_transport": "platform", "shelter": "no", "source": "SOTRAL;survey"}}, {"type": "node", "id": 7384839578, "lat": 6.2463183, "lon": 1.2095026, "tags": {"bench": "no", "bus": "yes", "highway": "bus_stop", "name": "Cin\u00e9ma Monou", "operator": "Sotral", "public_transport": "platform", "shelter": "no", "source": "SOTRAL;survey"}}, {"type": "node", "id": 7384839579, "lat": 6.2397479, "lon": 1.2102395, "tags": {"bench": "no", "bus": "yes", "highway": "bus_stop", "name": "Golf", "operator": "Sotral", "public_transport": "platform", "shelter": "no", "source": "SOTRAL;survey"}}, {"type": "node", "id": 7384839580, "lat": 6.2397685, "lon": 1.2104199, "tags": {"bench": "no", "bus": "yes", "highway": "bus_stop", "name": "Golf", "operator": "Sotral", "public_transport": "platform", "shelter": "no", "source": "SOTRAL;survey"}}, {"type": "node", "id": 7384839581, "lat": 6.2340452, "lon": 1.2106271, "tags": {"bench": "no", "bus": "yes", "highway": "bus_stop", "name": "Fil O'Parc", "operator": "Sotral", "public_transport": "platform", "shelter": "no", "source": "SOTRAL;survey"}}, {"type": "node", "id": 7384839582, "lat": 6.2332133, "lon": 1.2104394, "tags": {"bench": "no", "bus": "yes", "highway": "bus_stop", "name": "Fil O'Parc", "operator": "Sotral", "public_transport": "platform", "shelter": "no", "source": "SOTRAL;survey"}}, {"type": "node", "id": 7384839583, "lat": 6.2275073, "lon": 1.2110804, "tags": {"bench": "no", "bus": "yes", "highway": "bus_stop", "name": "Atchanv\u00e9", "operator": "Sotral", "public_transport": "platform", "shelter": "no", "source": "SOTRAL;survey"}}, {"type": "node", "id": 7384839584, "lat": 6.2259615, "lon": 1.2107029, "tags": {"bench": "no", "bus": "yes", "highway": "bus_stop", "name": "Atchanv\u00e9", "operator": "Sotral", "public_transport": "platform", "shelter": "no", "source": "SOTRAL;survey"}}, {"type": "node", "id": 7384867985, "lat": 6.2244103, "lon": 1.2102214, "tags": {"bench": "no", "bus": "yes", "highway": "bus_stop", "name": "CMS Ago\u00e8 Nyvi\u00e9", "operator": "Sotral", "public_transport": "platform", "shelter": "no", "source": "SOTRAL;survey"}}, {"type": "node", "id": 7384867986, "lat": 6.2240083, "lon": 1.209864, "tags": {"bench": "no", "bus": "yes", "highway": "bus_stop", "name": "CMS Ago\u00e8-Nyvi\u00e9", "operator": "Sotral", "public_transport": "platform", "shelter": "no", "source": "SOTRAL;survey"}}, {"type": "node", "id": 7384867987, "lat": 6.2210613, "lon": 1.2091841, "tags": {"bench": "no", "bus": "yes", "highway": "bus_stop", "name": "Stade JCA", "operator": "Sotral", "public_transport": "platform", "shelter": "no", "source": "SOTRAL;survey"}}, {"type": "node", "id": 7384867988, "lat": 6.2211666, "lon": 1.2088931, "tags": {"bench": "no", "bus": "yes", "highway": "bus_stop", "name": "Stade JCA", "operator": "Sotral", "public_transport": "platform", "shelter": "no", "source": "SOTRAL;survey"}}, {"type": "node", "id": 7384867989, "lat": 6.216747, "lon": 1.2088515, "tags": {"bench": "no", "bus": "yes", "highway": "bus_stop", "name": "Total Ago\u00e8", "operator": "Sotral", "public_transport": "platform", "shelter": "no", "source": "SOTRAL;survey"}}, {"type": "node", "id": 7384867990, "lat": 6.2150138, "lon": 1.208602, "tags": {"bench": "no", "bus": "yes", "highway": "bus_stop", "name": "Total Ago\u00e8", "operator": "Sotral", "public_transport": "platform", "shelter": "no", "source": "SOTRAL;survey"}}, {"type": "node", "id": 7384867991, "lat": 6.2049546, "lon": 1.2087013, "tags": {"bench": "no", "bus": "yes", "highway": "bus_stop", "name": "Cacav\u00e9li", "operator": "Sotral", "public_transport": "platform", "shelter": "no", "source": "SOTRAL;survey"}}, {"type": "node", "id": 7384867992, "lat": 6.2039426, "lon": 1.2084639, "tags": {"bench": "no", "bus": "yes", "highway": "bus_stop", "name": "Cacav\u00e9li", "operator": "Sotral", "public_transport": "platform", "shelter": "no", "source": "SOTRAL;survey"}}, {"type": "node", "id": 7384867993, "lat": 6.1957737, "lon": 1.2088294, "tags": {"bench": "no", "bus": "yes", "highway": "bus_stop", "name": "MRS GTA", "operator": "Sotral", "public_transport": "platform", "shelter": "no", "source": "SOTRAL;survey"}}, {"type": "node", "id": 7384867994, "lat": 6.1957817, "lon": 1.2090406, "tags": {"bench": "no", "bus": "yes", "highway": "bus_stop", "name": "MRS GTA", "operator": "Sotral", "public_transport": "platform", "shelter": "no", "source": "SOTRAL;survey"}}, {"type": "node", "id": 7384867995, "lat": 6.1914299, "lon": 1.2098989, "tags": {"bench": "no", "bus": "yes", "highway": "bus_stop", "name": "GTA", "operator": "Sotral", "public_transport": "platform", "shelter": "no", "source": "SOTRAL;survey"}}, {"type": "node", "id": 7384867996, "lat": 6.1913299, "lon": 1.2102194, "tags": {"bench": "no", "bus": "yes", "highway": "bus_stop", "name": "GTA", "operator": "Sotral", "public_transport": "platform", "shelter": "no", "source": "SOTRAL;survey"}}, {"type": "node", "id": 7384867997, "lat": 6.1892113, "lon": 1.2111783, "tags": {"bench": "no", "bus": "yes", "highway": "bus_stop", "name": "Campus Nord", "operator": "Sotral", "public_transport": "platform", "shelter": "no", "source": "SOTRAL;survey"}}, {"type": "node", "id": 7384867998, "lat": 6.1880394, "lon": 1.211464, "tags": {"bench": "no", "bus": "yes", "highway": "bus_stop", "name": "Campus Nord", "operator": "Sotral", "public_transport": "platform", "shelter": "no", "source": "SOTRAL;survey"}}, {"type": "node", "id": 7384867999, "lat": 6.1828595, "lon": 1.2141757, "tags": {"bench": "no", "bus": "yes", "highway": "bus_stop", "name": "CHU Campus", "operator": "Sotral", "public_transport": "platform", "shelter": "no", "source": "SOTRAL;survey"}}, {"type": "node", "id": 7384868000, "lat": 6.1818769, "lon": 1.2144144, "tags": {"bench": "no", "bus": "yes", "highway": "bus_stop", "name": "CHU Campus", "operator": "Sotral", "public_transport": "platform", "shelter": "no", "source": "SOTRAL;survey"}}, {"type": "node", "id": 7384868001, "lat": 6.172301, "lon": 1.219522, "tags": {"bench": "yes", "bus": "yes", "highway": "bus_stop", "name": "Campus Sud", "operator": "Sotral", "public_transport": "platform", "shelter": "yes", "source": "SOTRAL;survey"}}, {"type": "node", "id": 7384868002, "lat": 6.1709643, "lon": 1.2200041, "tags": {"bench": "yes", "bus": "yes", "highway": "bus_stop", "name": "Campus Sud", "operator": "Sotral", "public_transport": "platform", "shelter": "yes", "source": "SOTRAL;survey"}}, {"type": "node", "id": 7384868003, "lat": 6.165841, "lon": 1.222524, "tags": {"bench": "yes", "bus": "yes", "highway": "bus_stop", "name": "Bar 3K", "operator": "Sotral", "public_transport": "platform", "shelter": "yes", "source": "SOTRAL;survey"}}, {"type": "node", "id": 7384868004, "lat": 6.1642916, "lon": 1.2229371, "tags": {"bench": "no", "bus": "yes", "highway": "bus_stop", "name": "Bar 3K", "operator": "Sotral", "public_transport": "platform", "shelter": "no", "source": "SOTRAL;survey"}}, {"type": "node", "id": 7384868005, "lat": 6.1607502, "lon": 1.2246336, "tags": {"bench": "no", "bus": "yes", "highway": "bus_stop", "name": "Sazof", "operator": "Sotral", "public_transport": "platform", "shelter": "no", "source": "SOTRAL;survey"}}, {"type": "node", "id": 7384868006, "lat": 6.1607382, "lon": 1.2248871, "tags": {"bench": "no", "bus": "yes", "highway": "bus_stop", "name": "Sazof", "operator": "Sotral", "public_transport": "platform", "shelter": "no", "source": "SOTRAL;survey"}}, {"type": "node", "id": 7385335872, "lat": 6.1862648, "lon": 1.3772144, "tags": {"bench": "no", "bus": "yes", "highway": "bus_stop", "name": "Sainte-Catherine (Terminus)", "operator": "Sotral", "public_transport": "platform", "shelter": "no", "source": "SOTRAL;survey"}}, {"type": "node", "id": 7385335874, "lat": 6.1862701, "lon": 1.3771474, "tags": {"bench": "no", "bus": "yes", "highway": "bus_stop", "name": "Sainte-Catherine (Terminus)", "operator": "Sotral", "public_transport": "platform", "shelter": "no", "source": "SOTRAL;survey"}}, {"type": "node", "id": 7385335875, "lat": 6.1836982, "lon": 1.375827, "tags": {"bench": "no", "bus": "yes", "highway": "bus_stop", "name": "\u00c9glise de Pentec\u00f4te", "operator": "Sotral", "public_transport": "platform", "shelter": "no", "source": "SOTRAL;survey"}}, {"type": "node", "id": 7385335876, "lat": 6.1831169, "lon": 1.3755441, "tags": {"bench": "no", "bus": "yes", "highway": "bus_stop", "name": "\u00c9glise de Pentec\u00f4te", "operator": "Sotral", "public_transport": "platform", "shelter": "no", "source": "SOTRAL;survey"}}, {"type": "node", "id": 7385335878, "lat": 6.1795956, "lon": 1.3751632, "tags": {"bench": "no", "bus": "yes", "highway": "bus_stop", "name": "Bar le B\u00e9ton", "operator": "Sotral", "public_transport": "platform", "shelter": "no", "source": "SOTRAL;survey"}}, {"type": "node", "id": 7385335879, "lat": 6.1801182, "lon": 1.3752624, "tags": {"bench": "no", "bus": "yes", "highway": "bus_stop", "name": "Bar le B\u00e9ton", "operator": "Sotral", "public_transport": "platform", "shelter": "no", "source": "SOTRAL;survey"}}, {"type": "node", "id": 7385335880, "lat": 6.1785829, "lon": 1.3754053, "tags": {"bench": "no", "bus": "yes", "highway": "bus_stop", "name": "Kpogan Moto", "operator": "Sotral", "public_transport": "platform", "shelter": "no", "source": "SOTRAL;survey"}}, {"type": "node", "id": 7385335881, "lat": 6.1779256, "lon": 1.3750391, "tags": {"bench": "no", "bus": "yes", "highway": "bus_stop", "name": "Kpogan Moto", "operator": "Sotral", "public_transport": "platform", "shelter": "no", "source": "SOTRAL;survey"}}, {"type": "node", "id": 7385335882, "lat": 6.1770816, "lon": 1.3710219, "tags": {"bench": "no", "bus": "yes", "highway": "bus_stop", "name": "\u00c9glise du Christianisme C\u00e9leste", "operator": "Sotral", "public_transport": "platform", "shelter": "no", "source": "SOTRAL;survey"}}, {"type": "node", "id": 7385335883, "lat": 6.1771403, "lon": 1.3708797, "tags": {"bench": "no", "bus": "yes", "highway": "bus_stop", "name": "\u00c9glise du Christianisme C\u00e9leste", "operator": "Sotral", "public_transport": "platform", "shelter": "no", "source": "SOTRAL;survey"}}, {"type": "node", "id": 7385335884, "lat": 6.1763116, "lon": 1.3669302, "tags": {"bench": "no", "bus": "yes", "highway": "bus_stop", "name": "Bar Zangan", "operator": "Sotral", "public_transport": "platform", "shelter": "no", "source": "SOTRAL;survey"}}, {"type": "node", "id": 7385340385, "lat": 6.176209, "lon": 1.3659109, "tags": {"bench": "no", "bus": "yes", "highway": "bus_stop", "name": "Bar Zangan", "operator": "Sotral", "public_transport": "platform", "shelter": "no", "source": "SOTRAL;survey"}}, {"type": "node", "id": 7385340386, "lat": 6.1736797, "lon": 1.3574325, "tags": {"bench": "no", "bus": "yes", "highway": "bus_stop", "name": "Gendarmerie", "operator": "Sotral", "public_transport": "platform", "shelter": "no", "source": "SOTRAL;survey"}}, {"type": "node", "id": 7385340387, "lat": 6.172445, "lon": 1.3543063, "tags": {"bench": "no", "bus": "yes", "highway": "bus_stop", "name": "Ocean Mercure", "operator": "Sotral", "public_transport": "platform", "shelter": "no", "source": "SOTRAL;survey"}}, {"type": "node", "id": 7385340388, "lat": 6.1722717, "lon": 1.353562, "tags": {"bench": "no", "bus": "yes", "highway": "bus_stop", "name": "Ocean Mercure", "operator": "Sotral", "public_transport": "platform", "shelter": "no", "source": "SOTRAL;survey"}}, {"type": "node", "id": 7385340389, "lat": 6.1714337, "lon": 1.3515222, "tags": {"bench": "no", "bus": "yes", "highway": "bus_stop", "name": "Fucec Togo", "operator": "Sotral", "public_transport": "platform", "shelter": "no", "source": "SOTRAL;survey"}}, {"type": "node", "id": 7385340390, "lat": 6.1710363, "lon": 1.34981, "tags": {"bench": "no", "bus": "yes", "highway": "bus_stop", "name": "Fucec Togo", "operator": "Sotral", "public_transport": "platform", "shelter": "no", "source": "SOTRAL;survey"}}, {"type": "node", "id": 7385340391, "lat": 6.1699323, "lon": 1.3458634, "tags": {"bench": "no", "bus": "yes", "highway": "bus_stop", "name": "Pharmacie Av\u00e9pozo", "operator": "Sotral", "public_transport": "platform", "shelter": "no", "source": "SOTRAL;survey"}}, {"type": "node", "id": 7385340392, "lat": 6.169631, "lon": 1.3454732, "tags": {"bench": "no", "bus": "yes", "highway": "bus_stop", "name": "Pharmacie Av\u00e9pozo", "operator": "Sotral", "public_transport": "platform", "shelter": "no", "source": "SOTRAL;survey"}}, {"type": "node", "id": 7385340393, "lat": 6.1689563, "lon": 1.3430665, "tags": {"bench": "no", "bus": "yes", "highway": "bus_stop", "name": "\u00c9glise Saint-Joseph", "operator": "Sotral", "public_transport": "platform", "shelter": "no", "source": "SOTRAL;survey"}}, {"type": "node", "id": 7385340394, "lat": 6.1690963, "lon": 1.3429251, "tags": {"bench": "no", "bus": "yes", "highway": "bus_stop", "name": "\u00c9glise Saint-Joseph", "operator": "Sotral", "public_transport": "platform", "shelter": "no", "source": "SOTRAL;survey"}}, {"type": "node", "id": 7385340395, "lat": 6.1682603, "lon": 1.3399149, "tags": {"bench": "no", "bus": "yes", "highway": "bus_stop", "name": "Chez Alice", "operator": "Sotral", "public_transport": "platform", "shelter": "no", "source": "SOTRAL;survey"}}, {"type": "node", "id": 7385340396, "lat": 6.1680183, "lon": 1.3398016, "tags": {"bench": "no", "bus": "yes", "highway": "bus_stop", "name": "Chez Alice", "operator": "Sotral", "public_transport": "platform", "shelter": "no", "source": "SOTRAL;survey"}}, {"type": "node", "id": 7385340397, "lat": 6.1669576, "lon": 1.3359446, "tags": {"bench": "no", "bus": "yes", "highway": "bus_stop", "name": "Bateauvi", "operator": "Sotral", "public_transport": "platform", "shelter": "no", "source": "SOTRAL;survey"}}, {"type": "node", "id": 7385340398, "lat": 6.1668716, "lon": 1.3349743, "tags": {"bench": "no", "bus": "yes", "highway": "bus_stop", "name": "Bateauvi", "operator": "Sotral", "public_transport": "platform", "shelter": "no", "source": "SOTRAL;survey"}}, {"type": "node", "id": 7385340399, "lat": 6.1654543, "lon": 1.3306385, "tags": {"bench": "no", "bus": "yes", "highway": "bus_stop", "name": "MRS", "operator": "Sotral", "public_transport": "platform", "shelter": "no", "source": "SOTRAL;survey"}}, {"type": "node", "id": 7385340400, "lat": 6.1654343, "lon": 1.3299016, "tags": {"bench": "no", "bus": "yes", "highway": "bus_stop", "name": "MRS", "operator": "Sotral", "public_transport": "platform", "shelter": "no", "source": "SOTRAL;survey"}}, {"type": "node", "id": 7385340401, "lat": 6.1645676, "lon": 1.3276425, "tags": {"bench": "no", "bus": "yes", "highway": "bus_stop", "name": "Monument du Centenaire", "operator": "Sotral", "public_transport": "platform", "shelter": "no", "source": "SOTRAL;survey"}}, {"type": "node", "id": 7385340402, "lat": 6.1641236, "lon": 1.3253774, "tags": {"bench": "no", "bus": "yes", "highway": "bus_stop", "name": "Monument du Centenaire", "operator": "Sotral", "public_transport": "platform", "shelter": "no", "source": "SOTRAL;survey"}}, {"type": "node", "id": 7385340403, "lat": 6.1623403, "lon": 1.3196214, "tags": {"bench": "no", "bus": "yes", "highway": "bus_stop", "name": "Cit\u00e9 Baguida", "operator": "Sotral", "public_transport": "platform", "shelter": "no", "source": "SOTRAL;survey"}}, {"type": "node", "id": 7385340404, "lat": 6.1619956, "lon": 1.3176868, "tags": {"bench": "no", "bus": "yes", "highway": "bus_stop", "name": "Cit\u00e9 Baguida", "operator": "Sotral", "public_transport": "platform", "shelter": "no", "source": "SOTRAL;survey"}}, {"type": "node", "id": 7385340405, "lat": 6.1610956, "lon": 1.3142824, "tags": {"bench": "no", "bus": "yes", "highway": "bus_stop", "name": "Luxolin", "operator": "Sotral", "public_transport": "platform", "shelter": "no", "source": "SOTRAL;survey"}}, {"type": "node", "id": 7385340406, "lat": 6.1607649, "lon": 1.3136226, "tags": {"bench": "no", "bus": "yes", "highway": "bus_stop", "name": "Luxolin", "operator": "Sotral", "public_transport": "platform", "shelter": "no", "source": "SOTRAL;survey"}}, {"type": "node", "id": 7385340407, "lat": 6.1575008, "lon": 1.304601, "tags": {"bench": "no", "bus": "yes", "highway": "bus_stop", "name": "Shell Raffinerie", "operator": "Sotral", "public_transport": "platform", "shelter": "no", "source": "SOTRAL;survey"}}, {"type": "node", "id": 7385340408, "lat": 6.1572328, "lon": 1.3033377, "tags": {"bench": "no", "bus": "yes", "highway": "bus_stop", "name": "Shell Raffinerie", "operator": "Sotral", "public_transport": "platform", "shelter": "no", "source": "SOTRAL;survey"}}, {"type": "node", "id": 7385340409, "lat": 6.1547881, "lon": 1.2973329, "tags": {"bench": "no", "bus": "yes", "highway": "bus_stop", "name": "Vivalait", "operator": "Sotral", "public_transport": "platform", "shelter": "no", "source": "SOTRAL;survey"}}, {"type": "node", "id": 7385340410, "lat": 6.1544394, "lon": 1.2957712, "tags": {"bench": "no", "bus": "yes", "highway": "bus_stop", "name": "Vivalait", "operator": "Sotral", "public_transport": "platform", "shelter": "no", "source": "SOTRAL;survey"}}, {"type": "node", "id": 7385340411, "lat": 6.151272, "lon": 1.2876132, "tags": {"bench": "no", "bus": "yes", "highway": "bus_stop", "name": "Cimtogo", "operator": "Sotral", "public_transport": "platform", "shelter": "no", "source": "SOTRAL;survey"}}, {"type": "node", "id": 7385340412, "lat": 6.1510213, "lon": 1.2856592, "tags": {"bench": "no", "bus": "yes", "highway": "bus_stop", "name": "Cimtogo", "operator": "Sotral", "public_transport": "platform", "shelter": "no", "source": "SOTRAL;survey"}}, {"type": "node", "id": 7385340413, "lat": 6.1481058, "lon": 1.2787002, "tags": {"bench": "no", "bus": "yes", "highway": "bus_stop", "name": "Sotoma", "operator": "Sotral", "public_transport": "platform", "shelter": "no", "source": "SOTRAL;survey"}}, {"type": "node", "id": 7385340414, "lat": 6.1431223, "lon": 1.2757002, "tags": {"bench": "no", "bus": "yes", "highway": "bus_stop", "name": "Rond Point Port", "operator": "Sotral", "public_transport": "platform", "shelter": "no", "source": "SOTRAL;survey"}}, {"type": "node", "id": 7385376376, "lat": 6.1597315, "lon": 1.225457, "tags": {"bench": "no", "bus": "yes", "highway": "bus_stop", "name": "Garage Central", "operator": "Sotral", "public_transport": "platform", "shelter": "no", "source": "SOTRAL;survey"}}, {"type": "node", "id": 7385376378, "lat": 6.1434336, "lon": 1.2291048, "tags": {"bench": "no", "bus": "yes", "highway": "bus_stop", "name": "Lagune", "operator": "Sotral", "public_transport": "platform", "shelter": "no", "source": "SOTRAL;survey"}}, {"type": "node", "id": 7389641393, "lat": 6.1648516, "lon": 1.2415516, "tags": {"bench": "no", "bus": "yes", "highway": "bus_stop", "name": "Carrefour Hotel M\u00e9morial", "operator": "SOTRAL", "public_transport": "platform", "shelter": "no", "source": "SOTRAL;survey"}}, {"type": "node", "id": 7389641394, "lat": 6.1595635, "lon": 1.2433621, "tags": {"bench": "no", "bus": "yes", "highway": "bus_stop", "name": "Cerfer", "operator": "Sotral", "public_transport": "platform", "shelter": "no", "source": "SOTRAL;survey"}}, {"type": "node", "id": 7389641395, "lat": 6.1596555, "lon": 1.2431462, "tags": {"bench": "no", "bus": "yes", "highway": "bus_stop", "name": "Cerfer", "operator": "Sotral", "public_transport": "platform", "shelter": "no", "source": "SOTRAL;survey"}}, {"type": "node", "id": 7389641396, "lat": 6.1578255, "lon": 1.2428438, "tags": {"bench": "no", "bus": "yes", "highway": "bus_stop", "name": "SLM", "operator": "Sotral", "public_transport": "platform", "shelter": "no", "source": "SOTRAL;survey"}}, {"type": "node", "id": 7389641397, "lat": 6.1577068, "lon": 1.2426057, "tags": {"bench": "no", "bus": "yes", "highway": "bus_stop", "name": "SLM", "operator": "Sotral", "public_transport": "platform", "shelter": "no", "source": "SOTRAL;survey"}}, {"type": "node", "id": 7389641398, "lat": 6.1549641, "lon": 1.2425555, "tags": {"bench": "no", "bus": "yes", "highway": "bus_stop", "name": "Amina", "operator": "Sotral", "public_transport": "platform", "shelter": "no", "source": "SOTRAL;survey"}}, {"type": "node", "id": 7389641399, "lat": 6.1539847, "lon": 1.2422155, "tags": {"bench": "no", "bus": "yes", "highway": "bus_stop", "name": "Amina", "operator": "Sotral", "public_transport": "platform", "shelter": "no", "source": "SOTRAL;survey"}}, {"type": "node", "id": 7389641400, "lat": 6.1526247, "lon": 1.2415034, "tags": {"bench": "no", "bus": "yes", "highway": "bus_stop", "name": "Direction Moov", "operator": "Sotral", "public_transport": "platform", "shelter": "no", "source": "SOTRAL;survey"}}, {"type": "node", "id": 7389641401, "lat": 6.1525793, "lon": 1.2407953, "tags": {"bench": "no", "bus": "yes", "highway": "bus_stop", "name": "Direction Moov", "operator": "Sotral", "public_transport": "platform", "shelter": "no", "source": "SOTRAL;survey"}}, {"type": "node", "id": 7389641402, "lat": 6.1508919, "lon": 1.2363602, "tags": {"bench": "no", "bus": "yes", "highway": "bus_stop", "name": "BTCI", "operator": "Sotral", "public_transport": "platform", "shelter": "no", "source": "SOTRAL;survey"}}, {"type": "node", "id": 7389641403, "lat": 6.1506679, "lon": 1.2362871, "tags": {"bench": "no", "bus": "yes", "highway": "bus_stop", "name": "BTCI", "operator": "Sotral", "public_transport": "platform", "shelter": "no", "source": "SOTRAL;survey"}}, {"type": "node", "id": 7389641404, "lat": 6.1497106, "lon": 1.2329189, "tags": {"bench": "no", "bus": "yes", "highway": "bus_stop", "name": "Saint Joseph", "operator": "Sotral", "public_transport": "platform", "shelter": "no", "source": "SOTRAL;survey"}}, {"type": "node", "id": 7389641405, "lat": 6.1494952, "lon": 1.232471, "tags": {"bench": "no", "bus": "yes", "highway": "bus_stop", "name": "Saint Joseph", "operator": "Sotral", "public_transport": "platform", "shelter": "no", "source": "SOTRAL;survey"}}, {"type": "node", "id": 7433721768, "lat": 6.1653823, "lon": 1.2475987, "tags": {"bench": "no", "bus": "yes", "highway": "bus_stop", "name": "ASECNA", "operator": "Sotral", "public_transport": "platform", "shelter": "no", "source": "Sotral;Survey"}}, {"type": "node", "id": 7433721769, "lat": 6.1715743, "lon": 1.2522946, "tags": {"bench": "no", "bus": "yes", "highway": "bus_stop", "name": "Gendarmerie A\u00e9roport", "operator": "Sotral", "public_transport": "platform", "shelter": "no", "source": "Sotral;Survey"}}, {"type": "node", "id": 7433721770, "lat": 6.1762396, "lon": 1.2540333, "tags": {"bench": "no", "bus": "yes", "highway": "bus_stop", "name": "CETAP", "operator": "Sotral", "public_transport": "platform", "shelter": "no", "source": "Sotral;Survey"}}, {"type": "node", "id": 7433721771, "lat": 6.1772503, "lon": 1.2540749, "tags": {"bench": "no", "bus": "yes", "highway": "bus_stop", "name": "CETAP", "operator": "Sotral", "public_transport": "platform", "shelter": "no", "source": "Sotral;Survey"}}, {"type": "node", "id": 7433721772, "lat": 6.1807822, "lon": 1.2549218, "tags": {"bench": "no", "bus": "yes", "highway": "bus_stop", "name": "Maison du Hadj", "operator": "Sotral", "public_transport": "platform", "shelter": "no", "source": "Sotral;Survey"}}, {"type": "node", "id": 7433721773, "lat": 6.1810756, "lon": 1.255188, "tags": {"bench": "no", "bus": "yes", "highway": "bus_stop", "name": "Maison du Hadj", "operator": "Sotral", "public_transport": "platform", "shelter": "no", "source": "Sotral;Survey"}}, {"type": "node", "id": 7433721774, "lat": 6.1871707, "lon": 1.2565472, "tags": {"bench": "no", "bus": "yes", "highway": "bus_stop", "name": "Togo 2000", "operator": "Sotral", "public_transport": "platform", "shelter": "no", "source": "Sotral;Survey"}}, {"type": "node", "id": 7433721775, "lat": 6.1875487, "lon": 1.2568382, "tags": {"bench": "no", "bus": "yes", "highway": "bus_stop", "name": "Togo 2000", "operator": "Sotral", "public_transport": "platform", "shelter": "no", "source": "Sotral;Survey"}}, {"type": "node", "id": 7433721777, "lat": 6.1871514, "lon": 1.2605551, "tags": {"bench": "no", "bus": "yes", "highway": "bus_stop", "name": "Legbanou", "operator": "Sotral", "public_transport": "platform", "shelter": "no", "source": "Sotral;Survey"}}, {"type": "node", "id": 7433721778, "lat": 6.1874474, "lon": 1.2602292, "tags": {"bench": "no", "bus": "yes", "highway": "bus_stop", "name": "Legbanou", "operator": "Sotral", "public_transport": "platform", "shelter": "no", "source": "Sotral;Survey"}}, {"type": "node", "id": 7433721779, "lat": 6.1870008, "lon": 1.2663661, "tags": {"bench": "no", "bus": "yes", "highway": "bus_stop", "name": "Papa Kope", "operator": "Sotral", "public_transport": "platform", "shelter": "no", "source": "Sotral;Survey"}}, {"type": "node", "id": 7433721780, "lat": 6.1872367, "lon": 1.2664372, "tags": {"bench": "no", "bus": "yes", "highway": "bus_stop", "name": "Papa Kope", "operator": "Sotral", "public_transport": "platform", "shelter": "no", "source": "Sotral;Survey"}}, {"type": "node", "id": 7433721781, "lat": 6.1878381, "lon": 1.2716018, "tags": {"bench": "no", "bus": "yes", "highway": "bus_stop", "name": "Institut les savoirs", "operator": "Sotral", "public_transport": "platform", "shelter": "no", "source": "Sotral;Survey"}}, {"type": "node", "id": 7433721783, "lat": 6.1876621, "lon": 1.2711552, "tags": {"bench": "no", "bus": "yes", "highway": "bus_stop", "name": "Institut les savoirs", "operator": "Sotral", "public_transport": "platform", "shelter": "no", "source": "Sotral;Survey"}}, {"type": "node", "id": 7433721784, "lat": 6.1958204, "lon": 1.2687533, "tags": {"bench": "no", "bus": "yes", "highway": "bus_stop", "name": "Koklovikope", "operator": "Sotral", "public_transport": "platform", "shelter": "no", "source": "Sotral;Survey"}}, {"type": "node", "id": 7433758685, "lat": 6.196427, "lon": 1.2685682, "tags": {"bench": "no", "bus": "yes", "highway": "bus_stop", "name": "Koklovikope", "operator": "Sotral", "public_transport": "platform", "shelter": "no", "source": "Sotral;Survey"}}, {"type": "node", "id": 7433758686, "lat": 6.1990256, "lon": 1.2647648, "tags": {"bench": "no", "bus": "yes", "highway": "bus_stop", "name": "Arr\u00eat DVA", "operator": "Sotral", "public_transport": "platform", "shelter": "no", "source": "Sotral;Survey"}}, {"type": "node", "id": 7433758688, "lat": 6.1694583, "lon": 1.2923768, "tags": {"bench": "no", "highway": "bus_stop", "name": "Eglise des AD Adakpam\u00e9", "operator": "Sotral", "public_transport": "platform", "shelter": "no", "source": "Sotral;survey;bing"}}, {"type": "node", "id": 7437331379, "lat": 6.1692837, "lon": 1.2925109, "tags": {"bench": "no", "highway": "bus_stop", "name": "Eglise des AD Adakpam\u00e9", "operator": "Sotral", "public_transport": "platform", "shelter": "no", "source": "Sotral;survey;bing"}}, {"type": "node", "id": 7437331380, "lat": 6.1698223, "lon": 1.2910491, "tags": {"bench": "no", "highway": "bus_stop", "name": "Total Adakpam\u00e9", "operator": "Sotral", "public_transport": "platform", "shelter": "no", "source": "SOTRAL; Survey; Bing"}}, {"type": "node", "id": 7437331382, "lat": 6.1701423, "lon": 1.2904483, "tags": {"bench": "no", "highway": "bus_stop", "name": "Total Adakpam\u00e9", "operator": "Sotral", "public_transport": "platform", "shelter": "no", "source": "SOTRAL; Survey; Bing"}}, {"type": "node", "id": 7437331383, "lat": 6.170641, "lon": 1.2887424, "tags": {"bench": "no", "highway": "bus_stop", "name": "Bar le S\u00e9nateur", "operator": "Sotral", "public_transport": "platform", "shelter": "no", "source": "SOTRAL; Survey; Bing"}}, {"type": "node", "id": 7437341486, "lat": 6.1709797, "lon": 1.2881228, "tags": {"bench": "no", "highway": "bus_stop", "name": "Bar le S\u00e9nateur", "operator": "Sotral", "public_transport": "platform", "shelter": "no", "source": "SOTRAL; Survey; Bing"}}, {"type": "node", "id": 7437341487, "lat": 6.170929, "lon": 1.2848586, "tags": {"bench": "no", "highway": "bus_stop", "name": "Eglise Catholique", "operator": "Sotral", "public_transport": "platform", "shelter": "no", "source": "SOTRAL; Survey; Bing"}}, {"type": "node", "id": 7437341489, "lat": 6.1709557, "lon": 1.2849686, "tags": {"bench": "no", "highway": "bus_stop", "name": "Eglise Catholique", "operator": "Sotral", "public_transport": "platform", "shelter": "no", "source": "SOTRAL; Survey; Bing"}}, {"type": "node", "id": 7437341491, "lat": 6.1708863, "lon": 1.2841156, "tags": {"bench": "no", "highway": "bus_stop", "name": "Eglise Catholique", "operator": "Sotral", "public_transport": "platform", "shelter": "no", "source": "SOTRAL; Survey; Bing"}}, {"type": "node", "id": 7437341494, "lat": 6.170177, "lon": 1.2815192, "tags": {"bench": "no", "highway": "bus_stop", "name": "EPP Adakpam\u00e9", "operator": "Sotral", "public_transport": "platform", "shelter": "no", "source": "SOTRAL; Survey; Bing"}}, {"type": "node", "id": 7437341495, "lat": 6.170337, "lon": 1.28153, "tags": {"bench": "no", "highway": "bus_stop", "name": "EPP Adakpam\u00e9", "operator": "Sotral", "public_transport": "platform", "shelter": "no", "source": "SOTRAL; Survey; Bing"}}, {"type": "node", "id": 7437341496, "lat": 6.1656196, "lon": 1.2715736, "tags": {"bench": "no", "highway": "bus_stop", "name": "Arr\u00eat Wages", "operator": "Sotral", "public_transport": "platform", "shelter": "no", "source": "SOTRAL; Survey; Bing"}}, {"type": "node", "id": 7437341499, "lat": 6.165353, "lon": 1.2708145, "tags": {"bench": "no", "highway": "bus_stop", "name": "Arr\u00eat Wages", "operator": "Sotral", "public_transport": "platform", "shelter": "no", "source": "SOTRAL; Survey; Bing"}}, {"type": "node", "id": 7437341500, "lat": 6.1640623, "lon": 1.2690818, "tags": {"bench": "no", "highway": "bus_stop", "name": "Arr\u00eat Wages", "operator": "Sotral", "public_transport": "platform", "shelter": "no", "source": "SOTRAL; Survey; Bing"}}, {"type": "node", "id": 7437341503, "lat": 6.1638703, "lon": 1.2684569, "tags": {"bench": "no", "highway": "bus_stop", "name": "Arr\u00eat Wages", "operator": "Sotral", "public_transport": "platform", "shelter": "no", "source": "SOTRAL; Survey; Bing"}}, {"type": "node", "id": 7437341504, "lat": 6.1533034, "lon": 1.2663876, "tags": {"bench": "no", "highway": "bus_stop", "name": "Arr\u00eat Wages", "operator": "Sotral", "public_transport": "platform", "shelter": "no", "source": "SOTRAL; Survey; Bing"}}, {"type": "node", "id": 7437341505, "lat": 6.153346, "lon": 1.2662078, "tags": {"bench": "no", "highway": "bus_stop", "name": "Arr\u00eat Wages", "operator": "Sotral", "public_transport": "platform", "shelter": "no", "source": "SOTRAL; Survey; Bing"}}, {"type": "node", "id": 7437341506, "lat": 6.1521433, "lon": 1.2622838, "tags": {"bench": "no", "highway": "bus_stop", "name": "Arr\u00eat Phamacie des Oliviers", "operator": "Sotral", "public_transport": "platform", "shelter": "no", "source": "SOTRAL; Survey; Bing"}}, {"type": "node", "id": 7437341507, "lat": 6.1520687, "lon": 1.2617835, "tags": {"bench": "no", "highway": "bus_stop", "name": "Arr\u00eat Phamacie des Oliviers", "operator": "Sotral", "public_transport": "platform", "shelter": "no", "source": "SOTRAL; Survey; Bing"}}, {"type": "node", "id": 7437341508, "lat": 6.1511393, "lon": 1.2588733, "tags": {"bench": "no", "highway": "bus_stop", "name": "Arr\u00eat Maison Papa KLOUVI", "operator": "Sotral", "public_transport": "platform", "shelter": "no", "source": "SOTRAL; Survey; Bing"}}, {"type": "node", "id": 7437341509, "lat": 6.15109, "lon": 1.2583248, "tags": {"bench": "no", "highway": "bus_stop", "name": "Arr\u00eat Maison Papa KLOUVI", "operator": "Sotral", "public_transport": "platform", "shelter": "no", "source": "SOTRAL; Survey; Bing"}}, {"type": "node", "id": 7437341510, "lat": 6.1499472, "lon": 1.2547038, "tags": {"bench": "no", "highway": "bus_stop", "name": "Arr\u00eat Phamacie Biova", "operator": "Sotral", "public_transport": "platform", "shelter": "no", "source": "SOTRAL; Survey; Bing"}}, {"type": "node", "id": 7437341511, "lat": 6.1498646, "lon": 1.2541661, "tags": {"bench": "no", "highway": "bus_stop", "name": "Arr\u00eat Phamacie Biova", "operator": "Sotral", "public_transport": "platform", "shelter": "no", "source": "SOTRAL; Survey; Bing"}}, {"type": "node", "id": 7437341512, "lat": 6.1488459, "lon": 1.2510373, "tags": {"bench": "no", "highway": "bus_stop", "name": "Arr\u00eat MRS", "operator": "Sotral", "public_transport": "platform", "shelter": "no", "source": "SOTRAL; Survey; Bing"}}, {"type": "node", "id": 7437341513, "lat": 6.1483032, "lon": 1.2498759, "tags": {"bench": "no", "highway": "bus_stop", "name": "Arr\u00eat MRS", "operator": "Sotral", "public_transport": "platform", "shelter": "no", "source": "SOTRAL; Survey; Bing"}}, {"type": "node", "id": 7437341514, "lat": 6.1470978, "lon": 1.2484999, "tags": {"bench": "no", "highway": "bus_stop", "name": "Arr\u00eat Epp Aklassou", "operator": "Sotral", "public_transport": "platform", "shelter": "no", "source": "SOTRAL; Survey; Bing"}}, {"type": "node", "id": 7437341515, "lat": 6.1471325, "lon": 1.2486836, "tags": {"bench": "no", "highway": "bus_stop", "name": "Arr\u00eat Epp Aklassou", "operator": "Sotral", "public_transport": "platform", "shelter": "no", "source": "SOTRAL; Survey; Bing"}}, {"type": "node", "id": 7437341516, "lat": 6.1441856, "lon": 1.2449527, "tags": {"bench": "no", "highway": "bus_stop", "name": "Arr\u00eat Banque Atlantique", "operator": "Sotral", "public_transport": "platform", "shelter": "no", "source": "SOTRAL; Survey; Bing"}}, {"type": "node", "id": 7437341517, "lat": 6.1441603, "lon": 1.2448052, "tags": {"bench": "no", "highway": "bus_stop", "name": "Arr\u00eat Banque Atlantique", "operator": "Sotral", "public_transport": "platform", "shelter": "no", "source": "SOTRAL; Survey; Bing"}}, {"type": "node", "id": 7437464229, "lat": 6.1428576, "lon": 1.2430094, "tags": {"bench": "no", "highway": "bus_stop", "name": "March\u00e9 B\u00e8", "operator": "Sotral", "public_transport": "platform", "shelter": "no", "source": "SOTRAL; Survey; Bing"}}, {"type": "node", "id": 7437464230, "lat": 6.1428282, "lon": 1.2432387, "tags": {"bench": "no", "highway": "bus_stop", "name": "March\u00e9 B\u00e8", "operator": "Sotral", "public_transport": "platform", "shelter": "no", "source": "SOTRAL; Survey; Bing"}}, {"type": "node", "id": 7438444843, "lat": 6.1852541, "lon": 1.2709594, "tags": {"bench": "no", "highway": "bus_stop", "name": "Arr\u00eat Station Taxi", "operator": "Sotral", "public_transport": "platform", "shelter": "no", "source": "SOTRAL; Survey; Bing"}}, {"type": "node", "id": 7438444844, "lat": 6.1846782, "lon": 1.2714757, "tags": {"bench": "no", "highway": "bus_stop", "name": "Arr\u00eat Station Taxi", "operator": "Sotral", "public_transport": "platform", "shelter": "no", "source": "SOTRAL; Survey; Bing"}}, {"type": "node", "id": 7438444845, "lat": 6.1824235, "lon": 1.2703545, "tags": {"bench": "no", "highway": "bus_stop", "name": "Arr\u00eat Eglise Baptiste Atti\u00e9gou", "operator": "Sotral", "public_transport": "platform", "shelter": "no", "source": "SOTRAL; Survey; Bing"}}, {"type": "node", "id": 7438444846, "lat": 6.1822955, "lon": 1.2705249, "tags": {"bench": "no", "highway": "bus_stop", "name": "Arr\u00eat Eglise Baptiste Atti\u00e9gou", "operator": "Sotral", "public_transport": "platform", "shelter": "no", "source": "SOTRAL; Survey; Bing"}}, {"type": "node", "id": 7438444847, "lat": 6.1777863, "lon": 1.2678105, "tags": {"bench": "no", "highway": "bus_stop", "name": "Arr\u00eat AD Atti\u00e9gou", "operator": "Sotral", "public_transport": "platform", "shelter": "no", "source": "SOTRAL; Survey; Bing"}}, {"type": "node", "id": 7438444848, "lat": 6.1770616, "lon": 1.2675751, "tags": {"bench": "no", "highway": "bus_stop", "name": "Arr\u00eat AD Atti\u00e9gou", "operator": "Sotral", "public_transport": "platform", "shelter": "no", "source": "SOTRAL; Survey; Bing"}}, {"type": "node", "id": 7438444849, "lat": 6.173025, "lon": 1.2674242, "tags": {"bench": "no", "highway": "bus_stop", "name": "Arr\u00eat Eglise Evang\u00e9lique la Gr\u00e2ce", "operator": "Sotral", "public_transport": "platform", "shelter": "no", "source": "SOTRAL; Survey; Bing"}}, {"type": "node", "id": 7438444850, "lat": 6.1728297, "lon": 1.2672117, "tags": {"bench": "no", "highway": "bus_stop", "name": "Arr\u00eat Eglise Evang\u00e9lique la Gr\u00e2ce", "operator": "Sotral", "public_transport": "platform", "shelter": "no", "source": "SOTRAL; Survey; Bing"}}, {"type": "node", "id": 7438444851, "lat": 6.1705437, "lon": 1.2671681, "tags": {"bench": "no", "bus": "yes", "highway": "bus_stop", "name": "Arr\u00eat Attissap\u00e9", "operator": "Sotral", "public_transport": "platform", "shelter": "no", "source": "SOTRAL; Survey; Bing"}}, {"type": "node", "id": 7438444852, "lat": 6.1696283, "lon": 1.2669166, "tags": {"bench": "no", "bus": "yes", "highway": "bus_stop", "name": "Arr\u00eat Attissap\u00e9", "operator": "Sotral", "public_transport": "platform", "shelter": "no", "source": "SOTRAL; Survey; Bing"}}, {"type": "node", "id": 7438444853, "lat": 6.167349, "lon": 1.2668771, "tags": {"bench": "no", "highway": "bus_stop", "name": "Arr\u00eat Pharmacie Fid\u00e9lia", "operator": "Sotral", "public_transport": "platform", "shelter": "no", "source": "SOTRAL; Survey; Bing"}}, {"type": "node", "id": 7438444854, "lat": 6.1666763, "lon": 1.2666802, "tags": {"bench": "no", "highway": "bus_stop", "name": "Arr\u00eat Pharmacie Fid\u00e9lia", "operator": "Sotral", "public_transport": "platform", "shelter": "no", "source": "SOTRAL; Survey; Bing"}}, {"type": "node", "id": 7438444855, "lat": 6.1595969, "lon": 1.261807, "tags": {"bench": "no", "highway": "bus_stop", "name": "Arr\u00eat Mosqu\u00e9e", "operator": "Sotral", "public_transport": "platform", "shelter": "no", "source": "SOTRAL; Survey; Bing"}}, {"type": "node", "id": 7438444856, "lat": 6.1594409, "lon": 1.2618432, "tags": {"bench": "no", "highway": "bus_stop", "name": "Arr\u00eat Mosqu\u00e9e", "operator": "Sotral", "public_transport": "platform", "shelter": "no", "source": "SOTRAL; Survey; Bing"}}, {"type": "node", "id": 7438444857, "lat": 6.1590329, "lon": 1.2594058, "tags": {"bench": "no", "highway": "bus_stop", "name": "Arr\u00eat Bar au Charlet", "operator": "Sotral", "public_transport": "platform", "shelter": "no", "source": "SOTRAL; Survey; Bing"}}, {"type": "node", "id": 7438444858, "lat": 6.1588929, "lon": 1.2596096, "tags": {"bench": "no", "highway": "bus_stop", "name": "Arr\u00eat Bar au Charlet", "operator": "Sotral", "public_transport": "platform", "shelter": "no", "source": "SOTRAL; Survey; Bing"}}, {"type": "node", "id": 7438444859, "lat": 6.1581448, "lon": 1.2556118, "tags": {"bench": "no", "highway": "bus_stop", "name": "Arr\u00eat EPP Catholique", "operator": "Sotral", "public_transport": "platform", "shelter": "no", "source": "SOTRAL; Survey; Bing"}}, {"type": "node", "id": 7438444860, "lat": 6.1579488, "lon": 1.2556118, "tags": {"bench": "no", "highway": "bus_stop", "name": "Arr\u00eat EPP Catholique", "operator": "Sotral", "public_transport": "platform", "shelter": "no", "source": "SOTRAL; Survey; Bing"}}, {"type": "node", "id": 7438444861, "lat": 6.1569821, "lon": 1.2524843, "tags": {"bench": "no", "highway": "bus_stop", "name": "Arr\u00eat Pharmacie Mis\u00e9ricorde", "operator": "Sotral", "public_transport": "platform", "shelter": "no", "source": "SOTRAL; Survey; Bing"}}, {"type": "node", "id": 7438444862, "lat": 6.1567875, "lon": 1.2524655, "tags": {"bench": "no", "highway": "bus_stop", "name": "Arr\u00eat Pharmacie Mis\u00e9ricorde", "operator": "Sotral", "public_transport": "platform", "shelter": "no", "source": "SOTRAL; Survey; Bing"}}, {"type": "node", "id": 7438444863, "lat": 6.1556814, "lon": 1.2499228, "tags": {"bench": "no", "highway": "bus_stop", "name": "Arr\u00eat Complexe Scolaire Carolle", "operator": "Sotral", "public_transport": "platform", "shelter": "no", "source": "SOTRAL; Survey; Bing"}}, {"type": "node", "id": 7438444864, "lat": 6.1555374, "lon": 1.2491664, "tags": {"bench": "no", "highway": "bus_stop", "name": "Arr\u00eat Complexe Scolaire Carolle", "operator": "Sotral", "public_transport": "platform", "shelter": "no", "source": "SOTRAL; Survey; Bing"}}, {"type": "node", "id": 7438444865, "lat": 6.152794, "lon": 1.244946, "tags": {"bench": "no", "bus": "yes", "highway": "bus_stop", "name": "Arr\u00eat Y\u00e9souvito", "operator": "Sotral", "public_transport": "platform", "shelter": "no", "source": "SOTRAL; Survey; Bing"}}, {"type": "node", "id": 7438444866, "lat": 6.1527553, "lon": 1.244718, "tags": {"bench": "no", "bus": "yes", "highway": "bus_stop", "name": "Arr\u00eat Y\u00e9souvito", "operator": "Sotral", "public_transport": "platform", "shelter": "no", "source": "SOTRAL; Survey; Bing"}}, {"type": "node", "id": 7438444867, "lat": 6.1482065, "lon": 1.2442265, "tags": {"bench": "no", "highway": "bus_stop", "name": "Arr\u00eat EPC B\u00e8 Lagune", "operator": "Sotral", "public_transport": "platform", "shelter": "no", "source": "SOTRAL; Survey; Bing"}}, {"type": "node", "id": 7438444868, "lat": 6.1480392, "lon": 1.2441152, "tags": {"bench": "no", "highway": "bus_stop", "name": "Arr\u00eat EPC B\u00e8 Lagune", "operator": "Sotral", "public_transport": "platform", "shelter": "no", "source": "SOTRAL; Survey; Bing"}}, {"type": "node", "id": 7438444869, "lat": 6.1441216, "lon": 1.2436491, "tags": {"bench": "no", "highway": "bus_stop", "name": "Arr\u00eat EPP Aklassou", "operator": "Sotral", "public_transport": "platform", "shelter": "no", "source": "SOTRAL; Survey; Bing"}}, {"type": "node", "id": 7438444870, "lat": 6.1439456, "lon": 1.2436545, "tags": {"bench": "no", "highway": "bus_stop", "name": "Arr\u00eat EPP Aklassou", "operator": "Sotral", "public_transport": "platform", "shelter": "no", "source": "SOTRAL; Survey; Bing"}}, {"type": "node", "id": 7446745025, "lat": 6.2056132, "lon": 1.2499684, "tags": {"bench": "no", "bus": "yes", "highway": "bus_stop", "name": "Voie de Contournement", "operator": "SOTRAL", "public_transport": "platform", "shelter": "no", "source": "SOTRAL;survey"}}, {"type": "node", "id": 7446745026, "lat": 6.2056332, "lon": 1.2497773, "tags": {"bench": "no", "bus": "yes", "highway": "bus_stop", "name": "Voie de Contournement", "operator": "SOTRAL", "public_transport": "platform", "shelter": "no", "source": "SOTRAL;survey"}}, {"type": "node", "id": 7446745027, "lat": 6.2007682, "lon": 1.2482796, "tags": {"bench": "no", "bus": "yes", "highway": "bus_stop", "name": "Rond point Tinga", "operator": "SOTRAL", "public_transport": "platform", "shelter": "no", "source": "SOTRAL;survey"}}, {"type": "node", "id": 7446745028, "lat": 6.2008095, "lon": 1.2481348, "tags": {"bench": "no", "bus": "yes", "highway": "bus_stop", "name": "Rond point Tinga", "operator": "SOTRAL", "public_transport": "platform", "shelter": "no", "source": "SOTRAL;survey"}}, {"type": "node", "id": 7446745029, "lat": 6.1947231, "lon": 1.245583, "tags": {"bench": "no", "bus": "yes", "highway": "bus_stop", "name": "Sagbovile", "operator": "SOTRAL", "public_transport": "platform", "shelter": "no", "source": "SOTRAL;survey"}}, {"type": "node", "id": 7446745030, "lat": 6.1928245, "lon": 1.2450117, "tags": {"bench": "no", "bus": "yes", "highway": "bus_stop", "name": "Maison de la Sage Femme", "operator": "SOTRAL", "public_transport": "platform", "shelter": "no", "source": "SOTRAL;survey"}}, {"type": "node", "id": 7446745031, "lat": 6.1920499, "lon": 1.2445047, "tags": {"bench": "no", "bus": "yes", "highway": "bus_stop", "name": "Maison de la Sage Femme", "operator": "SOTRAL", "public_transport": "platform", "shelter": "no", "source": "SOTRAL;survey"}}, {"type": "node", "id": 7446745032, "lat": 6.1881274, "lon": 1.2430537, "tags": {"bench": "no", "bus": "yes", "highway": "bus_stop", "name": "Eglise N\u00e9o Apostolique", "operator": "SOTRAL", "public_transport": "platform", "shelter": "no", "source": "SOTRAL;survey"}}, {"type": "node", "id": 7446745033, "lat": 6.1875347, "lon": 1.2426373, "tags": {"bench": "no", "bus": "yes", "highway": "bus_stop", "name": "Eglise N\u00e9o Apostolique", "operator": "SOTRAL", "public_transport": "platform", "shelter": "no", "source": "SOTRAL;survey"}}, {"type": "node", "id": 7446745034, "lat": 6.1847541, "lon": 1.2416723, "tags": {"bench": "no", "bus": "yes", "highway": "bus_stop", "name": "Bar Blessing", "operator": "SOTRAL", "public_transport": "platform", "shelter": "no", "source": "SOTRAL;survey"}}, {"type": "node", "id": 7446745035, "lat": 6.1842435, "lon": 1.241266, "tags": {"bench": "no", "bus": "yes", "highway": "bus_stop", "name": "Bar Blessing", "operator": "SOTRAL", "public_transport": "platform", "shelter": "no", "source": "SOTRAL;survey"}}, {"type": "node", "id": 7446745036, "lat": 6.1818842, "lon": 1.2404727, "tags": {"bench": "no", "bus": "yes", "highway": "bus_stop", "name": "March\u00e9 H\u00e9dzranawo\u00e9", "operator": "SOTRAL", "public_transport": "platform", "shelter": "no", "source": "SOTRAL;survey"}}, {"type": "node", "id": 7446745037, "lat": 6.1817896, "lon": 1.2402494, "tags": {"bench": "no", "bus": "yes", "highway": "bus_stop", "name": "March\u00e9 H\u00e9dzranawo\u00e9", "operator": "SOTRAL", "public_transport": "platform", "shelter": "no", "source": "SOTRAL;survey"}}, {"type": "node", "id": 7446745038, "lat": 6.1784569, "lon": 1.2404788, "tags": {"bench": "no", "bus": "yes", "highway": "bus_stop", "name": "Grand S\u00e9minaire", "operator": "SOTRAL", "public_transport": "platform", "shelter": "no", "source": "SOTRAL;survey"}}, {"type": "node", "id": 7510792252, "lat": 6.1889894, "lon": 1.1638309, "tags": {"bench": "no", "bus": "yes", "highway": "bus_stop", "name": "Camp du 2\u00e8me RI", "operator": "SOTRAL", "public_transport": "platform", "shelter": "no", "source": "SOTRAL;survey"}}, {"type": "node", "id": 7510792253, "lat": 6.18904, "lon": 1.1633659, "tags": {"bench": "no", "bus": "yes", "highway": "bus_stop", "name": "Camp du 2\u00e8me RI", "operator": "SOTRAL", "public_transport": "platform", "shelter": "no", "source": "SOTRAL;survey"}}, {"type": "node", "id": 7510792254, "lat": 6.1888754, "lon": 1.15867, "tags": {"bench": "no", "bin": "no", "bus": "yes", "covered": "no", "highway": "bus_stop", "name": "Lyc\u00e9e Moderne Adidogom\u00e9", "network": "SOTRAL", "operator": "SOTRAL", "public_transport": "platform", "route_ref": "L3:BIA - S\u00e9gb\u00e9", "shelter": "no", "source": "SOTRAL;survey"}}, {"type": "node", "id": 7510792255, "lat": 6.1890727, "lon": 1.1576092, "tags": {"bench": "no", "bin": "no", "bus": "yes", "covered": "no", "highway": "bus_stop", "name": "Lyc\u00e9e Moderne Adidogom\u00e9", "network": "SOTRAL", "operator": "SOTRAL", "public_transport": "platform", "route_ref": "L3:BIA - S\u00e9gb\u00e9", "shelter": "no", "source": "SOTRAL;survey"}}, {"type": "node", "id": 7511503340, "lat": 6.1764242, "lon": 1.2115344, "tags": {"bench": "no", "bin": "yes", "bus": "yes", "highway": "bus_stop", "lit": "yes", "name": "Arr\u00eat March\u00e9 Gayobor", "operator": "SOTRAL", "public_transport": "platform", "shelter": "no", "source": "Sotral;Survey"}}, {"type": "node", "id": 7511503341, "lat": 6.1768875, "lon": 1.2115232, "tags": {"bench": "no", "bin": "no", "bus": "yes", "highway": "bus_stop", "lit": "yes", "name": "Arr\u00eat March\u00e9 Gayobor", "operator": "SOTRAL", "public_transport": "platform", "shelter": "no", "source": "Sotral;Survey"}}, {"type": "node", "id": 7511503342, "lat": 6.1825262, "lon": 1.2092632, "tags": {"bench": "no", "bus": "yes", "highway": "bus_stop", "name": "Terminus Campus Nord", "operator": "SOTRAL", "public_transport": "platform", "shelter": "no", "source": "SOTRAL;survey"}}, {"type": "node", "id": 7511515439, "lat": 6.152028, "lon": 1.2207846, "tags": {"bench": "no", "highway": "bus_stop", "name": "Arr\u00eat SOTED", "operator": "SOTRAL", "public_transport": "platform", "shelter": "no", "source": "SOTRAL; Survey; Bing"}}, {"type": "node", "id": 7511515440, "lat": 6.152518, "lon": 1.2214404, "tags": {"bench": "no", "highway": "bus_stop", "name": "Arr\u00eat SOTED", "operator": "SOTRAL", "public_transport": "platform", "shelter": "no", "source": "SOTRAL; Survey; Bing"}}, {"type": "node", "id": 7511515441, "lat": 6.1487565, "lon": 1.2185919, "tags": {"bench": "no", "highway": "bus_stop", "name": "Arr\u00eat RAMCO", "operator": "SOTRAL", "public_transport": "platform", "shelter": "no", "source": "SOTRAL; Survey; Bing"}}, {"type": "node", "id": 7511515442, "lat": 6.1491085, "lon": 1.2185879, "tags": {"bench": "no", "highway": "bus_stop", "name": "Arr\u00eat RAMCO", "operator": "SOTRAL", "public_transport": "platform", "shelter": "no", "source": "SOTRAL; Survey; Bing"}}, {"type": "node", "id": 7511515444, "lat": 6.1396614, "lon": 1.2212896, "tags": {"bench": "no", "bus": "yes", "highway": "bus_stop", "name": "Arr\u00eat Shell le Togo", "operator": "SOTRAL", "public_transport": "platform", "shelter": "no", "source": "SOTRAL; Survey; Bing"}}, {"type": "node", "id": 7511673235, "lat": 6.1656943, "lon": 1.2413773, "tags": {"bench": "no", "bus": "yes", "highway": "bus_stop", "name": "Carrefour Hotel M\u00e9morial", "operator": "SOTRAL", "public_transport": "platform", "shelter": "no", "source": "SOTRAL;survey"}}, {"type": "node", "id": 7511673236, "lat": 6.1695037, "lon": 1.2397344, "tags": {"bench": "no", "bus": "yes", "highway": "bus_stop", "name": "UNICEF", "operator": "SOTRAL", "public_transport": "platform", "shelter": "no", "source": "SOTRAL;survey"}}, {"type": "node", "id": 7511673239, "lat": 6.1699957, "lon": 1.2396902, "tags": {"bench": "no", "bus": "yes", "highway": "bus_stop", "name": "UNICEF", "operator": "SOTRAL", "public_transport": "platform", "shelter": "no", "source": "SOTRAL;survey"}}, {"type": "node", "id": 7511673241, "lat": 6.1719797, "lon": 1.2399718, "tags": {"bench": "no", "bus": "yes", "highway": "bus_stop", "name": "ESBTAO", "operator": "SOTRAL", "public_transport": "platform", "shelter": "no", "source": "SOTRAL;survey"}}, {"type": "node", "id": 7511673242, "lat": 6.1723463, "lon": 1.240645, "tags": {"bench": "no", "bus": "yes", "highway": "bus_stop", "name": "ESBTAO", "operator": "SOTRAL", "public_transport": "platform", "shelter": "no", "source": "SOTRAL;survey"}}, {"type": "node", "id": 7511673243, "lat": 6.1736637, "lon": 1.240806, "tags": {"bench": "no", "bus": "yes", "highway": "bus_stop", "name": "Clinique Saint Joseph", "operator": "SOTRAL", "public_transport": "platform", "shelter": "no", "source": "SOTRAL;survey"}}, {"type": "node", "id": 7511673244, "lat": 6.174401, "lon": 1.2408623, "tags": {"bench": "no", "bus": "yes", "highway": "bus_stop", "name": "Clinique Saint Joseph", "operator": "SOTRAL", "public_transport": "platform", "shelter": "no", "source": "SOTRAL;survey"}}, {"type": "node", "id": 7511673245, "lat": 6.1951298, "lon": 1.2459598, "tags": {"bench": "no", "bus": "yes", "highway": "bus_stop", "name": "Sagbovile", "operator": "SOTRAL", "public_transport": "platform", "shelter": "no", "source": "SOTRAL;survey"}}, {"type": "node", "id": 7518635162, "lat": 6.2220545, "lon": 1.1234996, "tags": {"bench": "no", "bus": "yes", "highway": "bus_stop", "name": "Maco", "operator": "SOTRAL", "public_transport": "platform", "shelter": "no", "source": "SOTRAL; Survey; Bing"}}, {"type": "node", "id": 7518635163, "lat": 6.2175216, "lon": 1.1288265, "tags": {"bench": "no", "bus": "yes", "highway": "bus_stop", "name": "Atilamonou", "operator": "SOTRAL", "public_transport": "platform", "shelter": "no", "source": "SOTRAL; Survey; Bing"}}, {"type": "node", "id": 7518635165, "lat": 6.2167123, "lon": 1.1297934, "tags": {"bench": "no", "bus": "yes", "highway": "bus_stop", "name": "Atilamonou", "operator": "SOTRAL", "public_transport": "platform", "shelter": "no", "source": "SOTRAL; Survey; Bing"}}, {"type": "node", "id": 7518635166, "lat": 6.2119781, "lon": 1.1354025, "tags": {"bench": "no", "bus": "yes", "highway": "bus_stop", "name": "Molomolo", "operator": "SOTRAL", "public_transport": "platform", "shelter": "no", "source": "SOTRAL; Survey; Bing"}}, {"type": "node", "id": 7518635167, "lat": 6.2115721, "lon": 1.1359242, "tags": {"bench": "no", "bus": "yes", "highway": "bus_stop", "name": "Molomolo", "operator": "SOTRAL", "public_transport": "platform", "shelter": "no", "source": "SOTRAL; Survey; Bing"}}, {"type": "node", "id": 7518635168, "lat": 6.2083716, "lon": 1.139444, "tags": {"bench": "no", "bus": "yes", "highway": "bus_stop", "name": "Atigangom\u00e9", "operator": "SOTRAL", "public_transport": "platform", "shelter": "no", "source": "SOTRAL; Survey; Bing"}}, {"type": "node", "id": 7518635170, "lat": 6.2075944, "lon": 1.1404002, "tags": {"bench": "no", "bus": "yes", "highway": "bus_stop", "name": "Atigangom\u00e9", "operator": "SOTRAL", "public_transport": "platform", "shelter": "no", "source": "SOTRAL; Survey; Bing"}}, {"type": "node", "id": 7518635171, "lat": 6.20318, "lon": 1.1458263, "tags": {"bench": "no", "bus": "yes", "highway": "bus_stop", "name": "Arr\u00eat L\u00e9gbanou", "operator": "SOTRAL", "public_transport": "platform", "shelter": "no", "source": "SOTRAL; Survey; Bing"}}, {"type": "node", "id": 7518635172, "lat": 6.2024614, "lon": 1.1465095, "tags": {"bench": "no", "bus": "yes", "highway": "bus_stop", "name": "Arr\u00eat L\u00e9gbanou", "operator": "SOTRAL", "public_transport": "platform", "shelter": "no", "source": "SOTRAL; Survey; Bing"}}, {"type": "node", "id": 7518635173, "lat": 6.2011215, "lon": 1.148257, "tags": {"bench": "no", "bus": "yes", "highway": "bus_stop", "name": "Madiba", "operator": "SOTRAL", "public_transport": "platform", "shelter": "no", "source": "SOTRAL; Survey; Bing"}}, {"type": "node", "id": 7518635174, "lat": 6.2004815, "lon": 1.1488639, "tags": {"bench": "no", "bus": "yes", "highway": "bus_stop", "name": "Madiba", "operator": "SOTRAL", "public_transport": "platform", "shelter": "no", "source": "SOTRAL; Survey; Bing"}}, {"type": "node", "id": 7518635175, "lat": 6.1976363, "lon": 1.1523776, "tags": {"bench": "no", "bus": "yes", "highway": "bus_stop", "name": "Am\u00e9nop\u00e9", "operator": "SOTRAL", "public_transport": "platform", "shelter": "no", "source": "SOTRAL; Survey; Bing"}}, {"type": "node", "id": 7518635176, "lat": 6.197271, "lon": 1.1525908, "tags": {"bench": "no", "bus": "yes", "highway": "bus_stop", "name": "Am\u00e9nop\u00e9", "operator": "SOTRAL", "public_transport": "platform", "shelter": "no", "source": "SOTRAL; Survey; Bing"}}, {"type": "node", "id": 7518635177, "lat": 6.1942659, "lon": 1.1565042, "tags": {"bench": "no", "bus": "yes", "highway": "bus_stop", "name": "CEG d'Adidogome", "operator": "SOTRAL", "public_transport": "platform", "shelter": "no", "source": "SOTRAL; Survey; Bing"}}, {"type": "node", "id": 7518635178, "lat": 6.1934299, "lon": 1.1571398, "tags": {"bench": "no", "bus": "yes", "highway": "bus_stop", "name": "CEG d'Adidogome", "operator": "SOTRAL", "public_transport": "platform", "shelter": "no", "source": "SOTRAL; Survey; Bing"}}, {"type": "node", "id": 7518635179, "lat": 6.1909913, "lon": 1.1601318, "tags": {"bench": "no", "bus": "yes", "highway": "bus_stop", "name": "Lyc\u00e9e Technique d'Adidogome", "operator": "SOTRAL", "public_transport": "platform", "shelter": "no", "source": "SOTRAL; Survey; Bing"}}, {"type": "node", "id": 7518635180, "lat": 6.1906433, "lon": 1.1603652, "tags": {"bench": "no", "bus": "yes", "highway": "bus_stop", "name": "Lyc\u00e9e Technique d'Adidogome", "operator": "SOTRAL", "public_transport": "platform", "shelter": "no", "source": "SOTRAL; Survey; Bing"}}, {"type": "node", "id": 7522206862, "lat": 6.1845115, "lon": 1.1671002, "tags": {"bench": "no", "bus": "yes", "highway": "bus_stop", "name": "Pharmacie Adidogom\u00e9", "operator": "SOTRAL", "public_transport": "platform", "shelter": "no", "source": "SOTRAL;survey"}}, {"type": "node", "id": 7522265017, "lat": 6.2297097, "lon": 1.1143881, "tags": {"bench": "no", "bus": "yes", "highway": "bus_stop", "name": "Togocel Zangu\u00e9ra", "operator": "SOTRAL", "public_transport": "platform", "shelter": "no", "source": "SOTRAL; Survey; Bing"}}, {"type": "node", "id": 7522265018, "lat": 6.2294298, "lon": 1.1145383, "tags": {"bench": "no", "bus": "yes", "highway": "bus_stop", "name": "Togocel Zangu\u00e9ra", "operator": "SOTRAL", "public_transport": "platform", "shelter": "no", "source": "SOTRAL; Survey; Bing"}}, {"type": "node", "id": 7522265019, "lat": 6.2261848, "lon": 1.1186206, "tags": {"bench": "no", "bus": "yes", "highway": "bus_stop", "name": "AD Zangu\u00e9ra", "operator": "SOTRAL", "public_transport": "platform", "shelter": "no", "source": "SOTRAL; Survey; Bing"}}, {"type": "node", "id": 7522265020, "lat": 6.2250116, "lon": 1.1197311, "tags": {"bench": "no", "bus": "yes", "highway": "bus_stop", "name": "AD Zangu\u00e9ra", "operator": "SOTRAL", "public_transport": "platform", "shelter": "no", "source": "SOTRAL; Survey; Bing"}}, {"type": "node", "id": 7522265021, "lat": 6.2217252, "lon": 1.1236498, "tags": {"bench": "no", "bus": "yes", "highway": "bus_stop", "name": "Maco", "operator": "SOTRAL", "public_transport": "platform", "shelter": "no", "source": "SOTRAL; Survey; Bing"}}, {"type": "node", "id": 7523350374, "lat": 6.174673, "lon": 1.2149455, "tags": {"bench": "no", "bin": "yes", "highway": "bus_stop", "lit": "yes", "name": "Arr\u00eat FDS", "operator": "SOTRAL", "public_transport": "platform", "shelter": "no", "source": "Sotral;Survey"}}, {"type": "node", "id": 7523350375, "lat": 6.1747116, "lon": 1.2148382, "tags": {"bench": "no", "bin": "yes", "highway": "bus_stop", "lit": "yes", "name": "Arr\u00eat FDS", "operator": "SOTRAL", "public_transport": "platform", "shelter": "no", "source": "Sotral;Survey"}}, {"type": "node", "id": 7523350376, "lat": 6.1700983, "lon": 1.2163375, "tags": {"bench": "no", "bin": "yes", "bus": "yes", "highway": "bus_stop", "lit": "yes", "name": "Terminus Campus Sud", "operator": "SOTRAL", "public_transport": "platform", "shelter": "no", "source": "SOTRAL;survey"}}, {"type": "node", "id": 7540836199, "lat": 6.1825289, "lon": 1.1953338, "tags": {"bench": "no", "bus": "yes", "highway": "bus_stop", "name": "H\u00f4tel King (Pesco)", "operator": "SOTRAL", "public_transport": "platform", "shelter": "no", "source": "Sotral;survey"}}, {"type": "node", "id": 7540836200, "lat": 6.1826396, "lon": 1.1951394, "tags": {"bench": "no", "highway": "bus_stop", "name": "H\u00f4tel King (Pesco)", "operator": "SOTRAL", "public_transport": "platform", "shelter": "no", "source": "Sotral;survey"}}, {"type": "node", "id": 7540836203, "lat": 6.1822902, "lon": 1.2002168, "tags": {"bench": "no", "bin": "no", "highway": "bus_stop", "name": "Pharmacie Mathilda", "operator": "SOTRAL", "public_transport": "platform", "shelter": "no", "source": "Sotral;survey"}}, {"type": "node", "id": 7540836204, "lat": 6.1824402, "lon": 1.1996998, "tags": {"amenity": "pharmacy", "bench": "no", "bus": "yes", "highway": "bus_stop", "name": "Pharmacie Mathilda", "operator": "SOTRAL", "public_transport": "platform", "shelter": "no", "source": "Sotral;survey"}}, {"type": "node", "id": 7540988514, "lat": 6.1820462, "lon": 1.2057039, "tags": {"bench": "no", "bus": "yes", "highway": "bus_stop", "name": "Lom\u00e9gan", "operator": "SOTRAL", "public_transport": "platform", "shelter": "no", "source": "Sotral;survey"}}, {"type": "node", "id": 7540988515, "lat": 6.1822009, "lon": 1.2049368, "tags": {"bench": "no", "bus": "yes", "highway": "bus_stop", "name": "Lom\u00e9gan", "operator": "SOTRAL", "public_transport": "platform", "shelter": "no", "source": "Sotral;survey"}}, {"type": "node", "id": 7548627288, "lat": 6.1579962, "lon": 1.2659309, "tags": {"bench": "no", "highway": "bus_stop", "name": "Carrefour Akodess\u00e8wa Kpota", "operator": "SOTRAL", "public_transport": "platform", "shelter": "no", "source": "SOTRAL; Survey; Bing"}}, {"type": "node", "id": 7548627289, "lat": 6.1580608, "lon": 1.2660073, "tags": {"bench": "no", "highway": "bus_stop", "name": "Carrefour Akodess\u00e8wa Kpota", "operator": "SOTRAL", "public_transport": "platform", "shelter": "no", "source": "SOTRAL; Survey; Bing"}}, {"type": "node", "id": 7548627290, "lat": 6.1614566, "lon": 1.2662558, "tags": {"bench": "no", "highway": "bus_stop", "name": "Polyclinique", "operator": "SOTRAL", "public_transport": "platform", "shelter": "no", "source": "SOTRAL; Survey; Bing"}}, {"type": "node", "id": 7548627291, "lat": 6.1614996, "lon": 1.266298, "tags": {"bench": "no", "highway": "bus_stop", "name": "Polyclinique", "operator": "SOTRAL", "public_transport": "platform", "shelter": "no", "source": "SOTRAL; Survey; Bing"}}, {"type": "node", "id": 7548627292, "lat": 6.1627849, "lon": 1.2664653, "tags": {"bench": "no", "highway": "bus_stop", "name": "Sun AGIP", "operator": "SOTRAL", "public_transport": "platform", "shelter": "no", "source": "SOTRAL; Survey; Bing"}}, {"type": "node", "id": 7548627293, "lat": 6.1627156, "lon": 1.2663057, "tags": {"bench": "no", "highway": "bus_stop", "name": "Sun AGIP", "operator": "SOTRAL", "public_transport": "platform", "shelter": "no", "source": "SOTRAL; Survey; Bing"}}, {"type": "node", "id": 7548627294, "lat": 6.1618849, "lon": 1.2657586, "tags": {"bench": "no", "highway": "bus_stop", "name": "Sun AGIP", "operator": "SOTRAL", "public_transport": "platform", "shelter": "no", "source": "SOTRAL; Survey; Bing"}}, {"type": "node", "id": 7548627295, "lat": 6.1616636, "lon": 1.2657532, "tags": {"bench": "no", "highway": "bus_stop", "name": "Sun AGIP", "operator": "SOTRAL", "public_transport": "platform", "shelter": "no", "source": "SOTRAL; Survey; Bing"}}, {"type": "node", "id": 7925817893, "lat": 6.1634476, "lon": 1.2020857, "tags": {"bench": "no", "bus": "yes", "highway": "bus_stop", "name": "Atikpamonou", "operator": "Sotral", "public_transport": "platform", "shelter": "no", "source": "SOTRAL;survey"}}, {"type": "node", "id": 7925817895, "lat": 6.1581375, "lon": 1.2016873, "tags": {"bench": "no", "bus": "yes", "highway": "bus_stop", "name": "Todman", "operator": "Sotral", "public_transport": "platform", "shelter": "no", "source": "SOTRAL;survey"}}, {"type": "node", "id": 7925817896, "lat": 6.1623709, "lon": 1.2018161, "tags": {"bench": "no", "bus": "yes", "highway": "bus_stop", "name": "Atikpamonou", "operator": "Sotral", "public_transport": "platform", "shelter": "no", "source": "SOTRAL;survey"}}, {"type": "node", "id": 7925881655, "lat": 6.2773183, "lon": 1.211242, "tags": {"bench": "no", "bus": "yes", "highway": "bus_stop", "name": "Epp Togbl\u00e9kop\u00e9", "operator": "Sotral", "public_transport": "platform", "shelter": "no", "source": "SOTRAL;survey"}}, {"type": "node", "id": 11282829524, "lat": 6.1598782, "lon": 1.2253824, "tags": {"highway": "bus_stop", "name": "Arr\u00eat bus"}}, {"type": "node", "id": 11433147859, "lat": 6.1753085, "lon": 1.1823129, "tags": {"highway": "bus_stop"}}, {"type": "way", "id": 517057484, "nodes": [5046544879, 5046544878, 5046544877, 5046544876, 5046544879], "tags": {"bus": "yes", "highway": "bus_stop", "public_transport": "platform", "source": "SOTRAL;survey"}}]}