{"version": 0.6, "generator": "Overpass API 0.7.62.5 1bd436f1", "osm3s": {"timestamp_osm_base": "2025-04-09T14:45:30Z", "copyright": "The data included in this document is from www.openstreetmap.org. The data is made available under ODbL."}, "elements": [{"type": "node", "id": 2372509851, "lat": 39.9807839, "lon": 3.8399279, "tags": {"bench": "yes", "bin": "no", "highway": "bus_stop", "name": "Prins Caleta", "public_transport": "platform", "ref": "202", "shelter": "no"}}, {"type": "node", "id": 2483395232, "lat": 40.0000012, "lon": 3.8356892, "tags": {"bench": "yes", "bin": "no", "bus": "yes", "highway": "bus_stop", "name": "Pla\u00e7a des Pins", "name:ca": "Pla\u00e7a des Pins", "network": "TIB", "note": "Bus Stop 6001 - Pla\u00e7a des Pins", "operator": "Torres Alles Autocares, S.L.U.", "public_transport": "platform", "ref": "6001", "shelter": "no", "tactile_paving": "no"}}, {"type": "node", "id": 2483395233, "lat": 39.9777846, "lon": 3.8421464, "tags": {"highway": "bus_stop", "name": "Es Pinaret", "name:ca": "Es Pinaret", "public_transport": "platform", "ref": "10"}}, {"type": "node", "id": 2483395234, "lat": 39.9794617, "lon": 3.8417916, "tags": {"highway": "bus_stop", "name": "Es Pinaret", "name:ca": "Es Pinaret", "public_transport": "platform", "ref": "2"}}, {"type": "node", "id": 2483395236, "lat": 39.994315, "lon": 3.8362549, "tags": {"highway": "bus_stop", "name": "Platja gran", "name:ca": "Platja gran", "public_transport": "platform", "ref": "1"}}, {"type": "node", "id": 2483395237, "lat": 39.9828845, "lon": 3.8380027, "tags": {"bench": "yes", "bin": "yes", "highway": "bus_stop", "lit": "no", "name": "Playa Caleta", "public_transport": "platform", "ref": "203", "shelter": "yes", "tactile_paving": "no"}}, {"type": "node", "id": 2483395238, "lat": 39.9837147, "lon": 3.8369014, "tags": {"bench": "yes", "bin": "yes", "highway": "bus_stop", "name": "Playa Caleta", "public_transport": "platform", "ref": "200", "shelter": "no"}}, {"type": "node", "id": 2483395240, "lat": 39.9810129, "lon": 3.8396173, "tags": {"bench": "yes", "bin": "no", "highway": "bus_stop", "lit": "yes", "name": "Prins Caleta", "public_transport": "platform", "ref": "201", "shelter": "yes", "tactile_paving": "no"}}, {"type": "node", "id": 2483395241, "lat": 39.9976772, "lon": 3.8343086, "tags": {"highway": "bus_stop", "name": "Republica Argentina", "public_transport": "platform", "ref": "26"}}, {"type": "node", "id": 2483395243, "lat": 39.9921795, "lon": 3.8363761, "tags": {"highway": "bus_stop", "name": "Son Oleo", "public_transport": "platform", "ref": "12", "shelter": "yes"}}, {"type": "node", "id": 2483479703, "lat": 39.9264428, "lon": 3.8249866, "tags": {"bus": "yes", "highway": "bus_stop", "name": "Cap d'Artrutx", "public_transport": "platform", "ref": "401"}}, {"type": "node", "id": 2483479706, "lat": 39.9676235, "lon": 3.8435034, "tags": {"bench": "yes", "bin": "no", "highway": "bus_stop", "name": "Cruce Cala Blanca", "public_transport": "platform", "ref": "4", "shelter": "yes"}}, {"type": "node", "id": 2483479708, "lat": 39.9299876, "lon": 3.8340393, "tags": {"bench": "yes", "bin": "yes", "highway": "bus_stop", "name": "Lago", "public_transport": "platform", "ref": "402", "shelter": "no", "tactile_paving": "no"}}, {"type": "node", "id": 2483479711, "lat": 39.926699, "lon": 3.8309589, "tags": {"bench": "no", "bin": "no", "highway": "bus_stop", "lit": "no", "name": "Marinda Garden", "public_transport": "platform", "ref": "409a", "shelter": "no", "tactile_paving": "no"}}, {"type": "node", "id": 2483479713, "lat": 39.928948, "lon": 3.824373, "tags": {"highway": "bus_stop", "name": "Menorca Mar", "name:ca": "Menorca Mar", "public_transport": "platform", "ref": "400"}}, {"type": "node", "id": 2483479716, "lat": 39.9271079, "lon": 3.8355044, "tags": {"highway": "bus_stop", "name": "Playa Cala'n Bosch", "public_transport": "platform", "ref": "403"}}, {"type": "node", "id": 2483479718, "lat": 39.9622703, "lon": 3.8430314, "tags": {"highway": "bus_stop", "name": "Son Cabrisas", "public_transport": "platform", "ref": "5"}}, {"type": "node", "id": 2483479721, "lat": 39.9743066, "lon": 3.8431164, "tags": {"bench": "no", "bin": "no", "bus": "yes", "highway": "bus_stop", "name": "Son Carri\u00f3", "name:ca": "Son Carri\u00f3", "public_transport": "platform", "ref": "3", "shelter": "yes"}}, {"type": "node", "id": 2483576818, "lat": 39.9292325, "lon": 3.8432411, "tags": {"highway": "bus_stop", "name": "Club Falc\u00f3", "name:ca": "Club Falc\u00f3", "public_transport": "platform", "ref": "407"}}, {"type": "node", "id": 2483576820, "lat": 39.9285485, "lon": 3.8386759, "tags": {"highway": "bus_stop", "name": "Club Menorca", "name:ca": "Club Menorca", "public_transport": "platform", "ref": "408", "shelter": "yes"}}, {"type": "node", "id": 2483576821, "lat": 39.9264442, "lon": 3.8300309, "tags": {"bench": "yes", "bin": "yes", "highway": "bus_stop", "lit": "no", "name": "Marinda Garden", "public_transport": "platform", "ref": "409", "shelter": "yes", "tactile_paving": "no"}}, {"type": "node", "id": 2483576822, "lat": 39.9280853, "lon": 3.8443251, "tags": {"highway": "bus_stop", "name": "Playa Son Xoriguer", "public_transport": "platform", "ref": "405"}}, {"type": "node", "id": 2483576824, "lat": 39.9290871, "lon": 3.8460942, "tags": {"highway": "bus_stop", "name": "Princesa Playa", "public_transport": "platform", "ref": "406"}}, {"type": "node", "id": 2483600239, "lat": 39.9743474, "lon": 3.8432892, "tags": {"bench": "yes", "bin": "yes", "bus": "yes", "highway": "bus_stop", "name": "Son Carri\u00f3", "name:ca": "Son Carri\u00f3", "public_transport": "platform", "ref": "9", "shelter": "yes"}}, {"type": "node", "id": 2483600240, "lat": 39.9601954, "lon": 3.8425846, "tags": {"bench": "no", "bin": "no", "highway": "bus_stop", "name": "Son Morro", "name:ca": "Son Morro", "public_transport": "platform", "ref": "7", "shelter": "no"}}, {"type": "node", "id": 2483600241, "lat": 39.9268318, "lon": 3.8260439, "tags": {"bench": "yes", "bin": "yes", "bus": "yes", "highway": "bus_stop", "lit": "yes", "name": "Cap d'Artruix", "name:ca": "Cap d'Artruix", "public_transport": "platform", "ref": "410", "shelter": "yes", "tactile_paving": "no"}}, {"type": "node", "id": 2483600243, "lat": 39.9665455, "lon": 3.8440184, "tags": {"bench": "yes", "bus": "yes", "departures_board": "timetable", "highway": "bus_stop", "name": "Cruilla Cala Blanca", "public_transport": "platform", "ref": "8", "shelter": "no"}}, {"type": "node", "id": 2988407094, "lat": 40.00159, "lon": 3.8460141, "tags": {"bench": "no", "bus": "yes", "covered": "no", "highway": "bus_stop", "name": "Via Perimetral", "network": "TIB", "note": "Bus Stop 6028 - V\u00eda Perimetral", "operator": "TMSA", "passenger_information_display": "no", "public_transport": "platform", "ref": "6028", "shelter": "no"}}, {"type": "node", "id": 3147916060, "lat": 39.998238, "lon": 3.8392088, "tags": {"bench": "yes", "bin": "yes", "bus": "yes", "covered": "yes", "highway": "bus_stop", "name": "Pla\u00e7a de la Pau", "name:ca": "Pla\u00e7a de la Pau", "network": "Transports p\u00fablics de Menorca", "operator": "TMSA", "passenger_information_display": "no", "public_transport": "platform", "ref": "6016", "shelter": "yes", "tactile_paving": "no"}}, {"type": "node", "id": 3960007196, "lat": 39.9402196, "lon": 3.9598841, "tags": {"bench": "yes", "bin": "no", "bus": "yes", "check_date:bench": "2021-10-12", "covered": "yes", "highway": "bus_stop", "lit": "yes", "name": "Cala Galdana - Platja", "network": "Transports p\u00fablics de Menorca", "operator": "TMSA", "passenger_information_display": "no", "public_transport": "platform", "ref": "5230", "shelter": "yes", "tactile_paving": "no"}}, {"type": "node", "id": 4305951608, "lat": 39.9397193, "lon": 3.9662376, "tags": {"bench": "no", "bin": "no", "bus": "yes", "check_date:bench": "2024-10-03", "covered": "no", "highway": "bus_stop", "lit": "no", "name": "Cala Galdana - Rotonda (a.)", "network": "Transports p\u00fablics de Menorca", "operator": "TMSA", "passenger_information_display": "no", "public_transport": "platform", "ref": "5220", "shelter": "no", "tactile_paving": "yes"}}, {"type": "node", "id": 4305951609, "lat": 39.9396307, "lon": 3.9662689, "tags": {"bench": "yes", "bin": "yes", "bus": "yes", "check_date:bench": "2024-10-03", "covered": "yes", "highway": "bus_stop", "lit": "yes", "name": "Cala Galdana - Rotonda (t.)", "network": "Transports p\u00fablics de Menorca", "operator": "TMSA", "passenger_information_display": "no", "public_transport": "platform", "ref": "5240", "shelter": "no", "tactile_paving": "yes"}}, {"type": "node", "id": 4305951610, "lat": 39.9521299, "lon": 3.9868602, "tags": {"bench": "no", "bus": "yes", "covered": "no", "highway": "bus_stop", "name": "C\u00e0mping Cala Galdana (a.)", "network": "Transports p\u00fablics de Menorca", "operator": "TMSA", "passenger_information_display": "no", "public_transport": "platform", "ref": "5210", "shelter": "no"}}, {"type": "node", "id": 4305951611, "lat": 39.9520581, "lon": 3.9870367, "tags": {"bench": "no", "bus": "yes", "covered": "no", "highway": "bus_stop", "name": "C\u00e0mping Cala Galdana (t.)", "network": "Transports p\u00fablics de Menorca", "operator": "TMSA", "passenger_information_display": "no", "public_transport": "platform", "ref": "5250"}}, {"type": "node", "id": 4307884954, "lat": 40.0046871, "lon": 3.8539926, "tags": {"bench": "yes", "bin": "yes", "bus": "yes", "covered": "yes", "highway": "bus_stop", "lit": "yes", "name": "Piscina municipal", "name:ca": "Piscina municipal", "network": "Transports p\u00fablics de Menorca", "note": "Bus Stop 6022 - Piscina Municipal", "operator": "TMSA", "passenger_information_display": "no", "public_transport": "platform", "ref": "6022", "shelter": "yes", "tactile_paving": "no"}}, {"type": "node", "id": 4309730674, "lat": 39.995216, "lon": 3.8373924, "tags": {"bench": "no", "bin": "no", "bus": "yes", "covered": "no", "highway": "bus_stop", "name": "C. Bisbe Juano, 3", "network": "TIB", "operator": "TMSA", "passenger_information_display": "no", "public_transport": "platform", "ref": "6011", "shelter": "no"}}, {"type": "node", "id": 5251717725, "lat": 39.9976165, "lon": 3.8343408, "tags": {"bus": "yes", "highway": "bus_stop", "name": "6090 - Rep\u00fablica Argentina", "network": "TIB", "operator": "Torres Alles Autocares", "public_transport": "platform", "ref": "6090"}}, {"type": "node", "id": 5251717726, "lat": 39.9950061, "lon": 3.8365113, "tags": {"bus": "yes", "highway": "bus_stop", "name": "6087 - Platja Gran, 72", "network": "TIB", "operator": "Torres Alles Autocares, S.L.U.", "public_transport": "platform", "ref": "6087"}}, {"type": "node", "id": 5251717727, "lat": 39.9966257, "lon": 3.8392956, "tags": {"bench": "yes", "bin": "yes", "bus": "yes", "highway": "bus_stop", "lit": "yes", "name": "6085 - Av. de La Pau, 54", "network": "TIB", "operator": "Torres Alles Autocares, S.L.U.", "public_transport": "platform", "ref": "6085", "shelter": "yes", "tactile_paving": "no"}}, {"type": "node", "id": 5251717728, "lat": 39.9993709, "lon": 3.844636, "tags": {"bus": "yes", "highway": "bus_stop", "name": "6080 - Canal Salat (t.)", "network": "TIB", "operator": "Torres Alles Autocares, S.L.U.", "public_transport": "platform", "ref": "6080"}}, {"type": "node", "id": 5251717729, "lat": 40.0039286, "lon": 3.8497299, "tags": {"bench": "yes", "bin": "no", "bus": "yes", "highway": "bus_stop", "name": "6077 - Rotonda Cavall (t.)", "operator": "Torres Alles Autocares", "public_transport": "platform", "shelter": "yes"}}, {"type": "node", "id": 5251717730, "lat": 40.0045808, "lon": 3.8455438, "tags": {"bus": "yes", "highway": "bus_stop", "name": "6074 - Empord\u00e0", "operator": "Torres Alles Autocares", "public_transport": "platform"}}, {"type": "node", "id": 5251717731, "lat": 40.0040515, "lon": 3.8402887, "tags": {"bench": "no", "bin": "no", "bus": "yes", "highway": "bus_stop", "lit": "yes", "name": "6073 - Contramurada, 19", "note": "Bus Stop 6073 - Contramurada v", "operator": "Torres Alles Autocares", "public_transport": "platform", "shelter": "no", "tactile_paving": "no"}}, {"type": "node", "id": 5251717732, "lat": 40.0060288, "lon": 3.8372082, "tags": {"bench": "yes", "bin": "no", "bus": "yes", "highway": "bus_stop", "lit": "no", "name": "6072 - Dalt es Penyals (t.)", "note": "Bus Stop 6072 - Dalt es Penyals (t.)", "operator": "Torres Alles Autocares", "public_transport": "platform", "shelter": "no", "tactile_paving": "no"}}, {"type": "node", "id": 5251717733, "lat": 40.0011439, "lon": 3.8311855, "tags": {"bench": "yes", "bin": "no", "bus": "yes", "highway": "bus_stop", "lit": "yes", "name": "6035 - Port Antic", "note": "Bus Stop 6065 - Port Antic", "operator": "Torres Alles Autocares", "public_transport": "platform", "shelter": "no", "tactile_paving": "no"}}, {"type": "node", "id": 5251717734, "lat": 40.0021923, "lon": 3.8339514, "tags": {"bench": "yes", "bin": "no", "bus": "yes", "highway": "bus_stop", "name": "6034 - Dalt sa Quintana", "note": "Bus Stop 6034 - Dalt sa Quintana", "operator": "Torres Alles Autocares", "public_transport": "platform", "shelter": "yes", "tactile_paving": "no"}}, {"type": "node", "id": 5251717735, "lat": 40.0061384, "lon": 3.8370103, "tags": {"bench": "yes", "bin": "yes", "bus": "yes", "highway": "bus_stop", "lit": "yes", "name": "6032 - Dalt Penyals (a.)", "note": "Bus Stop 6032 - Dalt Penyals i", "operator": "Torres Alles Autocares", "public_transport": "platform", "shelter": "no", "tactile_paving": "no"}}, {"type": "node", "id": 5251717736, "lat": 40.0035349, "lon": 3.8407041, "tags": {"bus": "yes", "highway": "bus_stop", "name": "6027 - Contramurada, 36", "operator": "Torres Alles Autocares", "public_transport": "platform"}}, {"type": "node", "id": 5251717737, "lat": 40.0035997, "lon": 3.845139, "tags": {"bus": "yes", "highway": "bus_stop", "name": "Cam\u00ed Ma\u00f3", "name:ca": "Cam\u00ed Ma\u00f3", "operator": "Torres Alles Autocares", "public_transport": "platform", "ref": "6031"}}, {"type": "node", "id": 5251717738, "lat": 40.0057115, "lon": 3.8535362, "tags": {"bus": "yes", "highway": "bus_stop", "name": "6024 - POICI - Ferrers", "operator": "Torres Alles Autocares", "public_transport": "platform"}}, {"type": "node", "id": 5251717739, "lat": 40.0085459, "lon": 3.85281, "tags": {"bus": "yes", "highway": "bus_stop", "name": "6026 - POICI - Fusters", "operator": "Torres Alles Autocares", "public_transport": "platform"}}, {"type": "node", "id": 5251717740, "lat": 40.0093455, "lon": 3.8567801, "tags": {"bus": "yes", "highway": "bus_stop", "name": "6036 - POICI - Ecoparc", "operator": "Torres Alles Autocares", "public_transport": "platform"}}, {"type": "node", "id": 5251717741, "lat": 40.0066329, "lon": 3.8580935, "tags": {"bus": "yes", "highway": "bus_stop", "name": "6023 - POICI - Sabaters", "operator": "Torres Alles Autocares", "public_transport": "platform"}}, {"type": "node", "id": 5251717743, "lat": 40.0041709, "lon": 3.8498618, "tags": {"bench": "yes", "bus": "yes", "highway": "bus_stop", "name": "6021 - Rotonda Cavall (a.)", "operator": "Torres Alles Autocares", "public_transport": "platform", "shelter": "no"}}, {"type": "node", "id": 5251717745, "lat": 39.9994482, "lon": 3.8451524, "tags": {"bus": "yes", "highway": "bus_stop", "name": "6019 - Centre Salut", "network": "TIB", "operator": "Torres Alles Autocares, S.L.U.", "public_transport": "platform", "ref": "6019"}}, {"type": "node", "id": 5251717746, "lat": 39.9974957, "lon": 3.8405763, "tags": {"bus": "yes", "highway": "bus_stop", "name": "6015 - Av. de la Pau, 36", "network": "TIB", "operator": "Torres Alles Autocares, S.L.U.", "public_transport": "platform", "ref": "6015"}}, {"type": "node", "id": 5251717748, "lat": 39.9944166, "lon": 3.8307877, "tags": {"bus": "yes", "highway": "bus_stop", "name": "6008 - Magnifics Jurats", "operator": "Torres Alles Autocares", "public_transport": "platform", "ref": "6008"}}, {"type": "node", "id": 5251717749, "lat": 39.9969016, "lon": 3.8304523, "tags": {"bus": "yes", "highway": "bus_stop", "name": "6007 - Saragossa", "operator": "Torres Alles Autocares", "public_transport": "platform", "ref": "6007"}}, {"type": "node", "id": 5252202936, "lat": 40.0045372, "lon": 3.814099, "tags": {"bench": "yes", "bin": "yes", "bus": "yes", "highway": "bus_stop", "name": "6750 - Rotonda Cala en Blanes", "network": "TIB", "operator": "Torres Alles Autocares", "public_transport": "platform", "ref": "6750"}}, {"type": "node", "id": 5252202939, "lat": 40.0073236, "lon": 3.8083905, "tags": {"bus": "yes", "highway": "bus_stop", "name": "6745 - Av. Cales Piques", "network": "TIB", "operator": "Torres Alles Autocares", "public_transport": "platform", "ref": "6745"}}, {"type": "node", "id": 5252202940, "lat": 40.0055178, "lon": 3.8024913, "tags": {"bus": "yes", "highway": "bus_stop", "name": "6740 - Torre del Ram", "network": "TIB", "operator": "Torres Alles Autocares", "public_transport": "platform", "ref": "6740"}}, {"type": "node", "id": 5252202941, "lat": 39.9993199, "lon": 3.7984557, "tags": {"bench": "yes", "bus": "yes", "highway": "bus_stop", "name": "6735 - Platja Cala en Forcat", "network": "TIB", "operator": "Torres Alles Autocares", "public_transport": "platform", "ref": "6735", "shelter": "yes"}}, {"type": "node", "id": 5252202942, "lat": 40.0019053, "lon": 3.7988958, "tags": {"bus": "yes", "highway": "bus_stop", "name": "6730 - Cales Piques", "network": "TIB", "operator": "Torres Alles Autocares", "public_transport": "platform", "ref": "6730", "shelter": "no"}}, {"type": "node", "id": 5252202944, "lat": 40.0031525, "lon": 3.8018627, "tags": {"bench": "yes", "bin": "no", "bus": "yes", "highway": "bus_stop", "lit": "yes", "name": "6725 - Pl. dels Dofins", "network": "TIB", "operator": "Torres Alles Autocares", "public_transport": "platform", "ref": "6725", "shelter": "yes", "tactile_paving": "no"}}, {"type": "node", "id": 5252202945, "lat": 40.0040099, "lon": 3.8037481, "tags": {"bus": "yes", "highway": "bus_stop", "name": "6720 - Arc dels Dofins", "network": "TIB", "operator": "Torres Alles Autocares", "public_transport": "platform", "ref": "6720", "shelter": "yes"}}, {"type": "node", "id": 5252202946, "lat": 40.0048494, "lon": 3.806604, "tags": {"bench": "yes", "bin": "no", "bus": "yes", "highway": "bus_stop", "lit": "yes", "name": "6715 - Av. Sim\u00f3n d'Olivar, 24", "network": "TIB", "operator": "Torres Alles Autocares", "public_transport": "platform", "ref": "6715", "shelter": "yes", "tactile_paving": "no"}}, {"type": "node", "id": 5252202947, "lat": 40.0018115, "lon": 3.8111015, "tags": {"bus": "yes", "highway": "bus_stop", "name": "6710 - Platja Cala en Blanes", "network": "TIB", "operator": "Torres Alles Autocares", "public_transport": "platform", "ref": "6710"}}, {"type": "node", "id": 5252202948, "lat": 40.0031868, "lon": 3.8124538, "tags": {"bus": "yes", "highway": "bus_stop", "name": "6705 - Av. de sa Torres de s'Aigua", "network": "TIB", "operator": "Torres Alles Autocares", "public_transport": "platform", "ref": "6705"}}, {"type": "node", "id": 5252202949, "lat": 40.0065154, "lon": 3.8434119, "tags": {"bus": "yes", "highway": "bus_stop", "name": "6075 - Santa Rita (t.)", "network": "TIB", "operator": "Torres Alles Autocares", "public_transport": "platform", "ref": "6075"}}, {"type": "node", "id": 5252202950, "lat": 40.0079266, "lon": 3.8339157, "tags": {"bus": "yes", "highway": "bus_stop", "name": "6060 - Pintor Torrent (t.)", "network": "TIB", "operator": "Torres Alles Autocares", "public_transport": "platform", "ref": "6060"}}, {"type": "node", "id": 5252202951, "lat": 40.0078199, "lon": 3.8337152, "tags": {"bus": "yes", "highway": "bus_stop", "name": "6030 - Pintor Torrent (a.)", "network": "TIB", "operator": "Torres Alles Autocares", "public_transport": "platform", "ref": "6030"}}, {"type": "node", "id": 5252202952, "lat": 40.007111, "lon": 3.8432786, "tags": {"bus": "yes", "highway": "bus_stop", "name": "6025 - Santa Rita (a.)", "network": "TIB", "operator": "Torres Alles Autocares", "public_transport": "platform", "ref": "6025"}}, {"type": "node", "id": 5253771316, "lat": 40.0379421, "lon": 3.9213359, "tags": {"highway": "bus_stop", "name": "6910 - La Vall - Algaiarens, platja", "network": "TIB", "operator": "Torres Alles Autocares, S.L.U.", "public_transport": "platform", "ref": "6910"}}, {"type": "node", "id": 6553684890, "lat": 39.9278973, "lon": 3.84163, "tags": {"highway": "bus_stop", "name": "C. de sa Rosa des Vents, 8"}}, {"type": "node", "id": 6556097291, "lat": 39.9736794, "lon": 3.9009759, "tags": {"highway": "bus_stop", "name": "Cam\u00ed de Macarella, pq 7", "name:ca": "Cam\u00ed de Macarella, pq 7", "public_transport": "platform", "ref": "6930"}}, {"type": "node", "id": 6556097294, "lat": 39.9442484, "lon": 3.9429722, "tags": {"bus": "yes", "highway": "bus_stop", "name": "Aparcament de Macarella", "name:ca": "Aparcament de Macarella", "public_transport": "platform", "ref": "6950", "shelter": "yes"}}, {"type": "node", "id": 6853918476, "lat": 39.9386766, "lon": 3.9105824, "tags": {"highway": "bus_stop", "name": "Cala en Turqueta", "public_transport": "68"}}, {"type": "node", "id": 9026199805, "lat": 39.9689994, "lon": 3.8357011, "tags": {"bench": "yes", "bin": "yes", "bus": "yes", "departures_board": "yes", "highway": "bus_stop", "name": "Av. de sa platja, 8", "operator": "Transports de les Illes Balears", "public_transport": "platform", "shelter": "yes"}}, {"type": "node", "id": 9026199806, "lat": 39.9671787, "lon": 3.8362478, "tags": {"bus": "yes", "departures_board": "timetable", "highway": "bus_stop", "name": "Cala Blanca, platja", "operator": "Transports de les Illes Balears", "public_transport": "platform", "shelter": "no"}}, {"type": "node", "id": 9026199807, "lat": 39.9655305, "lon": 3.8364586, "tags": {"bus": "yes", "departures_board": "timetable", "highway": "bus_stop", "name": "Av. des Migjorn", "operator": "Transports de les Illes Balears", "public_transport": "platform", "shelter": "no"}}, {"type": "node", "id": 9026199808, "lat": 39.9716087, "lon": 3.8349167, "tags": {"bench": "yes", "bin": "yes", "bus": "yes", "departures_board": "timetable", "highway": "bus_stop", "lit": "yes", "name": "Cala Blanca, esgl\u00e8sia", "public_transport": "platform", "shelter": "yes", "tactile_paving": "no"}}, {"type": "node", "id": 9026235447, "lat": 39.9754166, "lon": 3.8350473, "tags": {"bench": "yes", "bin": "yes", "bus": "yes", "departures_board": "timetable", "highway": "bus_stop", "lit": "yes", "name": "Clot de sa Cera", "name:ca": "Clot de sa Cera", "operator": "Transports de les Illes Balears", "public_transport": "platform", "shelter": "yes", "tactile_paving": "no"}}, {"type": "node", "id": 9026235448, "lat": 39.9747148, "lon": 3.8393812, "tags": {"bench": "yes", "bin": "no", "bus": "yes", "departures_board": "timetable", "highway": "bus_stop", "lit": "yes", "name": "Santandr\u00eda", "operator": "Transports de les Illes Balears", "public_transport": "platform", "shelter": "no", "tactile_paving": "no"}}, {"type": "node", "id": 9036190687, "lat": 39.9370016, "lon": 3.8302565, "tags": {"bench": "no", "bin": "no", "bus": "yes", "highway": "bus_stop", "name": "Son Olivar", "public_transport": "platform", "shelter": "no"}}, {"type": "node", "id": 9241271958, "lat": 39.948286, "lon": 3.941943, "tags": {"highway": "bus_stop", "name": "Cam\u00ed de Macarella, pq 12", "name:ca": "Cam\u00ed de Macarella, pq 12", "public_transport": "platform", "ref": "6940"}}, {"type": "node", "id": 12190342896, "lat": 40.0033694, "lon": 3.8160706, "tags": {"highway": "bus_stop"}}]}