{"version": 0.6, "generator": "Overpass API 0.7.62.5 1bd436f1", "osm3s": {"timestamp_osm_base": "2025-04-09T14:41:26Z", "copyright": "The data included in this document is from www.openstreetmap.org. The data is made available under ODbL."}, "elements": [{"type": "node", "id": 2065665093, "lat": 36.7154173, "lon": 4.0768607, "tags": {"bus": "yes", "highway": "bus_stop", "name": "Station de Bus Ait Wagnun", "name:fr": "Station de Bus Ait Wagnun", "public_transport": "platform"}}, {"type": "node", "id": 2065666579, "lat": 36.7097195, "lon": 4.0345952, "tags": {"name": "Tizi Ouzou", "name:ar": "\u062a\u064a\u0632\u064a \u0648\u0632\u0648", "name:fr": "Tizi Ouzou", "name:kab": "Tizi Wezzu", "name:zgh": "\u2d30\u2d59\u2d30\u2d4f\u2d30\u2d33 \u2d4f \u2d5c\u2d49\u2d63\u2d49 \u2d61\u2d3b\u2d63\u2d63\u2d53", "operator": "SNTF", "operator:ar": "\u0627\u0644\u0634\u0631\u0643\u0629 \u0627\u0644\u0648\u0637\u0646\u064a\u0629 \u0644\u0644\u0646\u0642\u0644 \u0628\u0627\u0644\u0633\u0643\u0643 \u0627\u0644\u062d\u062f\u064a\u062f\u064a\u0629", "public_transport": "station", "railway": "station", "train": "yes", "website": "https://www.sntf.dz/"}}, {"type": "node", "id": 2065689883, "lat": 36.6927873, "lon": 4.04525, "tags": {"addr:city": "\u062a\u064a\u0632\u064a \u0648\u0632\u0648", "addr:place": "\u0643\u0627\u0641 \u0627\u0644\u0646\u0639\u062c\u0629", "alt_name:ar": "\u062b\u064a\u0632\u064a \u0648\u0632\u0648", "name": "Kef Na\u00e2dja", "name:ar": "\u0643\u0627\u0641 \u0627\u0644\u0646\u0639\u062c\u0629", "name:en": "Kef Na\u00e2dja", "name:fr": "Kef Na\u00e2dja", "operator": "\u0627\u0644\u0634\u0631\u0643\u0629 \u0627\u0644\u0648\u0637\u0646\u064a\u0629 \u0644\u0644\u0646\u0642\u0644 \u0628\u0627\u0644\u0633\u0643\u0643 \u0627\u0644\u062d\u062f\u064a\u062f\u064a\u0629", "operator:ar": "\u0627\u0644\u0634\u0631\u0643\u0629 \u0627\u0644\u0648\u0637\u0646\u064a\u0629 \u0644\u0644\u0646\u0642\u0644 \u0628\u0627\u0644\u0633\u0643\u0643 \u0627\u0644\u062d\u062f\u064a\u062f\u064a\u0629", "operator:wikidata": "Q1275038", "operator:wikipedia": "ar:\u0627\u0644\u0634\u0631\u0643\u0629 \u0627\u0644\u0648\u0637\u0646\u064a\u0629 \u0644\u0644\u0646\u0642\u0644 \u0628\u0627\u0644\u0633\u0643\u0643 \u0627\u0644\u062d\u062f\u064a\u062f\u064a\u0629", "public_transport": "station", "railway": "station", "wikidata": "Q115597591", "wikipedia": "fr:Gare de Kef Na\u00e2dja"}}, {"type": "node", "id": 2340588538, "lat": 36.6663693, "lon": 4.5125921, "tags": {"bus": "yes", "highway": "bus_stop", "public_transport": "platform"}}, {"type": "node", "id": 2353615043, "lat": 36.7022579, "lon": 4.1420615, "tags": {"name": "Oued A\u00efssi", "name:ar": "\u0648\u0627\u062f \u0639\u064a\u0633\u064a", "name:en": "Oued Aissi", "name:fr": "Oued A\u00efssi", "operator": "SNTF", "public_transport": "station", "railway": "station", "wikidata": "Q115590621", "wikipedia": "fr:Gare de Oued A\u00efssi"}}, {"type": "node", "id": 2381124975, "lat": 36.655675, "lon": 4.4690872, "tags": {"bus": "yes", "highway": "bus_stop", "name": "Taxerrubt", "name:ar": "\u062b\u0627\u062e\u0631\u0648\u0628\u062b", "name:fr": "Takharroubt", "public_transport": "platform"}}, {"type": "node", "id": 2381171131, "lat": 36.6570263, "lon": 4.4868115, "tags": {"bus": "yes", "highway": "bus_stop", "local_ref": "ARRET DE BUS", "public_transport": "platform"}}, {"type": "node", "id": 2442566424, "lat": 36.8210884, "lon": 4.2525703, "tags": {"bus": "yes", "highway": "bus_stop", "name": "1er arr\u00eat de bus IGHARBIENNE", "public_transport": "platform"}}, {"type": "node", "id": 2442578702, "lat": 36.8212621, "lon": 4.253559, "tags": {"bus": "yes", "highway": "bus_stop", "name": "2em arr\u00eat de bus", "public_transport": "platform"}}, {"type": "node", "id": 2588349515, "lat": 36.6208251, "lon": 4.0819847, "tags": {"bus": "yes", "highway": "bus_stop", "name": "Beni Douala - Tizi Ouzou", "name:ar": "\u0628\u0646\u064a \u062f\u0648\u0627\u0644\u0629 - \u062a\u064a\u0632\u064a \u0648\u0632\u0648", "public_transport": "platform"}}, {"type": "node", "id": 2737249938, "lat": 36.6661295, "lon": 4.5204115, "tags": {"bus": "yes", "highway": "bus_stop", "name": "Arr\u00eat de Fourgons", "public_transport": "platform"}}, {"type": "node", "id": 2907357430, "lat": 36.7699437, "lon": 4.1753791, "tags": {"bus": "yes", "highway": "bus_stop", "name": "Station de Bus", "public_transport": "platform", "shelter": "no"}}, {"type": "node", "id": 2907378701, "lat": 36.7706093, "lon": 4.1781797, "tags": {"bus": "yes", "highway": "bus_stop", "name": "Station de Bus", "public_transport": "platform", "shelter": "no"}}, {"type": "node", "id": 2928232201, "lat": 36.7455321, "lon": 4.1326282, "tags": {"bus": "yes", "highway": "bus_stop", "name": "Arr\u00eat de Bus", "public_transport": "platform", "shelter": "yes"}}, {"type": "node", "id": 2932132760, "lat": 36.7448, "lon": 4.136693, "tags": {"bus": "yes", "highway": "bus_stop", "name": "Arr\u00eat de Bus", "public_transport": "platform", "shelter": "yes"}}, {"type": "node", "id": 3415076996, "lat": 36.6332353, "lon": 4.2070272, "tags": {"bus": "yes", "highway": "bus_stop", "name": "Arr\u00eat de fourgons vers A\u00efn El Hammam", "public_transport": "platform"}}, {"type": "node", "id": 3530429782, "lat": 36.8425833, "lon": 3.941807, "tags": {"bus": "yes", "highway": "bus_stop", "name": "Azrou-dellys", "public_transport": "platform"}}, {"type": "node", "id": 3644410738, "lat": 36.6729748, "lon": 4.0364708, "tags": {"bus": "yes", "highway": "bus_stop", "public_transport": "platform"}}, {"type": "node", "id": 3673387125, "lat": 36.701165, "lon": 4.0528581, "tags": {"bus": "yes", "highway": "bus_stop", "name": "Vers ADE / Sebihi", "name:fr": "Vers ADE / Sebihi", "public_transport": "platform"}}, {"type": "node", "id": 3740415035, "lat": 36.6200543, "lon": 4.0820239, "tags": {"bus": "yes", "highway": "bus_stop", "name": "Arr\u00eat de bus At Ma\u1e25mud", "name:ar": "\u0645\u0648\u0642\u0641 \u062d\u0627\u0641\u0644\u0629 \u0623\u064a\u062a \u0645\u062d\u0645\u0648\u062f", "name:en": "At Ma\u1e25mud Bus Stop", "public_transport": "platform"}}, {"type": "node", "id": 3758379096, "lat": 36.7097603, "lon": 4.035279, "tags": {"bus": "yes", "highway": "bus_stop", "name": "Tizi Ouzou", "name:ar": "\u062a\u064a\u0632\u064a \u0648\u0632\u0648", "name:fr": "Tizi Ouzou", "public_transport": "platform", "wheelchair": "limited"}}, {"type": "node", "id": 3759220895, "lat": 36.7337305, "lon": 4.0468382, "tags": {"bus": "yes", "highway": "bus_stop", "name:ar": "\u0645\u062d\u0637\u0629 \u0631\u062c\u0627\u0648\u0646\u0629 \u062a\u0627\u0634\u062a", "name:fr": "Arr\u00eat Redjaouna techt", "public_transport": "platform"}}, {"type": "node", "id": 3766354052, "lat": 36.7143017, "lon": 4.0513325, "tags": {"bus": "yes", "highway": "bus_stop", "public_transport": "platform"}}, {"type": "node", "id": 3827444916, "lat": 36.7154043, "lon": 4.0525479, "tags": {"bus": "yes", "highway": "bus_stop", "name": "vers thala athmane", "name:ar": "\u0625\u0644\u0649 \u062a\u0627\u0644\u0629 \u0639\u062b\u0645\u0627\u0646", "public_transport": "platform"}}, {"type": "node", "id": 3893203634, "lat": 36.8050971, "lon": 4.3195177, "tags": {"bus": "yes", "highway": "bus_stop", "name": "arquv", "public_transport": "platform"}}, {"type": "node", "id": 3893203635, "lat": 36.8094911, "lon": 4.3179475, "tags": {"bench": "yes", "bus": "yes", "covered": "yes", "highway": "bus_stop", "name": "Sraqa", "public_transport": "platform", "shelter": "yes"}}, {"type": "node", "id": 3893203636, "lat": 36.8003856, "lon": 4.3225228, "tags": {"bus": "yes", "highway": "bus_stop", "name": "Axam n Buhu", "public_transport": "platform"}}, {"type": "node", "id": 3916130511, "lat": 36.7567064, "lon": 4.3142595, "tags": {"bus": "yes", "highway": "bus_stop", "name": "Aghribs-Timizart", "public_transport": "platform"}}, {"type": "node", "id": 3916130512, "lat": 36.7572766, "lon": 4.3145614, "tags": {"bus": "yes", "highway": "bus_stop", "name": "Tizi ouzou", "public_transport": "platform"}}, {"type": "node", "id": 3954836505, "lat": 36.8175584, "lon": 4.3126457, "tags": {"bus": "yes", "highway": "bus_stop", "name": "Arr\u00eat", "public_transport": "platform"}}, {"type": "node", "id": 3954836506, "lat": 36.8180182, "lon": 4.3114782, "tags": {"bus": "yes", "highway": "bus_stop", "name": "Arr\u00eat", "public_transport": "platform"}}, {"type": "node", "id": 4177234202, "lat": 36.6859568, "lon": 4.2677358, "tags": {"bus": "yes", "highway": "bus_stop", "public_transport": "platform"}}, {"type": "node", "id": 4177234204, "lat": 36.687699, "lon": 4.2678324, "tags": {"bus": "yes", "highway": "bus_stop", "public_transport": "platform"}}, {"type": "node", "id": 4196127594, "lat": 36.7026268, "lon": 4.0527817, "tags": {"bus": "yes", "highway": "bus_stop", "name": "Vers Beni-Douala / Oued Aissi", "public_transport": "platform"}}, {"type": "node", "id": 4196211289, "lat": 36.7027918, "lon": 4.0527057, "tags": {"bus": "yes", "highway": "bus_stop", "name": "Vers centre-ville / station Boukhalfa", "public_transport": "platform"}}, {"type": "node", "id": 4235434814, "lat": 36.8678435, "lon": 4.2375973, "tags": {"bus": "yes", "highway": "bus_stop", "public_transport": "platform"}}, {"type": "node", "id": 4235441392, "lat": 36.8635573, "lon": 4.2203228, "tags": {"bus": "yes", "highway": "bus_stop", "public_transport": "platform"}}, {"type": "node", "id": 4235442090, "lat": 36.8656033, "lon": 4.2305892, "tags": {"bus": "yes", "highway": "bus_stop", "public_transport": "platform"}}, {"type": "node", "id": 4261306789, "lat": 36.8625513, "lon": 4.2204812, "tags": {"bus": "yes", "highway": "bus_stop", "public_transport": "platform"}}, {"type": "node", "id": 4279100592, "lat": 36.7040597, "lon": 4.0511673, "tags": {"bus": "yes", "highway": "bus_stop", "name": "Vers centre-ville", "public_transport": "platform"}}, {"type": "node", "id": 4411860276, "lat": 36.7269427, "lon": 4.0661247, "tags": {"bus": "yes", "highway": "bus_stop", "name": "H\u00f4pital Sidi Belloua", "public_transport": "platform"}}, {"type": "node", "id": 4416462682, "lat": 36.6986829, "lon": 4.2091887, "tags": {"bus": "yes", "highway": "bus_stop", "public_transport": "platform"}}, {"type": "node", "id": 4465898090, "lat": 36.7948109, "lon": 4.3086685, "tags": {"bus": "yes", "highway": "bus_stop", "public_transport": "platform"}}, {"type": "node", "id": 4499034597, "lat": 36.860657, "lon": 4.1606909, "tags": {"bus": "yes", "highway": "bus_stop", "name": "Agwuni Uzzka", "name:ar": "Agwuni Uzzka", "public_transport": "platform"}}, {"type": "node", "id": 4518113689, "lat": 36.7011437, "lon": 4.1246423, "tags": {"bus": "yes", "highway": "bus_stop", "name": "Taxi Ain el hammmam - oud aissi", "name:fr": "Taxi Ain el hammmam - oud aissi", "public_transport": "platform"}}, {"type": "node", "id": 4532791890, "lat": 36.7009447, "lon": 4.0525148, "tags": {"bus": "yes", "highway": "bus_stop", "name": "Vers Station multimodale / nouvelle gare routi\u00e8re", "name:fr": "Vers Station multimodale / nouvelle gare routi\u00e8re", "public_transport": "platform"}}, {"type": "node", "id": 4532791891, "lat": 36.7111429, "lon": 4.0520449, "tags": {"bus": "yes", "highway": "bus_stop", "name": "Vers la tour / Beni-Douala / nouvelles gare", "name:fr": "Vers la tour / Beni-Douala / nouvelles gare", "public_transport": "platform"}}, {"type": "node", "id": 4532791892, "lat": 36.7138466, "lon": 4.0444254, "tags": {"bus": "yes", "highway": "bus_stop", "name": "Arr\u00eat la mairie", "name:fr": "Arr\u00eat la mairie", "public_transport": "platform"}}, {"type": "node", "id": 4532823389, "lat": 36.7010622, "lon": 4.0526166, "tags": {"bus": "yes", "highway": "bus_stop", "name": "Vers centre-ville / Artisanat", "name:fr": "Vers centre-ville / Artisanat", "public_transport": "platform"}}, {"type": "node", "id": 4532828089, "lat": 36.7072522, "lon": 4.0540526, "tags": {"bus": "yes", "highway": "bus_stop", "name": "Vers centre-ville / station Boukhalfa", "name:fr": "Vers centre-ville / station Boukhalfa", "public_transport": "platform"}}, {"type": "node", "id": 4532828189, "lat": 36.7105323, "lon": 4.0527936, "tags": {"bus": "yes", "highway": "bus_stop", "public_transport": "platform"}}, {"type": "node", "id": 4580195792, "lat": 36.6362404, "lon": 4.2047096, "tags": {"bus": "yes", "highway": "bus_stop", "public_transport": "platform"}}, {"type": "node", "id": 4580279092, "lat": 36.6404949, "lon": 4.1993236, "tags": {"bus": "yes", "highway": "bus_stop", "name": "Tizi Rached", "name:fr": "Tizi Rached", "public_transport": "platform"}}, {"type": "node", "id": 5132674467, "lat": 36.7952699, "lon": 4.2444157, "tags": {"bus": "yes", "highway": "bus_stop", "name": "\u0633\u0648\u0642 \u0627\u0644\u062d\u062f", "name:ar": "\u0633\u0648\u0642 \u0627\u0644\u062d\u062f", "name:fr": "Souk el had", "public_transport": "platform"}}, {"type": "node", "id": 5132717326, "lat": 36.7938002, "lon": 4.2449802, "tags": {"bus": "yes", "highway": "bus_stop", "name:fr": "Arr\u00eat de bus \"Freha\"", "public_transport": "platform"}}, {"type": "node", "id": 5132730223, "lat": 36.7953104, "lon": 4.244382, "tags": {"bus": "yes", "highway": "bus_stop", "name": "\u0633\u0648\u0642 \u0627\u0644\u062d\u062f", "name:ar": "\u0633\u0648\u0642 \u0627\u0644\u062d\u062f", "name:fr": "Souk el had", "public_transport": "platform"}}, {"type": "node", "id": 5240940922, "lat": 36.8853553, "lon": 4.1272386, "tags": {"bus": "yes", "highway": "bus_stop", "name": "Cite zeghdoud", "public_transport": "platform"}}, {"type": "node", "id": 5641524321, "lat": 36.8654694, "lon": 4.2197093, "tags": {"bus": "yes", "highway": "bus_stop", "name:fr": "Iflissen", "public_transport": "platform"}}, {"type": "node", "id": 5751866123, "lat": 36.8919289, "lon": 4.1296083, "tags": {"highway": "bus_stop", "name:fr": "Bus de Iflissen"}}, {"type": "node", "id": 5751866821, "lat": 36.8940699, "lon": 4.1245417, "tags": {"highway": "bus_stop"}}, {"type": "node", "id": 5751866822, "lat": 36.892778, "lon": 4.1252035, "tags": {"highway": "bus_stop", "name:fr": "Arr\u00eat des Taxis"}}, {"type": "node", "id": 5856109086, "lat": 36.8863921, "lon": 4.0023494, "tags": {"highway": "bus_stop"}}, {"type": "node", "id": 5856110600, "lat": 36.8955864, "lon": 3.998813, "tags": {"highway": "bus_stop"}}, {"type": "node", "id": 5859210199, "lat": 36.8900074, "lon": 4.0770876, "tags": {"highway": "bus_stop"}}, {"type": "node", "id": 6130844890, "lat": 36.7787404, "lon": 4.029041, "tags": {"highway": "bus_stop", "name:fr": "Sadouk youcef"}}, {"type": "node", "id": 6130845190, "lat": 36.8825243, "lon": 4.1455215, "tags": {"highway": "bus_stop", "name": "Ferhat said marin"}}, {"type": "node", "id": 6516172585, "lat": 36.8925147, "lon": 4.1227657, "tags": {"highway": "bus_stop", "name:fr": "Arr\u00eat de cheurfa"}}, {"type": "node", "id": 6522513197, "lat": 36.8822225, "lon": 4.2233932, "tags": {"bus": "yes", "highway": "bus_stop", "public_transport": "platform"}}, {"type": "node", "id": 6522513198, "lat": 36.8470131, "lon": 4.2511444, "tags": {"highway": "bus_stop"}}, {"type": "node", "id": 6522516487, "lat": 36.9008254, "lon": 4.1512003, "tags": {"highway": "bus_stop"}}, {"type": "node", "id": 6522516786, "lat": 36.8935303, "lon": 4.1217272, "tags": {"highway": "bus_stop"}}, {"type": "node", "id": 6558336586, "lat": 36.6566774, "lon": 4.0481178, "tags": {"highway": "bus_stop"}}, {"type": "node", "id": 6558339885, "lat": 36.648064, "lon": 4.0448243, "tags": {"bus": "yes", "highway": "bus_stop", "public_transport": "platform"}}, {"type": "node", "id": 6558339886, "lat": 36.6497392, "lon": 4.0460771, "tags": {"bus": "yes", "highway": "bus_stop", "public_transport": "platform"}}, {"type": "node", "id": 7702391123, "lat": 36.7147782, "lon": 4.0767296, "tags": {"bus": "yes", "highway": "bus_stop", "public_transport": "platform"}}, {"type": "node", "id": 7702407987, "lat": 36.7111189, "lon": 4.0737351, "tags": {"bus": "yes", "highway": "bus_stop", "public_transport": "platform"}}, {"type": "node", "id": 7702407988, "lat": 36.7139459, "lon": 4.0756641, "tags": {"bus": "yes", "highway": "bus_stop", "public_transport": "platform"}}, {"type": "node", "id": 7702415695, "lat": 36.7131312, "lon": 4.0748553, "tags": {"bus": "yes", "highway": "bus_stop", "public_transport": "platform"}}, {"type": "node", "id": 7884563885, "lat": 36.6838276, "lon": 4.0395914, "tags": {"highway": "bus_stop"}}, {"type": "node", "id": 7884563985, "lat": 36.695399, "lon": 4.0401273, "tags": {"highway": "bus_stop", "name:fr": "EPLF vers B\u00e9ni zmenzer"}}, {"type": "node", "id": 7884564085, "lat": 36.6954264, "lon": 4.0402086, "tags": {"highway": "bus_stop", "name:fr": "EPLF vers centre ville"}}, {"type": "node", "id": 7884564086, "lat": 36.7130487, "lon": 4.0442479, "tags": {"highway": "bus_stop", "name:fr": "Centre ville vers EPLF"}}, {"type": "node", "id": 7884580385, "lat": 36.6953807, "lon": 4.0401196, "tags": {"highway": "bus_stop", "name:fr": "EPLF vers B\u00e9ni Zmenzer"}}, {"type": "node", "id": 7884580485, "lat": 36.6954333, "lon": 4.0402283, "tags": {"highway": "bus_stop", "name:fr": "EPLF vers centre ville"}}, {"type": "node", "id": 8035298568, "lat": 36.8948155, "lon": 4.1599437, "tags": {"bus": "yes", "description": "Arr\u00eat de bus, transports en commun", "highway": "bus_stop", "name": "Leqwas", "public_transport": "platform"}}, {"type": "node", "id": 8120744517, "lat": 36.6177355, "lon": 4.086786, "tags": {"highway": "bus_stop", "name": "AIT-BOUYAHIA", "name:fr": "Arr\u00eat de bus At Buyahya"}}, {"type": "node", "id": 8860531017, "lat": 36.6254119, "lon": 4.1097912, "tags": {"highway": "bus_stop", "name:fr": "Arr\u00eat Amsiouene"}}, {"type": "node", "id": 11905355469, "lat": 36.7459788, "lon": 4.3719464, "tags": {"highway": "bus_stop", "name": "Arr\u00eat de bus Cherfa Ait Bouada"}}, {"type": "node", "id": 12084145070, "lat": 36.7920771, "lon": 4.0642449, "tags": {"highway": "bus_stop", "name": "arr\u00eat de bus Tigzirt"}}, {"type": "node", "id": 12084145169, "lat": 36.7922825, "lon": 4.0641406, "tags": {"highway": "bus_stop", "name": "arr\u00eat de bus Tizi-ouzou"}}]}