{"version": 0.6, "generator": "Overpass API 0.7.62.5 1bd436f1", "osm3s": {"timestamp_osm_base": "2025-04-09T14:38:15Z", "copyright": "The data included in this document is from www.openstreetmap.org. The data is made available under ODbL."}, "elements": [{"type": "node", "id": 253168262, "lat": 36.7532614, "lon": 3.4741786, "tags": {"addr:city": "\u0628\u0648\u0645\u0631\u062f\u0627\u0633", "name": "Boumerd\u00e8s", "name:ar": "\u0628\u0648\u0645\u0631\u062f\u0627\u0633", "name:ary": "\u0628\u0648\u0645\u0631\u062f\u0627\u0633", "name:arz": "\u0628\u0648\u0645\u0631\u062f\u0627\u0633", "name:az-Arab": "\u0628\u0648\u0645\u0631\u062f\u0627\u0633", "name:azb": "\u0628\u0648\u0645\u0631\u062f\u0627\u0633", "name:de": "Bumerdes", "name:el": "\u039c\u03c0\u03bf\u03c5\u03bc\u03ad\u03c1\u03bd\u03c4", "name:en": "Boumerdes", "name:es": "Bumerd\u00e9s", "name:fa": "\u0628\u0648\u0645\u0631\u062f\u0627\u0633", "name:fr": "Boumerd\u00e8s", "name:kab-Arab": "\u0628\u0648\u0645\u0631\u062f\u0627\u0633", "name:ks": "\u0628\u0648\u0645\u0631\u062f\u0627\u0633", "name:pnb": "\u0628\u0648\u0645\u0631\u062f\u0627\u0633", "name:ur": "\u0628\u0648\u0645\u0631\u062f\u0627\u0633", "operator": "SNTF", "operator:wikidata": "Q1275038", "owner": "SNTF", "owner:wikidata": "Q1275038", "public_transport": "station", "railway": "station", "wikidata": "Q110508794", "wikipedia": "fr:Gare de Boumerd\u00e8s"}}, {"type": "node", "id": 253168288, "lat": 36.7537749, "lon": 3.4355232, "tags": {"addr:city": "\u0642\u0648\u0631\u0635\u0648", "image": "https://upload.wikimedia.org/wikipedia/fr/5/53/SNTF.png", "name": "Corso", "name:ar": "\u0642\u0648\u0631\u0635\u0648", "name:de": "Corso", "name:en": "Corso", "name:es": "Corso", "name:fr": "Corso", "name:kab": "Qorso", "operator": "SNTF", "owner": "SNTF", "public_transport": "station", "railway": "station", "wikidata": "Q110508524", "wikipedia": "fr:Gare de Corso"}}, {"type": "node", "id": 253168995, "lat": 36.7252486, "lon": 3.552996, "tags": {"electrified": "contact_line", "name": "Th\u00e9nia", "name:ar": "\u0627\u0644\u062b\u0646\u064a\u0629", "name:fr": "Th\u00e9nia", "operator": "SNTF", "public_transport": "station", "railway": "station", "wikidata": "Q20127536"}}, {"type": "node", "id": 290860102, "lat": 36.7422864, "lon": 3.8997576, "tags": {"alt_name:ar": "\u062b\u0627\u0630\u0645\u0627\u064a\u062b", "name": "Tadmait", "name:ar": "\u062a\u0627\u062f\u0645\u0627\u064a\u062a", "name:en": "Tadmait", "name:fr": "Tadma\u00eft", "name:kab": "Tadmayt", "operator": "SNTF", "public_transport": "station", "railway": "station", "train": "yes", "wikidata": "Q115610561", "wikipedia": "fr:Gare de Tadma\u00eft"}}, {"type": "node", "id": 703255631, "lat": 36.7313532, "lon": 3.5010121, "tags": {"alt_name": "Tidjelabine", "alt_name:ar": "\u062a\u064a\u062c\u0644\u0627\u0628\u064a\u0646", "name": "Tidjellabine", "name:ar": "\u062a\u064a\u062c\u0644\u0627\u0628\u064a\u0646", "name:en": "Tidjelabine", "name:fr": "Tidjelabine", "operator": "SNTF", "operator:wikidata": "Q1275038", "owner": "SNTF", "owner:wikidata": "Q1275038", "public_transport": "station", "railway": "station", "wikidata": "Q110508832", "wikipedia": "fr:Gare de Tidjelabine"}}, {"type": "node", "id": 2313235689, "lat": 36.544137, "lon": 3.9528585, "tags": {"bus": "yes", "highway": "bus_stop", "local_ref": "Station Bus", "name": "Boghni-Tizi Ouzou", "public_transport": "platform"}}, {"type": "node", "id": 2331178899, "lat": 36.757394, "lon": 3.4753566, "tags": {"bus": "yes", "highway": "bus_stop", "name": "Arr\u00eat de bus: Lyc\u00e9e, La poste, Wilaya...", "public_transport": "platform"}}, {"type": "node", "id": 3020958914, "lat": 36.8015679, "lon": 3.8600643, "tags": {"bus": "yes", "highway": "bus_stop", "public_transport": "platform"}}, {"type": "node", "id": 3020958917, "lat": 36.8439198, "lon": 3.8910914, "tags": {"bus": "yes", "highway": "bus_stop", "public_transport": "platform"}}, {"type": "node", "id": 3021062238, "lat": 36.8016333, "lon": 3.8598565, "tags": {"bus": "yes", "highway": "bus_stop", "public_transport": "platform"}}, {"type": "node", "id": 3422426840, "lat": 36.7643148, "lon": 3.4916886, "tags": {"bus": "yes", "highway": "bus_stop", "name": "Arr\u00eat de bus", "public_transport": "platform"}}, {"type": "node", "id": 3422429501, "lat": 36.7657028, "lon": 3.4943552, "tags": {"bus": "yes", "highway": "bus_stop", "name": "Arr\u00eat de bus", "public_transport": "platform"}}, {"type": "node", "id": 3476405645, "lat": 36.5610604, "lon": 3.5874283, "tags": {"name": "Lakhdaria", "name:ar": "\u0627\u0644\u0623\u062e\u0636\u0631\u064a\u0629", "name:en": "Lakhdaria", "name:fr": "Lakhdaria", "operator": "SNTF", "public_transport": "station", "railway": "station", "train": "yes"}}, {"type": "node", "id": 3476985005, "lat": 36.5346842, "lon": 3.6880815, "tags": {"name": "Kadiria", "name:ar": "\u0627\u0644\u0642\u0627\u062f\u0631\u064a\u0629", "name:en": "Kadiria", "name:fr": "Kadiria", "public_transport": "station", "railway": "station", "train": "yes", "wikidata": "Q118469517", "wikipedia": "fr:Gare de Kadiria"}}, {"type": "node", "id": 3477151500, "lat": 36.7245899, "lon": 3.5581674, "tags": {"bus": "yes", "highway": "bus_stop", "public_transport": "platform"}}, {"type": "node", "id": 3510860764, "lat": 36.735644, "lon": 3.9676752, "tags": {"bench": "no", "bus": "yes", "covered": "yes", "highway": "bus_stop", "name": "Station bus Draa Ben Khedda - Tizi Ouzou", "price": "20 DZD", "public_transport": "platform", "shelter": "yes"}}, {"type": "node", "id": 3604899120, "lat": 36.7673851, "lon": 3.5001481, "tags": {"bus": "yes", "highway": "bus_stop", "name": "Arret de bus: Sahel", "public_transport": "platform"}}, {"type": "node", "id": 3604951110, "lat": 36.7717573, "lon": 3.5135759, "tags": {"bus": "yes", "highway": "bus_stop", "local_ref": "Le figuier", "public_transport": "platform"}}, {"type": "node", "id": 3618651496, "lat": 36.7471358, "lon": 3.4418187, "tags": {"bus": "yes", "highway": "bus_stop", "public_transport": "platform"}}, {"type": "node", "id": 3683501059, "lat": 36.7826011, "lon": 3.5309062, "tags": {"bus": "yes", "highway": "bus_stop", "public_transport": "platform"}}, {"type": "node", "id": 3683503863, "lat": 36.7574866, "lon": 3.4803418, "tags": {"bus": "yes", "highway": "bus_stop", "public_transport": "platform"}}, {"type": "node", "id": 3683503870, "lat": 36.7514822, "lon": 3.6187099, "tags": {"bus": "yes", "highway": "bus_stop", "public_transport": "platform"}}, {"type": "node", "id": 3683503881, "lat": 36.7182689, "lon": 3.5954914, "tags": {"bus": "yes", "highway": "bus_stop", "public_transport": "platform"}}, {"type": "node", "id": 3683504045, "lat": 36.7671252, "lon": 3.5002427, "tags": {"bus": "yes", "highway": "bus_stop", "name": "Sahel", "public_transport": "platform"}}, {"type": "node", "id": 3683504046, "lat": 36.7716569, "lon": 3.5136805, "tags": {"bus": "yes", "highway": "bus_stop", "public_transport": "platform"}}, {"type": "node", "id": 3683504725, "lat": 36.7679284, "lon": 3.6091832, "tags": {"bus": "yes", "highway": "bus_stop", "public_transport": "platform"}}, {"type": "node", "id": 3683504726, "lat": 36.7378746, "lon": 3.6212336, "tags": {"bus": "yes", "highway": "bus_stop", "public_transport": "platform"}}, {"type": "node", "id": 3897303469, "lat": 36.7537039, "lon": 3.7199127}, {"type": "node", "id": 3897303473, "lat": 36.7536893, "lon": 3.7197195}, {"type": "node", "id": 3897303474, "lat": 36.753295, "lon": 3.7197659}, {"type": "node", "id": 3897303475, "lat": 36.7533096, "lon": 3.7199591}, {"type": "node", "id": 3932052504, "lat": 36.7138525, "lon": 3.4309444, "tags": {"bus": "yes", "highway": "bus_stop", "name": "arr\u00eat de bus", "public_transport": "platform"}}, {"type": "node", "id": 3940341041, "lat": 36.915813, "lon": 3.8799219, "tags": {"bus": "yes", "highway": "bus_stop", "public_transport": "platform"}}, {"type": "node", "id": 3940341042, "lat": 36.9158592, "lon": 3.8802625, "tags": {"bus": "yes", "highway": "bus_stop", "public_transport": "platform"}}, {"type": "node", "id": 3940341043, "lat": 36.9169494, "lon": 3.8864538, "tags": {"bus": "yes", "highway": "bus_stop", "public_transport": "platform"}}, {"type": "node", "id": 3940341044, "lat": 36.9174572, "lon": 3.8886253, "tags": {"bus": "yes", "highway": "bus_stop", "public_transport": "platform"}}, {"type": "node", "id": 3940341045, "lat": 36.9174423, "lon": 3.8892558, "tags": {"bus": "yes", "highway": "bus_stop", "public_transport": "platform"}}, {"type": "node", "id": 3940341046, "lat": 36.9174908, "lon": 3.8925201, "tags": {"bus": "yes", "highway": "bus_stop", "public_transport": "platform"}}, {"type": "node", "id": 3940341047, "lat": 36.9174329, "lon": 3.8922306, "tags": {"bus": "yes", "highway": "bus_stop", "public_transport": "platform"}}, {"type": "node", "id": 3940341048, "lat": 36.9170073, "lon": 3.8946987, "tags": {"bus": "yes", "highway": "bus_stop", "public_transport": "platform"}}, {"type": "node", "id": 3940341049, "lat": 36.9168561, "lon": 3.8946706, "tags": {"bus": "yes", "highway": "bus_stop", "public_transport": "platform"}}, {"type": "node", "id": 3940341050, "lat": 36.916591, "lon": 3.8985561, "tags": {"bus": "yes", "highway": "bus_stop", "public_transport": "platform"}}, {"type": "node", "id": 3940341051, "lat": 36.9165107, "lon": 3.8985561, "tags": {"bus": "yes", "highway": "bus_stop", "public_transport": "platform"}}, {"type": "node", "id": 3940341052, "lat": 36.916268, "lon": 3.9026307, "tags": {"bus": "yes", "highway": "bus_stop", "public_transport": "platform"}}, {"type": "node", "id": 3940341053, "lat": 36.9161373, "lon": 3.902612, "tags": {"bus": "yes", "highway": "bus_stop", "public_transport": "platform"}}, {"type": "node", "id": 3940341055, "lat": 36.9161683, "lon": 3.9050643, "tags": {"bus": "yes", "highway": "bus_stop", "public_transport": "platform"}}, {"type": "node", "id": 3940341056, "lat": 36.9160643, "lon": 3.905235, "tags": {"bus": "yes", "highway": "bus_stop", "public_transport": "platform"}}, {"type": "node", "id": 3940341065, "lat": 36.9171575, "lon": 3.9105961, "tags": {"bus": "yes", "highway": "bus_stop", "public_transport": "platform"}}, {"type": "node", "id": 4175807790, "lat": 36.7637245, "lon": 3.4613626, "tags": {"bus": "yes", "highway": "bus_stop", "name": "Arr\u00eat de bus 800 logements", "public_transport": "platform"}}, {"type": "node", "id": 4290388898, "lat": 36.726066, "lon": 3.5531439, "tags": {"bus": "yes", "highway": "bus_stop", "public_transport": "platform"}}, {"type": "node", "id": 4351003114, "lat": 36.7323361, "lon": 3.9604632, "tags": {"bus": "yes", "highway": "bus_stop", "name": "Transport Tirmitine/Zarrouda", "public_transport": "platform"}}, {"type": "node", "id": 4351003115, "lat": 36.7300991, "lon": 3.9606145, "tags": {"bus": "yes", "highway": "bus_stop", "name": "Transport Ait Arif et cie", "public_transport": "platform"}}, {"type": "node", "id": 4369317227, "lat": 36.7578451, "lon": 3.4698569, "tags": {"bus": "yes", "highway": "bus_stop", "name": "Arr\u00eat de bus: La poste, Tribunal, Mairie", "public_transport": "platform"}}, {"type": "node", "id": 4369317228, "lat": 36.7577096, "lon": 3.4718646, "tags": {"bus": "yes", "highway": "bus_stop", "public_transport": "platform"}}, {"type": "node", "id": 4423521599, "lat": 36.7354622, "lon": 3.9546528, "tags": {"bench": "yes", "bin": "no", "bus": "yes", "highway": "bus_stop", "lit": "yes", "name": "Arr\u00eat de bus Sidi Naaman", "public_transport": "platform", "shelter": "yes"}}, {"type": "node", "id": 4423521711, "lat": 36.7504702, "lon": 3.8982966, "tags": {"bus": "yes", "highway": "bus_stop", "name": "Tadma\u00eft", "name:ar": "\u062a\u0627\u062f\u0645\u0627\u064a\u062a", "name:fr": "Tadma\u00eft", "public_transport": "platform"}}, {"type": "node", "id": 4423571690, "lat": 36.7291035, "lon": 3.9596138, "tags": {"bus": "yes", "highway": "bus_stop", "name": "bus universitaire", "name:fr": "bus universitaire", "public_transport": "platform", "shelter": "no"}}, {"type": "node", "id": 4424421690, "lat": 36.5885361, "lon": 3.773542, "tags": {"bus": "yes", "highway": "bus_stop", "name": "station de taxi draa el mizane", "name:fr": "station de taxi draa el mizane", "public_transport": "platform"}}, {"type": "node", "id": 4424427589, "lat": 36.5878672, "lon": 3.7745753, "tags": {"bus": "yes", "highway": "bus_stop", "name": "station de fourgon draa el mizane", "name:fr": "station de fourgon draa el mizane", "public_transport": "platform"}}, {"type": "node", "id": 4553336017, "lat": 36.8787338, "lon": 3.8754053, "tags": {"bus": "yes", "highway": "bus_stop", "name": "\u0627\u0644\u062b\u0648\u0627\u0628\u062a", "name:ar": "\u0627\u0644\u062b\u0648\u0627\u0628\u062a", "name:fr": "Thouabet", "public_transport": "platform"}}, {"type": "node", "id": 4553366409, "lat": 36.8785461, "lon": 3.8754129, "tags": {"bus": "yes", "highway": "bus_stop", "name": "\u0627\u0644\u062b\u0648\u0627\u0628\u062a", "name:ar": "\u0627\u0644\u062b\u0648\u0627\u0628\u062a", "name:fr": "Thouabet", "public_transport": "platform"}}, {"type": "node", "id": 4553375591, "lat": 36.8845705, "lon": 3.8707598, "tags": {"bus": "yes", "highway": "bus_stop", "public_transport": "platform"}}, {"type": "node", "id": 4579647898, "lat": 36.8845529, "lon": 3.8707768, "tags": {"bus": "yes", "highway": "bus_stop", "name": "\u0643\u0627\u0631\u064a\u0627\u0631", "name:ar": "\u0643\u0627\u0631\u064a\u0627\u0631", "name:fr": "Carri\u00e8re", "public_transport": "platform"}}, {"type": "node", "id": 4781164954, "lat": 36.7514501, "lon": 3.8259919, "tags": {"name": "Naciria", "name:ar": "\u0627\u0644\u0646\u0627\u0635\u0631\u064a\u0629", "name:fr": "Naciria", "public_transport": "station", "railway": "station", "train": "yes", "wikidata": "Q115610625", "wikipedia": "fr:Gare de Naciria"}}, {"type": "node", "id": 4781229056, "lat": 36.7536145, "lon": 3.7198315, "tags": {"name": "Bordj Menaiel", "name:ar": "\u0628\u0631\u062c \u0645\u0646\u0627\u064a\u0644", "operator": "SNTF", "public_transport": "station", "railway": "station", "wikidata": "Q115610661", "wikipedia": "fr:Gare de Bordj Mena\u00efel"}}, {"type": "node", "id": 4781287443, "lat": 36.7414853, "lon": 3.9596345, "tags": {"name": "Dra\u00e2 Ben Khedda", "name:ar": "\u0630\u0631\u0627\u0639 \u0628\u0646 \u062e\u062f\u0629", "name:fr": "Dra\u00e2 Ben Khedda", "operator": "SNTF", "public_transport": "station", "railway": "station", "train": "yes", "wikidata": "Q115610539", "wikipedia": "fr:Gare de Dra\u00e2 Ben Khedda"}}, {"type": "node", "id": 4794785622, "lat": 36.4912739, "lon": 3.7691472, "tags": {"bus": "yes", "highway": "bus_stop", "name": "\u0639\u0645\u0631 - \u0630\u0631\u0627\u0639 \u0627\u0644\u0645\u064a\u0632\u0627\u0646 / \u0639\u0645\u0631 - \u0642\u0631\u0627\u0631\u064a\u0628", "name:ar": "\u0639\u0645\u0631 - \u0630\u0631\u0627\u0639 \u0627\u0644\u0645\u064a\u0632\u0627\u0646 / \u0639\u0645\u0631 - \u0642\u0631\u0627\u0631\u064a\u0628", "name:fr": "Omar - Dra\u00e2 El Mizan / Omar - Krarib", "public_transport": "platform"}}, {"type": "node", "id": 4796477621, "lat": 36.4894276, "lon": 3.7682792, "tags": {"bus": "yes", "highway": "bus_stop", "name": "\u0645\u062d\u0637\u0629 \u0639\u0645\u0631 - \u0627\u0644\u0623\u062e\u0636\u0631\u064a\u0629", "name:ar": "\u0645\u062d\u0637\u0629 \u0639\u0645\u0631 - \u0627\u0644\u0623\u062e\u0636\u0631\u064a\u0629", "name:fr": "Omar - Lakhdaria", "public_transport": "platform"}}, {"type": "node", "id": 4809685035, "lat": 36.5417075, "lon": 3.9540153, "tags": {"bus": "yes", "highway": "bus_stop", "name:fr": "Arr\u00eat de Fourgon Beni Mendes", "public_transport": "platform"}}, {"type": "node", "id": 4919502339, "lat": 36.5770145, "lon": 3.7233525, "tags": {"bus": "yes", "highway": "bus_stop", "name": "\u0628\u0642\u0627\u0635", "name:ar": "\u0628\u0642\u0627\u0635", "name:en": "Beggas", "name:fr": "Beggas", "operator": "\u0645\u0648\u0644 \u0627\u0644\u0623\u0631\u0636", "public_transport": "platform"}}, {"type": "node", "id": 5407094539, "lat": 36.7536658, "lon": 3.7197223}, {"type": "node", "id": 5407094541, "lat": 36.7536777, "lon": 3.7199158}, {"type": "node", "id": 5627308716, "lat": 36.487808, "lon": 3.7668451, "tags": {"bus": "yes", "highway": "bus_stop", "name": "\u0639\u0645\u0631 - \u0627\u0644\u062c\u0628\u0627\u062d\u064a\u0629", "name:ar": "\u0639\u0645\u0631 - \u0627\u0644\u062c\u0628\u0627\u062d\u064a\u0629", "name:fr": "Aomar vers djebahia", "public_transport": "platform"}}, {"type": "node", "id": 5627308717, "lat": 36.4881063, "lon": 3.7669892, "tags": {"bus": "yes", "highway": "bus_stop", "name": "\u0639\u0645\u0631 - \u0627\u0644\u0628\u0648\u064a\u0631\u0629", "name:ar": "\u0639\u0645\u0631 - \u0627\u0644\u0628\u0648\u064a\u0631\u0629", "name:fr": "Aomar vers Bouira", "public_transport": "platform"}}, {"type": "node", "id": 5694823923, "lat": 36.7232295, "lon": 3.6229067, "tags": {"bus": "yes", "highway": "bus_stop", "public_transport": "platform"}}, {"type": "node", "id": 5873926336, "lat": 36.8892546, "lon": 3.7520167, "tags": {"highway": "bus_stop"}}, {"type": "node", "id": 5873926339, "lat": 36.8477736, "lon": 3.7058012, "tags": {"highway": "bus_stop"}}, {"type": "node", "id": 5873932008, "lat": 36.8932646, "lon": 3.7746862, "tags": {"highway": "bus_stop"}}, {"type": "node", "id": 5873932096, "lat": 36.8450387, "lon": 3.7031825, "tags": {"highway": "bus_stop"}}, {"type": "node", "id": 6130844694, "lat": 36.5334422, "lon": 3.8220331, "tags": {"highway": "bus_stop", "name": "\u0642\u0628\u0627\u064a\u0644\u064a \u062c\u0644\u0627\u0644\u064a", "name:ar": "\u0642\u0628\u0627\u064a\u0644\u064a \u062c\u0644\u0627\u0644\u064a", "name:fr": "Kebaili djilali"}}, {"type": "node", "id": 6626986889, "lat": 36.5448989, "lon": 3.9535583, "tags": {"highway": "bus_stop", "name": "Arret fourgon assi-youcef", "name:fr": "Arret fourgon assi-youcef"}}, {"type": "node", "id": 6634890985, "lat": 36.7992525, "lon": 3.5618861, "tags": {"highway": "bus_stop", "name": "Zemouri plage"}}, {"type": "node", "id": 6635642197, "lat": 36.7999822, "lon": 3.562178, "tags": {"highway": "bus_stop", "name": "Parking zemouri", "name:fr": "Parking zemouri"}}, {"type": "node", "id": 7597876785, "lat": 36.6380236, "lon": 3.8864496, "tags": {"highway": "bus_stop", "name:fr": "DBK......AYM"}}, {"type": "node", "id": 8047868117, "lat": 36.5415139, "lon": 3.6659745, "tags": {"bus": "yes", "highway": "bus_stop", "name": "Arr\u00eat de bus", "name:fr": "Arr\u00eat de bus", "public_transport": "platform"}}, {"type": "node", "id": 8047868118, "lat": 36.5408991, "lon": 3.6663723, "tags": {"bus": "yes", "highway": "bus_stop", "name": "Arr\u00eat de bus", "name:fr": "Arr\u00eat de bus", "public_transport": "platform"}}, {"type": "node", "id": 8120123118, "lat": 36.6338694, "lon": 3.9927376, "tags": {"highway": "bus_stop", "name": "L'arr\u00eat"}}, {"type": "node", "id": 8741451781, "lat": 36.7498938, "lon": 3.899726, "tags": {"bus": "yes", "highway": "bus_stop", "name": "Tadma\u00eft", "name:ar": "\u062a\u0627\u062f\u0645\u0627\u064a\u062a", "name:fr": "Tadma\u00eft", "public_transport": "platform"}}, {"type": "node", "id": 9341097805, "lat": 36.4906517, "lon": 3.7736778, "tags": {"name": "Aomar", "name:ar": "\u0639\u0645\u0631", "name:en": "Aomar", "name:fr": "Aomar", "public_transport": "station", "railway": "station", "train": "yes", "wikidata": "Q118469508", "wikipedia": "fr:Gare de Dra\u00e2 El Mizan"}}, {"type": "node", "id": 9432950563, "lat": 36.5347291, "lon": 3.6822106, "tags": {"bus": "yes", "highway": "bus_stop", "name": "arret de bus Bouira-Lakhdaria", "public_transport": "platform"}}, {"type": "node", "id": 9432950564, "lat": 36.5347291, "lon": 3.682038, "tags": {"bus": "yes", "highway": "bus_stop", "name": "arret de bus Lakhdaria-Bouira", "public_transport": "platform"}}, {"type": "node", "id": 9579030318, "lat": 36.6755065, "lon": 3.9587799, "tags": {"bus": "yes", "highway": "bus_stop", "name": "MANI", "public_transport": "platform"}}, {"type": "node", "id": 10741736305, "lat": 36.6379178, "lon": 3.8864666, "tags": {"highway": "bus_stop", "name:fr": "arr\u00eat . ighil el bir ait houlhadj"}}, {"type": "node", "id": 11497731969, "lat": 36.7356886, "lon": 3.9558206, "tags": {"bus": "yes", "highway": "bus_stop", "name:fr": "station sidi Ali bouneb", "public_transport": "platform"}}, {"type": "node", "id": 11635817582, "lat": 36.6589269, "lon": 3.735778, "tags": {"bus": "yes", "departures_board": "no", "highway": "bus_stop", "name": "Azouza bus stop", "public_transport": "platform", "shelter": "yes"}}, {"type": "node", "id": 11635817586, "lat": 36.6608748, "lon": 3.741134, "tags": {"bus": "yes", "highway": "bus_stop", "name": "Azouza bus stop", "public_transport": "platform", "shelter": "no"}}, {"type": "node", "id": 11639361559, "lat": 36.6364422, "lon": 3.6949872, "tags": {"bus": "yes", "highway": "bus_stop", "name": "Beni Entas", "public_transport": "platform"}}, {"type": "node", "id": 11639381195, "lat": 36.6358457, "lon": 3.6922759, "tags": {"bus": "yes", "highway": "bus_stop", "name": "Ouled Boudoukhane", "public_transport": "platform"}}, {"type": "node", "id": 11639381196, "lat": 36.6361215, "lon": 3.6924671, "tags": {"bus": "yes", "highway": "bus_stop", "name": "Ouled Ali", "public_transport": "platform"}}, {"type": "node", "id": 12509148714, "lat": 36.7827899, "lon": 3.5309529, "tags": {"bus": "yes", "highway": "bus_stop", "public_transport": "platform"}}, {"type": "way", "id": 386408264, "nodes": [3897303469, 3897303473, 5407094539, 3897303474, 3897303475, 5407094541, 3897303469], "tags": {"building": "train_station", "layer": "2", "name": "Bordj Menaiel", "operator": "SNTF", "railway": "station"}}]}