{"version": 0.6, "generator": "Overpass API 0.7.62.5 1bd436f1", "osm3s": {"timestamp_osm_base": "2025-04-09T14:37:14Z", "copyright": "The data included in this document is from www.openstreetmap.org. The data is made available under ODbL."}, "elements": [{"type": "node", "id": 610545927, "lat": 44.1041147, "lon": 1.0825214, "tags": {"highway": "bus_stop", "public_transport": "stop_position", "shelter": "no"}}, {"type": "node", "id": 635781748, "lat": 44.1115872, "lon": 0.8917663}, {"type": "node", "id": 635781749, "lat": 44.1116887, "lon": 0.8914038}, {"type": "node", "id": 635781750, "lat": 44.1117781, "lon": 0.8914524}, {"type": "node", "id": 635781751, "lat": 44.1116765, "lon": 0.8918149}, {"type": "node", "id": 733865801, "lat": 44.1032797, "lon": 1.0879231, "tags": {"bench": "yes", "bin": "yes", "bus": "yes", "highway": "bus_stop", "lit": "yes", "name": "Moissac - Tribunal", "public_transport": "platform", "shelter": "yes", "tactile_paving": "no"}}, {"type": "node", "id": 1229560761, "lat": 44.1083174, "lon": 1.1029719, "tags": {"bench": "no", "bin": "no", "highway": "bus_stop", "lit": "no", "name:signed": "no", "shelter": "yes", "tactile_paving": "no"}}, {"type": "node", "id": 1313165933, "lat": 44.0954775, "lon": 1.0844153, "tags": {"bus": "yes", "highway": "bus_stop", "name": "Saint-Beno\u00eet", "public_transport": "platform", "shelter": "no", "source": "cadastre-dgi-fr source : Direction G\u00e9n\u00e9rale des Imp\u00f4ts - Cadastre. Mise \u00e0 jour : 2011"}}, {"type": "node", "id": 1430779895, "lat": 43.9017837, "lon": 1.0701957, "tags": {"bus": "yes", "highway": "bus_stop", "name": "Belb\u00e8ze - Centre", "public_transport": "platform"}}, {"type": "node", "id": 1431843825, "lat": 43.9164355, "lon": 1.1810271, "tags": {"bench": "yes", "bus": "yes", "highway": "bus_stop", "lit": "no", "name": "Mas-Grenier - Barias", "public_transport": "platform", "shelter": "yes"}}, {"type": "node", "id": 1431898457, "lat": 43.9466539, "lon": 1.150947, "tags": {"bus": "yes", "highway": "bus_stop", "name": "Bourret - Gourdis", "public_transport": "platform"}}, {"type": "node", "id": 1476348865, "lat": 44.130943, "lon": 1.0690293, "tags": {"bus": "yes", "highway": "bus_stop", "name": "Mathaly", "public_transport": "platform"}}, {"type": "node", "id": 1476962771, "lat": 44.1149587, "lon": 1.0743029, "tags": {"highway": "bus_stop", "shelter": "no"}}, {"type": "node", "id": 1489905573, "lat": 44.1163215, "lon": 1.1054811, "tags": {"bus": "yes", "highway": "bus_stop", "name": "Rullet", "public_transport": "platform"}}, {"type": "node", "id": 2181909239, "lat": 44.1024178, "lon": 1.0773525, "tags": {"name": "Moissac", "official_name": "Moissac", "operator": "SNCF", "railway": "station", "train": "yes", "uic_ref": "8761188", "wheelchair": "yes", "wikidata": "Q2796494", "wikipedia": "fr:Gare de Moissac"}}, {"type": "node", "id": 2192374863, "lat": 44.1021523, "lon": 1.0986248, "tags": {"bench": "no", "bin": "no", "bus": "yes", "highway": "bus_stop", "lit": "yes", "name": "Moissac - Le Sarlac", "public_transport": "platform", "shelter": "no", "tactile_paving": "no"}}, {"type": "node", "id": 2297528821, "lat": 44.0697082, "lon": 0.8989166, "tags": {"highway": "bus_stop"}}, {"type": "node", "id": 3785765477, "lat": 44.0487009, "lon": 0.9571038, "tags": {"bus": "yes", "highway": "bus_stop", "public_transport": "stop_position"}}, {"type": "node", "id": 4937145932, "lat": 44.1022562, "lon": 1.0777575, "tags": {"bench": "no", "bin": "yes", "bus": "yes", "highway": "bus_stop", "lit": "yes", "name": "Gare de Moissac", "public_transport": "platform", "shelter": "no", "tactile_paving": "no"}}, {"type": "node", "id": 5820922056, "lat": 43.9965936, "lon": 0.8196187, "tags": {"bench": "no", "bin": "no", "highway": "bus_stop", "shelter": "no"}}, {"type": "node", "id": 5822104168, "lat": 44.0619041, "lon": 0.8579877, "tags": {"bus": "yes", "highway": "bus_stop", "public_transport": "platform"}}, {"type": "node", "id": 5822104169, "lat": 44.0619754, "lon": 0.8580172, "tags": {"bus": "yes", "highway": "bus_stop", "public_transport": "platform"}}, {"type": "node", "id": 6203473294, "lat": 43.8991181, "lon": 1.1331366, "tags": {"bench": "yes", "bus": "yes", "highway": "bus_stop", "lit": "yes", "name": "Saint-Sardos - Place Marius Grani\u00e9", "public_transport": "platform"}}, {"type": "node", "id": 6565867336, "lat": 43.9420325, "lon": 1.1695293, "tags": {"bench": "yes", "bin": "no", "bus": "yes", "highway": "bus_stop", "lit": "no", "name": "Bourret", "public_transport": "platform", "shelter": "yes", "tactile_paving": "no"}}, {"type": "node", "id": 6565867337, "lat": 43.9423508, "lon": 1.1697155, "tags": {"bench": "yes", "bin": "no", "bus": "yes", "highway": "bus_stop", "lit": "no", "name": "Bourret - Centre", "public_transport": "platform", "shelter": "yes", "tactile_paving": "no"}}, {"type": "node", "id": 6594374383, "lat": 44.1268099, "lon": 0.8255735, "tags": {"name": "Lamagist\u00e8re", "operator": "SNCF", "public_transport": "station", "railway": "station", "source": "SNCF - 08/2017", "train": "yes", "uic_ref": "8761185", "wikidata": "Q2245601", "wikipedia": "fr:Gare de Lamagist\u00e8re"}}, {"type": "node", "id": 6903124182, "lat": 43.8979842, "lon": 1.1258749, "tags": {"bus": "yes", "highway": "bus_stop", "name": "Saint-Sardos - Lotissements", "public_transport": "platform"}}, {"type": "node", "id": 6914808224, "lat": 43.8823711, "lon": 0.9913492, "tags": {"bus": "yes", "highway": "bus_stop", "name": "Beaumont de Lomagne - Coll\u00e8ge Saint-Joseph", "public_transport": "platform"}}, {"type": "node", "id": 6914808230, "lat": 43.8852239, "lon": 0.9886708, "tags": {"bus": "yes", "highway": "bus_stop", "name": "Beaumont de Lomagne - Coll\u00e8ge Despeyrous", "public_transport": "platform"}}, {"type": "node", "id": 6914808235, "lat": 43.8823733, "lon": 0.9840243, "tags": {"bench": "yes", "bin": "no", "bus": "yes", "highway": "bus_stop", "lit": "no", "name": "Beaumont de Lomagne - Place Jean Moulin", "public_transport": "platform", "ref": "8215109", "shelter": "yes", "tactile_paving": "no"}}, {"type": "node", "id": 6914808236, "lat": 43.8769058, "lon": 0.9783239, "tags": {"bench": "no", "bin": "no", "bus": "yes", "highway": "bus_stop", "lit": "no", "name": "Beaumont de Lomagne - Lyc\u00e9e Profesionnel", "public_transport": "platform", "shelter": "no", "tactile_paving": "no"}}, {"type": "node", "id": 8413103333, "lat": 44.0395986, "lon": 1.113706, "tags": {"addr:city": "Castelsarrasin", "addr:postcode": "82100", "addr:street": "Avenue Jean Moulin", "name": "Castelsarrasin", "network": "TER Occitanie", "network:wikidata": "Q37941081", "operator": "SNCF", "operator:wikidata": "Q13646", "public_transport": "station", "railway": "station", "source": "SNCF - 08/2017", "train": "yes", "uic_ref": "8761189", "wikidata": "Q667139", "wikipedia": "fr:Gare de Castelsarrasin"}}, {"type": "node", "id": 9585626308, "lat": 43.9310711, "lon": 1.0844823, "tags": {"bus": "yes", "highway": "bus_stop", "name": "Larrazet - Avenue de Gascogne", "public_transport": "platform"}}, {"type": "node", "id": 9774505378, "lat": 44.1244685, "lon": 0.8195718, "tags": {"bus": "yes", "highway": "bus_stop", "name": "Lamagist\u00e8re - Centre", "public_transport": "platform"}}, {"type": "node", "id": 9774505379, "lat": 44.1200034, "lon": 0.8335033, "tags": {"bench": "yes", "bus": "yes", "highway": "bus_stop", "name": "Lamagist\u00e8re - Saint-Michel", "public_transport": "platform", "shelter": "yes"}}, {"type": "node", "id": 9774505380, "lat": 44.1132926, "lon": 0.8524566, "tags": {"bench": "no", "bus": "yes", "highway": "bus_stop", "name": "Golfech - Avenue de la Poste", "public_transport": "platform", "shelter": "no"}}, {"type": "node", "id": 9774505381, "lat": 44.1152097, "lon": 0.9032647, "tags": {"bus": "yes", "highway": "bus_stop", "name": "Valence d'Agen - Coll\u00e8ge J.Rostand", "public_transport": "platform"}}, {"type": "node", "id": 9774505382, "lat": 44.1142136, "lon": 0.8943523, "tags": {"bus": "yes", "highway": "bus_stop", "name": "Valence d'Agen - Lyc\u00e9e J.Baylet", "public_transport": "platform"}}, {"type": "node", "id": 9774505383, "lat": 44.1114772, "lon": 0.888145, "tags": {"bus": "yes", "highway": "bus_stop", "name": "Valence d'Agen - Rue J.Moulin", "public_transport": "platform"}}, {"type": "node", "id": 9774505384, "lat": 44.0992786, "lon": 0.9323912, "tags": {"bus": "yes", "highway": "bus_stop", "name": "Pommevic - Centre Bourg", "public_transport": "platform"}}, {"type": "node", "id": 9774505385, "lat": 44.0910945, "lon": 0.9728736, "tags": {"bus": "yes", "highway": "bus_stop", "name": "Malause - Av. de Toulouse", "public_transport": "platform"}}, {"type": "node", "id": 9774505386, "lat": 44.0857687, "lon": 0.9786028, "tags": {"bench": "yes", "bus": "yes", "highway": "bus_stop", "name": "Malause - Saint-Jean", "public_transport": "platform", "shelter": "yes"}}, {"type": "node", "id": 9774505387, "lat": 44.1035488, "lon": 1.0820657, "tags": {"alt_name": "Moissac - Col Sainte Famille", "bus": "yes", "highway": "bus_stop", "name": "Col Sainte Famille", "old_name": "Moissac - Col. J.D'Arc", "public_transport": "platform", "ref_name": "MOISSAC - Col Sainte Famille", "shelter": "no"}}, {"type": "node", "id": 9774505389, "lat": 44.1122184, "lon": 1.1074601, "tags": {"bus": "yes", "highway": "bus_stop", "name": "Moissac - Av. du Chasselas", "public_transport": "platform"}}, {"type": "node", "id": 9775238200, "lat": 44.031469, "lon": 1.1543673, "tags": {"bus": "yes", "highway": "bus_stop", "name": "Merdaillou", "public_transport": "platform"}}, {"type": "node", "id": 9775238201, "lat": 44.0370221, "lon": 1.1113503, "tags": {"bus": "yes", "highway": "bus_stop", "name": "Place Omer Sarraut", "public_transport": "platform"}}, {"type": "node", "id": 9775238202, "lat": 44.040094, "lon": 1.1081782, "tags": {"bus": "yes", "highway": "bus_stop", "name": "Place des Belges", "public_transport": "platform"}}, {"type": "node", "id": 9775467682, "lat": 44.044538, "lon": 1.1070469, "tags": {"bus": "yes", "highway": "bus_stop", "name": "Macalet", "public_transport": "platform"}}, {"type": "node", "id": 9775467683, "lat": 44.0490802, "lon": 1.1061618, "tags": {"bus": "yes", "highway": "bus_stop", "name": "Sainte-Marguerite", "public_transport": "platform"}}, {"type": "node", "id": 9775467684, "lat": 44.0507517, "lon": 1.1033931, "tags": {"bus": "yes", "highway": "bus_stop", "name": "L'\u00e9cluse", "public_transport": "platform"}}, {"type": "node", "id": 9775467685, "lat": 44.0514311, "lon": 1.0986597, "tags": {"bus": "yes", "highway": "bus_stop", "name": "Parc de clairefont", "public_transport": "platform"}}, {"type": "node", "id": 9775467686, "lat": 44.0475341, "lon": 1.0971942, "tags": {"bus": "yes", "highway": "bus_stop", "name": "Av de Courbieu", "public_transport": "platform"}}, {"type": "node", "id": 9775467687, "lat": 44.0479971, "lon": 1.0989284, "tags": {"bus": "yes", "highway": "bus_stop", "name": "Rue Jules Ferry", "public_transport": "platform"}}, {"type": "node", "id": 9775467690, "lat": 44.0413256, "lon": 1.101519, "tags": {"bus": "yes", "highway": "bus_stop", "name": "Rue Saint-Guillem", "public_transport": "platform"}}, {"type": "node", "id": 9775467691, "lat": 44.04201, "lon": 1.1036107, "tags": {"bus": "yes", "highway": "bus_stop", "name": "Rue de l'ind\u00e9pendance", "public_transport": "platform"}}, {"type": "node", "id": 9775467692, "lat": 44.0414554, "lon": 1.1042017, "tags": {"bus": "yes", "highway": "bus_stop", "name": "Place Gaston Benac", "public_transport": "platform"}}, {"type": "node", "id": 9775467693, "lat": 44.0393107, "lon": 1.1068561, "tags": {"bus": "yes", "highway": "bus_stop", "name": "Place de la libert\u00e9", "public_transport": "platform"}}, {"type": "node", "id": 9775467694, "lat": 44.0380241, "lon": 1.1136476, "tags": {"bus": "yes", "highway": "bus_stop", "name": "Coll\u00e8ge Flamens", "public_transport": "platform"}}, {"type": "node", "id": 9775467695, "lat": 44.0354726, "lon": 1.1175797, "tags": {"bus": "yes", "highway": "bus_stop", "name": "Rue Joseph Flamens", "public_transport": "platform"}}, {"type": "node", "id": 9775467696, "lat": 44.0346616, "lon": 1.1168021, "tags": {"bus": "yes", "highway": "bus_stop", "name": "Piscine", "public_transport": "platform"}}, {"type": "node", "id": 9775467697, "lat": 44.03324, "lon": 1.118849, "tags": {"bus": "yes", "highway": "bus_stop", "name": "Coll\u00e8ge Jean de Prades", "public_transport": "platform"}}, {"type": "node", "id": 9775467698, "lat": 44.0337345, "lon": 1.1138836, "tags": {"bus": "yes", "highway": "bus_stop", "name": "Ducau", "public_transport": "platform"}}, {"type": "node", "id": 9775467699, "lat": 44.035444, "lon": 1.1059654, "tags": {"bus": "yes", "highway": "bus_stop", "name": "Le gravil", "public_transport": "platform"}}, {"type": "node", "id": 9775467700, "lat": 44.0370672, "lon": 1.106921, "tags": {"bus": "yes", "highway": "bus_stop", "name": "Place Garonne", "public_transport": "platform"}}, {"type": "node", "id": 9803341722, "lat": 43.931133, "lon": 1.0843293, "tags": {"highway": "bus_stop", "name": "Avenue de Gascogne - Larrazet", "public_transport": "platform", "ref": "8204493"}}, {"type": "node", "id": 9803341723, "lat": 43.8997374, "lon": 1.1330989, "tags": {"highway": "bus_stop", "name": "Place Marius Grani\u00e9 - Saint-Sardos", "public_transport": "platform", "ref": "8207460"}}, {"type": "node", "id": 9825382001, "lat": 44.0187773, "lon": 1.0727477, "tags": {"bus": "yes", "highway": "bus_stop", "name": "Saint-Aignan", "public_transport": "platform"}}, {"type": "node", "id": 10188732585, "lat": 44.09502, "lon": 1.0838651, "tags": {"bus": "yes", "highway": "bus_stop", "public_transport": "platform"}}, {"type": "node", "id": 10570753325, "lat": 43.8767136, "lon": 0.9778985, "tags": {"bench": "no", "bin": "no", "bus": "yes", "highway": "bus_stop", "lit": "no", "name": "Lyc\u00e9e Norman Foster", "public_transport": "platform", "shelter": "no", "tactile_paving": "no"}}, {"type": "node", "id": 10915971680, "lat": 44.2488111, "lon": 0.73911, "tags": {"bus": "yes", "highway": "bus_stop", "public_transport": "platform"}}, {"type": "node", "id": 11301162062, "lat": 44.133353, "lon": 0.9252648, "tags": {"bus": "yes", "highway": "bus_stop", "public_transport": "platform"}}, {"type": "node", "id": 11371323599, "lat": 44.1120254, "lon": 1.1067891, "tags": {"bus": "yes", "highway": "bus_stop", "name": "Moissac - Av. du Chasselas", "public_transport": "platform"}}, {"type": "node", "id": 11371323600, "lat": 44.1022596, "lon": 1.0910858, "tags": {"bench": "yes", "bin": "yes", "bus": "yes", "highway": "bus_stop", "lit": "yes", "name": "Cit\u00e9 scolaire Fran\u00e7ois Mitterrand", "public_transport": "platform", "shelter": "no", "tactile_paving": "no"}}, {"type": "node", "id": 11371323601, "lat": 44.1022361, "lon": 1.0912301, "tags": {"bench": "yes", "bin": "yes", "bus": "yes", "highway": "bus_stop", "lit": "yes", "name": "Cit\u00e9 scolaire Fran\u00e7ois Mitterrand", "public_transport": "platform", "shelter": "no", "tactile_paving": "no"}}, {"type": "node", "id": 11371323603, "lat": 44.0855092, "lon": 0.9788608, "tags": {"bench": "yes", "bus": "yes", "highway": "bus_stop", "name": "Malause - Saint-Jean", "public_transport": "platform", "shelter": "yes"}}, {"type": "node", "id": 11371323605, "lat": 44.0909566, "lon": 0.9728645, "tags": {"bus": "yes", "highway": "bus_stop", "name": "Malause - Av. de Toulouse", "public_transport": "platform"}}, {"type": "node", "id": 11371323606, "lat": 44.0993807, "lon": 0.9324183, "tags": {"bus": "yes", "highway": "bus_stop", "name": "Pommevic - Centre Bourg", "public_transport": "platform"}}, {"type": "node", "id": 12520700588, "lat": 44.1851098, "lon": 0.9461252, "tags": {"bus": "yes", "departures_board": "no", "highway": "bus_stop", "network": "liO Occitanie", "public_transport": "platform", "shelter": "yes"}}, {"type": "node", "id": 12645083493, "lat": 44.1013909, "lon": 1.0985031, "tags": {"alt_name": "Moissac - Le Sarlac", "bus": "yes", "highway": "bus_stop", "name": "Le Sarlac", "pole": "no", "public_transport": "platform", "ref_name": "MOISSAC - Le Sarlac", "shelter": "no"}}, {"type": "node", "id": 12645083494, "lat": 44.1022974, "lon": 1.0919447, "tags": {"alt_name": "Moissac - Cit\u00e9 Scolaire", "bus": "yes", "highway": "bus_stop", "name": "Cit\u00e9 Scolaire", "pole": "no", "public_transport": "platform", "ref_name": "MOISSAC - Cit\u00e9 Scolaire", "shelter": "no"}}, {"type": "node", "id": 12645083495, "lat": 44.1035079, "lon": 1.0819146, "tags": {"alt_name": "Moissac - Col Sainte Famille", "bus": "yes", "highway": "bus_stop", "name": "Col Sainte Famille", "pole": "no", "public_transport": "platform", "ref_name": "MOISSAC - Col Sainte Famille", "shelter": "no"}}, {"type": "node", "id": 12645083497, "lat": 44.1233619, "lon": 0.824617, "tags": {"alt_name": "Lamagist\u00e8re - Centre", "bus": "yes", "highway": "bus_stop", "name": "Centre", "passenger_information_display": "yes", "pole": "no", "public_transport": "platform", "ref_name": "LAMAGIST\u00c8RE - Centre", "shelter": "no"}}, {"type": "node", "id": 12672836975, "lat": 44.12343, "lon": 0.8246683, "tags": {"alt_name": "Lamagist\u00e8re - Centre", "bus": "yes", "highway": "bus_stop", "name": "Centre", "passenger_information_display": "yes", "pole": "no", "public_transport": "platform", "ref_name": "LAMAGIST\u00c8RE - Centre", "shelter": "no"}}, {"type": "node", "id": 12672836976, "lat": 44.1200696, "lon": 0.8336373, "tags": {"alt_name": "Lamagist\u00e8re - Saint-Michel", "bus": "yes", "highway": "bus_stop", "name": "Saint-Michel", "pole": "no", "public_transport": "platform", "ref_name": "LAMAGIST\u00c8RE - Saint Michel", "shelter": "no"}}, {"type": "node", "id": 12672836977, "lat": 44.1133555, "lon": 0.8524302, "tags": {"alt_name": "Golfech - Avenue de la Poste", "bus": "yes", "highway": "bus_stop", "name": "Avenue de la Poste", "pole": "no", "public_transport": "platform", "ref_name": "GOLFECH - Avenue de la Poste", "shelter": "no"}}, {"type": "way", "id": 50061788, "nodes": [635781748, 635781749, 635781750, 635781751, 635781748], "tags": {"alt_name": "Valence-d'Agen", "building": "yes", "name": "Valence d'Agen", "operator": "SNCF", "public_transport": "station", "railway": "station", "source": "cadastre-dgi-fr source : Direction G\u00e9n\u00e9rale des Imp\u00f4ts - Cadastre. Mise \u00e0 jour : 2010", "train": "yes", "uic_ref": "8761186", "wikidata": "Q2684440", "wikipedia": "fr:Gare de Valence-d'Agen"}}]}