{"version": 0.6, "generator": "Overpass API 0.7.62.5 1bd436f1", "osm3s": {"timestamp_osm_base": "2025-04-09T14:41:26Z", "copyright": "The data included in this document is from www.openstreetmap.org. The data is made available under ODbL."}, "elements": [{"type": "node", "id": 420433178, "lat": 39.3525905, "lon": 3.1891667, "tags": {"bench": "no", "bin": "no", "bus": "yes", "highway": "bus_stop", "lit": "no", "name": "Cala Mondrag\u00f3", "network": "Consorci de Transports de Mallorca", "public_transport": "platform", "ref": "57024", "route_ref": "521", "shelter": "no", "tactile_paving": "no", "website": "https://www.tib.org/ca/parades/-/parada/57024"}}, {"type": "node", "id": 737173805, "lat": 39.3299814, "lon": 3.1681737, "tags": {"bench": "yes", "bin": "yes", "bus": "yes", "highway": "bus_stop", "lit": "yes", "name": "Cala Figuera", "name:ca": "Cala Figuera", "public_transport": "platform", "ref": "57029", "route_ref": "516", "shelter": "no", "tactile_paving": "no", "website": "https://www.tib.org/ca/parades/-/parada/57029"}}, {"type": "node", "id": 925246732, "lat": 39.364721, "lon": 3.226456, "tags": {"bench": "no", "bin": "no", "bus": "yes", "check_date:shelter": "2023-10-24", "highway": "bus_stop", "name": "Cala Egos, Shopping Center", "network": "Cala d'Or Express", "operator": "MiniTrenet", "passenger_information_display": "no", "public_transport": "platform", "ref": "7", "route_ref": "Cala d'Or Express BLAU", "shelter": "no"}}, {"type": "node", "id": 1351124348, "lat": 39.4211437, "lon": 3.2619158, "tags": {"bus": "yes", "highway": "bus_stop", "name": "Moll (Portocolom)", "network": "Transports p\u00fablics de Mallorca", "public_transport": "platform", "ref": "22019"}}, {"type": "node", "id": 1351124351, "lat": 39.423675, "lon": 3.2599597, "tags": {"bench": "yes", "bin": "no", "bus": "yes", "departures_board": "timetable", "highway": "bus_stop", "name": "Ronda Nadal Batle", "network": "Consorci de Transports de Mallorca", "operator": "Sagal\u00e9s Caldentey", "passenger_information_display": "no", "public_transport": "platform", "ref": "22035", "route_ref": "428;512", "shelter": "yes", "website": "https://www.tib.org/ca/parades/-/parada/22035"}}, {"type": "node", "id": 1351126128, "lat": 39.4104886, "lon": 3.2566032, "tags": {"bench": "yes", "bin": "yes", "bus": "yes", "highway": "bus_stop", "lit": "yes", "name": "Cala Mar\u00e7al", "name:ca": "Cala Mar\u00e7al", "network": "Transports p\u00fablics de Mallorca", "operator": "Consorci de Transports de Mallorca", "passenger_information_display": "no", "public_transport": "platform", "ref": "22014", "route_ref": "441, 448, 449, 453, 455, 456", "shelter": "yes", "tactile_paving": "no", "wheelchair": "yes"}}, {"type": "node", "id": 3064854093, "lat": 39.3311789, "lon": 3.1453346, "tags": {"bench": "yes", "bin": "no", "bus": "yes", "highway": "bus_stop", "lit": "no", "name": "Cala Santany\u00ed", "name:ca": "Cala Santany\u00ed", "network": "Consorci de Transports de Mallorca", "public_transport": "platform", "ref": "57028", "route_ref": "516", "shelter": "no", "tactile_paving": "no", "website": "https://www.tib.org/ca/parades/-/parada/57028", "wheelchair": "no"}}, {"type": "node", "id": 3555601893, "lat": 39.3742305, "lon": 3.2319855, "tags": {"bench": "yes", "bin": "yes", "bus": "yes", "check_date:shelter": "2024-10-06", "highway": "bus_stop", "lit": "yes", "name": "Cala Gran (Cala d'Or)", "network": "Transports p\u00fablics de Mallorca", "not_served_by": "425", "operator": "Consorci de Transports de Mallorca", "passenger_information_display": "no", "public_transport": "platform", "ref": "57016", "route_ref": "441, 448, 449, 453, 456", "shelter": "yes", "tactile_paving": "no"}}, {"type": "node", "id": 3721853231, "lat": 39.4682383, "lon": 3.2748907, "tags": {"bench": "no", "bus": "yes", "highway": "bus_stop", "name": "Carrer Cala Antena", "network": "Consorci de Transports de Mallorca", "operator": "Sagal\u00e9s Caldentey", "passenger_information_display": "no", "public_transport": "platform", "ref": "33025", "route_ref": "416;428", "shelter": "no", "website": "https://www.tib.org/ca/parades/-/parada/33025"}}, {"type": "node", "id": 3721853232, "lat": 39.4660441, "lon": 3.2786035, "tags": {"bench": "no", "bus": "yes", "highway": "bus_stop", "name": "Passeig Manacor", "network": "Consorci de Transports de Mallorca", "operator": "Sagal\u00e9s Caldentey", "passenger_information_display": "no", "public_transport": "platform", "ref": "33071", "route_ref": "416;428", "shelter": "no", "website": "https://www.tib.org/ca/parades/-/parada/33071"}}, {"type": "node", "id": 3721853233, "lat": 39.4652791, "lon": 3.2809641, "tags": {"bench": "no", "bus": "yes", "highway": "bus_stop", "name": "H. Sol Mastines (Cales de Mallorca)", "network": "Transports p\u00fablics de Mallorca", "operator": "Consorci de Transports de Mallorca", "passenger_information_display": "no", "public_transport": "platform", "ref": "33027", "route_ref": "415, 424, 441, 448, 449, 453, 455", "shelter": "no"}}, {"type": "node", "id": 3721853235, "lat": 39.4609731, "lon": 3.278585, "tags": {"bench": "no", "bus": "yes", "highway": "bus_stop", "name": "C/ Formentor (Cales de Mallorca)", "network": "Transports p\u00fablics de Mallorca", "operator": "Consorci de Transports de Mallorca", "passenger_information_display": "no", "public_transport": "platform", "ref": "33029", "route_ref": "415, 424, 441, 448, 449, 453, 455", "shelter": "no"}}, {"type": "node", "id": 3721853236, "lat": 39.4592801, "lon": 3.2793117, "tags": {"bench": "yes", "bus": "yes", "highway": "bus_stop", "name": "H. America (Cales de Mallorca)", "network": "Transports p\u00fablics de Mallorca", "operator": "Consorci de Transports de Mallorca", "passenger_information_display": "no", "public_transport": "platform", "ref": "33030", "route_ref": "415, 424, 441, 448, 449, 453, 455", "shelter": "no"}}, {"type": "node", "id": 3721853238, "lat": 39.4702445, "lon": 3.2754038, "tags": {"bench": "no", "bus": "yes", "highway": "bus_stop", "name": "H. Canarios (Cales de Mallorca)", "network": "Transports p\u00fablics de Mallorca", "operator": "Consorci de Transports de Mallorca", "passenger_information_display": "no", "public_transport": "platform", "ref": "33031", "route_ref": "415, 424, 441, 448, 449, 453, 455", "shelter": "no"}}, {"type": "node", "id": 3730260617, "lat": 39.3758407, "lon": 3.2307061, "tags": {"bench": "no", "bin": "no", "bus": "yes", "check_date:shelter": "2024-10-06", "highway": "bus_stop", "name": "C/ Ariel (Cala d'Or)", "network": "Transports p\u00fablics de Mallorca", "operator": "Consorci de Transports de Mallorca", "passenger_information_display": "no", "public_transport": "platform", "ref": "57005", "route_ref": "425, 441, 448, 449, 453, 456", "shelter": "no"}}, {"type": "node", "id": 3730260618, "lat": 39.4012967, "lon": 3.2042294, "tags": {"bench": "no", "bus": "yes", "highway": "bus_stop", "name": "C/ Cala Llonga - C/ Joan XXII (Calonge)", "network": "Transports p\u00fablics de Mallorca", "operator": "Bus Red", "passenger_information_display": "no", "public_transport": "platform", "ref": "57032", "route_ref": "425", "shelter": "no"}}, {"type": "node", "id": 3730260619, "lat": 39.4072198, "lon": 3.2076279, "tags": {"bench": "no", "bus": "yes", "highway": "bus_stop", "local_ref": "1", "name": "S'Horta", "network": "Consorci de Transports de Mallorca", "operator": "Sagal\u00e9s Caldentey", "passenger_information_display": "no", "public_transport": "platform", "ref": "22034", "route_ref": "514", "shelter": "no", "website": "https://www.tib.org/ca/parades/-/parada/22034"}}, {"type": "node", "id": 3731818847, "lat": 39.3633465, "lon": 3.2244489, "tags": {"bench": "no", "bus": "yes", "highway": "bus_stop", "name": "Av. sa Marina (Cala d'Or / Portopetro)", "network": "Transports p\u00fablics de Mallorca", "operator": "Consorci de Transports de Mallorca", "passenger_information_display": "no", "public_transport": "platform", "ref": "57013", "route_ref": "441, 448, 449, 453, 456", "shelter": "no"}}, {"type": "node", "id": 3731818848, "lat": 39.3706398, "lon": 3.2197919, "tags": {"bench": "yes", "bus": "yes", "highway": "bus_stop", "local_ref": "2", "name": "Marina de Cala d'Or", "network": "Consorci de Transports de Mallorca", "operator": "Consorci de Transports de Mallorca", "passenger_information_display": "no", "public_transport": "platform", "ref": "57010", "route_ref": "428;515;521", "shelter": "yes", "website": "https://www.tib.org/ca/parades/-/parada/57010"}}, {"type": "node", "id": 3731818849, "lat": 39.3726495, "lon": 3.223813, "tags": {"bus": "yes", "highway": "bus_stop", "name": "ses Calabreses (Cala d'Or/Portopetro)", "network": "Transports p\u00fablics de Mallorca", "note": "N\u00fam. parada: 57008 /", "public_transport": "platform"}}, {"type": "node", "id": 3731818850, "lat": 39.3783767, "lon": 3.2368308, "tags": {"bench": "no", "bus": "yes", "highway": "bus_stop", "name": "Cala Esmeralda", "network": "Consorci de Transports de Mallorca", "operator": "Consorci de Transports de Mallorca", "passenger_information_display": "no", "public_transport": "platform", "ref": "57017", "route_ref": "428;515;521", "shelter": "no", "website": "https://www.tib.org/ca/parades/-/parada/57017"}}, {"type": "node", "id": 3731818852, "lat": 39.3838452, "lon": 3.2383975, "tags": {"bench": "no", "bin": "no", "bus": "yes", "highway": "bus_stop", "name": "Cala Ferrera-Cala Serena", "network": "Consorci de Transports de Mallorca", "operator": "Consorci de Transports de Mallorca", "passenger_information_display": "no", "public_transport": "platform", "ref": "22020", "route_ref": "428;515;521", "shelter": "no", "website": "https://www.tib.org/ca/parades/-/parada/22020"}}, {"type": "node", "id": 3731818853, "lat": 39.4104857, "lon": 3.2110805, "tags": {"bench": "no", "bin": "no", "bus": "yes", "highway": "bus_stop", "local_ref": "2", "name": "S'Horta", "name:ca": "S'Horta", "network": "Consorci de Transports de Mallorca", "operator": "Sagal\u00e9s Caldentey", "passenger_information_display": "no", "public_transport": "platform", "ref": "22017", "route_ref": "428", "shelter": "no", "website": "https://www.tib.org/ca/parades/-/parada/22017"}}, {"type": "node", "id": 3731818854, "lat": 39.4151055, "lon": 3.2596142, "tags": {"bench": "yes", "bin": "yes", "bus": "yes", "departures_board": "timetable", "highway": "bus_stop", "lit": "yes", "name": "Es Corso", "name:ca": "Es Corso", "network": "Consorci de Transports de Mallorca", "operator": "Sagal\u00e9s Caldentey", "passenger_information_display": "no", "public_transport": "platform", "ref": "22010", "route_ref": "428;512", "shelter": "yes", "tactile_paving": "no", "website": "https://www.tib.org/ca/parades/-/parada/22010"}}, {"type": "node", "id": 3771793000, "lat": 39.3409008, "lon": 3.097408, "tags": {"bench": "no", "bin": "no", "bus": "yes", "highway": "bus_stop", "lit": "yes", "local_ref": "2", "name": "Es Llombards", "public_transport": "platform", "ref": "57031", "route_ref": "517", "shelter": "no", "tactile_paving": "no", "website": "https://www.tib.org/ca/parades/-/parada/57031"}}, {"type": "node", "id": 3771793004, "lat": 39.4001191, "lon": 3.2027692, "tags": {"bus": "yes", "highway": "bus_stop", "public_transport": "platform"}}, {"type": "node", "id": 3771895366, "lat": 39.454309, "lon": 3.2711704, "tags": {"bench": "no", "bus": "yes", "highway": "bus_stop", "name": "Via Europa", "network": "Transports p\u00fablics de Mallorca", "operator": "Sagal\u00e9s Caldentey", "passenger_information_display": "no", "public_transport": "platform", "ref": "33033", "route_ref": "416", "shelter": "no", "website": "https://www.tib.org/ca/parades/-/parada/33033"}}, {"type": "node", "id": 3771895367, "lat": 39.4558304, "lon": 3.2772581, "tags": {"bench": "no", "bin": "no", "bus": "yes", "highway": "bus_stop", "lit": "yes", "name": "Cala Murada, Hotel Valpara\u00edso", "public_transport": "platform", "shelter": "no", "tactile_paving": "no"}}, {"type": "node", "id": 3771895371, "lat": 39.4570488, "lon": 3.2749384, "tags": {"bus": "yes", "highway": "bus_stop", "name": "Hotel Tropicana", "public_transport": "platform"}}, {"type": "node", "id": 3772008899, "lat": 39.4188085, "lon": 3.1384321, "tags": {"bus": "yes", "highway": "bus_stop", "public_transport": "platform"}}, {"type": "node", "id": 3774162390, "lat": 39.358719, "lon": 3.1274882, "tags": {"bench": "yes", "bin": "yes", "bus": "yes", "highway": "bus_stop", "lit": "yes", "local_ref": "1", "name": "Na Ravandella", "network": "Consorci de Transports de Mallorca", "public_transport": "platform", "ref": "57042", "route_ref": "515;516;517", "shelter": "yes", "tactile_paving": "no", "website": "https://www.tib.org/ca/parades/-/parada/57042"}}, {"type": "node", "id": 3774162393, "lat": 39.3368613, "lon": 3.1391782, "tags": {"bench": "no", "bin": "no", "bus": "yes", "highway": "bus_stop", "lit": "yes", "name": "Son Moja", "name:ca": "Son Moja", "network": "Consorci de Transports de Mallorca", "public_transport": "platform", "ref": "57055", "route_ref": "516", "shelter": "no", "tactile_paving": "no", "website": "https://www.tib.org/ca/parades/-/parada/57055"}}, {"type": "node", "id": 4991153751, "lat": 39.4002542, "lon": 3.2032221, "tags": {"bus": "yes", "description": "N\u00fam. parada: 57003", "highway": "bus_stop", "name": "Pl. Sant Miquel (Calonge)", "public_transport": "platform"}}, {"type": "node", "id": 4991153752, "lat": 39.3612046, "lon": 3.2086984, "tags": {"bench": "yes", "bin": "no", "bus": "yes", "highway": "bus_stop", "lit": "yes", "name": "Pg. des Port (Portopetro)", "public_transport": "platform", "ref": "57021", "shelter": "yes", "tactile_paving": "no"}}, {"type": "node", "id": 5065817382, "lat": 39.3781974, "lon": 3.2369985, "tags": {"bench": "no", "bus": "yes", "highway": "bus_stop", "name": "Cala Ferrera", "name:ca": "Cala Ferrera", "network": "Cala d'Or Express", "operator": "MiniTrenet", "passenger_information_display": "no", "public_transport": "platform", "ref": "1", "route_ref": "Cala d'Or Express GROC", "shelter": "no"}}, {"type": "node", "id": 5065817383, "lat": 39.379007, "lon": 3.2264051, "tags": {"bench": "no", "bus": "yes", "highway": "bus_stop", "name": "Cala d'Or, Hipermarket", "network": "Cala d'Or Express", "not_served_by": "Cala d'Or Express BLAU", "operator": "Mini Trenet", "passenger_information_display": "no", "public_transport": "platform", "ref": "2", "route_ref": "Cala d'Or Express GROC", "shelter": "no"}}, {"type": "node", "id": 5065817384, "lat": 39.3735179, "lon": 3.2268982, "tags": {"bench": "no", "bus": "yes", "highway": "bus_stop", "name": "Cala d'Or, Shopping Center", "network": "Cala d'Or Express", "operator": "MiniTrenet", "passenger_information_display": "no", "public_transport": "platform", "ref": "3", "route_ref": "Cala d'Or Express GROC, Cala d'Or Express BLAU", "shelter": "no"}}, {"type": "node", "id": 5065838024, "lat": 39.3724957, "lon": 3.2239495, "tags": {"bench": "no", "bus": "yes", "highway": "bus_stop", "name": "Cala Llonga, Marina", "network": "Cala d'Or Express", "not_served_by": "Cala d'Or Express BLAU", "operator": "MiniTrenet", "passenger_information_display": "no", "public_transport": "platform", "ref": "4", "route_ref": "Cala d'Or Express GROC", "shelter": "no"}}, {"type": "node", "id": 5065838025, "lat": 39.370304, "lon": 3.2211037, "tags": {"bench": "no", "bus": "yes", "highway": "bus_stop", "name": "Puerto del Sol", "network": "Cala d'Or Express", "operator": "MiniTrenet", "passenger_information_display": "no", "public_transport": "platform", "ref": "5", "route_ref": "Cala d'Or Express GROC", "shelter": "no"}}, {"type": "node", "id": 5065859978, "lat": 39.3691848, "lon": 3.2222673, "tags": {"bench": "no", "bus": "yes", "highway": "bus_stop", "name": "Porto Cari", "network": "Cala d'Or Express", "not_served_by": "Cala d'Or Express BLAU", "operator": "MiniTrenet", "passenger_information_display": "no", "public_transport": "platform", "ref": "6", "route_ref": "Cala d'Or Express GROC", "shelter": "no"}}, {"type": "node", "id": 5065868571, "lat": 39.373466, "lon": 3.2270515, "tags": {"bench": "no", "bus": "yes", "highway": "bus_stop", "name": "Cala d'Or, Shopping Center", "network": "Cala d'Or Express", "not_served_by": "Cala d'Or Express BLAU", "operator": "MiniTrenet", "passenger_information_display": "no", "public_transport": "platform", "ref": "7", "route_ref": "Cala d'Or Express GROC", "shelter": "no"}}, {"type": "node", "id": 5065942967, "lat": 39.3763474, "lon": 3.2369094, "tags": {"bench": "no", "bus": "yes", "highway": "bus_stop", "name": "Hotel Cala Esmeralda", "network": "Cala d'Or Express", "operator": "MiniTrenet", "passenger_information_display": "no", "public_transport": "platform", "ref": "10", "route_ref": "Cala d'Or Express GROC", "shelter": "no"}}, {"type": "node", "id": 5065942968, "lat": 39.3735526, "lon": 3.2357776, "tags": {"bus": "yes", "highway": "bus_stop", "name": "Cala Esmeralda, Hotel Cala d'Or Playa", "network": "Cala d'Or Express", "operator": "MiniTrenet", "public_transport": "platform", "ref": "11", "route_ref": "Cala d'Or Express I"}}, {"type": "node", "id": 5065942969, "lat": 39.3742234, "lon": 3.2319299, "tags": {"bench": "no", "bin": "yes", "bus": "yes", "highway": "bus_stop", "lit": "yes", "name": "Cala Gran", "network": "Cala d'Or Express", "operator": "MiniTrenet", "passenger_information_display": "no", "public_transport": "platform", "ref": "9", "route_ref": "Cala d'Or Express GROC", "shelter": "yes", "tactile_paving": "no"}}, {"type": "node", "id": 5065942970, "lat": 39.3758862, "lon": 3.2306867, "tags": {"bench": "no", "bin": "no", "bus": "yes", "check_date:shelter": "2024-10-06", "highway": "bus_stop", "name": "Cala d'Or, Apartamentos Ariel", "network": "Cala d'Or Express", "operator": "MiniTrenet", "passenger_information_display": "no", "public_transport": "platform", "ref": "8", "route_ref": "Cala d'Or Express GROC", "shelter": "no"}}, {"type": "node", "id": 5065991592, "lat": 39.3771157, "lon": 3.2315437, "tags": {"bus": "yes", "highway": "bus_stop", "name": "Cala d'Or, Hotel Meli\u00e0 Cala d'Or", "network": "Cala d'Or Express", "operator": "MiniTrenet", "public_transport": "platform", "ref": "13", "route_ref": "Cala d'Or Express I"}}, {"type": "node", "id": 5065991593, "lat": 39.3737931, "lon": 3.2332912, "tags": {"bus": "yes", "highway": "bus_stop", "name": "Cala d'Or, Apartamentos Alba", "network": "Cala d'Or Express", "operator": "MiniTrenet", "public_transport": "platform", "ref": "12", "route_ref": "Cala d'Or Express I"}}, {"type": "node", "id": 5066004551, "lat": 39.3789891, "lon": 3.2264152, "tags": {"bench": "no", "bus": "yes", "highway": "bus_stop", "name": "Cala d'Or, Hipermarket", "network": "Cala d'Or Express", "not_served_by": "Cala d'Or Express GROC", "operator": "MiniTrenet", "passenger_information_display": "no", "public_transport": "platform", "ref": "1", "route_ref": "Cala d'Or Express BLAU", "shelter": "no"}}, {"type": "node", "id": 5066053271, "lat": 39.3759231, "lon": 3.2286949, "tags": {"bench": "no", "bus": "yes", "highway": "bus_stop", "name": "Cala d'Or, Hotel Ses Puntetes", "network": "Cala d'Or Express", "operator": "MiniTrenet", "passenger_information_display": "no", "public_transport": "platform", "ref": "2", "route_ref": "Cala d'Or Express II", "shelter": "no", "wheelchair": "limited"}}, {"type": "node", "id": 5066101042, "lat": 39.3671528, "lon": 3.2245743, "tags": {"bench": "no", "bus": "yes", "highway": "bus_stop", "name": "Cala Egos", "name:ca": "Cala Egos", "network": "Cala d'Or Express", "operator": "MiniTrenet", "passenger_information_display": "no", "public_transport": "platform", "ref": "4", "route_ref": "Cala d'Or Express BLAU", "shelter": "no"}}, {"type": "node", "id": 5066101043, "lat": 39.3627224, "lon": 3.230819, "tags": {"bench": "no", "bus": "yes", "check_date:shelter": "2023-10-25", "highway": "bus_stop", "name": "Es Port\u00ed", "network": "Cala d'Or Express", "operator": "MiniTrenet", "passenger_information_display": "no", "public_transport": "platform", "ref": "5", "route_ref": "Cala d'Or Express BLAU", "shelter": "no"}}, {"type": "node", "id": 5066133069, "lat": 39.3652486, "lon": 3.2279597, "tags": {"bench": "no", "bus": "yes", "highway": "bus_stop", "name": "Cala Egos, Apts. Es Talaial", "network": "Cala d'Or Express", "operator": "Mini Trenet", "passenger_information_display": "no", "public_transport": "platform", "ref": "6", "route_ref": "Cala d'Or Express BLAU", "shelter": "no"}}, {"type": "node", "id": 5066444001, "lat": 39.3615747, "lon": 3.2231427, "tags": {"bench": "no", "bus": "yes", "highway": "bus_stop", "name": "Cala Egos, Aparthotel Cala d'Or Gardens", "network": "Cala d'Or Express", "operator": "MiniTrenet", "passenger_information_display": "no", "public_transport": "platform", "ref": "10", "route_ref": "Cala d'Or Express BLAU", "shelter": "no"}}, {"type": "node", "id": 5066444002, "lat": 39.3618878, "lon": 3.2237516, "tags": {"bench": "no", "bus": "yes", "highway": "bus_stop", "name": "Cala Egos, Hotel Skorpios", "network": "Cala d'Or Express", "operator": "MiniTrenet", "passenger_information_display": "no", "public_transport": "platform", "ref": "11", "route_ref": "Cala d'Or Express BLAU", "shelter": "no"}}, {"type": "node", "id": 5066444003, "lat": 39.362887, "lon": 3.2235553, "tags": {"bench": "no", "bus": "yes", "highway": "bus_stop", "name": "Cala Egos, Hotels Corf\u00fa i Dolce Farniente", "network": "Cala d'Or Express", "operator": "MiniTrenet", "passenger_information_display": "no", "public_transport": "platform", "ref": "9", "route_ref": "Cala d'Or Express BLAU", "shelter": "no"}}, {"type": "node", "id": 5066510121, "lat": 39.3691829, "lon": 3.2222858, "tags": {"bench": "no", "bus": "yes", "highway": "bus_stop", "name": "Porto Cari", "network": "Cala d'Or Express", "not_served_by": "Cala d'Or Express GROC", "operator": "MiniTrenet", "passenger_information_display": "no", "public_transport": "platform", "ref": "12", "route_ref": "Cala d'Or Express BLAU", "shelter": "no"}}, {"type": "node", "id": 5066510122, "lat": 39.3734857, "lon": 3.2270556, "tags": {"bench": "no", "bus": "yes", "highway": "bus_stop", "name": "Cala d'Or, Shopping Center", "network": "Cala d'Or Express", "not_served_by": "Cala d'Or Express GROC", "operator": "MiniTrenet", "passenger_information_display": "no", "public_transport": "platform", "ref": "13", "route_ref": "Cala d'Or Express BLAU", "shelter": "no"}}, {"type": "node", "id": 5098337494, "lat": 39.4658278, "lon": 3.2793975, "tags": {"bench": "no", "bus": "yes", "highway": "bus_stop", "name": "AluaSun Cala Antena", "network": "Mini Tren Tur\u00edstic Cales de Mallorca Express", "operator": "Mini Tren Tur\u00edstic Cales de Mallorca Express", "passenger_information_display": "no", "public_transport": "platform", "ref": "3", "route_ref": "Mini Tren", "shelter": "no"}}, {"type": "node", "id": 5098337495, "lat": 39.4592469, "lon": 3.279301, "tags": {"bench": "yes", "bus": "yes", "highway": "bus_stop", "name": "Hotel Am\u00e8rica", "network": "Mini Tren Tur\u00edstic Cales de Mallorca Express", "operator": "Mini Tren Tur\u00edstic Cales de Mallorca Express", "passenger_information_display": "no", "public_transport": "platform", "ref": "7", "route_ref": "Mini Tren", "shelter": "no"}}, {"type": "node", "id": 5098337496, "lat": 39.4608601, "lon": 3.2786519, "tags": {"bench": "no", "bus": "yes", "highway": "bus_stop", "name": "Hotel Samoa", "network": "Mini Tren Tur\u00edstic Cales de Mallorca Express", "operator": "Mini Tren Tur\u00edstic Cales de Mallorca Express", "passenger_information_display": "no", "public_transport": "platform", "ref": "6", "route_ref": "Mini Tren", "shelter": "no"}}, {"type": "node", "id": 5098337497, "lat": 39.4703397, "lon": 3.2754064, "tags": {"bench": "yes", "bus": "yes", "highway": "bus_stop", "name": "Hotel Canarios", "network": "Mini Tren Tur\u00edstic Cales de Mallorca Express", "operator": "Mini Tren Tur\u00edstic Cales de Mallorca Express", "passenger_information_display": "no", "public_transport": "platform", "ref": "1", "route_ref": "Mini Tren", "shelter": "no"}}, {"type": "node", "id": 5098337498, "lat": 39.4626513, "lon": 3.2778848, "tags": {"bench": "no", "bus": "yes", "highway": "bus_stop", "name": "Supermarket 2000", "network": "Mini Tren Tur\u00edstic Cales de Mallorca Express", "operator": "Mini Tren Tur\u00edstic Cales de Mallorca Express", "passenger_information_display": "no", "public_transport": "platform", "ref": "5", "route_ref": "Mini Tren", "shelter": "no"}}, {"type": "node", "id": 5098337499, "lat": 39.4678529, "lon": 3.2762915, "tags": {"bench": "no", "bus": "yes", "highway": "bus_stop", "name": "Hotel Eurocalas", "network": "Mini Tren Tur\u00edstic Cales de Mallorca Express", "operator": "Mini Tren Tur\u00edstic Cales de Mallorca Express", "passenger_information_display": "no", "public_transport": "platform", "ref": "2", "route_ref": "Mini Tren", "shelter": "no"}}, {"type": "node", "id": 5098337500, "lat": 39.4652149, "lon": 3.2809478, "tags": {"bench": "no", "bus": "yes", "highway": "bus_stop", "name": "Hotel Mastines", "network": "Mini Tren Tur\u00edstic Cales de Mallorca Express", "operator": "Mini Tren Tur\u00edstic Cales de Mallorca Express", "passenger_information_display": "no", "public_transport": "platform", "ref": "4", "route_ref": "Mini Tren", "shelter": "no"}}, {"type": "node", "id": 5098390558, "lat": 39.4621357, "lon": 3.2775978, "tags": {"bench": "no", "bus": "yes", "highway": "bus_stop", "name": "Consultorio", "network": "Mini Tren Tur\u00edstic Cales de Mallorca Express", "operator": "Mini Tren Tur\u00edstic Cales de Mallorca Express", "passenger_information_display": "no", "public_transport": "platform", "ref": "9", "route_ref": "Mini Tren", "shelter": "no"}}, {"type": "node", "id": 5098390559, "lat": 39.4596052, "lon": 3.2752857, "tags": {"bench": "no", "bus": "yes", "highway": "bus_stop", "name": "Apts. Ed\u00e8n", "network": "Mini Tren Tur\u00edstic Cales de Mallorca Express", "operator": "Mini Tren Tur\u00edstic Cales de Mallorca Express", "passenger_information_display": "no", "public_transport": "platform", "ref": "13", "route_ref": "Mini Tren", "shelter": "no"}}, {"type": "node", "id": 5098390560, "lat": 39.4585863, "lon": 3.2787887, "tags": {"bench": "no", "bus": "yes", "highway": "bus_stop", "name": "Cala Domingos", "network": "Mini Tren Tur\u00edstic Cales de Mallorca Express", "operator": "Mini Tren Tur\u00edstic Cales de Mallorca Express", "passenger_information_display": "no", "public_transport": "platform", "ref": "8", "route_ref": "Mini Tren", "shelter": "no"}}, {"type": "node", "id": 5098390561, "lat": 39.4569743, "lon": 3.2749756, "tags": {"bench": "no", "bus": "yes", "highway": "bus_stop", "name": "Hotel Tropicana", "network": "Mini Tren Tur\u00edstic Cales de Mallorca Express", "operator": "Mini Tren Tur\u00edstic Cales de Mallorca Express", "passenger_information_display": "no", "public_transport": "platform", "ref": "12", "route_ref": "Mini Tren", "shelter": "no"}}, {"type": "node", "id": 5098390562, "lat": 39.4637405, "lon": 3.2751033, "tags": {"bench": "no", "bus": "yes", "highway": "bus_stop", "name": "Hotel Cala Roman\u00ed", "network": "Mini Tren Tur\u00edstic Cales de Mallorca Express", "operator": "Mini Tren Tur\u00edstic Cales de Mallorca Express", "passenger_information_display": "no", "public_transport": "platform", "ref": "10", "route_ref": "Mini Tren", "shelter": "no"}}, {"type": "node", "id": 5098390563, "lat": 39.4672752, "lon": 3.2704765, "tags": {"bench": "no", "bus": "yes", "highway": "bus_stop", "name": "Apts. Aucanada", "network": "Mini Tren Tur\u00edstic Cales de Mallorca Express", "operator": "Mini Tren Tur\u00edstic Cales de Mallorca Express", "passenger_information_display": "no", "public_transport": "platform", "ref": "11", "route_ref": "Mini Tren", "shelter": "no"}}, {"type": "node", "id": 5200302464, "lat": 39.417924, "lon": 3.2571304, "tags": {"bench": "yes", "bin": "yes", "bus": "yes", "highway": "bus_stop", "lit": "yes", "name": "Gravina", "network": "Consorci de Transports de Mallorca", "operator": "Sagal\u00e9s Caldentey", "passenger_information_display": "no", "public_transport": "platform", "ref": "22036", "route_ref": "428;512", "shelter": "yes", "tactile_paving": "yes", "website": "https://www.tib.org/ca/parades/-/parada/22036"}}, {"type": "node", "id": 5204939181, "lat": 39.370511, "lon": 3.2193888, "tags": {"bench": "no", "bin": "yes", "bus": "yes", "highway": "bus_stop", "local_ref": "1", "name": "Marina de Cala d'Or", "network": "Consorci de Transports de Mallorca", "operator": "Consorci de Transports de Mallorca", "passenger_information_display": "no", "public_transport": "platform", "ref": "57009", "route_ref": "428;515;521", "shelter": "no", "website": "https://www.tib.org/ca/parades/-/parada/57009"}}, {"type": "node", "id": 5578128422, "lat": 39.3652867, "lon": 3.2281943, "tags": {"bus": "yes", "highway": "bus_stop", "name": "Cala Egos", "name:ca": "Cala Egos", "name:en": "Mini Trenet stop 6", "public_transport": "platform"}}, {"type": "node", "id": 5789668682, "lat": 39.3645731, "lon": 3.2246909, "tags": {"bench": "no", "bus": "yes", "highway": "bus_stop", "name": "Cala Egos, Caf\u00e9 Restaurant Pizzeria Beatriz", "network": "Cala d'Or Express", "operator": "Minitrenet", "passenger_information_display": "no", "public_transport": "platform", "ref": "8", "route_ref": "Cala d'Or Express BLAU", "shelter": "no"}}, {"type": "node", "id": 9027776617, "lat": 39.3646798, "lon": 3.2096699, "tags": {"bench": "yes", "bin": "yes", "bus": "yes", "highway": "bus_stop", "local_ref": "2", "name": "Portopetro", "public_transport": "platform", "ref": "57052", "route_ref": "515;521", "shelter": "no", "website": "https://www.tib.org/ca/parades/-/parada/57052"}}, {"type": "node", "id": 9256535957, "lat": 39.3756004, "lon": 3.2271258, "tags": {"bus": "yes", "highway": "bus_stop", "local_ref": "2", "name": "Av. Calonge", "public_transport": "platform", "ref": "57050", "route_ref": "428;514;515;521", "website": "https://www.tib.org/ca/parades/-/parada/57050"}}, {"type": "node", "id": 9256535958, "lat": 39.363487, "lon": 3.2240501, "tags": {"highway": "bus_stop", "name": "Cala Egos", "name:ca": "Cala Egos", "public_transport": "platform", "ref": "57048", "route_ref": "428;515;521", "website": "https://www.tib.org/ca/parades/-/parada/57048"}}, {"type": "node", "id": 9256535959, "lat": 39.375501, "lon": 3.226849, "tags": {"bus": "yes", "highway": "bus_stop", "local_ref": "1", "name": "Av. Calonge", "public_transport": "platform", "ref": "57049", "route_ref": "428;515;521", "website": "https://www.tib.org/ca/parades/-/parada/57049"}}, {"type": "node", "id": 9256535960, "lat": 39.3508684, "lon": 3.1316682, "tags": {"bench": "yes", "bin": "yes", "bus": "yes", "highway": "bus_stop", "lit": "no", "local_ref": "2", "name": "Sa Tanca", "network": "Consorci de Transports de Mallorca", "public_transport": "platform", "ref": "57058", "route_ref": "516", "shelter": "no", "tactile_paving": "no", "website": "https://www.tib.org/ca/parades/-/parada/57058"}}, {"type": "node", "id": 9256535961, "lat": 39.3514467, "lon": 3.1228784, "tags": {"bench": "yes", "bin": "yes", "bus": "yes", "highway": "bus_stop", "lit": "yes", "local_ref": "2", "name": "Cas Calonge", "network": "Consorci de Transports de Mallorca", "public_transport": "platform", "ref": "57056", "route_ref": "516;517", "shelter": "yes", "tactile_paving": "no", "website": "https://www.tib.org/ca/parades/-/parada/57056"}}, {"type": "node", "id": 9256535963, "lat": 39.3517135, "lon": 3.1227753, "tags": {"bench": "yes", "bin": "yes", "bus": "yes", "highway": "bus_stop", "lit": "yes", "local_ref": "1", "name": "Cas Calonge", "network": "Consorci de Transports de Mallorca", "public_transport": "platform", "ref": "57057", "route_ref": "516;517", "shelter": "no", "tactile_paving": "no", "website": "https://www.tib.org/ca/parades/-/parada/57057"}}, {"type": "node", "id": 9256535964, "lat": 39.3514137, "lon": 3.132168, "tags": {"bench": "yes", "bin": "yes", "bus": "yes", "highway": "bus_stop", "lit": "no", "local_ref": "1", "name": "Sa Tanca", "network": "Consorci de Transports de Mallorca", "public_transport": "platform", "ref": "57059", "route_ref": "516", "shelter": "no", "tactile_paving": "no", "website": "https://www.tib.org/ca/parades/-/parada/57058"}}, {"type": "node", "id": 9280898762, "lat": 39.4705408, "lon": 3.274432, "tags": {"bus": "yes", "highway": "bus_stop", "local_ref": "1", "name": "Platja de Cala Antena", "name:ca": "Platja de Cala Antena", "network": "Transport p\u00fablic de Mallorca", "operator": "Sagal\u00e9s Caldentey", "public_transport": "platform", "ref": "33070", "route_ref": "416;428", "shelter": "yes", "website": "https://www.tib.org/ca/parades/-/parada/33070", "wikimedia_commons": "File:Bus_stop_-_Cales_de_Mallorca.jpg"}}, {"type": "node", "id": 9280898763, "lat": 39.4622603, "lon": 3.2778553, "tags": {"bus": "yes", "highway": "bus_stop", "name": "Cala Domingos", "network": "Consorci de Transports de Mallorca", "operator": "Sagal\u00e9s Caldentey", "public_transport": "platform", "ref": "33072", "route_ref": "416;428", "website": "https://www.tib.org/ca/parades/-/parada/33072"}}, {"type": "node", "id": 9280898764, "lat": 39.467114, "lon": 3.2705851, "tags": {"bus": "yes", "highway": "bus_stop", "name": "Alcanada - Espalmador", "network": "Consorci de Transports de Mallorca", "operator": "Sagal\u00e9s Caldentey", "public_transport": "platform", "ref": "33073", "route_ref": "416;428", "website": "https://www.tib.org/ca/parades/-/parada/33073"}}, {"type": "node", "id": 9280898765, "lat": 39.452011, "lon": 3.2622699, "tags": {"highway": "bus_stop", "name": "Occit\u00e0nia - Baviera", "network": "Transport p\u00fablic de Mallorca", "operator": "Sagal\u00e9s Caldentey", "public_transport": "platform", "ref": "33077", "route_ref": "416", "website": "https://www.tib.org/ca/parades/-/parada/33077"}}, {"type": "node", "id": 9280898766, "lat": 39.4489151, "lon": 3.267982, "tags": {"highway": "bus_stop", "name": "Occit\u00e0nia - Lorena", "network": "Transport p\u00fablic de Mallorca", "operator": "Sagal\u00e9s Caldentey", "public_transport": "platform", "ref": "33076", "route_ref": "416", "website": "https://www.tib.org/ca/parades/-/parada/33076"}}, {"type": "node", "id": 9280898767, "lat": 39.451903, "lon": 3.2758925, "tags": {"bench": "no", "bin": "no", "highway": "bus_stop", "name": "Platja de Cala Murada", "name:ca": "Platja de Cala Murada", "network": "Transport p\u00fablic de Mallorca", "operator": "Sagal\u00e9s Caldentey", "public_transport": "platform", "ref": "33075", "route_ref": "416", "shelter": "no", "tactile_paving": "no", "website": "https://www.tib.org/ca/parades/-/parada/33075"}}, {"type": "node", "id": 9287558331, "lat": 39.4213425, "lon": 3.2615997, "tags": {"bench": "yes", "bus": "yes", "departures_board": "timetable", "highway": "bus_stop", "name": "Moll", "name:ca": "Moll", "network": "Consorci de Transports de Mallorca", "operator": "Sagal\u00e9s Caldentey", "public_transport": "platform", "ref": "22037", "route_ref": "428;512", "shelter": "no", "website": "https://www.tib.org/ca/parades/-/parada/22037"}}, {"type": "node", "id": 9287558332, "lat": 39.4237232, "lon": 3.2604463, "tags": {"bench": "no", "bus": "yes", "highway": "bus_stop", "name": "Crist\u00f2fol Colom", "name:ca": "Crist\u00f2fol Colom", "network": "Consorci de Transports de Mallorca", "operator": "Sagal\u00e9s Caldentey", "public_transport": "platform", "ref": "22041", "route_ref": "428;512", "shelter": "no", "website": "https://www.tib.org/ca/parades/-/parada/22041"}}, {"type": "node", "id": 9353063541, "lat": 39.4018278, "lon": 3.2030752, "tags": {"bus": "yes", "highway": "bus_stop", "local_ref": "2", "name": "Calonge", "name:ca": "Calonge", "network": "Consorci de Transports de Mallorca", "operator": "Sagal\u00e9s Caldentey", "public_transport": "platform", "ref": "57054", "route_ref": "514", "website": "https://www.tib.org/ca/parades/-/parada/57054"}}, {"type": "node", "id": 9353063542, "lat": 39.4246638, "lon": 3.1653111, "tags": {"bus": "yes", "highway": "bus_stop", "local_ref": "2", "name": "Es Carritx\u00f3", "network": "Consorci de Transports de Mallorca", "operator": "Sagal\u00e9s Caldentey", "public_transport": "platform", "ref": "22043", "route_ref": "514", "shelter": "no", "website": "https://www.tib.org/ca/parades/-/parada/22043"}}, {"type": "node", "id": 9353063543, "lat": 39.4184914, "lon": 3.1404108, "tags": {"bus": "yes", "highway": "bus_stop", "name": "Cas Concos", "network": "Consorci de Transports de Mallorca", "operator": "Sagal\u00e9s Caldentey", "public_transport": "platform", "ref": "22044", "route_ref": "514", "website": "https://www.tib.org/ca/parades/-/parada/22044"}}, {"type": "node", "id": 9353063544, "lat": 39.4247757, "lon": 3.165468, "tags": {"bus": "yes", "highway": "bus_stop", "local_ref": "1", "name": "Es Carritx\u00f3", "network": "Consorci de Transports de Mallorca", "operator": "Sagal\u00e9s Caldentey", "public_transport": "platform", "ref": "22042", "route_ref": "514", "shelter": "no", "website": "https://www.tib.org/ca/parades/-/parada/22042"}}, {"type": "node", "id": 9353063545, "lat": 39.4020905, "lon": 3.2030692, "tags": {"bench": "yes", "bus": "yes", "highway": "bus_stop", "local_ref": "1", "name": "Calonge", "name:ca": "Calonge", "network": "Consorci de Transports de Mallorca", "operator": "Sagal\u00e9s Caldentey", "public_transport": "platform", "ref": "57053", "route_ref": "514", "shelter": "no", "website": "https://www.tib.org/ca/parades/-/parada/57053"}}, {"type": "node", "id": 9546289994, "lat": 39.3591044, "lon": 3.1275008, "tags": {"bench": "yes", "bin": "yes", "bus": "yes", "highway": "bus_stop", "lit": "yes", "local_ref": "2", "name": "Na Ravandella", "network": "Consorci de Transports de Mallorca", "public_transport": "platform", "ref": "57041", "route_ref": "515", "shelter": "yes", "tactile_paving": "no", "website": "https://www.tib.org/ca/parades/-/parada/57041"}}, {"type": "node", "id": 11076817476, "lat": 39.340996, "lon": 3.0972874, "tags": {"bench": "no", "bus": "yes", "highway": "bus_stop", "local_ref": "1", "name": "Es Llombards", "public_transport": "platform", "ref": "57030", "route_ref": "517", "shelter": "no", "website": "https://www.tib.org/ca/parades/-/parada/57030"}}, {"type": "node", "id": 11076817477, "lat": 39.320724, "lon": 3.1258041, "tags": {"bench": "no", "bin": "no", "bus": "yes", "highway": "bus_stop", "lit": "no", "name": "Cala Llombards", "public_transport": "platform", "ref": "57047", "route_ref": "517", "shelter": "no", "tactile_paving": "no", "website": "https://www.tib.org/ca/parades/-/parada/57047"}}, {"type": "node", "id": 11076956762, "lat": 39.3875106, "lon": 3.1648096, "tags": {"highway": "bus_stop", "local_ref": "1", "name": "S'Alqueria Blanca", "public_transport": "platform", "ref": "57001", "route_ref": "515", "shelter": "no", "website": "https://www.tib.org/ca/parades/-/parada/57001"}}, {"type": "node", "id": 11076956763, "lat": 39.3874464, "lon": 3.1648073, "tags": {"highway": "bus_stop", "local_ref": "2", "name": "S'Alqueria Blanca", "public_transport": "platform", "ref": "57002", "route_ref": "515", "shelter": "no", "website": "https://www.tib.org/ca/parades/-/parada/57002"}}, {"type": "node", "id": 11076956764, "lat": 39.3646991, "lon": 3.2098895, "tags": {"bench": "yes", "bin": "yes", "bus": "yes", "highway": "bus_stop", "local_ref": "1", "name": "Portopetro", "network": "Consorci de Transports de Mallorca", "public_transport": "platform", "ref": "57051", "route_ref": "515;521", "shelter": "yes", "website": "https://www.tib.org/ca/parades/-/parada/57051"}}, {"type": "node", "id": 11078672177, "lat": 39.3537296, "lon": 3.2005044, "tags": {"bus": "yes", "highway": "bus_stop", "name": "Sa Barca Trencada", "network": "Consorci de Transports de Mallorca", "operator": "Sagal\u00e9s Caldentey", "public_transport": "platform", "ref": "57023", "route_ref": "521", "website": "https://www.tib.org/ca/parades/-/parada/57023"}}, {"type": "node", "id": 11083873856, "lat": 39.4700906, "lon": 3.2742425, "tags": {"bus": "yes", "highway": "bus_stop", "local_ref": "2", "name": "Platja de Cala Antena", "network": "Transport p\u00fablic de Mallorca", "operator": "Sagal\u00e9s Caldentey", "public_transport": "platform", "ref": "33069", "route_ref": "416;428", "website": "https://www.tib.org/ca/parades/-/parada/33069"}}, {"type": "node", "id": 11083873857, "lat": 39.4104766, "lon": 3.2112399, "tags": {"bus": "yes", "highway": "bus_stop", "local_ref": "3", "name": "S'Horta", "network": "Consorci de Transports de Mallorca", "operator": "Sagal\u00e9s Caldentey", "public_transport": "platform", "ref": "22038", "route_ref": "428", "website": "https://www.tib.org/ca/parades/-/parada/22038"}}]}