{"version": 0.6, "generator": "Overpass API 0.7.62.5 1bd436f1", "osm3s": {"timestamp_osm_base": "2025-04-09T14:37:14Z", "copyright": "The data included in this document is from www.openstreetmap.org. The data is made available under ODbL."}, "elements": [{"type": "node", "id": 1091270222, "lat": 44.3799331, "lon": 0.8029791, "tags": {"name": "Penne", "network": "TER Nouvelle-Aquitaine", "network:wikidata": "Q47519663", "operator": "SNCF", "operator:wikidata": "Q13646", "public_transport": "station", "railway": "station", "train": "yes", "uic_ref": "8758643", "wikidata": "Q1844121"}}, {"type": "node", "id": 1426121162, "lat": 44.4089927, "lon": 0.7446295, "tags": {"bench": "no", "bus": "yes", "highway": "bus_stop", "lit": "yes", "name": "Gourri\u00e9", "public_transport": "platform", "shelter": "no", "tactile_paving": "no"}}, {"type": "node", "id": 1426143929, "lat": 44.4128048, "lon": 0.72318, "tags": {"bus": "yes", "highway": "bus_stop", "public_transport": "platform"}}, {"type": "node", "id": 1941525143, "lat": 44.3229546, "lon": 0.9105867, "tags": {"highway": "bus_stop", "public_transport": "stop_position"}}, {"type": "node", "id": 1965587716, "lat": 44.287417, "lon": 0.749828}, {"type": "node", "id": 1965587754, "lat": 44.287442, "lon": 0.749768}, {"type": "node", "id": 1965587804, "lat": 44.287507, "lon": 0.749901}, {"type": "node", "id": 1965587912, "lat": 44.2875322, "lon": 0.7498399}, {"type": "node", "id": 2024846657, "lat": 44.4089228, "lon": 0.707842, "tags": {"bus": "yes", "highway": "bus_stop", "name": "Victor Hugo", "public_transport": "platform"}}, {"type": "node", "id": 2096688052, "lat": 44.4071245, "lon": 0.7091441, "tags": {"bench": "no", "bin": "no", "bus": "yes", "highway": "bus_stop", "lit": "yes", "name": "Saint-Cyr", "public_transport": "platform", "shelter": "no", "tactile_paving": "yes"}}, {"type": "node", "id": 3501794455, "lat": 44.4043049, "lon": 0.692591, "tags": {"bus": "yes", "highway": "bus_stop", "name": "Bordeneuve", "public_transport": "platform"}}, {"type": "node", "id": 3501794456, "lat": 44.4042096, "lon": 0.6927508, "tags": {"bus": "yes", "highway": "bus_stop", "name": "Bordeneuve", "public_transport": "platform"}}, {"type": "node", "id": 3501794457, "lat": 44.404549, "lon": 0.6979885, "tags": {"bus": "yes", "highway": "bus_stop", "name": "Neustadt", "public_transport": "platform"}}, {"type": "node", "id": 3501794458, "lat": 44.404438, "lon": 0.6979899, "tags": {"bus": "yes", "highway": "bus_stop", "name": "Neustadt", "public_transport": "platform"}}, {"type": "node", "id": 3501864767, "lat": 44.4039421, "lon": 0.7046601, "tags": {"bus": "yes", "highway": "bus_stop", "name": "R\u00e9volution", "public_transport": "platform"}}, {"type": "node", "id": 3501864768, "lat": 44.4039203, "lon": 0.7048035, "tags": {"bus": "yes", "highway": "bus_stop", "name": "R\u00e9volution", "public_transport": "platform"}}, {"type": "node", "id": 3501864782, "lat": 44.403845, "lon": 0.6999845, "tags": {"bus": "yes", "highway": "bus_stop", "name": "Voltaire", "public_transport": "platform"}}, {"type": "node", "id": 3501864783, "lat": 44.4040585, "lon": 0.7001022, "tags": {"bus": "yes", "highway": "bus_stop", "name": "Voltaire", "public_transport": "platform"}}, {"type": "node", "id": 3501864784, "lat": 44.4056822, "lon": 0.7065543, "tags": {"bench": "no", "bin": "no", "bus": "yes", "highway": "bus_stop", "lit": "yes", "name": "Poste", "public_transport": "platform", "shelter": "yes", "tactile_paving": "no"}}, {"type": "node", "id": 3501864785, "lat": 44.4056226, "lon": 0.7066349, "tags": {"bench": "yes", "bin": "yes", "bus": "yes", "highway": "bus_stop", "lit": "yes", "name": "Poste", "public_transport": "platform", "shelter": "yes", "tactile_paving": "no"}}, {"type": "node", "id": 3501864786, "lat": 44.4064799, "lon": 0.7117183, "tags": {"bench": "no", "bin": "no", "bus": "yes", "highway": "bus_stop", "lit": "no", "name": "Egalit\u00e9", "public_transport": "platform", "shelter": "no", "tactile_paving": "no"}}, {"type": "node", "id": 3501864787, "lat": 44.4064068, "lon": 0.7119992, "tags": {"bench": "no", "bin": "no", "bus": "yes", "highway": "bus_stop", "lit": "no", "name": "Egalit\u00e9", "public_transport": "platform", "shelter": "no", "tactile_paving": "no"}}, {"type": "node", "id": 3501864788, "lat": 44.4071447, "lon": 0.7160778, "tags": {"bus": "yes", "highway": "bus_stop", "name": "Anatole France", "public_transport": "platform"}}, {"type": "node", "id": 3501864789, "lat": 44.4069907, "lon": 0.7160742, "tags": {"bus": "yes", "highway": "bus_stop", "name": "Anatole France", "public_transport": "platform"}}, {"type": "node", "id": 3501864790, "lat": 44.40738, "lon": 0.7197932, "tags": {"bus": "yes", "highway": "bus_stop", "name": "Parc des Expositions", "public_transport": "platform"}}, {"type": "node", "id": 3501864791, "lat": 44.4077018, "lon": 0.7201948, "tags": {"bus": "yes", "highway": "bus_stop", "name": "Parc des Expositions", "public_transport": "platform"}}, {"type": "node", "id": 3501864792, "lat": 44.4081788, "lon": 0.7234885, "tags": {"bus": "yes", "highway": "bus_stop", "name": "Fontanelles", "public_transport": "platform"}}, {"type": "node", "id": 3501866993, "lat": 44.4080553, "lon": 0.7235142, "tags": {"bus": "yes", "highway": "bus_stop", "name": "Fontanelles", "public_transport": "platform"}}, {"type": "node", "id": 3501866994, "lat": 44.4086804, "lon": 0.7289886, "tags": {"bus": "yes", "highway": "bus_stop", "name": "Malraux", "public_transport": "platform", "shelter": "no"}}, {"type": "node", "id": 3501866995, "lat": 44.4085637, "lon": 0.7289898, "tags": {"bus": "yes", "highway": "bus_stop", "name": "Malraux", "public_transport": "platform"}}, {"type": "node", "id": 3501881594, "lat": 44.4086788, "lon": 0.7328968, "tags": {"bus": "yes", "highway": "bus_stop", "name": "Parasol", "public_transport": "platform"}}, {"type": "node", "id": 3501881595, "lat": 44.4088586, "lon": 0.7344017, "tags": {"bus": "yes", "highway": "bus_stop", "name": "Parasol", "public_transport": "platform"}}, {"type": "node", "id": 3501881596, "lat": 44.4132225, "lon": 0.7555167, "tags": {"highway": "bus_stop", "name": "Courbiac"}}, {"type": "node", "id": 3501881597, "lat": 44.4083501, "lon": 0.7435247, "tags": {"bench": "yes", "bus": "yes", "highway": "bus_stop", "lit": "yes", "name": "Romas", "public_transport": "platform", "shelter": "yes", "tactile_paving": "no"}}, {"type": "node", "id": 3513091853, "lat": 44.401338, "lon": 0.7030484, "tags": {"bus": "yes", "highway": "bus_stop", "name": "Gare Routi\u00e8re", "public_transport": "platform"}}, {"type": "node", "id": 3513179757, "lat": 44.4144351, "lon": 0.6919391, "tags": {"bus": "yes", "highway": "bus_stop", "name": "L\u00e9o Lagrange", "public_transport": "platform"}}, {"type": "node", "id": 3513179758, "lat": 44.4141645, "lon": 0.6920498, "tags": {"bus": "yes", "highway": "bus_stop", "name": "L\u00e9o Lagrange", "public_transport": "platform"}}, {"type": "node", "id": 3513179759, "lat": 44.4123424, "lon": 0.6934394, "tags": {"bus": "yes", "highway": "bus_stop", "name": "Saint-\u00c9tienne", "public_transport": "platform"}}, {"type": "node", "id": 3513179760, "lat": 44.4124436, "lon": 0.6935193, "tags": {"bus": "yes", "highway": "bus_stop", "name": "Saint-\u00c9tienne", "public_transport": "platform"}}, {"type": "node", "id": 3513179761, "lat": 44.4104543, "lon": 0.6957179, "tags": {"bus": "yes", "highway": "bus_stop", "name": "Descartes", "public_transport": "platform"}}, {"type": "node", "id": 3513179762, "lat": 44.4100686, "lon": 0.6964874, "tags": {"bus": "yes", "highway": "bus_stop", "name": "Descartes", "public_transport": "platform"}}, {"type": "node", "id": 3513179763, "lat": 44.4090202, "lon": 0.6979033, "tags": {"bus": "yes", "highway": "bus_stop", "name": "Verdun", "public_transport": "platform"}}, {"type": "node", "id": 3513179764, "lat": 44.4089113, "lon": 0.6978525, "tags": {"bus": "yes", "highway": "bus_stop", "name": "Verdun", "public_transport": "platform"}}, {"type": "node", "id": 3513179765, "lat": 44.4069169, "lon": 0.6994317, "tags": {"bus": "yes", "highway": "bus_stop", "name": "Danton", "public_transport": "platform"}}, {"type": "node", "id": 3513179766, "lat": 44.4070336, "lon": 0.6991231, "tags": {"bus": "yes", "highway": "bus_stop", "name": "Danton", "public_transport": "platform"}}, {"type": "node", "id": 3513179769, "lat": 44.3996506, "lon": 0.7105669, "tags": {"bus": "yes", "highway": "bus_stop", "name": "Poivre", "public_transport": "platform"}}, {"type": "node", "id": 3513179770, "lat": 44.3995484, "lon": 0.7105779, "tags": {"bus": "yes", "highway": "bus_stop", "name": "Poivre", "public_transport": "platform"}}, {"type": "node", "id": 3513179771, "lat": 44.3999542, "lon": 0.7072326, "tags": {"bus": "yes", "highway": "bus_stop", "name": "Crochepierre", "public_transport": "platform"}}, {"type": "node", "id": 3513258901, "lat": 44.3991288, "lon": 0.7160947, "tags": {"bus": "yes", "highway": "bus_stop", "name": "Barbusse", "public_transport": "platform"}}, {"type": "node", "id": 3513258902, "lat": 44.3990317, "lon": 0.7160979, "tags": {"bus": "yes", "highway": "bus_stop", "name": "Barbusse", "public_transport": "platform"}}, {"type": "node", "id": 3513258903, "lat": 44.3987991, "lon": 0.7197133, "tags": {"bus": "yes", "highway": "bus_stop", "name": "Virebeau", "public_transport": "platform"}}, {"type": "node", "id": 3513258904, "lat": 44.398702, "lon": 0.7197481, "tags": {"bus": "yes", "highway": "bus_stop", "name": "Virebeau", "public_transport": "platform"}}, {"type": "node", "id": 3513258905, "lat": 44.3980146, "lon": 0.7248986, "tags": {"bus": "yes", "highway": "bus_stop", "name": "March\u00e9-Gare", "public_transport": "platform"}}, {"type": "node", "id": 3513258906, "lat": 44.3973958, "lon": 0.7312378, "tags": {"bus": "yes", "highway": "bus_stop", "name": "ZI Labarbi\u00e8re", "public_transport": "platform"}}, {"type": "node", "id": 3513258907, "lat": 44.3974711, "lon": 0.7316929, "tags": {"bus": "yes", "highway": "bus_stop", "name": "ZI Labarbi\u00e8re", "public_transport": "platform"}}, {"type": "node", "id": 3513258908, "lat": 44.3937344, "lon": 0.7347438, "tags": {"highway": "bus_stop", "name": "Bon Repos"}}, {"type": "node", "id": 3513258936, "lat": 44.3983221, "lon": 0.7360043, "tags": {"bus": "yes", "highway": "bus_stop", "name": "Saint-Sulpice", "public_transport": "platform"}}, {"type": "node", "id": 3513408197, "lat": 44.3965193, "lon": 0.7126292, "tags": {"bus": "yes", "highway": "bus_stop", "name": "Couffignal", "public_transport": "platform"}}, {"type": "node", "id": 3513408199, "lat": 44.3951789, "lon": 0.7124893, "tags": {"bus": "yes", "highway": "bus_stop", "name": "Rooy", "public_transport": "platform"}}, {"type": "node", "id": 3513408200, "lat": 44.3950218, "lon": 0.7125768, "tags": {"bus": "yes", "highway": "bus_stop", "name": "Rooy", "public_transport": "platform"}}, {"type": "node", "id": 3513408201, "lat": 44.394048, "lon": 0.7096589, "tags": {"bench": "yes", "bin": "yes", "bus": "yes", "highway": "bus_stop", "name": "Lyc\u00e9e Leygues", "public_transport": "platform", "shelter": "yes"}}, {"type": "node", "id": 3513408202, "lat": 44.3941043, "lon": 0.710018, "tags": {"bus": "yes", "highway": "bus_stop", "name": "Lyc\u00e9e Leygues", "passenger_information_display": "yes", "pole": "retaining_wall", "public_transport": "platform"}}, {"type": "node", "id": 3513408204, "lat": 44.3920651, "lon": 0.7103214, "tags": {"bus": "yes", "highway": "bus_stop", "name": "Stade Myre Mory", "public_transport": "platform"}}, {"type": "node", "id": 3513408205, "lat": 44.3945113, "lon": 0.7089385, "tags": {"bench": "yes", "bin": "yes", "bus": "yes", "highway": "bus_stop", "name": "Lyc\u00e9e Leygues", "public_transport": "platform", "shelter": "yes"}}, {"type": "node", "id": 3513408206, "lat": 44.3935801, "lon": 0.7095734, "tags": {"bus": "yes", "highway": "bus_stop", "name": "Lyc\u00e9e Leygues", "passenger_information_display": "yes", "pole": "yes", "public_transport": "platform"}}, {"type": "node", "id": 3513408207, "lat": 44.395969, "lon": 0.7081986, "tags": {"bench": "yes", "bin": "yes", "bus": "yes", "highway": "bus_stop", "name": "Carr\u00e8re", "passenger_information_display": "yes", "public_transport": "platform", "shelter": "no"}}, {"type": "node", "id": 3513408208, "lat": 44.3960485, "lon": 0.7083226, "tags": {"bus": "yes", "highway": "bus_stop", "name": "Carr\u00e8re", "passenger_information_display": "yes", "pole": "yes", "public_transport": "platform", "route_ref": "L4;S2"}}, {"type": "node", "id": 3513408209, "lat": 44.3990177, "lon": 0.7068062, "tags": {"bus": "yes", "highway": "bus_stop", "name": "Parc F. Mitterrand", "passenger_information_display": "yes", "pole": "yes", "public_transport": "platform"}}, {"type": "node", "id": 3513408210, "lat": 44.3990199, "lon": 0.7066123, "tags": {"bus": "yes", "highway": "bus_stop", "name": "Parc F. Mitterrand", "passenger_information_display": "yes", "pole": "yes", "public_transport": "platform"}}, {"type": "node", "id": 3513408211, "lat": 44.4077881, "lon": 0.7079712, "tags": {"bench": "yes", "bin": "yes", "bus": "yes", "highway": "bus_stop", "lit": "yes", "name": "Lib\u00e9ration", "public_transport": "platform", "shelter": "yes", "tactile_paving": "no"}}, {"type": "node", "id": 3513408212, "lat": 44.4087258, "lon": 0.7078241, "tags": {"bus": "yes", "highway": "bus_stop", "name": "Victor Hugo", "public_transport": "platform"}}, {"type": "node", "id": 3513408213, "lat": 44.4116842, "lon": 0.7108844, "tags": {"bus": "yes", "highway": "bus_stop", "name": "De Gaulle", "public_transport": "platform"}}, {"type": "node", "id": 3513408214, "lat": 44.4116431, "lon": 0.7110188, "tags": {"bus": "yes", "highway": "bus_stop", "name": "De Gaulle", "public_transport": "platform"}}, {"type": "node", "id": 3513408215, "lat": 44.4137119, "lon": 0.7130452, "tags": {"bus": "yes", "highway": "bus_stop", "name": "Bourgade", "public_transport": "platform"}}, {"type": "node", "id": 3513408216, "lat": 44.4138102, "lon": 0.7133429, "tags": {"bus": "yes", "highway": "bus_stop", "name": "Bourgade", "public_transport": "platform"}}, {"type": "node", "id": 3513408217, "lat": 44.4163823, "lon": 0.7159899, "tags": {"bus": "yes", "highway": "bus_stop", "name": "Pasteur", "public_transport": "platform"}}, {"type": "node", "id": 3513408218, "lat": 44.4163389, "lon": 0.716086, "tags": {"bus": "yes", "highway": "bus_stop", "name": "Pasteur", "public_transport": "platform"}}, {"type": "node", "id": 3513408219, "lat": 44.4175003, "lon": 0.717171, "tags": {"bus": "yes", "highway": "bus_stop", "name": "Eysses", "public_transport": "platform"}}, {"type": "node", "id": 3513408220, "lat": 44.4176374, "lon": 0.7174815, "tags": {"bus": "yes", "highway": "bus_stop", "name": "Eysses", "public_transport": "platform"}}, {"type": "node", "id": 3513408221, "lat": 44.4191669, "lon": 0.7189859, "tags": {"bus": "yes", "highway": "bus_stop", "name": "Acacias", "public_transport": "platform"}}, {"type": "node", "id": 3513408222, "lat": 44.4191417, "lon": 0.7191171, "tags": {"bus": "yes", "highway": "bus_stop", "name": "Acacias", "public_transport": "platform"}}, {"type": "node", "id": 3513408223, "lat": 44.4221136, "lon": 0.7222123, "tags": {"bus": "yes", "highway": "bus_stop", "name": "Paga", "public_transport": "platform"}}, {"type": "node", "id": 3513408224, "lat": 44.4220679, "lon": 0.7223179, "tags": {"bus": "yes", "highway": "bus_stop", "name": "Paga", "public_transport": "platform"}}, {"type": "node", "id": 3513408225, "lat": 44.424226, "lon": 0.7246937, "tags": {"bus": "yes", "highway": "bus_stop", "name": "Clos des Pins", "public_transport": "platform"}}, {"type": "node", "id": 3513408226, "lat": 44.4241163, "lon": 0.7243544, "tags": {"bus": "yes", "highway": "bus_stop", "name": "Clos des Pins", "public_transport": "platform"}}, {"type": "node", "id": 3513408227, "lat": 44.4258627, "lon": 0.7264477, "tags": {"bus": "yes", "highway": "bus_stop", "name": "Plein Sud - Eysses", "public_transport": "platform"}}, {"type": "node", "id": 3513506703, "lat": 44.4226737, "lon": 0.7004134, "tags": {"bench": "no", "bus": "yes", "highway": "bus_stop", "name": "Moulin de Madame", "public_transport": "platform", "shelter": "yes"}}, {"type": "node", "id": 3513506704, "lat": 44.4203538, "lon": 0.7005261, "tags": {"bus": "yes", "highway": "bus_stop", "name": "Mar\u00e8s", "public_transport": "platform", "shelter": "yes"}}, {"type": "node", "id": 3513506705, "lat": 44.4204965, "lon": 0.7004121, "tags": {"bus": "yes", "highway": "bus_stop", "name": "Mar\u00e8s", "public_transport": "platform", "shelter": "yes"}}, {"type": "node", "id": 3513506706, "lat": 44.417496, "lon": 0.7006473, "tags": {"bus": "yes", "highway": "bus_stop", "name": "De Foucault", "public_transport": "platform"}}, {"type": "node", "id": 3513506707, "lat": 44.4174865, "lon": 0.7005561, "tags": {"bus": "yes", "highway": "bus_stop", "name": "De Foucault", "public_transport": "platform"}}, {"type": "node", "id": 3513506708, "lat": 44.4157526, "lon": 0.7010443, "tags": {"bus": "yes", "highway": "bus_stop", "name": "Cayrel", "public_transport": "platform", "shelter": "yes"}}, {"type": "node", "id": 3513506709, "lat": 44.4157162, "lon": 0.7009558, "tags": {"bus": "yes", "highway": "bus_stop", "name": "Cayrel", "public_transport": "platform", "shelter": "no"}}, {"type": "node", "id": 3513506710, "lat": 44.4139575, "lon": 0.7016826, "tags": {"bench": "no", "bus": "yes", "highway": "bus_stop", "name": "Beaulieu", "public_transport": "platform", "shelter": "no"}}, {"type": "node", "id": 3513506711, "lat": 44.4139211, "lon": 0.7015754, "tags": {"bus": "yes", "highway": "bus_stop", "name": "Beaulieu", "public_transport": "platform", "shelter": "no"}}, {"type": "node", "id": 3513506712, "lat": 44.4128807, "lon": 0.7021413, "tags": {"bus": "yes", "highway": "bus_stop", "name": "Colbert", "public_transport": "platform"}}, {"type": "node", "id": 3513506713, "lat": 44.4128577, "lon": 0.7020555, "tags": {"bench": "no", "bus": "yes", "highway": "bus_stop", "name": "Colbert", "public_transport": "platform", "shelter": "yes"}}, {"type": "node", "id": 3513506714, "lat": 44.4104072, "lon": 0.7034583, "tags": {"bench": "no", "bus": "yes", "highway": "bus_stop", "name": "14 Juillet", "public_transport": "platform", "shelter": "yes"}}, {"type": "node", "id": 3513506715, "lat": 44.4104378, "lon": 0.7035763, "tags": {"bench": "no", "bus": "yes", "highway": "bus_stop", "name": "14 Juillet", "public_transport": "platform", "shelter": "yes"}}, {"type": "node", "id": 3513506717, "lat": 44.4093859, "lon": 0.7050488, "tags": {"bench": "yes", "bin": "yes", "bus": "yes", "highway": "bus_stop", "lit": "yes", "name": "H\u00f4tel de Ville", "public_transport": "platform", "shelter": "yes", "tactile_paving": "yes"}}, {"type": "node", "id": 3513506718, "lat": 44.4017429, "lon": 0.7000058, "tags": {"bench": "no", "bus": "yes", "highway": "bus_stop", "name": "Coquard", "public_transport": "platform"}}, {"type": "node", "id": 3513506719, "lat": 44.4018185, "lon": 0.6998879, "tags": {"bus": "yes", "highway": "bus_stop", "name": "Coquard", "public_transport": "platform"}}, {"type": "node", "id": 3513506720, "lat": 44.3991261, "lon": 0.6979351, "tags": {"bus": "yes", "highway": "bus_stop", "name": "Debussy", "public_transport": "platform"}}, {"type": "node", "id": 3513506721, "lat": 44.3990726, "lon": 0.6977728, "tags": {"bus": "yes", "highway": "bus_stop", "name": "Debussy", "public_transport": "platform"}}, {"type": "node", "id": 3513506722, "lat": 44.3968236, "lon": 0.6961649, "tags": {"bench": "no", "bus": "yes", "highway": "bus_stop", "name": "George Sand", "public_transport": "platform"}}, {"type": "node", "id": 3513506723, "lat": 44.3969252, "lon": 0.6961159, "tags": {"bus": "yes", "highway": "bus_stop", "name": "George Sand", "public_transport": "platform"}}, {"type": "node", "id": 3513773478, "lat": 44.314975, "lon": 0.7225253, "tags": {"highway": "bus_stop", "name": "Monballen"}}, {"type": "node", "id": 3513773479, "lat": 44.3321771, "lon": 0.7167339, "tags": {"highway": "bus_stop", "name": "Saint-Antoine de Ficalba"}}, {"type": "node", "id": 4412819532, "lat": 44.4084537, "lon": 0.7435394, "tags": {"bench": "yes", "bus": "yes", "highway": "bus_stop", "lit": "yes", "name": "Romas", "public_transport": "platform", "shelter": "yes", "tactile_paving": "no"}}, {"type": "node", "id": 4421664054, "lat": 44.4053349, "lon": 0.706443, "tags": {"bench": "yes", "bin": "yes", "bus": "yes", "highway": "bus_stop", "name": "La Poste", "public_transport": "platform", "shelter": "yes", "tactile_paving": "no"}}, {"type": "node", "id": 4453396105, "lat": 44.4068564, "lon": 0.7450754, "tags": {"bench": "yes", "bus": "yes", "highway": "bus_stop", "lit": "yes", "name": "P\u00f4le de Sant\u00e9", "public_transport": "platform", "shelter": "no", "tactile_paving": "no"}}, {"type": "node", "id": 4523629033, "lat": 44.3631473, "lon": 0.7235857, "tags": {"bench": "no", "covered": "no", "highway": "bus_stop", "name": "Cambes", "network": "elios", "shelter": "no"}}, {"type": "node", "id": 4858126695, "lat": 44.3507565, "lon": 0.7420556, "tags": {"highway": "bus_stop", "name": "Arr\u00eat de Bus"}}, {"type": "node", "id": 5743945637, "lat": 44.3982453, "lon": 0.7671815, "tags": {"bus": "yes", "highway": "bus_stop", "name": "Rog\u00e9", "public_transport": "platform"}}, {"type": "node", "id": 5775439358, "lat": 44.4091842, "lon": 0.7058247, "tags": {"bench": "yes", "bin": "yes", "bus": "yes", "highway": "bus_stop", "lit": "yes", "name": "H\u00f4tel de Ville", "network": "Elios", "public_transport": "platform", "shelter": "yes", "tactile_paving": "yes"}}, {"type": "node", "id": 5852160415, "lat": 44.3761452, "lon": 0.6994708, "tags": {"bench": "no", "bus": "yes", "highway": "bus_stop", "name": "Croix de Jas", "public_transport": "platform", "shelter": "no", "wheelchair": "no"}}, {"type": "node", "id": 5852162214, "lat": 44.3786708, "lon": 0.6995858, "tags": {"bench": "no", "bin": "no", "bus": "yes", "highway": "bus_stop", "lit": "no", "name": "Esquirol", "public_transport": "platform", "shelter": "yes", "tactile_paving": "no"}}, {"type": "node", "id": 7691901714, "lat": 44.422676, "lon": 0.7003114, "tags": {"bus": "yes", "highway": "bus_stop", "name": "Moulin de Madame", "public_transport": "platform", "shelter": "no"}}, {"type": "node", "id": 8737085180, "lat": 44.3874615, "lon": 0.7986059, "tags": {"bus": "yes", "highway": "bus_stop", "public_transport": "platform", "shelter": "yes"}}, {"type": "node", "id": 8737085181, "lat": 44.3610579, "lon": 0.784645, "tags": {"highway": "bus_stop", "shelter": "yes"}}, {"type": "node", "id": 9893350712, "lat": 44.3633873, "lon": 0.9228826, "tags": {"highway": "bus_stop", "public_transport": "platform"}}, {"type": "node", "id": 11282208342, "lat": 44.4570637, "lon": 0.6949514, "tags": {"bench": "yes", "bin": "yes", "highway": "bus_stop", "name": "\u00c9cole de Soubirous", "shelter": "yes"}}, {"type": "way", "id": 185871515, "nodes": [1965587754, 1965587716, 1965587804, 1965587912, 1965587754], "tags": {"building": "yes", "name": "Gare de Larroque", "public_transport": "station", "railway": "station", "source": "cadastre-dgi-fr source : Direction G\u00e9n\u00e9rale des Imp\u00f4ts - Cadastre. Mise \u00e0 jour : 2012", "train": "yes"}}]}