{"version": 0.6, "generator": "Overpass API 0.7.62.5 1bd436f1", "osm3s": {"timestamp_osm_base": "2025-04-09T14:41:26Z", "copyright": "The data included in this document is from www.openstreetmap.org. The data is made available under ODbL."}, "elements": [{"type": "node", "id": 3693372081, "lat": 39.8802757, "lon": 3.0812649, "tags": {"bench": "no", "bin": "no", "bus": "yes", "check_date:shelter": "2023-07-22", "departures_board": "timetable", "highway": "bus_stop", "lit": "yes", "name": "Club del Sol 2 (Port de Pollen\u00e7a)", "network": "Transports p\u00fablics de Mallorca", "operator": "Consorci de Transports de Mallorca", "public_transport": "platform", "ref": "42024", "shelter": "no", "surface": "ground", "tactile_paving": "no"}}, {"type": "node", "id": 3693372084, "lat": 39.9025918, "lon": 3.0688052, "tags": {"bench": "yes", "bin": "yes", "bus": "yes", "departures_board": "timetable", "highway": "bus_stop", "lit": "yes", "name": "Gotmar (Port de Pollen\u00e7a)", "name:ca": "Gotmar (Port de Pollen\u00e7a)", "network": "Transports p\u00fablics de Mallorca", "operator": "Consorci de Transports de Mallorca", "public_transport": "platform", "ref": "42013", "shelter": "yes", "surface": "paving_stones", "tactile_paving": "no"}}, {"type": "node", "id": 3693372085, "lat": 39.8991851, "lon": 3.0573375, "tags": {"bench": "yes", "bin": "no", "bus": "yes", "departures_board": "timetable", "highway": "bus_stop", "lit": "no", "name": "El Vilar 1 (El Vilar)", "network": "Transports p\u00fablics de Mallorca", "operator": "Consorci de Transports de Mallorca", "public_transport": "platform", "ref": "42011", "shelter": "yes", "surface": "asphalt", "tactile_paving": "no"}}, {"type": "node", "id": 3693372086, "lat": 39.8848704, "lon": 3.0225184, "tags": {"bench": "yes", "bin": "yes", "bus": "yes", "departures_board": "timetable", "highway": "bus_stop", "lit": "yes", "name": "La Font 1 (Pollen\u00e7a)", "network": "Transports p\u00fablics de Mallorca", "operator": "Consorci de Transports de Mallorca", "public_transport": "platform", "ref": "42009", "shelter": "no", "surface": "paving_stones", "tactile_paving": "no"}}, {"type": "node", "id": 3693372088, "lat": 39.8792667, "lon": 3.0234383, "tags": {"bench": "no", "bin": "no", "bus": "yes", "departures_board": "timetable", "highway": "bus_stop", "lit": "yes", "name": "CEIP Joan Mas (Pollen\u00e7a)", "network": "Transports p\u00fablics de Mallorca", "operator": "Consorci de Transports de Mallorca", "public_transport": "platform", "ref": "42005", "shelter": "no", "surface": "paving_stones", "tactile_paving": "no"}}, {"type": "node", "id": 3693748564, "lat": 39.9203434, "lon": 3.0538448, "tags": {"bench": "no", "bin": "no", "bus": "yes", "check_date:shelter": "2021-09-06", "departures_board": "timetable", "highway": "bus_stop", "lit": "yes", "name": "Cala Barques (Cala Sant Vicen\u00e7)", "network": "Transports p\u00fablics de Mallorca", "operator": "Consorci de Transports de Mallorca", "public_transport": "platform", "ref": "42034", "shelter": "no", "surface": "paving_stones", "tactile_paving": "no"}}, {"type": "node", "id": 3693748565, "lat": 39.918639, "lon": 3.0541521, "tags": {"bench": "yes", "bin": "yes", "bus": "yes", "check_date:shelter": "2021-09-10", "departures_board": "timetable", "highway": "bus_stop", "lit": "yes", "name": "Temporal (Cala Sant Vicen\u00e7)", "network": "Transports p\u00fablics de Mallorca", "operator": "Consorci de Transports de Mallorca", "public_transport": "platform", "ref": "42010", "shelter": "yes", "surface": "paving_stones", "tactile_paving": "no"}}, {"type": "node", "id": 3699142303, "lat": 39.9287593, "lon": 3.1105547, "tags": {"bench": "no", "bin": "no", "bus": "yes", "check_date:bench": "2024-05-21", "departures_board": "timetable", "highway": "bus_stop", "lit": "no", "name": "Mirador d'es Colomer (Formentor)", "network": "Transports p\u00fablics de Mallorca", "operator": "Consorci de Transports de Mallorca", "public_transport": "platform", "ref": "42036", "shelter": "no", "surface": "asphalt", "tactile_paving": "no"}}, {"type": "node", "id": 3699142304, "lat": 39.9291876, "lon": 3.1339352, "tags": {"bench": "no", "bin": "no", "bus": "yes", "departures_board": "timetable", "highway": "bus_stop", "lit": "no", "name": "Platja de Formentor (Formentor)", "network": "Transports p\u00fablics de Mallorca", "operator": "Consorci de Transports de Mallorca", "public_transport": "platform", "ref": "42025", "shelter": "no", "surface": "asphalt", "tactile_paving": "no"}}, {"type": "node", "id": 4144445226, "lat": 39.8830272, "lon": 3.0231359, "tags": {"bench": "no", "bin": "no", "bus": "yes", "departures_board": "no", "highway": "bus_stop", "lit": "yes", "public_transport": "platform", "shelter": "no", "surface": "concrete", "tactile_paving": "no"}}, {"type": "node", "id": 4144445250, "lat": 39.897254, "lon": 3.0756954, "tags": {"bench": "no", "bus": "yes", "covered": "no", "highway": "bus_stop", "public_transport": "platform", "shelter": "no"}}, {"type": "node", "id": 4598520959, "lat": 39.890229, "lon": 3.0746029, "tags": {"bench": "no", "bin": "yes", "bus": "yes", "departures_board": "timetable", "highway": "bus_stop", "lit": "no", "name": "Llenaire 2 (Port de Pollen\u00e7a)", "network": "Transports p\u00fablics de Mallorca", "operator": "Consorci de Transports de Mallorca", "public_transport": "platform", "ref": "42040", "shelter": "no", "surface": "paving_stones", "tactile_paving": "no"}}, {"type": "node", "id": 4833125149, "lat": 39.8992407, "lon": 3.0737805, "tags": {"bench": "yes", "bin": "no", "bus": "yes", "departures_board": "timetable", "highway": "bus_stop", "lit": "yes", "name": "Gotmar 1 (Port de Pollen\u00e7a)", "network": "Transports p\u00fablics de Mallorca", "operator": "Consorci de Transports de Mallorca", "public_transport": "platform", "ref": "42041", "shelter": "no", "surface": "paving_stones", "tactile_paving": "no"}}, {"type": "node", "id": 4833125150, "lat": 39.8890526, "lon": 3.03098, "tags": {"bench": "no", "bin": "no", "bus": "yes", "departures_board": "timetable", "highway": "bus_stop", "lit": "yes", "name": "Pol\u00edgon de Pollen\u00e7a 1 (Pollen\u00e7a)", "network": "Transports p\u00fablics de Mallorca", "operator": "Consorci de Transports de Mallorca", "public_transport": "platform", "ref": "42043", "shelter": "no", "surface": "asphalt", "tactile_paving": "no"}}, {"type": "node", "id": 4833170353, "lat": 39.8743722, "lon": 3.016974, "tags": {"bench": "yes", "bin": "yes", "bus": "yes", "check_date:shelter": "2022-04-19", "departures_board": "timetable", "highway": "bus_stop", "lit": "yes", "name": "Pollen\u00e7a 1 (Pollen\u00e7a)", "network": "Transports p\u00fablics de Mallorca", "operator": "Consorci de Transports de Mallorca", "public_transport": "platform", "ref": "42001", "shelter": "yes", "surface": "paving_stones", "tactile_paving": "no"}}, {"type": "node", "id": 4833516763, "lat": 39.8846651, "lon": 3.0230791, "tags": {"bench": "no", "bin": "no", "bus": "yes", "departures_board": "timetable", "highway": "bus_stop", "lit": "yes", "name": "La Font 2 (Pollen\u00e7a)", "network": "Transports p\u00fablics de Mallorca", "operator": "Consorci de Transports de Mallorca", "public_transport": "platform", "ref": "42033", "shelter": "no", "surface": "asphalt", "tactile_paving": "no"}}, {"type": "node", "id": 4833516764, "lat": 39.8887997, "lon": 3.0310461, "tags": {"bench": "yes", "bin": "no", "bus": "yes", "departures_board": "timetable", "highway": "bus_stop", "lit": "yes", "name": "Pol\u00edgon de Pollen\u00e7a 2 (Pollen\u00e7a)", "network": "Transports p\u00fablics de Mallorca", "operator": "Consorci de Transports de Mallorca", "public_transport": "platform", "ref": "42044", "shelter": "no", "surface": "asphalt", "tactile_paving": "no"}}, {"type": "node", "id": 4833516765, "lat": 39.8989731, "lon": 3.0572238, "tags": {"bench": "no", "bin": "no", "bus": "yes", "departures_board": "timetable", "highway": "bus_stop", "lit": "no", "name": "El Vilar 2 (El Vilar)", "network": "Transports p\u00fablics de Mallorca", "operator": "Consorci de Transports de Mallorca", "public_transport": "platform", "ref": "42012", "shelter": "no", "surface": "grass", "tactile_paving": "no"}}, {"type": "node", "id": 4833516766, "lat": 39.8785986, "lon": 3.0232322, "tags": {"bench": "no", "bin": "no", "bus": "yes", "check_date:shelter": "2023-05-15", "departures_board": "timetable", "highway": "bus_stop", "lit": "no", "name": "Poliesportiu (Pollen\u00e7a)", "network": "Transports p\u00fablics de Mallorca", "operator": "Consorci de Transports de Mallorca", "public_transport": "platform", "ref": "42004", "shelter": "no", "surface": "paving_stones", "tactile_paving": "no"}}, {"type": "node", "id": 4833516767, "lat": 39.9023973, "lon": 3.0686729, "tags": {"bench": "no", "bin": "no", "bus": "yes", "departures_board": "timetable", "highway": "bus_stop", "lit": "yes", "name": "Gotmar - Las Palmeras 2 (Port de Pollen\u00e7a)", "name:ca": "Gotmar - Las Palmeras 2 (Port de Pollen\u00e7a)", "network": "Transports p\u00fablics de Mallorca", "operator": "Consorci de Transports de Mallorca", "public_transport": "platform", "ref": "42014", "shelter": "no", "surface": "concrete", "tactile_paving": "no"}}, {"type": "node", "id": 4833516769, "lat": 39.8742352, "lon": 3.0170478, "tags": {"bench": "yes", "bin": "yes", "bus": "yes", "departures_board": "timetable", "highway": "bus_stop", "lit": "yes", "name": "Pollen\u00e7a 2 (Pollen\u00e7a)", "network": "Transports p\u00fablics de Mallorca", "operator": "Consorci de Transports de Mallorca", "public_transport": "platform", "ref": "42002", "shelter": "no", "surface": "paving_stones", "tactile_paving": "no"}}, {"type": "node", "id": 4833532721, "lat": 39.8988961, "lon": 3.073447, "tags": {"bench": "no", "bin": "no", "bus": "yes", "departures_board": "timetable", "highway": "bus_stop", "lit": "yes", "name": "Gotmar 2 (Port de Pollen\u00e7a)", "network": "Transports p\u00fablics de Mallorca", "operator": "Consorci de Transports de Mallorca", "public_transport": "platform", "ref": "42042", "shelter": "no", "surface": "paving_stones", "tactile_paving": "no"}}, {"type": "node", "id": 4844020455, "lat": 39.879962, "lon": 3.0811048, "tags": {"bench": "yes", "bin": "no", "bus": "yes", "departures_board": "timetable", "highway": "bus_stop", "lit": "no", "name": "Club del Sol 1 (Port de Pollen\u00e7a)", "network": "Transports p\u00fablics de Mallorca", "operator": "Consorci de Transports de Mallorca", "public_transport": "platform", "ref": "42023", "shelter": "yes", "surface": "paving_stones", "tactile_paving": "no"}}, {"type": "node", "id": 4844473179, "lat": 39.9286994, "lon": 3.1102346, "tags": {"bench": "no", "bin": "no", "bus": "yes", "check_date:bench": "2024-05-21", "departures_board": "timetable", "highway": "bus_stop", "lit": "no", "name": "Mirador d'es Colomer (Formentor)", "network": "Transports p\u00fablics de Mallorca", "operator": "Consorci de Transports de Mallorca", "public_transport": "platform", "ref": "42037", "route_ref": "353", "shelter": "no", "surface": "asphalt", "tactile_paving": "no"}}, {"type": "node", "id": 4845452302, "lat": 39.8831075, "lon": 3.0128225, "tags": {"bench": "no", "bin": "no", "bus": "yes", "departures_board": "timetable", "highway": "bus_stop", "lit": "no", "name": "Pont Rom\u00e0 1 (Pollen\u00e7a)", "network": "Transports p\u00fablics de Mallorca", "operator": "Consorci de Transports de Mallorca", "public_transport": "platform", "ref": "42045", "shelter": "no", "surface": "asphalt", "tactile_paving": "no"}}, {"type": "node", "id": 4845526204, "lat": 39.8688323, "lon": 2.9668113, "tags": {"bench": "no", "bin": "no", "bus": "yes", "departures_board": "timetable", "highway": "bus_stop", "lit": "no", "name": "Vall d'en Marc 1 (Pollen\u00e7a)", "name:ca": "Vall d'en Marc 1 (Pollen\u00e7a)", "network": "Transports p\u00fablics de Mallorca", "operator": "Consorci de Transports de Mallorca", "public_transport": "platform", "ref": "42049", "shelter": "no", "surface": "asphalt", "tactile_paving": "no"}}, {"type": "node", "id": 4845526205, "lat": 39.8758008, "lon": 2.9948978, "tags": {"bench": "no", "bin": "no", "bus": "yes", "departures_board": "timetable", "highway": "bus_stop", "lit": "no", "name": "Fart\u00e0ritx 1 (Pollen\u00e7a)", "name:ca": "Fart\u00e0ritx 1 (Pollen\u00e7a)", "network": "Transports p\u00fablics de Mallorca", "operator": "Consorci de Transports de Mallorca", "public_transport": "platform", "ref": "42047", "shelter": "no", "surface": "asphalt", "tactile_paving": "no"}}, {"type": "node", "id": 4846265213, "lat": 39.8830049, "lon": 3.0130875, "tags": {"bench": "no", "bin": "no", "bus": "yes", "check_date:shelter": "2022-03-15", "departures_board": "timetable", "highway": "bus_stop", "lit": "no", "name": "Pont Rom\u00e0 2 (Pollen\u00e7a)", "network": "Transports p\u00fablics de Mallorca", "operator": "Consorci de Transports de Mallorca", "public_transport": "platform", "ref": "42046", "shelter": "no", "surface": "asphalt", "tactile_paving": "no"}}, {"type": "node", "id": 4846265214, "lat": 39.8758535, "lon": 2.9952446, "tags": {"bench": "no", "bin": "no", "bus": "yes", "departures_board": "timetable", "highway": "bus_stop", "lit": "no", "name": "Fart\u00e0ritx 2 (Pollen\u00e7a)", "name:ca": "Fart\u00e0ritx 2 (Pollen\u00e7a)", "network": "Transports p\u00fablics de Mallorca", "operator": "Consorci de Transports de Mallorca", "public_transport": "platform", "ref": "42048", "shelter": "no", "surface": "asphalt", "tactile_paving": "no"}}, {"type": "node", "id": 4846265215, "lat": 39.868693, "lon": 2.9670687, "tags": {"bench": "no", "bin": "no", "bus": "yes", "departures_board": "timetable", "highway": "bus_stop", "lit": "no", "name": "Vall d'en Marc 2 (Pollen\u00e7a)", "name:ca": "Vall d'en Marc 2 (Pollen\u00e7a)", "network": "Transports p\u00fablics de Mallorca", "operator": "Consorci de Transports de Mallorca", "public_transport": "platform", "ref": "42050", "shelter": "no", "surface": "asphalt", "tactile_paving": "no"}}, {"type": "node", "id": 5781536041, "lat": 39.9610665, "lon": 3.2122651, "tags": {"bench": "no", "bin": "yes", "bus": "yes", "departures_board": "timetable", "highway": "bus_stop", "lit": "no", "name": "Far de Formentor (Formentor)", "network": "Transports p\u00fablics de Mallorca", "operator": "Consorci de Transports de Mallorca", "public_transport": "platform", "ref": "42052", "shelter": "no", "surface": "asphalt", "tactile_paving": "no"}}, {"type": "node", "id": 5781536042, "lat": 39.9491764, "lon": 3.1692856, "tags": {"bench": "no", "bin": "no", "bus": "yes", "departures_board": "timetable", "highway": "bus_stop", "lit": "no", "name": "Cala Murta - Cala Figuera 2 (Formentor)", "network": "Transports p\u00fablics de Mallorca", "operator": "Consorci de Transports de Mallorca", "public_transport": "platform", "ref": "42054", "shelter": "no", "surface": "asphalt", "tactile_paving": "no"}}, {"type": "node", "id": 5781564866, "lat": 39.9492578, "lon": 3.1694167, "tags": {"bench": "no", "bin": "no", "bus": "yes", "highway": "bus_stop", "lit": "no", "name": "Cala Murta - Cala Figuera 1 (Formentor)", "network": "Transports p\u00fablics de Mallorca", "operator": "Consorci de Transports de Mallorca", "public_transport": "platform", "ref": "42053", "shelter": "no", "surface": "ground", "tactile_paving": "no"}}, {"type": "node", "id": 11879864905, "lat": 39.8913751, "lon": 3.0738731, "tags": {"bench": "yes", "bin": "no", "bus": "yes", "departures_board": "timetable", "highway": "bus_stop", "lit": "yes", "name": "Lllenaire 1 (Port de Pollen\u00e7a)", "network": "Transports p\u00fablics de Mallorca", "operator": "Consorci de Transports de Mallorca", "public_transport": "platform", "ref": "42040", "shelter": "no", "surface": "paving_stones", "tactile_paving": "no"}}, {"type": "node", "id": 12413834902, "lat": 39.9129143, "lon": 3.0988573, "tags": {"bench": "no", "bin": "no", "bus": "yes", "departures_board": "timetable", "highway": "bus_stop", "lit": "yes", "name": "Can Singala 2 (Port de Pollen\u00e7a)", "network": "Transports p\u00fablics de Mallorca", "operator": "Consorci de transports de Mallorca", "public_transport": "platform", "ref": "42055", "shelter": "no", "surface": "paving_stones", "tactile_paving": "no"}}, {"type": "node", "id": 12413834903, "lat": 39.9131254, "lon": 3.0987968, "tags": {"bench": "no", "bin": "no", "bus": "yes", "departures_board": "timetable", "highway": "bus_stop", "lit": "yes", "name": "Can Singala 1 (Port de Pollen\u00e7a)", "network": "Transports p\u00fablics de Mallorca", "operator": "Consorci de transports de Mallorca", "public_transport": "platform", "ref": "42056", "shelter": "no", "surface": "paving_stones", "tactile_paving": "no"}}]}