{"version": 0.6, "generator": "Overpass API 0.7.62.5 1bd436f1", "osm3s": {"timestamp_osm_base": "2025-04-09T14:53:30Z", "copyright": "The data included in this document is from www.openstreetmap.org. The data is made available under ODbL."}, "elements": [{"type": "node", "id": 262444176, "lat": 46.8015871, "lon": 2.3685836, "tags": {"name": "Bigny", "network": "TER Centre \u2212 Val de Loire", "network:wikidata": "Q912775", "official_name": "Bigny", "operator": "SNCF", "operator:wikidata": "Q13646", "public_transport": "station", "railway": "station", "train": "yes", "uic_ref": "8757630", "wikidata": "Q2209490", "wikipedia": "fr:Gare de Bigny"}}, {"type": "node", "id": 469994143, "lat": 46.856812, "lon": 2.3103822, "tags": {"name": "Ch\u00e2teauneuf-sur-Cher", "network": "TER Centre \u2212 Val de Loire", "network:wikidata": "Q912775", "official_name": "Ch\u00e2teauneuf-sur-Cher", "operator": "SNCF", "operator:wikidata": "Q13646", "public_transport": "station", "railway": "station", "railway:ref:DB": "XFCHC", "train": "yes", "uic_ref": "8757629", "wheelchair": "yes", "wikidata": "Q2521024", "wikipedia": "fr:Gare de Ch\u00e2teauneuf-sur-Cher"}}, {"type": "node", "id": 1315255877, "lat": 46.6476289, "lon": 1.9758237, "tags": {"bench": "yes", "bus": "yes", "highway": "bus_stop", "public_transport": "platform", "shelter": "yes", "source": "cadastre-dgi-fr source : Direction G\u00e9n\u00e9rale des Imp\u00f4ts - Cadastre. Mise \u00e0 jour : 2011"}}, {"type": "node", "id": 1325243439, "lat": 46.651531, "lon": 1.9759598, "tags": {"bench": "yes", "highway": "bus_stop", "shelter": "yes", "source": "cadastre-dgi-fr source : Direction G\u00e9n\u00e9rale des Imp\u00f4ts - Cadastre. Mise \u00e0 jour : 2011"}}, {"type": "node", "id": 1765131467, "lat": 46.625127, "lon": 1.9742509, "tags": {"highway": "bus_stop"}}, {"type": "node", "id": 2132522728, "lat": 46.6977946, "lon": 2.3685865, "tags": {"highway": "bus_stop"}}, {"type": "node", "id": 2340718476, "lat": 46.5865188, "lon": 1.9921627, "tags": {"bus": "yes", "highway": "bus_stop", "public_transport": "platform"}}, {"type": "node", "id": 2425466548, "lat": 46.7944756, "lon": 1.9836723, "tags": {"highway": "bus_stop", "name": "Bommiers"}}, {"type": "node", "id": 2869484060, "lat": 46.7419973, "lon": 1.8312199, "tags": {"bench": "no", "bin": "no", "bus": "yes", "highway": "bus_stop", "lit": "yes", "name": "Ardentes", "network": "Horizon", "network:wikidata": "Q3456686", "operator": "Keolis Ch\u00e2teauroux", "public_transport": "platform", "shelter": "no", "tactile_paving": "no"}}, {"type": "node", "id": 4644107889, "lat": 46.8567693, "lon": 2.3101269, "tags": {"highway": "bus_stop"}}, {"type": "node", "id": 5359498788, "lat": 46.6072317, "lon": 1.9169221, "tags": {"bench": "no", "bus": "yes", "highway": "bus_stop", "lit": "no", "network": "R\u00e9mi 36", "operator": "Centre Val de Loire", "public_transport": "platform", "shelter": "no", "surface": "asphalt"}}, {"type": "node", "id": 5416533455, "lat": 46.581892, "lon": 1.9836734, "tags": {"bench": "yes", "bin": "yes", "bus": "yes", "check_date:shelter": "2023-09-16", "highway": "bus_stop", "lit": "yes", "name": "La Ch\u00e2tre - Champ de Foire", "public_transport": "platform", "shelter": "yes", "surface": "asphalt", "tactile_paving": "yes"}}, {"type": "node", "id": 5451987593, "lat": 46.7631973, "lon": 1.8034881, "tags": {"bench": "no", "bin": "no", "bus": "yes", "highway": "bus_stop", "lit": "no", "name": "Clavi\u00e8res", "network": "Horizon", "network:wikidata": "Q3456686", "operator": "Keolis Ch\u00e2teauroux", "public_transport": "platform", "shelter": "no", "tactile_paving": "no"}}, {"type": "node", "id": 5451987594, "lat": 46.7632854, "lon": 1.8030549, "tags": {"bench": "no", "bin": "no", "bus": "yes", "highway": "bus_stop", "lit": "no", "name": "Clavi\u00e8res", "network": "Horizon", "network:wikidata": "Q3456686", "operator": "Keolis Ch\u00e2teauroux", "public_transport": "platform", "shelter": "no", "tactile_paving": "no"}}, {"type": "node", "id": 5451987595, "lat": 46.7453509, "lon": 1.8299367, "tags": {"bench": "no", "bin": "no", "bus": "yes", "highway": "bus_stop", "lit": "no", "name": "Agora", "network": "Horizon", "network:wikidata": "Q3456686", "operator": "Keolis Ch\u00e2teauroux", "public_transport": "platform", "shelter": "no", "tactile_paving": "no"}}, {"type": "node", "id": 5451987596, "lat": 46.7460801, "lon": 1.8291883, "tags": {"bench": "yes", "bin": "no", "bus": "yes", "highway": "bus_stop", "lit": "no", "name": "Agora", "network": "Horizon", "network:wikidata": "Q3456686", "operator": "Keolis Ch\u00e2teauroux", "public_transport": "platform", "shelter": "yes", "tactile_paving": "no"}}, {"type": "node", "id": 5451987597, "lat": 46.7422069, "lon": 1.8313694, "tags": {"bench": "no", "bin": "no", "bus": "yes", "highway": "bus_stop", "lit": "no", "name": "Ardentes", "network": "Horizon", "network:wikidata": "Q3456686", "operator": "Keolis Ch\u00e2teauroux", "public_transport": "platform", "shelter": "no", "tactile_paving": "no"}}, {"type": "node", "id": 5451987598, "lat": 46.7384749, "lon": 1.8238363, "tags": {"bench": "no", "bin": "no", "bus": "yes", "highway": "bus_stop", "lit": "no", "name": "Ardentes Gare", "network": "Horizon", "network:wikidata": "Q3456686", "operator": "Keolis Ch\u00e2teauroux", "public_transport": "platform", "shelter": "yes", "tactile_paving": "yes"}}, {"type": "node", "id": 5451987599, "lat": 46.7385621, "lon": 1.8238082, "tags": {"bench": "no", "bin": "no", "bus": "yes", "highway": "bus_stop", "lit": "yes", "name": "Ardentes Gare", "network": "Horizon", "network:wikidata": "Q3456686", "operator": "Keolis Ch\u00e2teauroux", "public_transport": "platform", "shelter": "no", "tactile_paving": "yes"}}, {"type": "node", "id": 5451987600, "lat": 46.7404218, "lon": 1.8193316, "tags": {"bench": "no", "bin": "no", "bus": "yes", "highway": "bus_stop", "lit": "yes", "name": "Grands Buissons", "network": "Horizon", "network:wikidata": "Q3456686", "operator": "Keolis Ch\u00e2teauroux", "public_transport": "platform", "shelter": "no", "tactile_paving": "no"}}, {"type": "node", "id": 5451987601, "lat": 46.7399421, "lon": 1.8197383, "tags": {"bench": "no", "bin": "no", "bus": "yes", "highway": "bus_stop", "lit": "no", "name": "Grands Buissons", "network": "Horizon", "network:wikidata": "Q3456686", "operator": "Keolis Ch\u00e2teauroux", "public_transport": "platform", "shelter": "no", "tactile_paving": "no"}}, {"type": "node", "id": 5451987602, "lat": 46.7426007, "lon": 1.8184457, "tags": {"bench": "no", "bin": "no", "bus": "yes", "highway": "bus_stop", "lit": "no", "name": "\u00c9glantiers", "network": "Horizon", "network:wikidata": "Q3456686", "operator": "Keolis Ch\u00e2teauroux", "public_transport": "platform", "shelter": "no", "tactile_paving": "no"}}, {"type": "node", "id": 5451987603, "lat": 46.7420485, "lon": 1.8183939, "tags": {"bench": "no", "bin": "no", "bus": "yes", "highway": "bus_stop", "lit": "no", "name": "\u00c9glantiers", "network": "Horizon", "network:wikidata": "Q3456686", "operator": "Keolis Ch\u00e2teauroux", "public_transport": "platform", "shelter": "no", "tactile_paving": "no"}}, {"type": "node", "id": 5451987604, "lat": 46.7439217, "lon": 1.8209664, "tags": {"bench": "no", "bin": "no", "bus": "yes", "highway": "bus_stop", "lit": "no", "name": "Pasteur", "network": "Horizon", "network:wikidata": "Q3456686", "operator": "Keolis Ch\u00e2teauroux", "public_transport": "platform", "shelter": "yes", "tactile_paving": "yes"}}, {"type": "node", "id": 5851524376, "lat": 46.6311548, "lon": 1.8502514, "tags": {"bus": "yes", "highway": "bus_stop", "lit": "no", "name": "Arr\u00eat de Bus de Tranzault", "public_transport": "platform", "shelter": "yes"}}, {"type": "node", "id": 6176371086, "lat": 46.7954897, "lon": 1.9836509, "tags": {"bus": "yes", "highway": "bus_stop", "public_transport": "platform"}}, {"type": "node", "id": 6344666878, "lat": 46.6871491, "lon": 1.897928, "tags": {"bus": "yes", "highway": "bus_stop", "public_transport": "platform"}}, {"type": "node", "id": 6502374511, "lat": 46.7736665, "lon": 1.8693892, "tags": {"bench": "no", "bin": "no", "bus": "yes", "highway": "bus_stop", "lit": "no", "name": "Blord", "network": "Horizon", "network:wikidata": "Q3456686", "operator": "Keolis Ch\u00e2teauroux", "public_transport": "platform", "shelter": "no", "tactile_paving": "no"}}, {"type": "node", "id": 6502374512, "lat": 46.7733755, "lon": 1.8688994, "tags": {"bench": "yes", "bin": "no", "bus": "yes", "highway": "bus_stop", "lit": "no", "name": "Blord", "network": "Horizon", "network:wikidata": "Q3456686", "operator": "Keolis Ch\u00e2teauroux", "public_transport": "platform", "shelter": "yes", "tactile_paving": "no"}}, {"type": "node", "id": 6565557424, "lat": 46.5783998, "lon": 1.9742195, "tags": {"bus": "yes", "departures_board": "no", "highway": "bus_stop", "name": "Arr\u00eat du Moulin \u00e0 Vent", "public_transport": "platform", "shelter": "no"}}, {"type": "node", "id": 6631550102, "lat": 46.6074973, "lon": 1.9913189, "tags": {"bus": "yes", "highway": "bus_stop", "name": "Montgivray Z.I. Les Murailles", "network": "R\u00e9mi", "public_transport": "platform", "ref": "F", "shelter": "no"}}, {"type": "node", "id": 6631550103, "lat": 46.6076383, "lon": 1.9914101, "tags": {"bus": "yes", "highway": "bus_stop", "name": "Montgivray Z.I. Les Murailles", "network": "R\u00e9mi", "public_transport": "platform", "ref": "F", "shelter": "no"}}, {"type": "node", "id": 6990370607, "lat": 46.7681384, "lon": 1.8933928, "tags": {"bench": "no", "bin": "no", "bus": "yes", "highway": "bus_stop", "lit": "no", "name": "Sassierges-Saint-Germain", "network": "Horizon", "network:wikidata": "Q3456686", "operator": "Keolis Ch\u00e2teauroux", "public_transport": "platform", "shelter": "no", "tactile_paving": "no"}}, {"type": "node", "id": 7195291331, "lat": 46.8015549, "lon": 2.3689082, "tags": {"highway": "bus_stop", "public_transport": "platform"}}, {"type": "node", "id": 9028038731, "lat": 46.5742305, "lon": 1.9489408, "tags": {"bus": "yes", "highway": "bus_stop", "public_transport": "platform"}}, {"type": "node", "id": 10209558671, "lat": 46.6413221, "lon": 2.2856354, "tags": {"bench": "no", "bin": "no", "bus": "yes", "highway": "bus_stop", "lit": "yes", "name": "Le Ch\u00e2telet, Route de St Amand", "public_transport": "platform", "ref": "150", "shelter": "no", "tactile_paving": "no"}}, {"type": "node", "id": 11162989725, "lat": 46.5640056, "lon": 2.1960671, "tags": {"bench": "no", "bin": "no", "bus": "yes", "covered": "yes", "highway": "bus_stop", "name": "Ch\u00e2teaumeillant - Avenue de la R\u00e9publique", "network": "R\u00e9mi", "passenger_information_display": "yes", "public_transport": "platform", "shelter": "yes", "tactile_paving": "no"}}, {"type": "node", "id": 11848477575, "lat": 46.7298166, "lon": 1.8312205, "tags": {"bus": "yes", "highway": "bus_stop", "public_transport": "platform"}}, {"type": "node", "id": 11848477576, "lat": 46.729714, "lon": 1.8312519, "tags": {"bus": "yes", "highway": "bus_stop", "public_transport": "platform"}}, {"type": "node", "id": 11848501391, "lat": 46.719528, "lon": 1.8163308, "tags": {"bus": "yes", "highway": "bus_stop", "public_transport": "platform"}}, {"type": "node", "id": 11848501396, "lat": 46.7225722, "lon": 1.8085658, "tags": {"bus": "yes", "highway": "bus_stop", "public_transport": "platform"}}, {"type": "node", "id": 11848501406, "lat": 46.7317692, "lon": 1.7886898, "tags": {"bus": "yes", "highway": "bus_stop", "public_transport": "platform"}}, {"type": "node", "id": 11848501407, "lat": 46.7318415, "lon": 1.7884616, "tags": {"bus": "yes", "highway": "bus_stop", "public_transport": "platform"}}, {"type": "node", "id": 11872402846, "lat": 46.543052, "lon": 2.0064376, "tags": {"bus": "yes", "highway": "bus_stop", "public_transport": "platform"}}, {"type": "node", "id": 12092385032, "lat": 46.7437527, "lon": 1.8214694, "tags": {"bench": "no", "bin": "no", "bus": "yes", "highway": "bus_stop", "lit": "no", "name": "Pasteur", "network": "Horizon", "network:wikidata": "Q3456686", "operator": "Keolis Ch\u00e2teauroux", "public_transport": "platform", "shelter": "no", "tactile_paving": "yes"}}, {"type": "node", "id": 12092394456, "lat": 46.7682872, "lon": 1.8936389, "tags": {"bench": "yes", "bin": "no", "bus": "yes", "highway": "bus_stop", "lit": "no", "name": "Sassierges-Saint-Germain", "network": "Horizon", "network:wikidata": "Q3456686", "operator": "Keolis Ch\u00e2teauroux", "public_transport": "platform", "shelter": "yes", "tactile_paving": "no"}}, {"type": "node", "id": 12092394460, "lat": 46.7676323, "lon": 1.8737071, "tags": {"bench": "no", "bin": "no", "bus": "yes", "highway": "bus_stop", "lit": "no", "name": "Ch\u00e2tre", "network": "Horizon", "network:wikidata": "Q3456686", "operator": "Keolis Ch\u00e2teauroux", "public_transport": "platform", "shelter": "yes", "tactile_paving": "no"}}, {"type": "node", "id": 12092394461, "lat": 46.7674826, "lon": 1.8735283, "tags": {"bench": "yes", "bin": "no", "bus": "yes", "highway": "bus_stop", "lit": "no", "name": "Ch\u00e2tre", "network": "Horizon", "network:wikidata": "Q3456686", "operator": "Keolis Ch\u00e2teauroux", "public_transport": "platform", "shelter": "yes", "tactile_paving": "no"}}, {"type": "node", "id": 12092394463, "lat": 46.7875454, "lon": 1.8776315, "tags": {"bench": "no", "bin": "no", "bus": "yes", "highway": "bus_stop", "lit": "no", "name": "Petit Villemongin", "network": "Horizon", "network:wikidata": "Q3456686", "operator": "Keolis Ch\u00e2teauroux", "public_transport": "platform", "shelter": "no", "tactile_paving": "no"}}, {"type": "node", "id": 12092394464, "lat": 46.7877185, "lon": 1.8776142, "tags": {"bench": "yes", "bin": "no", "bus": "yes", "highway": "bus_stop", "lit": "no", "name": "Petit Villemongin", "network": "Horizon", "network:wikidata": "Q3456686", "operator": "Keolis Ch\u00e2teauroux", "public_transport": "platform", "shelter": "yes", "tactile_paving": "no"}}]}