{"version": 0.6, "generator": "Overpass API 0.7.62.5 1bd436f1", "osm3s": {"timestamp_osm_base": "2025-04-09T14:47:30Z", "copyright": "The data included in this document is from www.openstreetmap.org. The data is made available under ODbL."}, "elements": [{"type": "node", "id": 1068131642, "lat": 0.435846, "lon": 9.4804584, "tags": {"access": "yes", "bus": "yes", "highway": "bus_stop", "lit": "yes", "name": "Dragages", "noname": "yes", "operator": "Trans'Urb", "public_transport": "stop_position", "ref": "Ligne 5", "source": "survey"}}, {"type": "node", "id": 8347277734, "lat": 0.3878717, "lon": 9.5027417, "tags": {"bus": "yes", "highway": "bus_stop", "public_transport": "platform"}}, {"type": "node", "id": 10694319102, "lat": 0.4288699, "lon": 9.4718812, "tags": {"bus": "yes", "highway": "bus_stop", "name": "GP", "operator": "Trans'Urb", "public_transport": "stop_position", "ref": "Ligne 5", "source": "survey"}}, {"type": "node", "id": 10694357755, "lat": 0.4222277, "lon": 9.4665405, "tags": {"bus": "yes", "highway": "bus_stop", "name": "Nzeng Ayong", "operator": "Trans'Urb", "public_transport": "stop_position", "ref": "Ligne 5", "source": "survey"}}, {"type": "node", "id": 10694358919, "lat": 0.4293868, "lon": 9.4874133, "tags": {"access": "yes", "bus": "yes", "highway": "bus_stop", "name": "Fin goudron", "public_transport": "stop_position", "ref": "Ligne 5", "source": "survey"}}, {"type": "node", "id": 11194345097, "lat": 0.4333785, "lon": 9.4841717, "tags": {"access": "yes", "bus": "yes", "highway": "bus_stop", "lit": "yes", "name": "Ceyo", "noname": "yes", "operator": "Trans'Urb", "public_transport": "stop_position", "ref": "Ligne 5", "source": "survey"}}, {"type": "node", "id": 11271485391, "lat": 0.4326185, "lon": 9.4773296, "tags": {"bus": "yes", "highway": "bus_stop", "name": "Gaboprix", "operator": "Trans'Urb", "public_transport": "stop_position", "ref": "Ligne 5", "source": "survey"}}, {"type": "node", "id": 11404754436, "lat": 0.422474, "lon": 9.4798611, "tags": {"access": "yes", "bus": "yes", "highway": "bus_stop", "name": "RP Nzeng Ayong", "operator": "Trans'urb", "public_transport": "stop_position", "ref": "Ligne 5", "source": "survey"}}, {"type": "node", "id": 11404776967, "lat": 0.4291393, "lon": 9.4988513, "tags": {"bench": "no", "bus": "yes", "highway": "bus_stop", "noname": "yes", "pole": "no", "public_transport": "platform"}}, {"type": "node", "id": 11404776968, "lat": 0.4027763, "lon": 9.5195678, "tags": {"bench": "no", "bin": "no", "bus": "yes", "highway": "bus_stop", "lit": "yes", "noname": "yes", "pole": "no", "public_transport": "platform", "shelter": "no", "tactile_paving": "yes"}}, {"type": "node", "id": 11404836104, "lat": 0.4109936, "lon": 9.4953936, "tags": {"bench": "no", "bin": "no", "bus": "yes", "highway": "bus_stop", "lit": "yes", "noname": "yes", "pole": "yes", "public_transport": "platform", "shelter": "no", "tactile_paving": "yes"}}, {"type": "node", "id": 11404836471, "lat": 0.422224, "lon": 9.4641564, "tags": {"bench": "no", "bin": "no", "bus": "yes", "highway": "bus_stop", "lit": "yes", "noname": "yes", "pole": "yes", "public_transport": "platform", "shelter": "no", "tactile_paving": "no"}}, {"type": "node", "id": 11404851847, "lat": 0.3893165, "lon": 9.4468096, "tags": {"bench": "no", "bin": "no", "bus": "yes", "highway": "bus_stop", "lit": "yes", "noname": "yes", "pole": "no", "public_transport": "platform", "shelter": "no", "tactile_paving": "no"}}, {"type": "node", "id": 11404853732, "lat": 0.4213919, "lon": 9.4786578, "tags": {"bench": "no", "bin": "no", "bus": "yes", "highway": "bus_stop", "lit": "yes", "noname": "yes", "pole": "no", "public_transport": "platform", "shelter": "no", "tactile_paving": "no"}}, {"type": "node", "id": 11426073045, "lat": 0.3307871, "lon": 9.487418, "tags": {"bench": "no", "bin": "no", "bus": "yes", "highway": "bus_stop", "lit": "yes", "noname": "yes", "pole": "yes", "public_transport": "platform", "shelter": "no"}}, {"type": "node", "id": 11426122860, "lat": 0.3374795, "lon": 9.4803667, "tags": {"bench": "no", "bin": "no", "bus": "yes", "highway": "bus_stop", "lit": "yes", "noname": "yes", "pole": "yes", "public_transport": "platform", "shelter": "no", "tactile_paving": "yes"}}, {"type": "node", "id": 11426125018, "lat": 0.3744565, "lon": 9.4746465, "tags": {"bench": "no", "bin": "no", "bus": "yes", "highway": "bus_stop", "lit": "yes", "noname": "yes", "pole": "yes", "public_transport": "platform", "shelter": "no"}}]}