{"version": 0.6, "generator": "Overpass API 0.7.62.5 1bd436f1", "osm3s": {"timestamp_osm_base": "2025-04-09T14:38:15Z", "copyright": "The data included in this document is from www.openstreetmap.org. The data is made available under ODbL."}, "elements": [{"type": "node", "id": 2107688995, "lat": 36.3779015, "lon": 3.8964059, "tags": {"addr:city": "Bouira", "addr:postcode": "10000", "name": "Bouira", "name:ar": "\u0627\u0644\u0628\u0648\u064a\u0631\u0629", "name:en": "Bouira", "name:fr": "Bouira", "operator": "SNTF", "public_transport": "station", "railway": "station", "train": "yes"}}, {"type": "node", "id": 4156136703, "lat": 36.255471, "lon": 4.0413851, "tags": {"bus": "yes", "departures_board": "no", "highway": "bus_stop", "public_transport": "platform"}}, {"type": "node", "id": 4205405895, "lat": 36.3695217, "lon": 3.9003973, "tags": {"bench": "yes", "bus": "yes", "departures_board": "no", "highway": "bus_stop", "public_transport": "platform", "shelter": "no"}}, {"type": "node", "id": 4605010595, "lat": 36.3132517, "lon": 4.0731738, "tags": {"bus": "yes", "highway": "bus_stop", "name": "Vers Bouira", "name:fr": "Vers Bouira", "public_transport": "platform"}}, {"type": "node", "id": 4717746092, "lat": 36.3828564, "lon": 3.9000549, "tags": {"bench": "yes", "bin": "no", "bus": "yes", "departures_board": "no", "highway": "bus_stop", "public_transport": "platform", "shelter": "yes"}}, {"type": "node", "id": 4717746093, "lat": 36.3741725, "lon": 3.9023041, "tags": {"bus": "yes", "departures_board": "no", "highway": "bus_stop", "name": "Arret de la place", "name:fr": "Arret de la place", "public_transport": "platform", "shelter": "yes"}}, {"type": "node", "id": 4717768091, "lat": 36.366406, "lon": 3.91304, "tags": {"bus": "yes", "highway": "bus_stop", "name": "Arret de Ras Bouira 2", "name:fr": "Arret de Ras Bouira 2", "public_transport": "platform"}}, {"type": "node", "id": 4717768092, "lat": 36.3966625, "lon": 3.9021931, "tags": {"bus": "yes", "departures_board": "no", "highway": "bus_stop", "name": "Arr\u00eat UNO", "name:ar": "\u0645\u0648\u0642\u0641 \u0623\u0648\u0646\u0648", "name:fr": "Arret UNO", "name:kab": "Imbeddi n ufergu/lka\u1e5b UNO", "public_transport": "platform", "shelter": "no"}}, {"type": "node", "id": 4717782489, "lat": 36.365393, "lon": 3.9148534, "tags": {"bus": "yes", "highway": "bus_stop", "name": "Derniere \u00e2rret de Ras Bouira", "name:fr": "Derniere \u00e2rret de Ras Bouira", "public_transport": "platform"}}, {"type": "node", "id": 4717782490, "lat": 36.3915386, "lon": 3.9009228, "tags": {"bench": "yes", "bin": "no", "bus": "yes", "highway": "bus_stop", "public_transport": "platform", "shelter": "yes"}}, {"type": "node", "id": 5634506019, "lat": 36.4717276, "lon": 3.8302019, "tags": {"amenity": "bus_stop", "bus": "yes", "highway": "bus_stop", "name": "arr\u00eat Kalous vers-bouira", "public_transport": "platform"}}, {"type": "node", "id": 5636038795, "lat": 36.471646, "lon": 3.8306031, "tags": {"amenity": "bus_stop", "bus": "yes", "highway": "bus_stop", "name": "Arr\u00eat kalous vers aomar", "public_transport": "platform"}}, {"type": "node", "id": 5711755354, "lat": 36.3873328, "lon": 3.9005589, "tags": {"bus": "yes", "departures_board": "no", "highway": "bus_stop", "public_transport": "platform", "shelter": "yes"}}, {"type": "node", "id": 5711755355, "lat": 36.386607, "lon": 3.9003061, "tags": {"bus": "yes", "departures_board": "no", "highway": "bus_stop", "public_transport": "platform", "shelter": "yes"}}, {"type": "node", "id": 5711755356, "lat": 36.3968376, "lon": 3.9024434, "tags": {"bus": "yes", "departures_board": "no", "highway": "bus_stop", "name": "Arr\u00eat UNO", "name:ar": "\u0645\u0648\u0642\u0641 \u0623\u0648\u0646\u0648", "name:kab": "Imbeddi n ufergu/lka\u1e5b UNO", "public_transport": "platform", "shelter": "no"}}, {"type": "node", "id": 5711755357, "lat": 36.3941105, "lon": 3.9015007, "tags": {"addr:city": "Bouira", "addr:street": "RN 5", "amenity": "bus_station", "bus": "yes", "departures_board": "no", "highway": "bus_stop", "internet_access": "no", "public_transport": "platform"}}, {"type": "node", "id": 5711755358, "lat": 36.3830133, "lon": 3.8999075, "tags": {"bus": "yes", "departures_board": "no", "highway": "bus_stop", "public_transport": "platform", "shelter": "no"}}, {"type": "node", "id": 5711755359, "lat": 36.3806602, "lon": 3.9003365, "tags": {"bench": "no", "bin": "no", "bus": "yes", "departures_board": "no", "highway": "bus_stop", "public_transport": "platform", "shelter": "no"}}, {"type": "node", "id": 5711755360, "lat": 36.3806453, "lon": 3.9004843, "tags": {"bench": "yes", "bin": "no", "bus": "yes", "departures_board": "no", "highway": "bus_stop", "public_transport": "platform", "shelter": "yes"}}, {"type": "node", "id": 5711755361, "lat": 36.3741885, "lon": 3.9021336, "tags": {"bus": "yes", "departures_board": "no", "highway": "bus_stop", "name": "Arret de la place", "public_transport": "platform", "shelter": "yes"}}, {"type": "node", "id": 5711755367, "lat": 36.3744769, "lon": 3.8986435, "tags": {"bus": "yes", "departures_board": "no", "highway": "bus_stop", "public_transport": "platform", "shelter": "yes"}}, {"type": "node", "id": 5711755368, "lat": 36.3749845, "lon": 3.8986435, "tags": {"bus": "yes", "departures_board": "no", "highway": "bus_stop", "public_transport": "platform", "shelter": "yes"}}, {"type": "node", "id": 5711755369, "lat": 36.3694556, "lon": 3.9006115, "tags": {"bench": "yes", "bus": "yes", "departures_board": "no", "highway": "bus_stop", "lit": "yes", "public_transport": "platform", "shelter": "no", "shelter_type": "public_transport"}}, {"type": "node", "id": 5711755370, "lat": 36.3716958, "lon": 3.9016148, "tags": {"bus": "yes", "departures_board": "no", "highway": "bus_stop", "public_transport": "platform", "shelter": "no"}}, {"type": "node", "id": 5711755371, "lat": 36.3717346, "lon": 3.9014632, "tags": {"bus": "yes", "departures_board": "no", "highway": "bus_stop", "public_transport": "platform", "shelter": "no"}}, {"type": "node", "id": 5711776555, "lat": 36.3706946, "lon": 3.90013, "tags": {"bus": "yes", "departures_board": "no", "highway": "bus_stop", "public_transport": "platform", "shelter": "no"}}, {"type": "node", "id": 5711776556, "lat": 36.3734656, "lon": 3.8956572, "tags": {"bus": "yes", "departures_board": "no", "highway": "bus_stop", "public_transport": "platform", "shelter": "yes"}}, {"type": "node", "id": 5711776557, "lat": 36.3731704, "lon": 3.8951503, "tags": {"bus": "yes", "departures_board": "no", "highway": "bus_stop", "public_transport": "platform", "shelter": "yes"}}, {"type": "node", "id": 5711781577, "lat": 36.372817, "lon": 3.8905518, "tags": {"bus": "yes", "departures_board": "no", "highway": "bus_stop", "public_transport": "platform", "shelter": "yes"}}, {"type": "node", "id": 5711781578, "lat": 36.3726032, "lon": 3.8898719, "tags": {"bus": "yes", "departures_board": "no", "highway": "bus_stop", "public_transport": "platform", "shelter": "yes"}}, {"type": "node", "id": 5711781579, "lat": 36.3724706, "lon": 3.8865435, "tags": {"bus": "yes", "departures_board": "no", "highway": "bus_stop", "public_transport": "platform", "shelter": "no"}}, {"type": "node", "id": 5711781580, "lat": 36.3732226, "lon": 3.886032, "tags": {"bus": "yes", "departures_board": "no", "highway": "bus_stop", "public_transport": "platform", "shelter": "yes"}}, {"type": "node", "id": 5711781581, "lat": 36.3721849, "lon": 3.8829694, "tags": {"bus": "yes", "departures_board": "no", "highway": "bus_stop", "public_transport": "platform", "shelter": "yes"}}, {"type": "node", "id": 5711832665, "lat": 36.3773222, "lon": 3.8840083, "tags": {"bus": "yes", "departures_board": "no", "highway": "bus_stop", "public_transport": "platform", "shelter": "no"}}, {"type": "node", "id": 5711832666, "lat": 36.3780939, "lon": 3.883616, "tags": {"bus": "yes", "departures_board": "no", "highway": "bus_stop", "public_transport": "platform", "shelter": "yes"}}, {"type": "node", "id": 5711832667, "lat": 36.3767433, "lon": 3.8856192, "tags": {"bus": "yes", "departures_board": "no", "highway": "bus_stop", "public_transport": "platform", "shelter": "yes"}}, {"type": "node", "id": 5711832668, "lat": 36.3769031, "lon": 3.8854368, "tags": {"bus": "yes", "departures_board": "no", "highway": "bus_stop", "public_transport": "platform", "shelter": "no"}}, {"type": "node", "id": 5711983941, "lat": 36.3788285, "lon": 3.8905932, "tags": {"bus": "yes", "departures_board": "no", "highway": "bus_stop", "public_transport": "platform", "shelter": "yes"}}, {"type": "node", "id": 5711983942, "lat": 36.3903619, "lon": 3.8863028, "tags": {"bus": "yes", "highway": "bus_stop", "public_transport": "platform"}}, {"type": "node", "id": 5711983943, "lat": 36.3902404, "lon": 3.8859285, "tags": {"bus": "yes", "highway": "bus_stop", "public_transport": "platform"}}, {"type": "node", "id": 5711983945, "lat": 36.3901003, "lon": 3.8865709, "tags": {"bus": "yes", "highway": "bus_stop", "public_transport": "platform"}}, {"type": "node", "id": 5711983946, "lat": 36.3860455, "lon": 3.8733587, "tags": {"bus": "yes", "highway": "bus_stop", "name": "transport urbain", "public_transport": "platform"}}, {"type": "node", "id": 5711983947, "lat": 36.3738371, "lon": 3.8863509, "tags": {"bus": "yes", "departures_board": "no", "highway": "bus_stop", "public_transport": "platform", "shelter": "yes", "tactile_paving": "no"}}, {"type": "node", "id": 5711983948, "lat": 36.3752586, "lon": 3.8828813, "tags": {"bus": "yes", "departures_board": "no", "highway": "bus_stop", "public_transport": "platform", "shelter": "yes"}}, {"type": "node", "id": 5711983949, "lat": 36.3753134, "lon": 3.8830917, "tags": {"bus": "yes", "departures_board": "no", "highway": "bus_stop", "public_transport": "platform", "shelter": "no"}}, {"type": "node", "id": 5711983950, "lat": 36.3741905, "lon": 3.8851189, "tags": {"bus": "yes", "departures_board": "no", "highway": "bus_stop", "public_transport": "platform", "shelter": "yes"}}, {"type": "node", "id": 5711983951, "lat": 36.3744708, "lon": 3.8856341, "tags": {"bus": "yes", "departures_board": "no", "highway": "bus_stop", "public_transport": "platform", "shelter": "yes"}}, {"type": "node", "id": 5711983952, "lat": 36.3754119, "lon": 3.890163, "tags": {"bus": "yes", "departures_board": "no", "highway": "bus_stop", "public_transport": "platform", "shelter": "yes"}}, {"type": "node", "id": 5711983953, "lat": 36.3757994, "lon": 3.8912602, "tags": {"bus": "yes", "departures_board": "no", "highway": "bus_stop", "public_transport": "platform", "shelter": "yes"}}, {"type": "node", "id": 5711983954, "lat": 36.3766375, "lon": 3.8923742, "tags": {"bus": "yes", "departures_board": "no", "highway": "bus_stop", "public_transport": "platform", "shelter": "no"}}, {"type": "node", "id": 5711983955, "lat": 36.3765826, "lon": 3.8924809, "tags": {"bus": "yes", "departures_board": "no", "highway": "bus_stop", "public_transport": "platform", "shelter": "no"}}, {"type": "node", "id": 5711983956, "lat": 36.3813613, "lon": 3.8947955, "tags": {"bus": "yes", "departures_board": "no", "highway": "bus_stop", "public_transport": "platform", "shelter": "no"}}, {"type": "node", "id": 5711983957, "lat": 36.3813117, "lon": 3.8946185, "tags": {"bus": "yes", "departures_board": "no", "highway": "bus_stop", "public_transport": "platform", "shelter": "no"}}, {"type": "node", "id": 5808500792, "lat": 36.2905701, "lon": 3.6765311, "tags": {"bus": "yes", "departures_board": "no", "highway": "bus_stop", "name": "Mini bus station to El Hachimia \u0646\u0642\u0644 \u0627\u0644\u0645\u0633\u0627\u0641\u0631\u064a\u0646 \u0628\u0627\u0644\u0627\u062a\u062c\u0627\u0647 \u0627\u0644\u0647\u0627\u0634\u0645\u064a\u0629", "name:ar": "Mini bus station to El Hachimia \u0646\u0642\u0644 \u0627\u0644\u0645\u0633\u0627\u0641\u0631\u064a\u0646 \u0628\u0627\u0644\u0627\u062a\u062c\u0627\u0647 \u0627\u0644\u0647\u0627\u0634\u0645\u064a\u0629", "name:en": "Mini bus station to El Hachimia", "name:fr": "Station de mini bus vers El Hachimia", "public_transport": "platform", "shelter": "no", "tactile_paving": "incorrect"}}, {"type": "node", "id": 5923104586, "lat": 36.2944101, "lon": 3.6698741, "tags": {"bus": "yes", "departures_board": "no", "highway": "bus_stop", "public_transport": "platform", "shelter": "yes", "tactile_paving": "incorrect"}}, {"type": "node", "id": 6049623094, "lat": 36.3714466, "lon": 3.9020481, "tags": {"bus": "yes", "departures_board": "no", "highway": "bus_stop", "public_transport": "platform", "shelter": "no"}}, {"type": "node", "id": 6107444978, "lat": 36.3135072, "lon": 4.0747229, "tags": {"bus": "yes", "departures_board": "no", "highway": "bus_stop", "public_transport": "platform", "shelter": "yes"}}, {"type": "node", "id": 6130844685, "lat": 36.5101161, "lon": 4.0208541, "tags": {"bus": "yes", "highway": "bus_stop", "name": "Ighil Imziren \u0625\u063a\u064a\u0644 \u0625\u0645\u0632\u064a\u0631\u0646", "name:ar": "\u0625\u063a\u064a\u0644 \u0625\u0645\u0632\u064a\u0631\u0646", "name:ber": "\u2d62\u2d56\u2d62\u2d4d \u2d49\u2d4e\u2d63\u2d49\u2d54\u2d30\u2d4f", "name:fr": "Ighil Imziren", "public_transport": "platform"}}, {"type": "node", "id": 6130844894, "lat": 36.5069316, "lon": 4.0182541, "tags": {"bus": "yes", "highway": "bus_stop", "name": "Thizi toughza", "name:ar": "\u062b\u064a\u0632\u064a \u062a\u063a\u0632\u0629", "public_transport": "platform"}}, {"type": "node", "id": 6137141112, "lat": 36.2954317, "lon": 3.6787777, "tags": {"highway": "bus_stop", "name": "\u0645\u0648\u0642\u0641 \u062d\u0627\u0641\u0644\u0627\u062a \u0627\u0644\u0628\u0648\u064a\u0631\u0629", "name:ar": "\u0645\u0648\u0642\u0641 \u062d\u0627\u0641\u0644\u0627\u062a \u0627\u0644\u0628\u0648\u064a\u0631\u0629", "name:en": "Bus station to Bouira", "name:fr": "Arr\u00eat de bus vers Bouira"}}, {"type": "node", "id": 6335518585, "lat": 36.29589, "lon": 3.6694534, "tags": {"highway": "bus_stop", "name": "\u0646\u0642\u0644 \u0627\u0644\u0645\u0633\u0627\u0641\u0631\u064a\u0646 \u0628\u0627\u0644\u0627\u062a\u062c\u0627\u0647 \u0633\u0648\u0642 \u0627\u0644\u062e\u0645\u064a\u0633", "name:ar": "\u0646\u0642\u0644 \u0627\u0644\u0645\u0633\u0627\u0641\u0631\u064a\u0646 \u0628\u0627\u0644\u0627\u062a\u062c\u0627\u0647 \u0633\u0648\u0642 \u0627\u0644\u062e\u0645\u064a\u0633", "name:en": "Bus station to Souk El Khemis", "name:fr": "Arr\u00eat de bus vers Souk El Khemis"}}, {"type": "node", "id": 6662689125, "lat": 36.3726254, "lon": 3.8853315, "tags": {"bus": "yes", "departures_board": "no", "highway": "bus_stop", "public_transport": "platform", "shelter": "yes"}}, {"type": "node", "id": 6662689132, "lat": 36.3797021, "lon": 3.8918022, "tags": {"bench": "no", "bus": "yes", "departures_board": "no", "highway": "bus_stop", "public_transport": "platform", "shelter": "no"}}, {"type": "node", "id": 6662689133, "lat": 36.3826766, "lon": 3.8944615, "tags": {"bus": "yes", "departures_board": "no", "highway": "bus_stop", "public_transport": "platform", "shelter": "yes"}}, {"type": "node", "id": 6662689134, "lat": 36.3826325, "lon": 3.8946993, "tags": {"bus": "yes", "departures_board": "no", "highway": "bus_stop", "public_transport": "platform", "shelter": "yes"}}, {"type": "node", "id": 6662689135, "lat": 36.377782, "lon": 3.8989023, "tags": {"bus": "yes", "departures_board": "no", "highway": "bus_stop", "public_transport": "platform", "shelter": "yes"}}, {"type": "node", "id": 6662689136, "lat": 36.3778378, "lon": 3.899118, "tags": {"bus": "yes", "departures_board": "no", "highway": "bus_stop", "public_transport": "platform", "shelter": "yes"}}, {"type": "node", "id": 6662752871, "lat": 36.3702005, "lon": 3.8761349, "tags": {"bus": "yes", "departures_board": "no", "highway": "bus_stop", "public_transport": "platform", "shelter": "yes"}}, {"type": "node", "id": 6662752872, "lat": 36.3700835, "lon": 3.8752707, "tags": {"bus": "yes", "departures_board": "no", "highway": "bus_stop", "public_transport": "platform", "shelter": "no"}}]}