{"version": 0.6, "generator": "Overpass API 0.7.62.5 1bd436f1", "osm3s": {"timestamp_osm_base": "2025-04-09T14:41:26Z", "copyright": "The data included in this document is from www.openstreetmap.org. The data is made available under ODbL."}, "elements": [{"type": "node", "id": 296849720, "lat": 39.721069, "lon": 3.4554826, "tags": {"bench": "no", "bus": "yes", "highway": "bus_stop", "name": "Cala Agulla", "name:ca": "Cala Agulla", "network": "Mini Tren", "operator": "Asociaci\u00f3n Hotelera de Calas de Capdepera", "passenger_information_display": "no", "public_transport": "stop_position", "route_ref": "Mini Tren", "shelter": "no"}}, {"type": "node", "id": 447923258, "lat": 39.5716854, "lon": 3.3732622, "tags": {"bench": "yes", "bus": "yes", "highway": "bus_stop", "local_ref": "1", "name": "Savines", "network": "Transports p\u00fablics de Mallorca", "operator": "Sagal\u00e9s Caldentey", "passenger_information_display": "no", "public_transport": "platform", "ref": "51002", "route_ref": "401;424;425;A42", "shelter": "yes", "website": "https://www.tib.org/ca/parades/-/parada/51002"}}, {"type": "node", "id": 494222512, "lat": 39.7191426, "lon": 3.457632, "tags": {"bus": "yes", "highway": "bus_stop", "network": "Mini Tren", "public_transport": "stop_position"}}, {"type": "node", "id": 494222735, "lat": 39.6822153, "lon": 3.450965, "tags": {"bench": "no", "bus": "yes", "highway": "bus_stop", "local_ref": "2", "name": "Sa Font de sa Cala", "network": "Transports p\u00fablics de Mallorca", "operator": "Sagal\u00e9s Caldentey", "passenger_information_display": "no", "public_transport": "platform", "ref": "14038", "route_ref": "423", "shelter": "no", "website": "https://www.tib.org/ca/parades/-/parada/14038", "wheelchair": "no"}}, {"type": "node", "id": 494222807, "lat": 39.7061493, "lon": 3.4559105, "tags": {"bench": "yes", "bin": "yes", "bus": "yes", "departures_board": "timetable", "highway": "bus_stop", "lit": "yes", "name": "Son Moll (Cala Rajada)", "network": "Transports p\u00fablics de Mallorca", "operator": "Consorci de Transports de Mallorca", "public_transport": "platform", "ref": "14011", "shelter": "no", "surface": "paving_stones", "tactile_paving": "no", "website": "https://www.tib.org/ca/parades/-/parada/14011"}}, {"type": "node", "id": 494223248, "lat": 39.6868868, "lon": 3.4503469, "tags": {"bench": "no", "bus": "yes", "highway": "bus_stop", "name": "Hotel na Taconera", "network": "Mini Tren", "operator": "Asociaci\u00f3n Hotelera de Calas de Capdepera", "passenger_information_display": "no", "public_transport": "platform", "route_ref": "Mini Tren", "shelter": "no"}}, {"type": "node", "id": 665247342, "lat": 39.8634753, "lon": 3.0936625, "tags": {"bench": "yes", "bin": "yes", "bus": "yes", "departures_board": "timetable", "highway": "bus_stop", "lit": "yes", "name": "Can Capdebou (Alc\u00fadia)", "network": "Transports p\u00fablics de Mallorca", "operator": "Consorci de Transports de Mallorca", "public_transport": "platform", "ref": "3041", "shelter": "yes", "surface": "paving_stones", "tactile_paving": "no"}}, {"type": "node", "id": 682264103, "lat": 39.5192684, "lon": 3.3062507, "tags": {"bench": "no", "bin": "no", "bus": "yes", "highway": "bus_stop", "lit": "no", "name": "Platja de Cala Rom\u00e0ntica", "network": "Transports p\u00fablics de Mallorca", "operator": "Sagal\u00e9s Caldentey", "passenger_information_display": "no", "public_transport": "platform", "ref": "33042", "route_ref": "427", "shelter": "no", "tactile_paving": "no", "website": "https://www.tib.org/ca/parades/-/parada/33042"}}, {"type": "node", "id": 765072305, "lat": 39.7569938, "lon": 3.1660665, "tags": {"bench": "no", "bus": "yes", "highway": "bus_stop", "public_transport": "platform", "shelter": "no"}}, {"type": "node", "id": 1038497952, "lat": 39.7368402, "lon": 3.2765386, "tags": {"bench": "yes", "bus": "yes", "highway": "bus_stop", "name": "Col\u00f2nia de Sant Pere", "name:ca": "Col\u00f2nia de Sant Pere", "network": "Transports p\u00fablics de Mallorca", "operator": "Sagal\u00e9s Caldentey", "passenger_information_display": "no", "public_transport": "platform", "ref": "6003", "route_ref": "421", "shelter": "yes", "website": "https://www.tib.org/ca/parades/-/parada/6003"}}, {"type": "node", "id": 1145462452, "lat": 39.5452464, "lon": 3.3384763, "tags": {"bench": "no", "bus": "yes", "highway": "bus_stop", "local_ref": "1", "name": "Ctra. Son Servera", "network": "Transports p\u00fablics de Mallorca", "operator": "Sagal\u00e9s Caldentey", "passenger_information_display": "no", "public_transport": "platform", "ref": "33053", "route_ref": "401;424;425;A42", "shelter": "yes", "website": "https://www.tib.org/ca/parades/-/parada/33053"}}, {"type": "node", "id": 1174926707, "lat": 39.8516787, "lon": 3.1231323, "tags": {"bench": "yes", "bin": "yes", "bus": "yes", "departures_board": "timetable", "highway": "bus_stop", "lit": "yes", "name": "Centre hist\u00f2ric (Alc\u00fadia)", "network": "Transports p\u00fablics de Mallorca", "operator": "Consorci de Transports de Mallorca", "public_transport": "platform", "ref": "3034", "shelter": "no", "surface": "paving_stones", "tactile_paving": "partial"}}, {"type": "node", "id": 1200166790, "lat": 39.8000303, "lon": 3.1192575, "tags": {"bench": "yes", "bin": "yes", "bus": "yes", "check_date:shelter": "2023-07-03", "departures_board": "timetable", "highway": "bus_stop", "lit": "yes", "name": "S'Albufera 1 (Platja de Muro)", "network": "Transports p\u00fablics de Mallorca", "operator": "Consorci de Transports de Mallorca", "public_transport": "platform", "ref": "39006", "shelter": "yes", "surface": "paving_stones", "tactile_paving": "yes"}}, {"type": "node", "id": 1256815224, "lat": 39.7701714, "lon": 3.0196548, "tags": {"bus": "yes", "description": "To Palma", "highway": "bus_stop", "public_transport": "platform"}}, {"type": "node", "id": 1541601125, "lat": 39.540261, "lon": 3.334384, "tags": {"bench": "yes", "bus": "yes", "highway": "bus_stop", "name": "Moll", "name:ca": "Moll", "network": "Consorci de Transports de Mallorca", "operator": "Sagal\u00e9s Caldentey", "passenger_information_display": "no", "public_transport": "platform", "ref": "33011", "route_ref": "427;428", "shelter": "yes", "website": "https://www.tib.org/ca/parades/-/parada/33011"}}, {"type": "node", "id": 1583966340, "lat": 39.7658988, "lon": 3.1482607, "tags": {"bench": "yes", "bin": "no", "bus": "yes", "check_date:shelter": "2021-10-14", "departures_board": "timetable", "highway": "bus_stop", "lit": "yes", "name": "Can Picafort centre 1 (Can Picafort)", "network": "Transports p\u00fablics de Mallorca", "operator": "Consorci de Transports de Mallorca", "public_transport": "platform", "ref": "55017", "shelter": "no", "surface": "paving_stones", "tactile_paving": "no"}}, {"type": "node", "id": 1623457075, "lat": 39.6221963, "lon": 3.3914879, "tags": {"bench": "yes", "bin": "yes", "bus": "yes", "check_date:shelter": "2023-10-03", "highway": "bus_stop", "lit": "yes", "local_ref": "1", "name": "Cala Bona nord", "network": "Transports p\u00fablics de Mallorca", "operator": "Sagal\u00e9s Caldentey", "passenger_information_display": "no", "public_transport": "platform", "ref": "62028", "route_ref": "412;425;A42", "shelter": "yes", "tactile_paving": "yes", "website": "https://www.tib.org/ca/parades/-/parada/62028"}}, {"type": "node", "id": 1647005740, "lat": 39.6062889, "lon": 3.3872977, "tags": {"bench": "no", "bus": "yes", "highway": "bus_stop", "name": "Na Llambies", "network": "Transports p\u00fablics de Mallorca", "operator": "Sagal\u00e9s Caldentey", "passenger_information_display": "no", "public_transport": "platform", "ref": "62005", "route_ref": "412;424;425;A42", "shelter": "no", "website": "https://www.tib.org/ca/parades/-/parada/62005"}}, {"type": "node", "id": 1707744668, "lat": 39.5777258, "lon": 3.3765208, "tags": {"bench": "yes", "bin": "yes", "bus": "yes", "check_date:shelter": "2023-08-30", "highway": "bus_stop", "lit": "yes", "local_ref": "1", "name": "Palmeres", "network": "Transports p\u00fablics de Mallorca", "operator": "Sagal\u00e9s Caldentey", "passenger_information_display": "no", "public_transport": "platform", "ref": "51006", "route_ref": "401;424;425;A42", "shelter": "yes", "tactile_paving": "yes", "website": "https://www.tib.org/ca/parades/-/parada/51006"}}, {"type": "node", "id": 1751502904, "lat": 39.7890283, "lon": 3.1247742, "tags": {"bench": "yes", "bin": "yes", "bus": "yes", "check_date:shelter": "2021-10-13", "departures_board": "timetable", "highway": "bus_stop", "lit": "yes", "name": "Els Pins 1 (Platja de Muro)", "name:ca": "Els Pins 1 (Platja de Muro)", "network": "Transports p\u00fablics de Mallorca", "operator": "Consorci de Transports de Mallorca", "public_transport": "platform", "ref": "39005", "shelter": "yes", "surface": "paving_stones", "tactile_paving": "yes"}}, {"type": "node", "id": 1877213525, "lat": 39.7017335, "lon": 3.4326936, "tags": {"bench": "yes", "bin": "yes", "bus": "yes", "departures_board": "timetable", "highway": "bus_stop", "lit": "yes", "name": "Capdepera centre 1 (Capdepera)", "name:ca": "Capdepera centre 1 (Capdepera)", "network": "Transports p\u00fablics de Mallorca", "operator": "Consorci de Transports de Mallorca", "public_transport": "platform", "ref": "14033", "shelter": "yes", "surface": "asphalt", "tactile_paving": "no", "website": "https://www.tib.org/ca/parades/-/parada/14033"}}, {"type": "node", "id": 1917628975, "lat": 39.7427179, "lon": 3.4287398, "tags": {"bench": "yes", "bin": "no", "bus": "yes", "highway": "bus_stop", "name": "Cala Mesquida", "name:ca": "Cala Mesquida", "network": "Transports p\u00fablics de Mallorca", "operator": "Sagal\u00e9s Caldentey", "public_transport": "platform", "ref": "14018", "route_ref": "422", "shelter": "no", "tactile_paving": "no", "website": "https://www.tib.org/ca/parades/-/parada/14018"}}, {"type": "node", "id": 1921748554, "lat": 39.7036851, "lon": 3.4449021, "tags": {"bench": "no", "bin": "yes", "bus": "yes", "departures_board": "timetable", "highway": "bus_stop", "lit": "yes", "name": "Capdepera est 2 (Capdepera)", "network": "Transports p\u00fablics de Mallorca", "operator": "Consorci de Transports de Mallorca", "public_transport": "platform", "ref": "14027", "shelter": "no", "surface": "paving_stones", "tactile_paving": "no", "website": "https://www.tib.org/ca/parades/-/parada/14027"}}, {"type": "node", "id": 1922004028, "lat": 39.7038343, "lon": 3.4446274, "tags": {"bench": "yes", "bin": "yes", "bus": "yes", "departures_board": "timetable", "highway": "bus_stop", "lit": "yes", "name": "Capdepera est 1 (Capdepera)", "network": "Transports p\u00fablics de Mallorca", "operator": "Consorci de Transports de Mallorca", "public_transport": "platform", "ref": "14028", "shelter": "no", "surface": "paving_stones", "tactile_paving": "no", "website": "https://www.tib.org/ca/parades/-/parada/14028"}}, {"type": "node", "id": 1935702137, "lat": 39.5954717, "lon": 3.3799721, "tags": {"bench": "no", "bin": "no", "bus": "yes", "highway": "bus_stop", "local_ref": "1", "name": "Av. Llevant", "network": "Transports p\u00fablics de Mallorca", "operator": "Sagal\u00e9s Caldentey", "passenger_information_display": "no", "public_transport": "platform", "ref": "51016", "route_ref": "401;424;425;A42", "shelter": "no", "website": "https://www.tib.org/ca/parades/-/parada/51016"}}, {"type": "node", "id": 2274986877, "lat": 39.7582851, "lon": 2.9832642, "tags": {"bench": "yes", "bin": "yes", "bus": "yes", "departures_board": "timetable", "highway": "bus_stop", "lit": "yes", "name": "B\u00fager (B\u00fager)", "network": "Transports p\u00fablics de Mallorca", "operator": "Consorci de Transports de Mallorca", "public_transport": "platform", "ref": "9001", "shelter": "no", "surface": "unhewn_cobblestone", "tactile_paving": "no"}}, {"type": "node", "id": 2421803194, "lat": 39.5787549, "lon": 3.3761438, "tags": {"bench": "yes", "bus": "yes", "highway": "bus_stop", "local_ref": "2", "name": "Palmeres", "network": "Transports p\u00fablics de Mallorca", "operator": "Sagal\u00e9s Caldentey", "passenger_information_display": "no", "public_transport": "platform", "ref": "51005", "route_ref": "401;424;425;A42", "shelter": "yes", "website": "https://www.tib.org/ca/parades/-/parada/51005", "wheelchair": "no"}}, {"type": "node", "id": 2430461567, "lat": 39.773438, "lon": 3.1399049, "tags": {"bench": "no", "bin": "no", "bus": "yes", "departures_board": "timetable", "highway": "bus_stop", "lit": "yes", "name": "Casetes des Capellans 2 (Platja de Muro)", "name:ca": "Casetes des Capellans 2 (Platja de Muro)", "network": "Transports p\u00fablics de Mallorca", "operator": "Consorci de Transports de Mallorca", "public_transport": "platform", "ref": "39024", "shelter": "yes", "surface": "asphalt", "tactile_paving": "no"}}, {"type": "node", "id": 2508649339, "lat": 39.6085375, "lon": 3.2845401, "tags": {"bench": "yes", "bus": "yes", "highway": "bus_stop", "name": "Ctra. Son Servera", "network": "Transports p\u00fablics de Mallorca", "operator": "Sagal\u00e9s Caldentey", "passenger_information_display": "no", "public_transport": "platform", "ref": "51023", "route_ref": "412;417", "shelter": "yes", "website": "https://www.tib.org/ca/parades/-/parada/51023"}}, {"type": "node", "id": 2509565197, "lat": 39.6102328, "lon": 3.2825682, "tags": {"bench": "yes", "bus": "yes", "highway": "bus_stop", "local_ref": "1", "name": "Sant Lloren\u00e7 sud", "network": "Transports p\u00fablics de Mallorca", "operator": "Consorci de Transports de Mallorca", "passenger_information_display": "no", "public_transport": "platform", "ref": "51033", "route_ref": "411", "shelter": "yes", "website": "https://www.tib.org/ca/parades/-/parada/51033"}}, {"type": "node", "id": 2820976888, "lat": 39.7887615, "lon": 3.1248451, "tags": {"bench": "yes", "bin": "yes", "bus": "yes", "departures_board": "timetable", "highway": "bus_stop", "lit": "yes", "name": "Els Pins 2 (Playa de Muro)", "name:ca": "Els Pins 2 (Platja de Muro)", "network": "Transports p\u00fablics de Mallorca", "operator": "Consorci de Transports de Mallorca", "public_transport": "platform", "ref": "39004", "shelter": "yes", "surface": "paving_stones", "tactile_paving": "yes"}}, {"type": "node", "id": 3045772528, "lat": 39.7165632, "lon": 3.460259, "tags": {"bench": "no", "bus": "yes", "highway": "bus_stop", "name": "Hostal Alcina", "network": "Mini Tren", "operator": "Asociaci\u00f3n Hotelera de Calas de Capdepera", "passenger_information_display": "no", "public_transport": "stop_position", "route_ref": "Mini Tren", "shelter": "no"}}, {"type": "node", "id": 3045772530, "lat": 39.7189987, "lon": 3.4581627, "tags": {"bench": "no", "bus": "yes", "highway": "bus_stop", "name": "Hotel Bosc de Mar", "network": "Mini Tren", "operator": "Asociaci\u00f3n Hotelera de Calas de Capdepera", "passenger_information_display": "no", "public_transport": "stop_position", "route_ref": "Mini Tren", "shelter": "no"}}, {"type": "node", "id": 3045779136, "lat": 39.7103625, "lon": 3.4604267, "tags": {"bench": "no", "bus": "yes", "highway": "bus_stop", "name": "Pla\u00e7a dels Pins", "name:ca": "Pla\u00e7a dels Pins", "network": "Mini Tren", "operator": "Asociaci\u00f3n Hotelera de Calas de Capdepera", "passenger_information_display": "no", "public_transport": "stop_position", "route_ref": "Mini Tren", "shelter": "no"}}, {"type": "node", "id": 3045779144, "lat": 39.7119263, "lon": 3.4595545, "tags": {"bench": "no", "bus": "yes", "highway": "bus_stop", "name": "Restaurante Mes\u00f3n", "network": "Mini Tren", "operator": "Asociaci\u00f3n Hotelera de Calas de Capdepera", "passenger_information_display": "no", "public_transport": "stop_position", "route_ref": "Mini Tren", "shelter": "no"}}, {"type": "node", "id": 3089188291, "lat": 39.6581967, "lon": 3.4427783, "tags": {"bench": "no", "bin": "yes", "bus": "yes", "highway": "bus_stop", "lit": "yes", "name": "Canyamel - Coves d'Art\u00e0", "name:ca": "Canyamel - Coves d'Art\u00e0", "network": "Transports p\u00fablics de Mallorca", "operator": "Sagal\u00e9s Caldentey", "passenger_information_display": "no", "public_transport": "platform", "ref": "14035", "route_ref": "424", "shelter": "no", "tactile_paving": "no", "website": "https://www.tib.org/ca/parades/-/parada/14035"}}, {"type": "node", "id": 3258508768, "lat": 39.7994073, "lon": 3.1192531, "tags": {"bench": "yes", "bin": "yes", "bus": "yes", "check_date:tactile_paving": "2022-09-01", "departures_board": "timetable", "highway": "bus_stop", "lit": "yes", "name": "S'Albufera 2 (Platja de Muro)", "network": "Transports p\u00fablics de Mallorca", "operator": "Consorci de Transports de Mallorca", "public_transport": "platform", "ref": "39007", "shelter": "yes", "surface": "paving_stones", "tactile_paving": "yes"}}, {"type": "node", "id": 3692568109, "lat": 39.7650225, "lon": 2.9319436, "tags": {"bench": "yes", "bin": "yes", "bus": "yes", "departures_board": "timetable", "highway": "bus_stop", "lit": "yes", "name": "Moscari", "name:ca": "Moscari", "network": "Transports p\u00fablics de Mallorca", "operator": "Consorci de Transports de Mallorca", "public_transport": "platform", "ref": "58012", "shelter": "yes", "surface": "concrete", "tactile_paving": "no"}}, {"type": "node", "id": 3692580946, "lat": 39.7636189, "lon": 2.9690598, "tags": {"bench": "no", "bin": "no", "bus": "yes", "departures_board": "timetable", "highway": "bus_stop", "lit": "no", "name": "Menestralia (Ma-13A)", "network": "Transports p\u00fablics de Mallorca", "operator": "Consorci de Transports de Mallorca", "public_transport": "platform", "ref": "9002", "shelter": "no", "surface": "asphalt", "tactile_paving": "no"}}, {"type": "node", "id": 3692580947, "lat": 39.774495, "lon": 2.9662749, "tags": {"bench": "yes", "bin": "no", "bus": "yes", "departures_board": "timetable", "highway": "bus_stop", "lit": "yes", "name": "Campanet (Campanet)", "name:ca": "Campanet (Campanet)", "network": "Transports p\u00fablics de Mallorca", "operator": "Consorci de Transports de Mallorca", "public_transport": "platform", "ref": "12001", "shelter": "yes", "surface": "asphalt", "tactile_paving": "no"}}, {"type": "node", "id": 3693372089, "lat": 39.8036023, "lon": 3.0216011, "tags": {"bench": "no", "bus": "yes", "departures_board": "timetable", "highway": "bus_stop", "lit": "no", "name": "Crestatx 1", "network": "Transports p\u00fablics de Mallorca", "operator": "Consorci de Transports de Mallorca", "public_transport": "platform", "ref": "44008", "shelter": "no", "surface": "paving_stones", "tactile_paving": "no"}}, {"type": "node", "id": 3698410319, "lat": 39.8080132, "lon": 3.1166747, "tags": {"bench": "yes", "bin": "yes", "bus": "yes", "departures_board": "timetable", "highway": "bus_stop", "lit": "yes", "name": "Ses Fotges 1 (Platja de Muro)", "network": "Transports p\u00fablics de Mallorca", "operator": "Consorci de Transports de Mallorca", "public_transport": "platform", "ref": "39020", "shelter": "yes", "surface": "paving_stones", "tactile_paving": "yes"}}, {"type": "node", "id": 3698410323, "lat": 39.8129575, "lon": 3.1150855, "tags": {"bench": "yes", "bin": "yes", "bus": "yes", "departures_board": "timetable", "highway": "bus_stop", "lit": "yes", "name": "Las Gaviotas 1 (Platja de Muro)", "network": "Transports p\u00fablics de Mallorca", "operator": "Consorci de Transports de Mallorca", "public_transport": "platform", "ref": "39013", "shelter": "no", "surface": "paving_stones", "tactile_paving": "yes"}}, {"type": "node", "id": 3698410324, "lat": 39.8127168, "lon": 3.1149504, "tags": {"bench": "yes", "bin": "yes", "bus": "yes", "departures_board": "timetable", "highway": "bus_stop", "lit": "yes", "name": "Las Gaviotas 2 (Platja de Muro)", "network": "Transports p\u00fablics de Mallorca", "operator": "Consorci de Transports de Mallorca", "public_transport": "platform", "ref": "39012", "shelter": "yes", "surface": "paving_stones", "tactile_paving": "yes"}}, {"type": "node", "id": 3698411427, "lat": 39.8185772, "lon": 3.114076, "tags": {"bench": "yes", "bin": "yes", "bus": "yes", "departures_board": "timetable", "highway": "bus_stop", "lit": "yes", "name": "Platja dels Francesos 2 (Platja d'Alc\u00fadia)", "network": "Transports p\u00fablics de Mallorca", "operator": "Consorci de Transports de Mallorca", "public_transport": "platform", "ref": "3004", "shelter": "yes", "surface": "paving_stones", "tactile_paving": "yes", "wheelchair": "yes"}}, {"type": "node", "id": 3698411428, "lat": 39.8174526, "lon": 3.1140638, "tags": {"bench": "yes", "bin": "yes", "bus": "yes", "departures_board": "timetable", "highway": "bus_stop", "lit": "yes", "name": "Platja de Francescos 1 (Platja d'Alc\u00fadia)", "network": "Transports p\u00fablics de Mallorca", "operator": "Consorci de Transports de Mallorca", "public_transport": "platform", "ref": "3003", "shelter": "yes", "surface": "paving_stones", "tactile_paving": "yes", "wheelchair": "yes"}}, {"type": "node", "id": 3698411431, "lat": 39.8308929, "lon": 3.1168601, "tags": {"bench": "yes", "bin": "yes", "bus": "yes", "departures_board": "timetable", "highway": "bus_stop", "lit": "yes", "name": "Ciutat Blanca 1 (Platja d'Alc\u00fadia)", "network": "Transports p\u00fablics de Mallorca", "operator": "Consorci de Transports de Mallorca", "public_transport": "platform", "ref": "3060", "shelter": "yes", "surface": "paving_stones", "tactile_paving": "yes"}}, {"type": "node", "id": 3698440383, "lat": 39.8416327, "lon": 3.1302152, "tags": {"bench": "yes", "bin": "yes", "bus": "yes", "departures_board": "timetable", "highway": "bus_stop", "lit": "yes", "name": "Port d'Alc\u00fadia 1 (Port d'Alc\u00fadia)", "network": "Transports p\u00fablics de Mallorca", "operator": "Consorci de Transports de Mallorca", "public_transport": "platform", "ref": "3054", "shelter": "yes", "surface": "paving_stones", "tactile_paving": "yes", "wheelchair": "yes"}}, {"type": "node", "id": 3699150327, "lat": 39.852575, "lon": 3.1143543, "tags": {"bench": "no", "bin": "no", "bus": "yes", "check_date:shelter": "2023-07-22", "departures_board": "timetable", "highway": "bus_stop", "lit": "yes", "name": "Av. La Marina (Alc\u00fadia)", "network": "Transports p\u00fablics de Mallorca", "operator": "Consorci de Transports de Mallorca", "public_transport": "platform", "ref": "3037", "shelter": "no", "surface": "paving_stones", "tactile_paving": "no"}}, {"type": "node", "id": 3699150328, "lat": 39.8567508, "lon": 3.1062757, "tags": {"bench": "no", "bin": "no", "bus": "yes", "departures_board": "timetable", "highway": "bus_stop", "lit": "yes", "name": "Sa Marina 2 (Alc\u00fadia)", "network": "Transports p\u00fablics de Mallorca", "operator": "Consorci de Transports de Mallorca", "public_transport": "platform", "ref": "3039", "shelter": "no", "surface": "gravel", "tactile_paving": "no"}}, {"type": "node", "id": 3699629513, "lat": 39.8313211, "lon": 3.1091561, "tags": {"bench": "no", "bus": "yes", "highway": "bus_stop", "name": "H. Bellevue (Platja d'Alc\u00fadia)", "network": "Transports p\u00fablics de Mallorca", "operator": "Consorci de Transports de Mallorca", "passenger_information_display": "no", "public_transport": "platform", "ref": "3046", "route_ref": "356A", "shelter": "no"}}, {"type": "node", "id": 3699629514, "lat": 39.8386165, "lon": 3.1128415, "tags": {"bench": "no", "bus": "yes", "highway": "bus_stop", "name": "H. Reinas (Platja d'Alc\u00fadia)", "network": "Transports p\u00fablics de Mallorca", "operator": "Consorci de Transports de Mallorca", "passenger_information_display": "no", "public_transport": "platform", "ref": "3032", "route_ref": "356A", "shelter": "no"}}, {"type": "node", "id": 3699629515, "lat": 39.8379747, "lon": 3.1585402, "tags": {"bench": "no", "bin": "yes", "bus": "yes", "departures_board": "timetable", "highway": "bus_stop", "lit": "yes", "name": "Cala en Poncet 1 (Alcanada)", "name:ca": "Cala en Poncet 1 (Alcanada)", "network": "Transports p\u00fablics de Mallorca", "operator": "Consorci de Transports de Mallorca", "public_transport": "platform", "ref": "3024", "shelter": "no", "surface": "paving_stones", "tactile_paving": "no"}}, {"type": "node", "id": 3700695304, "lat": 39.7015398, "lon": 3.1021205, "tags": {"bench": "yes", "bin": "yes", "bus": "yes", "departures_board": "timetable", "highway": "bus_stop", "lit": "yes", "name": "Santa Margalida (Santa Margalida)", "name:ca": "Santa Margalida (Santa Margalida)", "network": "Transports p\u00fablics de Mallorca", "operator": "Consorci de Transports de Mallorca", "public_transport": "platform", "ref": "55002", "shelter": "no", "surface": "paving_stones", "tactile_paving": "no"}}, {"type": "node", "id": 3700695305, "lat": 39.7307777, "lon": 3.0576298, "tags": {"bench": "no", "bus": "yes", "highway": "bus_stop", "name": "Pla\u00e7a de Bous (Muro)", "name:ca": "Pla\u00e7a de Bous (Muro)", "network": "Transports p\u00fablics de Mallorca", "operator": "Consorci de Transports de Mallorca", "passenger_information_display": "no", "public_transport": "platform", "ref": "39036", "route_ref": "395", "shelter": "no"}}, {"type": "node", "id": 3700728188, "lat": 39.7008731, "lon": 3.0077321, "tags": {"bench": "yes", "bin": "yes", "bus": "yes", "departures_board": "timetable", "highway": "bus_stop", "lit": "yes", "name": "Llub\u00ed 1 (Llub\u00ed)", "network": "Transports p\u00fablics de Mallorca", "operator": "Consorci de Transports de Mallorca", "public_transport": "platform", "ref": "30001", "shelter": "yes", "surface": "paving_stones", "tactile_paving": "yes"}}, {"type": "node", "id": 3706397890, "lat": 39.668027, "lon": 3.0757326, "tags": {"bus": "yes", "highway": "bus_stop", "local_ref": "2", "name": "Maria de la Salut", "network": "Transports p\u00fablics de Mallorca", "operator": "Sagal\u00e9s Caldentey", "passenger_information_display": "no", "public_transport": "platform", "ref": "35002", "route_ref": "441", "website": "https://www.tib.org/ca/parades/-/parada/35002"}}, {"type": "node", "id": 3706397892, "lat": 39.6429696, "lon": 3.0120534, "tags": {"bus": "yes", "highway": "bus_stop", "name": "Pla\u00e7a des Fossar (Sineu)", "name:ca": "Pla\u00e7a des Fossar (Sineu)", "network": "Transports p\u00fablics de Mallorca", "note": "N\u00fam. parada: 60001", "public_transport": "platform"}}, {"type": "node", "id": 3706397893, "lat": 39.6431326, "lon": 3.0145381, "tags": {"bench": "yes", "bus": "yes", "highway": "bus_stop", "name": "Estaci\u00f3 Sineu", "network": "Transports p\u00fablics de Mallorca", "operator": "Consorci de Transports de Mallorca", "passenger_information_display": "no", "public_transport": "platform", "ref": "60005", "route_ref": "432;441;442", "shelter": "no", "website": "https://www.tib.org/ca/parades/-/parada/60005"}}, {"type": "node", "id": 3706418635, "lat": 39.5935262, "lon": 3.0381692, "tags": {"bench": "no", "bus": "yes", "highway": "bus_stop", "local_ref": "2", "name": "Sant Joan", "network": "Transports p\u00fablics de Mallorca", "operator": "Sagal\u00e9s Caldentey", "passenger_information_display": "no", "public_transport": "platform", "ref": "49005", "route_ref": "442", "shelter": "no", "website": "https://www.tib.org/ca/parades/-/parada/49005"}}, {"type": "node", "id": 3706418636, "lat": 39.5931104, "lon": 3.0376395, "tags": {"bench": "no", "bus": "yes", "highway": "bus_stop", "local_ref": "1", "name": "Sant Joan", "network": "Transports p\u00fablics de Mallorca", "operator": "Sagal\u00e9s Caldentey", "passenger_information_display": "no", "public_transport": "platform", "ref": "49004", "route_ref": "442", "shelter": "no", "website": "https://www.tib.org/ca/parades/-/parada/49004"}}, {"type": "node", "id": 3706869626, "lat": 39.6869177, "lon": 3.4503227, "tags": {"bench": "yes", "bin": "yes", "bus": "yes", "highway": "bus_stop", "local_ref": "1", "name": "Na Taconera", "network": "Transports p\u00fablics de Mallorca", "operator": "Sagal\u00e9s Caldentey", "passenger_information_display": "no", "public_transport": "platform", "ref": "14005", "route_ref": "423", "shelter": "no", "website": "https://www.tib.org/ca/parades/-/parada/14005"}}, {"type": "node", "id": 3706869629, "lat": 39.7152739, "lon": 3.4572753, "tags": {"bench": "yes", "bin": "yes", "bus": "yes", "check_date:shelter": "2021-10-13", "departures_board": "timetable", "highway": "bus_stop", "lit": "yes", "name": "Cala Agulla 2 (Cala Rajada)", "network": "Transports p\u00fablics de Mallorca", "operator": "Consorci de Transports de Mallorca", "public_transport": "platform", "ref": "14014", "shelter": "yes", "surface": "paving_stones", "tactile_paving": "no", "website": "https://www.tib.org/ca/parades/-/parada/14014"}}, {"type": "node", "id": 3706869632, "lat": 39.7112553, "lon": 3.4588358, "tags": {"bench": "yes", "bin": "yes", "bus": "yes", "departures_board": "realtime", "highway": "bus_stop", "lit": "yes", "name": "Cala Rajada centre (Cala Rajada)", "network": "Transports p\u00fablics de Mallorca", "operator": "Consorci de Transports de Mallorca", "public_transport": "platform", "ref": "14032", "shelter": "yes", "surface": "paving_stones", "tactile_paving": "no", "website": "https://www.tib.org/ca/parades/-/parada/14032"}}, {"type": "node", "id": 3706869633, "lat": 39.6147659, "lon": 3.2888542, "tags": {"bench": "no", "bus": "yes", "highway": "bus_stop", "local_ref": "1", "name": "Sant Lloren\u00e7 nord", "network": "Transports p\u00fablics de Mallorca", "operator": "Consorci de Transports de Mallorca", "passenger_information_display": "no", "public_transport": "platform", "ref": "51027", "route_ref": "411", "shelter": "no", "website": "https://www.tib.org/ca/parades/-/parada/51027"}}, {"type": "node", "id": 3706869634, "lat": 39.6099218, "lon": 3.282352, "tags": {"bench": "no", "bus": "yes", "highway": "bus_stop", "local_ref": "2", "name": "Sant Lloren\u00e7 sud", "network": "Transports p\u00fablics de Mallorca", "operator": "Consorci de Transports de Mallorca", "passenger_information_display": "no", "public_transport": "platform", "ref": "51034", "route_ref": "411", "shelter": "no", "website": "https://www.tib.org/ca/parades/-/parada/51034"}}, {"type": "node", "id": 3706869635, "lat": 39.5758561, "lon": 3.2073978, "tags": {"bench": "no", "bin": "yes", "bus": "yes", "highway": "bus_stop", "lit": "yes", "local_ref": "1", "name": "Mol\u00ed - Hospital", "network": "Transports p\u00fablics de Mallorca", "operator": "Consorci de Transports de Mallorca", "passenger_information_display": "no", "public_transport": "platform", "ref": "33060", "route_ref": "401;416;501;A42", "shelter": "no", "tactile_paving": "no", "website": "https://www.tib.org/ca/parades/-/parada/33060"}}, {"type": "node", "id": 3706869636, "lat": 39.5756811, "lon": 3.2072266, "tags": {"bench": "no", "bus": "yes", "highway": "bus_stop", "local_ref": "2", "name": "Mol\u00ed - Hospital", "network": "Transports p\u00fablics de Mallorca", "operator": "Consorci de Transports de Mallorca", "passenger_information_display": "no", "public_transport": "platform", "ref": "33059", "route_ref": "401;411;412;417;417;501;A52", "shelter": "no", "website": "https://www.tib.org/ca/parades/-/parada/33059"}}, {"type": "node", "id": 3706869637, "lat": 39.5643198, "lon": 3.2156298, "tags": {"bench": "yes", "bus": "yes", "highway": "bus_stop", "name": "Rambla Rei en Jaume", "network": "Transports p\u00fablics de Mallorca", "operator": "Consorci de Transports de Mallorca", "passenger_information_display": "no", "public_transport": "platform", "ref": "33008", "route_ref": "401;411;412;417;A42", "shelter": "yes", "website": "https://www.tib.org/ca/parades/-/parada/33008"}}, {"type": "node", "id": 3706869638, "lat": 39.5704895, "lon": 3.2035019, "tags": {"bench": "yes", "bus": "yes", "highway": "bus_stop", "name": "Estaci\u00f3 de tren", "name:ca": "Estaci\u00f3 de tren", "network": "Transports p\u00fablics de Mallorca", "operator": "Consorci de Transports de Mallorca", "passenger_information_display": "no", "public_transport": "platform", "ref": "33044", "route_ref": "401;411;412;416;417;501;A42", "shelter": "yes", "website": "https://www.tib.org/ca/parades/-/parada/33044"}}, {"type": "node", "id": 3706869639, "lat": 39.5706644, "lon": 3.2036552, "tags": {"bench": "yes", "bus": "yes", "highway": "bus_stop", "name": "Sa Mora", "network": "Transports p\u00fablics de Mallorca", "operator": "Consorci de Transports de Mallorca", "passenger_information_display": "no", "public_transport": "platform", "ref": "33004", "route_ref": "401;411;412;416;417;501;A42", "shelter": "yes", "website": "https://www.tib.org/ca/parades/-/parada/33004"}}, {"type": "node", "id": 3708340809, "lat": 39.6559695, "lon": 3.4511684, "tags": {"bus": "yes", "highway": "bus_stop", "name": "Coves d'Art\u00e0", "name:ca": "Coves d'Art\u00e0", "network": "Transports p\u00fablics de Mallorca", "note": "N\u00fam. parada: 14002", "public_transport": "stop_position"}}, {"type": "node", "id": 3708366338, "lat": 39.7312893, "lon": 3.2612908, "tags": {"bus": "yes", "highway": "bus_stop", "name": "s'Estanyol (Col\u00f2nia de Sant Pere)", "network": "Transports p\u00fablics de Mallorca", "public_transport": "platform"}}, {"type": "node", "id": 3709039355, "lat": 39.6298441, "lon": 3.3969286, "tags": {"bus": "yes", "highway": "bus_stop", "local_ref": "1", "name": "Port Nou", "network": "Transports p\u00fablics de Mallorca", "operator": "Sagal\u00e9s Caldentey", "passenger_information_display": "no", "public_transport": "platform", "ref": "62026", "route_ref": "412", "shelter": "no", "website": "https://www.tib.org/ca/parades/-/parada/62026"}}, {"type": "node", "id": 3709039356, "lat": 39.636053, "lon": 3.4034121, "tags": {"bench": "yes", "bin": "yes", "bus": "yes", "highway": "bus_stop", "local_ref": "1", "name": "Sa Marjal", "network": "Transports p\u00fablics de Mallorca", "operator": "Sagal\u00e9s Caldentey", "passenger_information_display": "no", "public_transport": "platform", "ref": "62017", "route_ref": "412", "shelter": "yes", "website": "https://www.tib.org/ca/parades/-/parada/62017"}}, {"type": "node", "id": 3709039357, "lat": 39.6360378, "lon": 3.4035992, "tags": {"bench": "no", "bus": "yes", "highway": "bus_stop", "name": "Sa Marjal", "network": "Transports p\u00fablics de Mallorca", "operator": "Sagal\u00e9s Caldentey", "passenger_information_display": "no", "public_transport": "platform", "ref": "62018", "route_ref": "412", "shelter": "no", "website": "https://www.tib.org/ca/parades/-/parada/62018"}}, {"type": "node", "id": 3709039358, "lat": 39.6381849, "lon": 3.4133628, "tags": {"bench": "yes", "bus": "yes", "highway": "bus_stop", "name": "Costa dels Pins", "network": "Transports p\u00fablics de Mallorca", "operator": "Sagal\u00e9s Caldentey", "passenger_information_display": "no", "public_transport": "platform", "ref": "62019", "route_ref": "412", "shelter": "yes", "website": "https://www.tib.org/ca/parades/-/parada/62019"}}, {"type": "node", "id": 3709039359, "lat": 39.619895, "lon": 3.3905694, "tags": {"bench": "yes", "bus": "yes", "highway": "bus_stop", "name": "Apmt. Sunwing (Cala Bona)", "network": "Transports p\u00fablics de Mallorca", "operator": "Bus Red", "passenger_information_display": "no", "public_transport": "platform", "ref": "62015", "route_ref": "412, 441, 445, 447, 448, 451, 454", "shelter": "no"}}, {"type": "node", "id": 3709039360, "lat": 39.6142874, "lon": 3.3900009, "tags": {"bench": "yes", "bus": "yes", "highway": "bus_stop", "local_ref": "1", "name": "Port esportiu", "network": "Transports p\u00fablics de Mallorca", "operator": "Sagal\u00e9s Caldentey", "passenger_information_display": "no", "public_transport": "platform", "ref": "62010", "route_ref": "412;425;A42", "shelter": "yes", "website": "https://www.tib.org/ca/parades/-/parada/62010"}}, {"type": "node", "id": 3709039362, "lat": 39.6108078, "lon": 3.3882547, "tags": {"bench": "no", "bin": "yes", "bus": "yes", "highway": "bus_stop", "lit": "no", "local_ref": "1", "name": "Platja de Cala Bona", "network": "Transports p\u00fablics de Mallorca", "operator": "Sagal\u00e9s Caldentey", "passenger_information_display": "no", "public_transport": "platform", "ref": "62024", "route_ref": "412;424;425;A42", "shelter": "no", "tactile_paving": "no", "website": "https://www.tib.org/ca/parades/-/parada/62024"}}, {"type": "node", "id": 3709039363, "lat": 39.607111, "lon": 3.3847786, "tags": {"bench": "yes", "bus": "yes", "highway": "bus_stop", "name": "Devant s'Hort", "network": "Transports p\u00fablics de Mallorca", "operator": "Sagal\u00e9s Caldentey", "passenger_information_display": "no", "public_transport": "platform", "ref": "62025", "route_ref": "412;424;425;A42", "shelter": "yes", "website": "https://www.tib.org/ca/parades/-/parada/62025"}}, {"type": "node", "id": 3709039364, "lat": 39.6090958, "lon": 3.3894179, "tags": {"bench": "no", "bin": "no", "bus": "yes", "highway": "bus_stop", "local_ref": "2", "name": "Platja de Cala Bona", "network": "Transports p\u00fablics de Mallorca", "operator": "Sagal\u00e9s Caldentey", "passenger_information_display": "no", "public_transport": "platform", "ref": "62006", "route_ref": "412;424;425;A42", "shelter": "no", "website": "https://www.tib.org/ca/parades/-/parada/62006"}}, {"type": "node", "id": 3709039365, "lat": 39.6017576, "lon": 3.3815974, "tags": {"bench": "yes", "bin": "yes", "bus": "yes", "highway": "bus_stop", "local_ref": "1", "name": "Pla\u00e7a Mallorca", "network": "Transports p\u00fablics de Mallorca", "operator": "Sagal\u00e9s Caldentey", "passenger_information_display": "no", "public_transport": "platform", "ref": "62004", "route_ref": "412;424;425;A42", "shelter": "no", "website": "https://www.tib.org/ca/parades/-/parada/62004"}}, {"type": "node", "id": 3709039366, "lat": 39.6020996, "lon": 3.3822644, "tags": {"bench": "yes", "bus": "yes", "highway": "bus_stop", "local_ref": "2", "name": "Pla\u00e7a Mallorca", "network": "Transports p\u00fablics de Mallorca", "operator": "Sagal\u00e9s Caldentey", "passenger_information_display": "no", "public_transport": "platform", "ref": "62041", "route_ref": "412;424;425;A42", "shelter": "yes", "website": "https://www.tib.org/ca/parades/-/parada/62041"}}, {"type": "node", "id": 3709039370, "lat": 39.5977513, "lon": 3.3810798, "tags": {"bench": "yes", "bin": "no", "bus": "yes", "check_date:shelter": "2022-06-19", "highway": "bus_stop", "lit": "no", "local_ref": "1", "name": "Bon Temps", "network": "Transports p\u00fablics de Mallorca", "operator": "Sagal\u00e9s Caldentey", "passenger_information_display": "no", "public_transport": "platform", "ref": "51019", "route_ref": "401;412;424;425;A42", "shelter": "yes", "tactile_paving": "no", "website": "https://www.tib.org/ca/parades/-/parada/51019"}}, {"type": "node", "id": 3709039371, "lat": 39.5955912, "lon": 3.3801494, "tags": {"bench": "yes", "bus": "yes", "highway": "bus_stop", "local_ref": "2", "name": "Av. Llevant", "network": "Transports p\u00fablics de Mallorca", "operator": "Sagal\u00e9s Caldentey", "passenger_information_display": "no", "public_transport": "platform", "ref": "51017", "route_ref": "401;424;425;A42", "shelter": "yes", "website": "https://www.tib.org/ca/parades/-/parada/51017"}}, {"type": "node", "id": 3709039374, "lat": 39.5902306, "lon": 3.3834323, "tags": {"bench": "no", "bin": "no", "bus": "yes", "highway": "bus_stop", "lit": "no", "name": "Cala Nau", "network": "Transports p\u00fablics de Mallorca", "operator": "Sagal\u00e9s Caldentey", "passenger_information_display": "no", "public_transport": "platform", "ref": "51013", "route_ref": "401;424;425;A42", "shelter": "no", "tactile_paving": "no", "website": "https://www.tib.org/ca/parades/-/parada/51013"}}, {"type": "node", "id": 3709075263, "lat": 39.5367938, "lon": 3.3300529, "tags": {"bench": "yes", "bus": "yes", "highway": "bus_stop", "local_ref": "2", "name": "Coves del Drac", "network": "Consorci de Transports de Mallorca", "operator": "Sagal\u00e9s Caldentey", "passenger_information_display": "no", "public_transport": "platform", "ref": "33017", "route_ref": "427;428", "shelter": "yes", "website": "https://www.tib.org/ca/parades/-/parada/33017"}}, {"type": "node", "id": 3709075264, "lat": 39.5358623, "lon": 3.3313875, "tags": {"bench": "no", "bin": "yes", "bus": "yes", "highway": "bus_stop", "lit": "yes", "local_ref": "1", "name": "Coves del Drac", "name:ca": "Coves del Drac", "network": "Consorci de Transports de Mallorca", "operator": "Sagal\u00e9s Caldentey", "passenger_information_display": "no", "public_transport": "platform", "ref": "33018", "route_ref": "401;424;425;427;428", "shelter": "no", "tactile_paving": "yes", "website": "https://www.tib.org/ca/parades/-/parada/33018"}}, {"type": "node", "id": 3709097036, "lat": 39.5780492, "lon": 3.2085141, "tags": {"bench": "yes", "bus": "yes", "highway": "bus_stop", "name": "Hospital de Manacor (Manacor)", "network": "Transports p\u00fablics de Mallorca", "operator": "Bus Red", "passenger_information_display": "no", "public_transport": "platform", "ref": "33009", "route_ref": "421, 423, 424, 425", "shelter": "yes", "website": "https://www.tib.org/de/web/ctm/parades/-/parada/33009"}}, {"type": "node", "id": 3709116555, "lat": 39.6084652, "lon": 3.285211, "tags": {"bench": "no", "bus": "yes", "highway": "bus_stop", "local_ref": "2", "name": "Ctra. Son Servera", "network": "Transports p\u00fablics de Mallorca", "operator": "Sagal\u00e9s Caldentey", "passenger_information_display": "no", "public_transport": "platform", "ref": "51028", "route_ref": "412;417", "shelter": "no", "website": "https://www.tib.org/ca/parades/-/parada/51028"}}, {"type": "node", "id": 3709116556, "lat": 39.5863146, "lon": 3.3219984, "tags": {"bench": "yes", "bus": "yes", "highway": "bus_stop", "name": "Son Carri\u00f3", "name:ca": "Son Carri\u00f3", "network": "Transports p\u00fablics de Mallorca", "operator": "Sagal\u00e9s Caldentey", "passenger_information_display": "no", "public_transport": "platform", "ref": "51029", "route_ref": "417", "shelter": "yes", "website": "https://www.tib.org/ca/parades/-/parada/51029"}}, {"type": "node", "id": 3709133558, "lat": 39.6233763, "lon": 3.3591984, "tags": {"bench": "yes", "bin": "yes", "bus": "yes", "highway": "bus_stop", "local_ref": "2", "name": "Son Servera nord", "network": "Transports p\u00fablics de Mallorca", "operator": "Sagal\u00e9s Caldentey", "passenger_information_display": "no", "public_transport": "platform", "ref": "62034", "route_ref": "412;424", "shelter": "yes", "website": "https://www.tib.org/ca/parades/-/parada/62034"}}, {"type": "node", "id": 3709133559, "lat": 39.6198239, "lon": 3.3623277, "tags": {"bench": "no", "bin": "yes", "bus": "yes", "highway": "bus_stop", "lit": "no", "local_ref": "2", "name": "Son Servera sud", "network": "Transports p\u00fablics de Mallorca", "operator": "Sagal\u00e9s Caldentey", "passenger_information_display": "no", "public_transport": "platform", "ref": "62021", "route_ref": "412;424", "shelter": "no", "tactile_paving": "no", "website": "https://www.tib.org/ca/parades/-/parada/62021"}}, {"type": "node", "id": 3709133560, "lat": 39.6191791, "lon": 3.3637313, "tags": {"bench": "yes", "bus": "yes", "highway": "bus_stop", "local_ref": "1", "name": "Son Servera sud", "network": "Transports p\u00fablics de Mallorca", "operator": "Sagal\u00e9s Caldentey", "passenger_information_display": "no", "public_transport": "platform", "ref": "62020", "route_ref": "412;424", "shelter": "yes", "website": "https://www.tib.org/ca/parades/-/parada/62020"}}, {"type": "node", "id": 3709133561, "lat": 39.6233878, "lon": 3.3601088, "tags": {"bench": "no", "bin": "yes", "bus": "yes", "highway": "bus_stop", "local_ref": "1", "name": "Son Servera nord", "network": "Transports p\u00fablics de Mallorca", "operator": "Sagal\u00e9s Caldentey", "passenger_information_display": "no", "public_transport": "platform", "ref": "62031", "route_ref": "412;424", "shelter": "no", "website": "https://www.tib.org/ca/parades/-/parada/62031"}}, {"type": "node", "id": 3721853239, "lat": 39.5134907, "lon": 3.2165567, "tags": {"bench": "no", "bus": "yes", "highway": "bus_stop", "name": "Son Maci\u00e0", "name:ca": "Son Maci\u00e0", "network": "Transports p\u00fablics de Mallorca", "operator": "Bus Red", "passenger_information_display": "no", "public_transport": "stop_position", "ref": "33034", "route_ref": "415, 424", "shelter": "no"}}, {"type": "node", "id": 3729689030, "lat": 39.517541, "lon": 3.3007613, "tags": {"bench": "no", "bus": "yes", "highway": "bus_stop", "name": "Violetes", "network": "Transports P\u00fablics de Mallorca", "operator": "Sagal\u00e9s Caldentey", "passenger_information_display": "no", "public_transport": "platform", "ref": "33043", "route_ref": "427", "shelter": "no", "website": "https://www.tib.org/ca/parades/-/parada/33043"}}, {"type": "node", "id": 3729689031, "lat": 39.519026, "lon": 3.3141168, "tags": {"bench": "no", "bin": "yes", "bus": "yes", "highway": "bus_stop", "lit": "no", "name": "H. Punta Reina (Cala Mendia)", "network": "Transports p\u00fablics de Mallorca", "operator": "Bus Red", "passenger_information_display": "no", "public_transport": "platform", "ref": "33041", "route_ref": "416, 441, 445, 448", "shelter": "yes", "tactile_paving": "no"}}, {"type": "node", "id": 3729689034, "lat": 39.5252356, "lon": 3.3157409, "tags": {"bench": "no", "bus": "yes", "highway": "bus_stop", "name": "Cala Anguila (Cala Anguila)", "network": "Transports p\u00fablics de Mallorca", "not_served_by": "441", "operator": "Bus Red", "passenger_information_display": "no", "public_transport": "platform", "ref": "33038", "route_ref": "416", "shelter": "no"}}, {"type": "node", "id": 3729689035, "lat": 39.5282189, "lon": 3.3191338, "tags": {"bench": "no", "bus": "yes", "highway": "bus_stop", "local_ref": "1", "name": "Cala Anguila - Cala Magrana", "network": "Transports p\u00fablics de Mallorca", "operator": "Sagal\u00e9s Caldentey", "passenger_information_display": "no", "public_transport": "platform", "ref": "33050", "route_ref": "427", "shelter": "no", "website": "https://www.tib.org/ca/parades/-/parada/33050"}}, {"type": "node", "id": 3730251010, "lat": 39.4789911, "lon": 3.2497126, "tags": {"bench": "no", "bus": "yes", "highway": "bus_stop", "name": "s'Espinagar", "network": "Transports p\u00fablics de Mallorca", "operator": "Bus Red", "passenger_information_display": "no", "public_transport": "platform", "ref": "33055", "route_ref": "424", "shelter": "no"}}, {"type": "node", "id": 3730271704, "lat": 39.4691908, "lon": 3.1448165, "tags": {"bench": "no", "bin": "yes", "bus": "yes", "highway": "bus_stop", "local_ref": "2", "name": "Ernest Mestre", "network": "Consorci de Transports de Mallorca", "operator": "Sagal\u00e9s Caldentey", "passenger_information_display": "no", "public_transport": "platform", "ref": "22002", "route_ref": "501;512;514", "shelter": "no", "tactile_paving": "yes", "website": "https://www.tib.org/ca/parades/-/parada/22002"}}, {"type": "node", "id": 4085470367, "lat": 39.64893, "lon": 3.1119372, "tags": {"bench": "yes", "bus": "yes", "highway": "bus_stop", "name": "Ariany", "network": "Transports p\u00fablics de Mallorca", "operator": "Sagal\u00e9s Caldentey", "passenger_information_display": "no", "public_transport": "platform", "ref": "41005", "route_ref": "441", "shelter": "yes", "website": "https://www.tib.org/ca/parades/-/parada/41005"}}, {"type": "node", "id": 4245068097, "lat": 39.701496, "lon": 3.1021163, "tags": {"bench": "yes", "bus": "yes", "highway": "bus_stop", "name": "Santa Margalida (Santa Margalida)", "name:ca": "Santa Margalida (Santa Margalida)", "network": "Transports p\u00fablics de Mallorca", "operator": "Consorci de Transports de Mallorca", "public_transport": "stop_position", "ref": "55002", "shelter": "no"}}, {"type": "node", "id": 4455669566, "lat": 39.7644614, "lon": 3.0292548, "tags": {"name": "sa Pobla", "name:es": "La Puebla", "network": "Serveis Ferroviaris de Mallorca", "network:short": "SFM", "network:wikidata": "Q1811123", "operator": "SFM", "public_transport": "station", "railway": "station", "start_date": "2015", "train": "yes", "wheelchair": "yes", "wikidata": "Q5846510", "wikipedia": "ca:Estaci\u00f3 de sa Pobla"}}, {"type": "node", "id": 4486627637, "lat": 39.8035588, "lon": 3.1180931, "tags": {"bench": "yes", "bin": "yes", "bus": "yes", "departures_board": "timetable", "highway": "bus_stop", "lit": "yes", "name": "Los Troncos 1 (Platja de Muro)", "network": "Transports p\u00fablics de Mallorca", "operator": "Consorci de Transports de Mallorca", "public_transport": "platform", "ref": "39039", "shelter": "yes", "surface": "paving_stones", "tactile_paving": "yes"}}, {"type": "node", "id": 4811637533, "lat": 39.8569007, "lon": 3.1055105, "tags": {"bench": "no", "bin": "no", "bus": "yes", "departures_board": "timetable", "highway": "bus_stop", "lit": "no", "name": "Sa Marina 1 (Alc\u00fadia)", "network": "Transports p\u00fablics de Mallorca", "operator": "Consorci de Transports de Mallorca", "public_transport": "platform", "ref": "3040", "shelter": "no", "surface": "paving_stones", "tactile_paving": "no"}}, {"type": "node", "id": 4833170352, "lat": 39.7760984, "lon": 3.0223226, "tags": {"bench": "yes", "bin": "no", "bus": "yes", "departures_board": "timetable", "highway": "bus_stop", "lit": "yes", "name": "Ronda Nord 1 (Sa Pobla)", "network": "Transports p\u00fablics de Mallorca", "operator": "Consorci de Transports de Mallorca", "public_transport": "platform", "ref": "44011", "shelter": "yes", "surface": "paving_stones", "tactile_paving": "no"}}, {"type": "node", "id": 4833454284, "lat": 39.7759507, "lon": 3.0229183, "tags": {"bench": "yes", "bin": "no", "bus": "yes", "departures_board": "timetable", "highway": "bus_stop", "lit": "yes", "name": "Ronda Nord 2 (Sa Pobla)", "network": "Transports p\u00fablics de Mallorca", "operator": "Consorci de Transports de Mallorca", "public_transport": "platform", "ref": "44010", "shelter": "yes", "surface": "unhewn_cobblestone", "tactile_paving": "no"}}, {"type": "node", "id": 4833516768, "lat": 39.8030757, "lon": 3.0215719, "tags": {"bench": "yes", "bin": "no", "bus": "yes", "departures_board": "timetable", "highway": "bus_stop", "lit": "no", "name": "Crestatx 2", "network": "Transports p\u00fablics de Mallorca", "operator": "Consorci de Transports de Mallorca", "public_transport": "platform", "ref": "44009", "shelter": "yes", "surface": "asphalt", "tactile_paving": "no"}}, {"type": "node", "id": 4841025472, "lat": 39.7736229, "lon": 3.1399918, "tags": {"bench": "yes", "bin": "no", "bus": "yes", "departures_board": "timetable", "highway": "bus_stop", "lit": "yes", "name": "Casetes des Capellans 1 (Platja de Muro)", "name:ca": "Casetes des Capellans 1 (Platja de Muro)", "network": "Transports p\u00fablics de Mallorca", "operator": "Consorci de Transports de Mallorca", "public_transport": "platform", "ref": "39023", "shelter": "yes", "surface": "concrete", "tactile_paving": "no"}}, {"type": "node", "id": 4841976035, "lat": 39.8514544, "lon": 3.1227392, "tags": {"bench": "yes", "bin": "yes", "bus": "yes", "departures_board": "timetable", "highway": "bus_stop", "lit": "yes", "name": "Pol\u00b7l\u00e8ntia (Alc\u00fadia)", "network": "Transports p\u00fablics de Mallorca", "operator": "Consorci de Transports de Mallorca", "public_transport": "platform", "ref": "3033", "shelter": "yes", "surface": "paving_stones", "tactile_paving": "no"}}, {"type": "node", "id": 4842032280, "lat": 39.8415574, "lon": 3.1292434, "tags": {"bench": "yes", "bin": "yes", "bus": "yes", "departures_board": "timetable", "highway": "bus_stop", "lit": "yes", "name": "Port d'Alc\u00fadia 2 (Port d'Alc\u00fadia)", "network": "Transports p\u00fablics de Mallorca", "operator": "Consorci de Transports de Mallorca", "public_transport": "platform", "ref": "3055", "shelter": "yes", "surface": "paving_stones", "tactile_paving": "no"}}, {"type": "node", "id": 4844020456, "lat": 39.8523992, "lon": 3.1143037, "tags": {"bench": "no", "bin": "no", "bus": "yes", "check_date:shelter": "2023-07-22", "departures_board": "timetable", "highway": "bus_stop", "lit": "yes", "name": "Ses Forques 1 (Alc\u00fadia)", "network": "Transports p\u00fablics de Mallorca", "operator": "Consorci de Transports de Mallorca", "public_transport": "platform", "ref": "3038", "shelter": "no", "surface": "paving_stones", "tactile_paving": "no"}}, {"type": "node", "id": 4850764769, "lat": 39.8387318, "lon": 3.1127582, "tags": {"bench": "yes", "bus": "yes", "highway": "bus_stop", "name": "H. Reinas (Platja d'Alc\u00fadia)", "network": "Transports p\u00fablics de Mallorca", "operator": "Consorci de Transports de Mallorca", "passenger_information_display": "no", "public_transport": "platform", "ref": "3031", "route_ref": "356A", "shelter": "yes"}}, {"type": "node", "id": 4854000354, "lat": 39.7008932, "lon": 3.0085994, "tags": {"bench": "yes", "bin": "yes", "bus": "yes", "departures_board": "yes", "highway": "bus_stop", "lit": "yes", "name": "Llub\u00ed 2 (Llub\u00ed)", "network": "Transports p\u00fablics de Mallorca", "operator": "Consorci de Transports de Mallorca", "public_transport": "platform", "ref": "30002", "shelter": "no", "surface": "paving_stones", "tactile_paving": "no"}}, {"type": "node", "id": 4854379960, "lat": 39.7331824, "lon": 3.0508488, "tags": {"bench": "no", "bin": "no", "bus": "yes", "departures_board": "no", "highway": "bus_stop", "lit": "no", "name": "Escorxador (Muro)", "name:ca": "Escorxador (Muro)", "network": "Transports p\u00fablics de Mallorca", "operator": "Consorci de Transports de Mallorca", "public_transport": "platform", "ref": "39042", "shelter": "no", "surface": "asphalt", "tactile_paving": "no"}}, {"type": "node", "id": 4854426831, "lat": 39.7306095, "lon": 3.0571625, "tags": {"bench": "no", "bus": "yes", "highway": "bus_stop", "name": "Pla\u00e7a de Bous (Muro)", "name:ca": "Pla\u00e7a de Bous (Muro)", "network": "Transports p\u00fablics de Mallorca", "operator": "Consorci de Transports de Mallorca", "passenger_information_display": "no", "public_transport": "platform", "ref": "39037", "route_ref": "395", "shelter": "no"}}, {"type": "node", "id": 4866294398, "lat": 39.7003275, "lon": 3.4270991, "tags": {"bench": "yes", "bin": "yes", "bus": "yes", "departures_board": "timetable", "highway": "bus_stop", "lit": "yes", "name": "Capdepera oest (Capdepera)", "network": "Transports p\u00fablics de Mallorca", "operator": "Consorci de Transports de Mallorca", "public_transport": "platform", "ref": "14003", "shelter": "yes", "surface": "paving_stones", "tactile_paving": "no", "website": "https://www.tib.org/ca/parades/-/parada/14003"}}, {"type": "node", "id": 4866294399, "lat": 39.6951512, "lon": 3.4542319, "tags": {"bench": "no", "bin": "no", "bus": "yes", "highway": "bus_stop", "lit": "no", "local_ref": "1", "name": "N'Aguait", "network": "Transports p\u00fablics de Mallorca", "operator": "Sagal\u00e9s Caldentey", "passenger_information_display": "no", "public_transport": "platform", "ref": "14010", "route_ref": "423", "shelter": "no", "tactile_paving": "no", "website": "https://www.tib.org/ca/parades/-/parada/14010"}}, {"type": "node", "id": 4866294400, "lat": 39.6910891, "lon": 3.3496042, "tags": {"bench": "yes", "bin": "yes", "bus": "yes", "check_date:shelter": "2021-10-14", "departures_board": "timetable", "highway": "bus_stop", "lit": "yes", "name": "Art\u00e0 1 (Art\u00e0)", "network": "Transports p\u00fablics de Mallorca", "operator": "Consorci de Transports de Mallorca", "public_transport": "platform", "ref": "6002", "shelter": "yes", "surface": "paving_stones", "tactile_paving": "no", "website": "https://www.tib.org/ca/parades/-/parada/6002"}}, {"type": "node", "id": 4866294401, "lat": 39.709471, "lon": 3.4572248, "tags": {"bench": "no", "bin": "no", "bus": "yes", "departures_board": "timetable", "highway": "bus_stop", "lit": "yes", "name": "Magallanes (Cala Rajada)", "network": "Transports p\u00fablics de Mallorca", "operator": "Consorci de Transports de Mallorca", "public_transport": "platform", "ref": "14034", "shelter": "no", "surface": "paving_stones", "tactile_paving": "no", "website": "https://www.tib.org/ca/parades/-/parada/14034"}}, {"type": "node", "id": 4866715930, "lat": 39.5629233, "lon": 3.2080667, "tags": {"bench": "no", "bus": "yes", "highway": "bus_stop", "name": "Moss\u00e8n Alcover", "name:ca": "Moss\u00e8n Alcover", "network": "Transports p\u00fablics de Mallorca", "operator": "Consorci de Transports de Mallorca", "passenger_information_display": "no", "public_transport": "platform", "ref": "33063", "route_ref": "401;411;412;416;417;501;A42", "shelter": "no", "website": "https://www.tib.org/ca/parades/-/parada/33063"}}, {"type": "node", "id": 4866729439, "lat": 39.5691778, "lon": 3.0877838, "tags": {"bench": "yes", "bus": "yes", "highway": "bus_stop", "local_ref": "1", "name": "Vilafranca", "name:ca": "Vilafranca", "network": "Transports p\u00fablics de Mallorca", "operator": "Consorci de Transports de Mallorca", "passenger_information_display": "no", "public_transport": "platform", "ref": "65002", "route_ref": "401;417;442;A42", "shelter": "yes", "website": "https://www.tib.org/ca/parades/-/parada/65002"}}, {"type": "node", "id": 4897046057, "lat": 39.5690863, "lon": 3.0879651, "tags": {"bench": "no", "bus": "yes", "highway": "bus_stop", "local_ref": "2", "name": "Vilafranca", "name:ca": "Vilafranca", "network": "Transports p\u00fablics de Mallorca", "operator": "Consorci de Transports de Mallorca", "passenger_information_display": "no", "public_transport": "platform", "ref": "65001", "route_ref": "401;417;442;A42", "shelter": "no", "website": "https://www.tib.org/ca/parades/-/parada/65001"}}, {"type": "node", "id": 4897278308, "lat": 39.6145572, "lon": 3.2886293, "tags": {"bench": "yes", "bus": "yes", "highway": "bus_stop", "name": "Sant Lloren\u00e7 nord", "network": "Transports p\u00fablics de Mallorca", "operator": "Consorci de Transports de Mallorca", "passenger_information_display": "no", "public_transport": "platform", "ref": "51025", "route_ref": "411", "shelter": "yes", "website": "https://www.tib.org/ca/parades/-/parada/51025"}}, {"type": "node", "id": 4897396876, "lat": 39.6823439, "lon": 3.4513961, "tags": {"bench": "no", "bus": "yes", "highway": "bus_stop", "local_ref": "1", "name": "Sa Font de sa Cala", "network": "Transports p\u00fablics de Mallorca", "operator": "Sagal\u00e9s Caldentey", "passenger_information_display": "no", "public_transport": "platform", "ref": "14039", "route_ref": "423", "shelter": "no", "website": "https://www.tib.org/ca/parades/-/parada/14039"}}, {"type": "node", "id": 4897396877, "lat": 39.6868536, "lon": 3.4502219, "tags": {"bench": "no", "bin": "yes", "bus": "yes", "highway": "bus_stop", "local_ref": "2", "name": "Na Taconera", "network": "Transports p\u00fablics de Mallorca", "operator": "Sagal\u00e9s Caldentey", "passenger_information_display": "no", "public_transport": "platform", "ref": "14006", "route_ref": "423", "shelter": "no", "website": "https://www.tib.org/ca/parades/-/parada/14006"}}, {"type": "node", "id": 4897396878, "lat": 39.6908811, "lon": 3.3502949, "tags": {"bench": "yes", "bin": "no", "bus": "yes", "check_date:shelter": "2021-10-13", "departures_board": "timetable", "highway": "bus_stop", "lit": "yes", "name": "Art\u00e0 2 (Art\u00e0)", "network": "Transports p\u00fablics de Mallorca", "operator": "Consorci de Transports de Mallorca", "public_transport": "platform", "ref": "6001", "shelter": "yes", "surface": "paving_stones", "tactile_paving": "no", "website": "https://www.tib.org/ca/parades/-/parada/6001"}}, {"type": "node", "id": 4897578327, "lat": 39.7174929, "lon": 3.463377, "tags": {"bench": "no", "bin": "no", "bus": "yes", "check_date:shelter": "2021-10-13", "highway": "bus_stop", "name": "Hotel Allsun Illot Park", "network": "Mini Tren", "operator": "Asociaci\u00f3n Hotelera de Calas de Capdepera", "passenger_information_display": "no", "public_transport": "platform", "route_ref": "Mini Tren", "shelter": "no", "tactile_paving": "no"}}, {"type": "node", "id": 4897578328, "lat": 39.7144099, "lon": 3.4650802, "tags": {"bench": "no", "bus": "yes", "highway": "bus_stop", "name": "Restaurante Los Arcos", "network": "Mini Tren", "operator": "Asociaci\u00f3n Hotelera de Calas de Capdepera", "passenger_information_display": "no", "public_transport": "platform", "route_ref": "Mini Tren", "shelter": "no"}}, {"type": "node", "id": 4897578329, "lat": 39.6950085, "lon": 3.45422, "tags": {"bench": "no", "bin": "no", "bus": "yes", "check_date:shelter": "2023-03-19", "highway": "bus_stop", "lit": "no", "name": "Hotel S. Aguait", "network": "Mini Tren", "operator": "Asociaci\u00f3n Hotelera de Calas de Capdepera", "passenger_information_display": "no", "public_transport": "platform", "route_ref": "Mini Tren", "shelter": "no", "tactile_paving": "no"}}, {"type": "node", "id": 4897578330, "lat": 39.7060862, "lon": 3.4559794, "tags": {"bench": "no", "bin": "yes", "bus": "yes", "highway": "bus_stop", "name": "Son Moll Beach", "network": "Mini Tren", "operator": "Asociaci\u00f3n Hotelera de Calas de Capdepera", "passenger_information_display": "no", "public_transport": "platform", "route_ref": "Mini Tren", "shelter": "yes"}}, {"type": "node", "id": 4897578331, "lat": 39.704716, "lon": 3.454633, "tags": {"bench": "no", "bin": "no", "bus": "yes", "highway": "bus_stop", "name": "Hotel Na Forana", "network": "Mini Tren", "operator": "Asociaci\u00f3n Hotelera de Calas de Capdepera", "passenger_information_display": "no", "public_transport": "platform", "route_ref": "Mini Tren", "shelter": "yes"}}, {"type": "node", "id": 4897578332, "lat": 39.6821588, "lon": 3.4510851, "tags": {"bench": "no", "bus": "yes", "check_date:shelter": "2021-10-23", "highway": "bus_stop", "name": "Font de Sa Cala Beach", "network": "Mini Tren", "operator": "Asociaci\u00f3n Hotelera de Calas de Capdepera", "passenger_information_display": "no", "public_transport": "platform", "route_ref": "Mini Tren", "shelter": "no"}}, {"type": "node", "id": 4897624743, "lat": 39.7061667, "lon": 3.4559439, "tags": {"bench": "no", "bus": "yes", "highway": "bus_stop", "name": "Son Moll Beach", "network": "Mini Tren", "operator": "Asociaci\u00f3n Hotelera de Calas de Capdepera", "passenger_information_display": "no", "public_transport": "platform", "route_ref": "Mini Tren", "shelter": "yes"}}, {"type": "node", "id": 5061962394, "lat": 39.6122393, "lon": 3.3896644, "tags": {"bus": "yes", "highway": "bus_stop", "name": "Sureda", "network": "CitySightseeing Cala Millor", "operator": "CitySightseeing", "public_transport": "platform", "ref": "7"}}, {"type": "node", "id": 5062216931, "lat": 39.6107837, "lon": 3.3882367, "tags": {"bench": "yes", "bin": "yes", "bus": "yes", "highway": "bus_stop", "lit": "no", "name": "Cala Millor Garden", "network": "CitySightseeing Cala Millor", "operator": "CitySightseeing", "public_transport": "platform", "ref": "21", "shelter": "yes", "tactile_paving": "no"}}, {"type": "node", "id": 5062216932, "lat": 39.6122302, "lon": 3.3896021, "tags": {"bus": "yes", "highway": "bus_stop", "name": "Sureda", "network": "CitySightseeing Cala Millor", "operator": "CitySightseeing", "public_transport": "platform", "ref": "20"}}, {"type": "node", "id": 5062239645, "lat": 39.60715, "lon": 3.3848318, "tags": {"bus": "yes", "highway": "bus_stop", "name": "Hotel Ciudad Laurel", "network": "CitySightseeing Cala Millor", "operator": "CitySightseeing", "public_transport": "platform", "ref": "22"}}, {"type": "node", "id": 5062334239, "lat": 39.5983687, "lon": 3.3813614, "tags": {"bus": "yes", "highway": "bus_stop", "name": "Hotel Girasol", "network": "MiniTrenet Cala Millor", "operator": "MiniTrenet", "public_transport": "platform", "ref": "2"}}, {"type": "node", "id": 5062334240, "lat": 39.5950114, "lon": 3.3808215, "tags": {"bench": "yes", "bin": "yes", "bus": "yes", "highway": "bus_stop", "name": "Hotel La Santa Mar\u00eda", "network": "MiniTrenet Cala Millor", "operator": "MiniTrenet", "public_transport": "platform", "ref": "3", "shelter": "yes"}}, {"type": "node", "id": 5062368481, "lat": 39.5916341, "lon": 3.3815846, "tags": {"bench": "no", "bus": "yes", "highway": "bus_stop", "name": "Aparthotel Marins Cala Nau", "name:ca": "Aparthotel Marins Cala Nau", "network": "MiniTrenet Cala Millor", "operator": "MiniTrenet", "public_transport": "platform", "ref": "4", "shelter": "no"}}, {"type": "node", "id": 5062368482, "lat": 39.5875781, "lon": 3.3826471, "tags": {"bus": "yes", "highway": "bus_stop", "name": "Aparthotel Bah\u00eda Grande", "network": "MiniTrenet Cala Millor", "operator": "MiniTrenet", "public_transport": "platform", "ref": "5"}}, {"type": "node", "id": 5062955699, "lat": 39.5851385, "lon": 3.3794321, "tags": {"bus": "yes", "highway": "bus_stop", "name": "Aparthotel Mar Blau", "name:ca": "Aparthotel Mar Blau", "network": "MiniTrenet Cala Millor", "operator": "MiniTrenet", "public_transport": "platform", "ref": "6"}}, {"type": "node", "id": 5063009991, "lat": 39.5798051, "lon": 3.3711293, "tags": {"bus": "yes", "highway": "bus_stop", "name": "Apartamentos Torre Blanca", "network": "MiniTrenet Cala Millor", "operator": "MiniTrenet", "public_transport": "platform", "ref": "7"}}, {"type": "node", "id": 5063009992, "lat": 39.5760384, "lon": 3.3775304, "tags": {"bus": "yes", "highway": "bus_stop", "name": "Hotel Sa Coma Platja", "network": "MiniTrenet Cala Millor", "operator": "MiniTrenet", "public_transport": "platform", "ref": "8"}}, {"type": "node", "id": 5063029663, "lat": 39.5685034, "lon": 3.3731973, "tags": {"bus": "yes", "highway": "bus_stop", "name": "Hotel Som Fona", "network": "MiniTrenet Cala Millor", "operator": "MiniTrenet", "public_transport": "platform", "ref": "10"}}, {"type": "node", "id": 5063029664, "lat": 39.56996, "lon": 3.3719058, "tags": {"bus": "yes", "highway": "bus_stop", "name": "Hotel Mariant Park", "network": "MiniTrenet Cala Millor", "operator": "MiniTrenet", "public_transport": "platform", "ref": "9"}}, {"type": "node", "id": 5063886406, "lat": 39.5703305, "lon": 3.372495, "tags": {"bench": "yes", "bus": "yes", "highway": "bus_stop", "name": "Hotel Palmeras Playa", "network": "MiniTrenet Cala Millor", "operator": "MiniTrenet", "public_transport": "platform", "ref": "9", "shelter": "yes"}}, {"type": "node", "id": 5063917813, "lat": 39.5815813, "lon": 3.3771164, "tags": {"bus": "yes", "highway": "bus_stop", "name": "Apart. Safari Park", "network": "MiniTrenet Cala Millor", "operator": "MiniTrenet", "public_transport": "platform", "ref": "11"}}, {"type": "node", "id": 5065669955, "lat": 39.5879127, "lon": 3.3836416, "tags": {"bus": "yes", "highway": "bus_stop", "name": "Aparthotel Bahia Grande", "name:ca": "Aparthotel Bahia Grande", "network": "MiniTrenet Cala Millor", "operator": "MiniTrenet", "public_transport": "platform", "ref": "5"}}, {"type": "node", "id": 5065698833, "lat": 39.5955499, "lon": 3.3802029, "tags": {"bus": "yes", "highway": "bus_stop", "name": "Hotel La Santa Mar\u00eda", "network": "MiniTrenet Cala Millor", "operator": "MiniTrenet", "public_transport": "platform", "ref": "3"}}, {"type": "node", "id": 5075468300, "lat": 39.5904492, "lon": 3.3817583, "tags": {"bench": "no", "bin": "yes", "bus": "yes", "check_date:shelter": "2023-08-19", "highway": "bus_stop", "lit": "yes", "name": "Estanyol", "network": "Transports p\u00fablics de Mallorca", "operator": "Sagal\u00e9s Caldentey", "passenger_information_display": "no", "public_transport": "platform", "ref": "51014", "route_ref": "401;424;425;A42", "shelter": "no", "tactile_paving": "no", "website": "https://www.tib.org/ca/parades/-/parada/51014"}}, {"type": "node", "id": 5076226045, "lat": 39.5461493, "lon": 3.3300194, "tags": {"bench": "no", "bus": "yes", "highway": "bus_stop", "name": "Hospital (Portocristo)", "network": "Transports p\u00fablics de Mallorca", "not_served_by": "416", "operator": "Bus Red", "passenger_information_display": "no", "public_transport": "platform", "ref": "33061", "route_ref": "No bus routes (Feb 2022)", "shelter": "no", "website": "https://www.tib.org/de/web/ctm/parades/-/parada/33061"}}, {"type": "node", "id": 5076252586, "lat": 39.5482083, "lon": 3.3219781, "tags": {"bench": "yes", "bus": "yes", "highway": "bus_stop", "name": "Dinosaurland - Coves Hams", "network": "Transports p\u00fablics de Mallorca", "not_served_by": "A42", "operator": "Sagal\u00e9s Caldentey", "passenger_information_display": "no", "public_transport": "platform", "ref": "33046", "route_ref": "401", "shelter": "no", "website": "https://www.tib.org/ca/parades/-/parada/33046"}}, {"type": "node", "id": 5077128912, "lat": 39.5715488, "lon": 3.3733337, "tags": {"bench": "no", "bus": "yes", "highway": "bus_stop", "local_ref": "2", "name": "Savines", "network": "Transports p\u00fablics de Mallorca", "operator": "Sagal\u00e9s Caldentey", "passenger_information_display": "no", "public_transport": "platform", "ref": "51001", "route_ref": "401;424;425;A42", "shelter": "no", "website": "https://www.tib.org/ca/parades/-/parada/51001"}}, {"type": "node", "id": 5077380538, "lat": 39.5980313, "lon": 3.3813766, "tags": {"bench": "yes", "bin": "no", "bus": "yes", "check_date:shelter": "2021-10-13", "highway": "bus_stop", "local_ref": "2", "name": "Bon Temps", "network": "Transports p\u00fablics de Mallorca", "operator": "Sagal\u00e9s Caldentey", "passenger_information_display": "no", "public_transport": "platform", "ref": "51020", "route_ref": "401;412;424;425;A42", "shelter": "yes", "website": "https://www.tib.org/ca/parades/-/parada/51020"}}, {"type": "node", "id": 5077397259, "lat": 39.6144351, "lon": 3.3901448, "tags": {"bench": "no", "bus": "yes", "highway": "bus_stop", "local_ref": "2", "name": "Port esportiu", "network": "Transports p\u00fablics de Mallorca", "operator": "Sagal\u00e9s Caldentey", "passenger_information_display": "no", "public_transport": "platform", "ref": "62009", "route_ref": "412;425;A42", "shelter": "no", "website": "https://www.tib.org/ca/parades/-/parada/62009"}}, {"type": "node", "id": 5077415740, "lat": 39.6303829, "lon": 3.3973006, "tags": {"bus": "yes", "highway": "bus_stop", "name": "Port Nou", "network": "Transports p\u00fablics de Mallorca", "operator": "Sagal\u00e9s Caldentey", "passenger_information_display": "no", "public_transport": "platform", "ref": "62027", "route_ref": "412", "website": "https://www.tib.org/ca/parades/-/parada/62027"}}, {"type": "node", "id": 5077415741, "lat": 39.6199703, "lon": 3.3907403, "tags": {"bench": "no", "bus": "yes", "highway": "bus_stop", "name": "Apmt. Sunwing (Cala Bona)", "network": "Transports p\u00fablics de Mallorca", "operator": "Bus Red", "passenger_information_display": "no", "public_transport": "platform", "ref": "62016", "route_ref": "412, 441, 445, 447, 448, 451, 454", "shelter": "no"}}, {"type": "node", "id": 5077415742, "lat": 39.6218226, "lon": 3.3914042, "tags": {"bench": "yes", "bin": "no", "bus": "yes", "highway": "bus_stop", "lit": "yes", "local_ref": "2", "name": "Cala Bona nord", "network": "Transports p\u00fablics de Mallorca", "operator": "Sagal\u00e9s Caldentey", "passenger_information_display": "no", "public_transport": "platform", "ref": "62029", "route_ref": "412;425;A42", "shelter": "no", "tactile_paving": "yes", "website": "https://www.tib.org/ca/parades/-/parada/62029"}}, {"type": "node", "id": 5101393029, "lat": 39.537119, "lon": 3.3296221, "tags": {"bench": "yes", "bus": "yes", "highway": "bus_stop", "name": "Hotel Monteverde", "network": "Mini Tren Tur\u00edstic Porto Cristo Express", "operator": "Mini Tren Tur\u00edstic Porto Cristo Express", "passenger_information_display": "no", "public_transport": "platform", "ref": "2", "route_ref": "Mini Tren", "shelter": "yes"}}, {"type": "node", "id": 5101393030, "lat": 39.5224824, "lon": 3.3111711, "tags": {"bench": "no", "bus": "yes", "highway": "bus_stop", "name": "Insotel Cala Mendia", "network": "Mini Tren Tur\u00edstic Porto Cristo Express", "operator": "Mini Tren Tur\u00edstic Porto Cristo Express", "passenger_information_display": "no", "public_transport": "platform", "ref": "3", "route_ref": "Mini Tren", "shelter": "no", "wheelchair": "yes"}}, {"type": "node", "id": 5101393031, "lat": 39.5170015, "lon": 3.3090495, "tags": {"bench": "no", "bus": "yes", "check_date:shelter": "2022-05-28", "highway": "bus_stop", "name": "Rom\u00e0ntica", "network": "Mini Tren Tur\u00edstic Porto Cristo Express", "operator": "Mini Tren Tur\u00edstic Porto Cristo Express", "passenger_information_display": "no", "public_transport": "platform", "ref": "5", "route_ref": "Mini Tren", "shelter": "no"}}, {"type": "node", "id": 5101393032, "lat": 39.5403531, "lon": 3.3336695, "tags": {"bench": "no", "bin": "yes", "bus": "yes", "highway": "bus_stop", "lit": "yes", "name": "Porto Cristo Centre", "network": "Mini Tren Tur\u00edstic Porto Cristo Express", "operator": "Mini Tren Tur\u00edstic Porto Cristo Express", "passenger_information_display": "no", "public_transport": "platform", "ref": "1", "route_ref": "Mini Tren", "shelter": "no", "tactile_paving": "no"}}, {"type": "node", "id": 5101393033, "lat": 39.5200865, "lon": 3.3094036, "tags": {"bench": "no", "bus": "yes", "highway": "bus_stop", "name": "Cruce Punta Reina", "network": "Mini Tren Tur\u00edstic Porto Cristo Express", "operator": "Mini Tren Tur\u00edstic Porto Cristo Express", "passenger_information_display": "no", "public_transport": "platform", "ref": "4", "route_ref": "Mini Tren", "shelter": "no"}}, {"type": "node", "id": 5101393034, "lat": 39.5175539, "lon": 3.300512, "tags": {"bench": "no", "bus": "yes", "highway": "bus_stop", "name": "Club del Mar", "name:ca": "Club del Mar", "network": "Mini Tren Tur\u00edstic Porto Cristo Express", "operator": "Mini Tren Tur\u00edstic Porto Cristo Express", "passenger_information_display": "no", "public_transport": "platform", "ref": "6", "route_ref": "Mini Tren", "shelter": "no"}}, {"type": "node", "id": 5101453459, "lat": 39.5369494, "lon": 3.3301585, "tags": {"bench": "no", "bus": "yes", "highway": "bus_stop", "name": "Coves del Drach", "network": "Mini Tren Tur\u00edstic Porto Cristo Express", "operator": "Mini Tren Tur\u00edstic Porto Cristo Express", "passenger_information_display": "no", "public_transport": "platform", "ref": "11", "route_ref": "Mini Tren", "shelter": "no"}}, {"type": "node", "id": 5101453460, "lat": 39.5219797, "lon": 3.3148699, "tags": {"bench": "no", "bus": "yes", "highway": "bus_stop", "name": "Cala Anguila", "name:ca": "Cala Anguila", "network": "Mini Tren Tur\u00edstic Porto Cristo Express", "operator": "Mini Tren Tur\u00edstic Porto Cristo Express", "passenger_information_display": "no", "public_transport": "platform", "ref": "9", "route_ref": "Mini Tren", "shelter": "no"}}, {"type": "node", "id": 5101453461, "lat": 39.5190226, "lon": 3.3141669, "tags": {"bench": "no", "bin": "yes", "bus": "yes", "highway": "bus_stop", "lit": "no", "name": "Punta Reina", "network": "Mini Tren Tur\u00edstic Porto Cristo Express", "operator": "Mini Tren Tur\u00edstic Porto Cristo Express", "passenger_information_display": "no", "public_transport": "platform", "ref": "7", "route_ref": "Mini Tren", "shelter": "yes", "tactile_paving": "no"}}, {"type": "node", "id": 5101453462, "lat": 39.5284367, "lon": 3.319773, "tags": {"bench": "no", "bus": "yes", "highway": "bus_stop", "name": "Cala Magrana", "network": "Mini Tren Tur\u00edstic Porto Cristo Express", "operator": "Mini Tren Tur\u00edstic Porto Cristo Express", "passenger_information_display": "no", "public_transport": "platform", "ref": "10", "route_ref": "Mini Tren", "shelter": "no"}}, {"type": "node", "id": 5101453463, "lat": 39.5402941, "lon": 3.3317222, "tags": {"bench": "no", "bus": "yes", "highway": "bus_stop", "name": "Passeig del Riuet", "name:ca": "Passeig del Riuet", "network": "Mini Tren Tur\u00edstic Porto Cristo Express", "operator": "Mini Tren Tur\u00edstic Porto Cristo Express", "passenger_information_display": "no", "public_transport": "platform", "ref": "12", "route_ref": "Mini Tren", "shelter": "no"}}, {"type": "node", "id": 5101453464, "lat": 39.5223054, "lon": 3.3110886, "tags": {"bench": "no", "bin": "no", "bus": "yes", "highway": "bus_stop", "lit": "yes", "name": "Insotel Cala Mendia", "network": "Mini Tren Tur\u00edstic Porto Cristo Express", "operator": "Mini Tren Tur\u00edstic Porto Cristo Express", "passenger_information_display": "no", "public_transport": "platform", "ref": "8", "route_ref": "Mini Tren", "shelter": "yes", "tactile_paving": "no"}}, {"type": "node", "id": 5103292298, "lat": 39.5283445, "lon": 3.3195991, "tags": {"bench": "no", "bus": "yes", "highway": "bus_stop", "local_ref": "2", "name": "Cala Anguila - Cala Magrana", "network": "Transports p\u00fablics de Mallorca", "operator": "Sagal\u00e9s Caldentey", "passenger_information_display": "no", "public_transport": "platform", "ref": "33051", "route_ref": "427", "shelter": "no", "website": "https://www.tib.org/ca/parades/-/parada/33051"}}, {"type": "node", "id": 5126839094, "lat": 39.4783163, "lon": 3.2495062, "tags": {"bench": "no", "bus": "yes", "highway": "bus_stop", "name": "s'Espinagar", "network": "Transports p\u00fablics de Mallorca", "operator": "Bus Red", "passenger_information_display": "no", "public_transport": "platform", "ref": "33055", "route_ref": "424", "shelter": "no"}}, {"type": "node", "id": 5366935203, "lat": 39.5783195, "lon": 3.3627083, "tags": {"bench": "no", "bus": "yes", "highway": "bus_stop", "name": "Bouganvilla Park", "network": "Bouganvilla Park to the Beach", "operator": "Bouganvilla Park", "passenger_information_display": "no", "public_transport": "platform", "route_ref": "Bouganvilla Park", "shelter": "no"}}, {"type": "node", "id": 5381476786, "lat": 39.5879971, "lon": 3.3837084, "tags": {"bench": "no", "bus": "yes", "highway": "bus_stop", "name": "Bahia Grande", "name:ca": "Bahia Grande", "network": "Safari Zoo", "operator": "Safari Zoo", "passenger_information_display": "no", "public_transport": "platform", "ref": "2", "route_ref": "Safari Zoo", "shelter": "no"}}, {"type": "node", "id": 5381476787, "lat": 39.5908123, "lon": 3.3832269, "tags": {"bench": "no", "bus": "yes", "check_date:shelter": "2023-08-19", "highway": "bus_stop", "name": "Hotel Sumba", "network": "Safari Zoo", "operator": "Safari Zoo", "passenger_information_display": "no", "public_transport": "platform", "ref": "3", "route_ref": "Safari Zoo", "shelter": "no"}}, {"type": "node", "id": 5381476788, "lat": 39.5948892, "lon": 3.3827267, "tags": {"bench": "no", "bin": "no", "bus": "yes", "highway": "bus_stop", "name": "Tourist Info", "network": "Safari Zoo", "operator": "Safari Zoo", "passenger_information_display": "no", "public_transport": "platform", "ref": "4", "route_ref": "Safari Zoo", "shelter": "yes"}}, {"type": "node", "id": 5381476789, "lat": 39.5814691, "lon": 3.3768902, "tags": {"bench": "no", "bus": "yes", "highway": "bus_stop", "name": "Safari Park", "network": "Safari Zoo", "operator": "Safari Zoo", "passenger_information_display": "no", "public_transport": "platform", "ref": "1", "route_ref": "Safari Zoo", "shelter": "no"}}, {"type": "node", "id": 5381537576, "lat": 39.5813874, "lon": 3.361839, "tags": {"bench": "no", "bus": "yes", "highway": "bus_stop", "name": "Safari Zoo", "network": "Safari Zoo", "operator": "Safari Zoo", "passenger_information_display": "no", "public_transport": "platform", "ref": "15", "route_ref": "Safari Zoo", "shelter": "no"}}, {"type": "node", "id": 5381537579, "lat": 39.57901, "lon": 3.3752433, "tags": {"bench": "no", "bus": "yes", "highway": "bus_stop", "name": "Orient Beach", "network": "Safari Zoo", "operator": "Safari Zoo", "passenger_information_display": "no", "public_transport": "platform", "ref": "13", "route_ref": "Safari Zoo", "shelter": "no"}}, {"type": "node", "id": 5381537581, "lat": 39.5983325, "lon": 3.3813454, "tags": {"bench": "no", "bus": "yes", "highway": "bus_stop", "name": "Bon Temps", "name:ca": "Bon Temps", "network": "Safari Zoo", "operator": "Safari Zoo", "passenger_information_display": "no", "public_transport": "platform", "ref": "6", "route_ref": "Safari Bus", "shelter": "no"}}, {"type": "node", "id": 5381537582, "lat": 39.5802866, "lon": 3.3700479, "tags": {"bench": "no", "bus": "yes", "highway": "bus_stop", "name": "Torre Blanca", "name:ca": "Torre Blanca", "network": "Safari Zoo", "operator": "Safari Zoo", "passenger_information_display": "no", "public_transport": "platform", "ref": "14", "route_ref": "Safari Zoo", "shelter": "no"}}, {"type": "node", "id": 5381605812, "lat": 39.576093, "lon": 3.3775017, "tags": {"amenity": "fast_food", "bench": "no", "brand": "Burger King", "brand:wikidata": "Q177054", "bus": "yes", "cuisine": "burger", "highway": "bus_stop", "name": "Burger King", "network": "Safari Zoo", "operator": "Safari Zoo", "passenger_information_display": "no", "public_transport": "platform", "ref": "12", "route_ref": "Safari Zoo", "shelter": "no", "takeaway": "yes"}}, {"type": "node", "id": 5381605813, "lat": 39.5704633, "lon": 3.3753265, "tags": {"bench": "no", "bus": "yes", "highway": "bus_stop", "name": "Rotonda Atzeroles", "name:ca": "Rotonda Atzeroles", "network": "Safari Zoo", "operator": "Safari Zoo", "passenger_information_display": "no", "public_transport": "platform", "ref": "10", "route_ref": "Safari Zoo", "shelter": "no"}}, {"type": "node", "id": 5381605814, "lat": 39.5702937, "lon": 3.3724672, "tags": {"bench": "yes", "bus": "yes", "highway": "bus_stop", "name": "Marinat Park", "network": "Safari Zoo", "operator": "Safari Zoo", "passenger_information_display": "no", "public_transport": "platform", "ref": "8", "route_ref": "Safari Zoo", "shelter": "yes"}}, {"type": "node", "id": 5381605815, "lat": 39.5763824, "lon": 3.3763994, "tags": {"bench": "no", "bus": "yes", "highway": "bus_stop", "name": "Hotel Sa Coma Playa", "network": "Safari Zoo", "operator": "Safari Zoo", "passenger_information_display": "no", "public_transport": "platform", "ref": "11", "route_ref": "Safari Zoo", "shelter": "no"}}, {"type": "node", "id": 5381605816, "lat": 39.5684556, "lon": 3.3739344, "tags": {"bench": "no", "bus": "yes", "highway": "bus_stop", "name": "S'Illot", "name:ca": "S'Illot", "network": "Safari Zoo", "operator": "Safari Zoo", "passenger_information_display": "no", "public_transport": "platform", "ref": "9", "route_ref": "Safari Zoo", "shelter": "no", "tactile_paving": "no"}}, {"type": "node", "id": 5633633698, "lat": 39.5684118, "lon": 3.373948, "tags": {"bus": "yes", "highway": "bus_stop", "name": "Safari", "public_transport": "platform", "shelter": "no", "tactile_paving": "no"}}, {"type": "node", "id": 5784539818, "lat": 39.8312113, "lon": 3.1092482, "tags": {"bench": "yes", "bus": "yes", "highway": "bus_stop", "name": "H. Bellevue (Platja d'Alc\u00fadia)", "network": "Transports p\u00fablics de Mallorca", "operator": "Consorci de Transports de Mallorca", "passenger_information_display": "no", "public_transport": "platform", "ref": "3045", "route_ref": "356A", "shelter": "yes"}}, {"type": "node", "id": 5785289353, "lat": 39.5222646, "lon": 3.3109932, "tags": {"bench": "no", "bin": "no", "bus": "yes", "highway": "bus_stop", "lit": "yes", "local_ref": "1", "name": "Platja de Cala Mendia", "network": "Transport p\u00fablic de Mallorca", "operator": "Sagal\u00e9s Caldentey", "passenger_information_display": "no", "public_transport": "platform", "ref": "33039", "route_ref": "427", "shelter": "yes", "tactile_paving": "no", "website": "https://www.tib.org/ca/parades/-/parada/33039"}}, {"type": "node", "id": 5868416548, "lat": 39.5143416, "lon": 3.0299247, "tags": {"bench": "no", "bin": "no", "bus": "yes", "highway": "bus_stop", "local_ref": "1", "name": "Ronda d'Alcassor", "network": "Consorci de Transports de Mallorca", "operator": "Sagal\u00e9s Caldentey", "public_transport": "platform", "ref": "43013", "route_ref": "417;514", "shelter": "no", "tactile_paving": "no", "website": "https://www.tib.org/ca/parades/-/parada/43013"}}, {"type": "node", "id": 5868822316, "lat": 39.5143984, "lon": 3.0300873, "tags": {"bench": "yes", "bin": "yes", "bus": "yes", "highway": "bus_stop", "local_ref": "2", "name": "Ronda d'Alcassor", "network": "Consorci de Transports de Mallorca", "operator": "Sagal\u00e9s Caldentey", "public_transport": "platform", "ref": "43004", "route_ref": "417;514", "shelter": "yes", "website": "https://www.tib.org/ca/parades/-/parada/43004"}}, {"type": "node", "id": 7259427938, "lat": 39.8310844, "lon": 3.1167269, "tags": {"bench": "yes", "bin": "no", "bus": "yes", "departures_board": "timetable", "highway": "bus_stop", "lit": "yes", "name": "Ciutat Blanca 2 (Platja d'Alc\u00fadia)", "name:ca": "Ciutat Blanca 2 (Platja d'Alc\u00fadia)", "network": "Transports p\u00fablics de Mallorca", "operator": "Consorci de Transports de Mallorca", "public_transport": "platform", "ref": "3061", "shelter": "yes", "surface": "paving_stones", "tactile_paving": "yes"}}, {"type": "node", "id": 7259427940, "lat": 39.8403301, "lon": 3.1238305, "tags": {"bench": "yes", "bin": "yes", "bus": "yes", "departures_board": "timetable", "highway": "bus_stop", "lit": "yes", "name": "Entre-mar-i-estany 1 (Port d'Alc\u00fadia)", "network": "Transports p\u00fablics de Mallorca", "operator": "Consorci de Transports de Mallorca", "public_transport": "platform", "ref": "3064", "shelter": "yes", "surface": "paving_stones", "tactile_paving": "yes"}}, {"type": "node", "id": 7259427941, "lat": 39.8405832, "lon": 3.1243978, "tags": {"bench": "yes", "bin": "yes", "bus": "yes", "departures_board": "timetable", "highway": "bus_stop", "lit": "yes", "name": "Entre-mar-i-estany 2 (Port d'Alc\u00fadia)", "network": "Transports p\u00fablics de Mallorca", "operator": "Consorci de Transports de Mallorca", "public_transport": "platform", "ref": "3065", "shelter": "yes", "surface": "paving_stones", "tactile_paving": "yes"}}, {"type": "node", "id": 7259427944, "lat": 39.8373959, "lon": 3.1194745, "tags": {"bench": "yes", "bin": "yes", "bus": "yes", "departures_board": "timetable", "highway": "bus_stop", "lit": "yes", "name": "Pla del Pinar 2 (Platja d'Alc\u00fadia)", "name:ca": "Pla del Pinar 2 (Platja d'Alc\u00fadia)", "network": "Transports p\u00fablics de Mallorca", "operator": "Consorci de Transports de Mallorca", "public_transport": "platform", "ref": "3063", "shelter": "yes", "surface": "paving_stones", "tactile_paving": "yes"}}, {"type": "node", "id": 7259470413, "lat": 39.8088948, "lon": 3.1161554, "tags": {"bench": "yes", "bin": "no", "bus": "yes", "departures_board": "timetable", "highway": "bus_stop", "lit": "yes", "name": "Ses Fotges 2 (Playa de Muro)", "name:ca": "Ses Fotges 2 (Playa de Muro)", "network": "Transports p\u00fablics de Mallorca", "operator": "Consorci de Transports de Mallorca", "public_transport": "platform", "ref": "39040", "shelter": "yes", "surface": "paving_stones", "tactile_paving": "yes"}}, {"type": "node", "id": 8045369950, "lat": 39.6437029, "lon": 3.0143689, "tags": {"name": "Sineu", "name:ca": "Sineu", "network": "Serveis Ferroviaris de Mallorca", "network:short": "SFM", "network:wikidata": "Q1811123", "public_transport": "station", "railway": "station", "train": "yes", "wikidata": "Q8841964", "wikipedia": "ca:Estaci\u00f3 de Sineu"}}, {"type": "node", "id": 8045369959, "lat": 39.6181708, "lon": 3.1109092, "tags": {"name": "Petra", "name:ca": "Petra", "public_transport": "station", "railway": "station", "wikidata": "Q10949967", "wikipedia": "es:Estaci\u00f3n de Petra"}}, {"type": "node", "id": 9280898757, "lat": 39.5454316, "lon": 3.3313385, "tags": {"bus": "yes", "highway": "bus_stop", "local_ref": "1", "name": "Mestral", "network": "Transports p\u00fablics de Mallorca", "operator": "Sagal\u00e9s Caldentey", "public_transport": "platform", "ref": "33078", "route_ref": "401;424;425;A42", "website": "https://www.tib.org/ca/parades/-/parada/33078"}}, {"type": "node", "id": 9280898758, "lat": 39.564417, "lon": 3.3706865, "tags": {"bench": "yes", "highway": "bus_stop", "local_ref": "1", "name": "S'Illot", "name:ca": "S'Illot", "network": "Transport p\u00fablic de Mallorca", "operator": "Sagal\u00e9s Caldentey", "public_transport": "platform", "ref": "33067", "route_ref": "401;424;425;A42", "shelter": "yes", "website": "https://www.tib.org/ca/parades/-/parada/33067"}}, {"type": "node", "id": 9280898759, "lat": 39.5645618, "lon": 3.3707415, "tags": {"bench": "yes", "bin": "yes", "highway": "bus_stop", "local_ref": "2", "name": "S'Illot", "name:ca": "S'Illot", "network": "Transport p\u00fablic de Mallorca", "operator": "Sagal\u00e9s Caldentey", "public_transport": "platform", "ref": "33068", "route_ref": "401;424;425;A42", "shelter": "yes", "website": "https://www.tib.org/ca/parades/-/parada/33068"}}, {"type": "node", "id": 9280898760, "lat": 39.5456498, "lon": 3.3321324, "tags": {"bench": "yes", "bin": "no", "bus": "yes", "highway": "bus_stop", "lit": "yes", "local_ref": "2", "name": "Mestral", "network": "Transports p\u00fablics de Mallorca", "operator": "Sagal\u00e9s Caldentey", "public_transport": "platform", "ref": "33079", "route_ref": "401;424;425;A42", "shelter": "yes", "tactile_paving": "yes", "website": "https://www.tib.org/ca/parades/-/parada/33079"}}, {"type": "node", "id": 9280898761, "lat": 39.5706861, "lon": 3.2185502, "tags": {"bench": "no", "bin": "no", "bus": "yes", "highway": "bus_stop", "local_ref": "2", "name": "Av. Parc", "network": "Transports p\u00fablics de Mallorca", "public_transport": "platform", "ref": "33081", "route_ref": "416;417;501", "shelter": "no", "tactile_paving": "no", "website": "https://www.tib.org/ca/parades/-/parada/33081"}}, {"type": "node", "id": 9287558333, "lat": 39.4748976, "lon": 3.1522903, "tags": {"bench": "no", "bin": "yes", "bus": "yes", "highway": "bus_stop", "name": "Rep\u00fablica Argentina", "network": "Transport p\u00fablic de Mallorca", "operator": "Sagal\u00e9s Caldentey", "passenger_information_display": "no", "public_transport": "platform", "ref": "22040", "route_ref": "501;501e;512;514", "shelter": "no", "website": "https://www.tib.org/ca/parades/-/parada/22040"}}, {"type": "node", "id": 9287558334, "lat": 39.4794668, "lon": 3.1396919, "tags": {"bus": "yes", "highway": "bus_stop", "local_ref": "2", "name": "IES Felanitx", "name:ca": "IES Felanitx", "network": "Consorci de Transports de Mallorca", "operator": "Sagal\u00e9s Caldentey", "public_transport": "platform", "ref": "22004", "route_ref": "514", "website": "https://www.tib.org/ca/parades/-/parada/22004"}}, {"type": "node", "id": 9287558335, "lat": 39.4695122, "lon": 3.1444958, "tags": {"bus": "yes", "highway": "bus_stop", "local_ref": "1", "name": "Ernest Mestre", "network": "Transport p\u00fablic de Mallorca", "operator": "Sagal\u00e9s Caldentey", "public_transport": "platform", "ref": "22039", "route_ref": "501;501e;512;514", "website": "https://www.tib.org/ca/parades/-/parada/22039"}}, {"type": "node", "id": 9287558337, "lat": 39.7151028, "lon": 3.4571756, "tags": {"bench": "yes", "bin": "yes", "bus": "yes", "highway": "bus_stop", "lit": "no", "local_ref": "1", "name": "Cala Agulla", "network": "Transports p\u00fablics de Mallorca", "operator": "Consorci de Transports de Mallorca", "public_transport": "platform", "ref": "14036", "route_ref": "411;422;423;424", "shelter": "yes", "tactile_paving": "yes", "website": "https://www.tib.org/ca/parades/-/parada/14036"}}, {"type": "node", "id": 9289695461, "lat": 39.5191839, "lon": 3.2978913, "tags": {"highway": "bus_stop", "name": "Geranis", "network": "Transport p\u00fablic de Mallorca", "operator": "Sagal\u00e9s Caldentey", "public_transport": "platform", "ref": "33074", "route_ref": "427", "website": "https://www.tib.org/ca/parades/-/parada/33074"}}, {"type": "node", "id": 9289695462, "lat": 39.5228254, "lon": 3.3118442, "tags": {"bench": "no", "bin": "no", "bus": "yes", "highway": "bus_stop", "lit": "yes", "local_ref": "2", "name": "Platja de Cala Mendia", "network": "Transport p\u00fablic de Mallorca", "operator": "Sagal\u00e9s Caldentey", "public_transport": "platform", "ref": "33066", "route_ref": "427", "shelter": "no", "tactile_paving": "no", "website": "https://www.tib.org/ca/parades/-/parada/33066"}}, {"type": "node", "id": 9289695463, "lat": 39.5142004, "lon": 3.2155354, "tags": {"bus": "yes", "highway": "bus_stop", "local_ref": "1", "name": "Son Maci\u00e0", "name:ca": "Son Maci\u00e0", "network": "Transports p\u00fablics de Mallorca", "operator": "Sagal\u00e9s Caldentey", "public_transport": "platform", "ref": "33035", "route_ref": "416", "website": "https://www.tib.org/ca/parades/-/parada/33065"}}, {"type": "node", "id": 9289695464, "lat": 39.5141709, "lon": 3.2156052, "tags": {"bus": "yes", "highway": "bus_stop", "local_ref": "2", "name": "Son Maci\u00e0", "name:ca": "Son Maci\u00e0", "network": "Transports p\u00fablics de Mallorca", "operator": "Sagal\u00e9s Caldentey", "public_transport": "platform", "ref": "33034", "route_ref": "416", "website": "https://www.tib.org/ca/parades/-/parada/33034"}}, {"type": "node", "id": 9289695465, "lat": 39.5719008, "lon": 3.2181586, "tags": {"bench": "yes", "bus": "yes", "highway": "bus_stop", "local_ref": "1", "name": "Av. Parc", "network": "Transports p\u00fablics de Mallorca", "public_transport": "platform", "ref": "33080", "route_ref": "417;501", "shelter": "yes", "website": "https://www.tib.org/ca/parades/-/parada/33080"}}, {"type": "node", "id": 9318952106, "lat": 39.8242612, "lon": 3.1152963, "tags": {"bench": "yes", "bin": "yes", "bus": "yes", "departures_board": "timetable", "highway": "bus_stop", "lit": "yes", "name": "Estany dels Ponts 1 (Platja d'Alc\u00fadia)", "name:ca": "Estany dels Ponts 1 (Platja d'Alc\u00fadia)", "network": "Transports p\u00fablics de Mallorca", "operator": "Consorci de Transports de Mallorca", "public_transport": "platform", "ref": "3058", "shelter": "yes", "surface": "paving_stones", "tactile_paving": "yes"}}, {"type": "node", "id": 9318952107, "lat": 39.7701019, "lon": 3.1438758, "tags": {"bench": "yes", "bin": "no", "bus": "yes", "departures_board": "timetable", "highway": "bus_stop", "lit": "yes", "name": "Platja de Can Picafort 1 (Can Picafort)", "name:ca": "Platja de Can Picafort 1 (Can Picafort)", "network": "Transports p\u00fablics de Mallorca", "operator": "Consorci de Transports de Mallorca", "public_transport": "platform", "ref": "55034", "shelter": "yes", "surface": "paving_stones", "tactile_paving": "yes"}}, {"type": "node", "id": 9318952108, "lat": 39.7621801, "lon": 3.1521817, "tags": {"bench": "yes", "bin": "no", "bus": "yes", "departures_board": "timetable", "highway": "bus_stop", "lit": "yes", "name": "Can Picafort sud 1 (Can Picafort)", "network": "Transports p\u00fablics de Mallorca", "operator": "Consorci de Transports de Mallorca", "public_transport": "platform", "ref": "55037", "shelter": "no", "surface": "paving_stones", "tactile_paving": "yes"}}, {"type": "node", "id": 9318952112, "lat": 39.7699821, "lon": 3.1436019, "tags": {"bench": "yes", "bin": "no", "bus": "yes", "departures_board": "timetable", "highway": "bus_stop", "lit": "yes", "name": "Platja de Can Picafort 2 (Can Picafort)", "name:ca": "Platja de Can Picafort 2 (Can Picafort)", "network": "Transports p\u00fablics de Mallorca", "operator": "Consorci de Transports de Mallorca", "public_transport": "platform", "ref": "55035", "shelter": "no", "surface": "paving_stones", "tactile_paving": "no"}}, {"type": "node", "id": 9318952114, "lat": 39.8252905, "lon": 3.1152843, "tags": {"bench": "yes", "bin": "yes", "bus": "yes", "departures_board": "timetable", "highway": "bus_stop", "lit": "yes", "name": "Estany dels Ponts 2 (Platja d'Alc\u00fadia)", "name:ca": "Estany dels Ponts 2 (Platja d'Alc\u00fadia)", "network": "Transports p\u00fablics de Mallorca", "operator": "Consorci de Transports de Mallorca", "public_transport": "platform", "ref": "3059", "shelter": "yes", "surface": "paving_stones", "tactile_paving": "yes"}}, {"type": "node", "id": 9340232000, "lat": 39.4657572, "lon": 3.1383951, "tags": {"bus": "yes", "highway": "bus_stop", "local_ref": "1", "name": "Pol\u00edgon Felanitx", "name:ca": "Pol\u00edgon Felanitx", "network": "Transport p\u00fablic de Mallorca", "operator": "Sagal\u00e9s Caldentey", "public_transport": "platform", "ref": "22025", "route_ref": "501;501e", "website": "https://www.tib.org/ca/parades/-/parada/22025"}}, {"type": "node", "id": 9341080771, "lat": 39.736126, "lon": 3.2188533, "tags": {"bench": "yes", "bus": "yes", "departures_board": "timetable", "highway": "bus_stop", "lit": "yes", "name": "Talaiot de sa Nineta (Son Serra de Marina)", "name:ca": "Talaiot de sa Nineta (Son Serra de Marina)", "network": "Transports p\u00fablics de Mallorca", "operator": "Consorci de Transports de Mallorca", "public_transport": "platform", "ref": "55042", "shelter": "no", "surface": "paving_stones", "tactile_paving": "no"}}, {"type": "node", "id": 9498118566, "lat": 39.5705578, "lon": 3.202838, "tags": {"name": "Manacor", "name:ca": "Manacor", "public_transport": "station", "railway": "station", "train": "yes"}}, {"type": "node", "id": 9555148607, "lat": 39.7000563, "lon": 3.4541763, "tags": {"bus": "yes", "highway": "bus_stop", "local_ref": "2", "name": "Sa Pedruscada", "network": "Transports p\u00fablics de Mallorca", "operator": "Sagal\u00e9s Caldentey", "public_transport": "platform", "ref": "14042", "route_ref": "423", "website": "https://www.tib.org/ca/parades/-/parada/14042"}}, {"type": "node", "id": 9555148608, "lat": 39.7002831, "lon": 3.4543594, "tags": {"bus": "yes", "highway": "bus_stop", "local_ref": "1", "name": "Sa Pedruscada", "network": "Transports p\u00fablics de Mallorca", "operator": "Sagal\u00e9s Caldentey", "public_transport": "platform", "ref": "14041", "route_ref": "423", "website": "https://www.tib.org/ca/parades/-/parada/14041"}}, {"type": "node", "id": 9555148609, "lat": 39.6950298, "lon": 3.454122, "tags": {"bench": "no", "bin": "yes", "bus": "yes", "highway": "bus_stop", "lit": "no", "local_ref": "2", "name": "N'Aguait", "network": "Transports p\u00fablics de Mallorca", "operator": "Sagal\u00e9s Caldentey", "passenger_information_display": "no", "public_transport": "platform", "ref": "14037", "route_ref": "423", "shelter": "no", "tactile_paving": "no", "website": "https://www.tib.org/ca/parades/-/parada/14037"}}, {"type": "node", "id": 10763929007, "lat": 39.8047117, "lon": 3.1175222, "tags": {"bench": "yes", "bin": "yes", "bus": "yes", "departures_board": "timetable", "highway": "bus_stop", "lit": "yes", "name": "Los Troncos 2 (Platja de Muro)", "network": "Transports p\u00fablics de Mallorca", "operator": "Consorci de Transports de Mallorca", "public_transport": "platform", "ref": "39038", "shelter": "yes", "surface": "paving_stones", "tactile_paving": "yes"}}, {"type": "node", "id": 10763929008, "lat": 39.7623638, "lon": 3.1516353, "tags": {"bench": "yes", "bin": "yes", "bus": "yes", "departures_board": "timetable", "highway": "bus_stop", "lit": "yes", "name": "Can Picafort sud 2 (Can Picafort)", "network": "Transports p\u00fablics de Mallorca", "operator": "Consorci de Transports de Mallorca", "public_transport": "platform", "ref": "55038", "shelter": "yes", "surface": "paving_stones", "tactile_paving": "yes"}}, {"type": "node", "id": 10763929505, "lat": 39.7647925, "lon": 3.149073, "tags": {"bench": "yes", "bin": "no", "bus": "yes", "departures_board": "timetable", "highway": "bus_stop", "lit": "yes", "name": "Can Picafort centre 2 (Can Picafort)", "network": "Transports p\u00fablics de Mallorca", "operator": "Consorci de Transports de Mallorca", "public_transport": "platform", "ref": "55036", "shelter": "yes", "surface": "paving_stones", "tactile_paving": "no"}}, {"type": "node", "id": 11045961379, "lat": 39.758089, "lon": 3.1606077, "tags": {"bench": "yes", "bin": "yes", "bus": "yes", "departures_board": "yes", "highway": "bus_stop", "lit": "yes", "name": "Son Baul\u00f3 (Can Picafort)", "network": "Transports p\u00fablics de Mallorca", "operator": "Consorci de Transports de Mallorca", "public_transport": "platform", "ref": "55043", "shelter": "yes", "surface": "paving_stones", "tactile_paving": "no", "website": "https://www.tib.org/de/inici"}}, {"type": "node", "id": 11084177800, "lat": 39.839191, "lon": 3.16495, "tags": {"bench": "no", "bin": "yes", "bus": "yes", "departures_board": "timetable", "highway": "bus_stop", "lit": "yes", "name": "Platja d'Alcanada", "network": "Transports p\u00fablics de Mallorca", "operator": "Consorci de Transportes de Mallorca", "public_transport": "platform", "ref": "3066", "shelter": "no", "surface": "unhewn_cobblestone", "tactile_paving": "no"}}, {"type": "node", "id": 11086026210, "lat": 39.4755487, "lon": 3.1439941, "tags": {"bus": "yes", "highway": "bus_stop", "local_ref": "2", "name": "Moss\u00e8n Bartomeu Barcel\u00f3", "network": "Consorci de Transports de Mallorca", "not_served_by": "514", "operator": "Sagal\u00e9s Caldentey", "public_transport": "platform", "ref": "22032", "route_ref": "501;512", "website": "https://www.tib.org/ca/parades/-/parada/22032"}}, {"type": "node", "id": 11086026211, "lat": 39.4755413, "lon": 3.1436361, "tags": {"bus": "yes", "highway": "bus_stop", "local_ref": "1", "name": "Moss\u00e8n Bartomeu Barcel\u00f3", "network": "Consorci de Transports de Mallorca", "not_served_by": "514", "operator": "Sagal\u00e9s Caldentey", "public_transport": "platform", "ref": "22031", "route_ref": "501;512", "website": "https://www.tib.org/ca/parades/-/parada/22031"}}, {"type": "node", "id": 11086026212, "lat": 39.4790857, "lon": 3.1403548, "tags": {"bus": "yes", "highway": "bus_stop", "local_ref": "1", "name": "IES Felanitx", "name:ca": "IES Felanitx", "network": "Consorci de Transports de Mallorca", "operator": "Sagal\u00e9s Caldentey", "public_transport": "platform", "ref": "22003", "route_ref": "514", "website": "https://www.tib.org/ca/parades/-/parada/22003"}}, {"type": "node", "id": 11590190555, "lat": 39.7647538, "lon": 3.0290271, "tags": {"bench": "yes", "bin": "yes", "bus": "yes", "departures_board": "timetable", "highway": "bus_stop", "lit": "yes", "name": "Estaci\u00f3 sa Pobla 2 (Sa Pobla)", "network": "Transports p\u00fablics de Mallorca", "operator": "Consorci de transportes de Mallorca", "public_transport": "platform", "ref": "44012", "shelter": "yes", "surface": "paving_stones", "tactile_paving": "yes"}}, {"type": "node", "id": 11935434791, "lat": 39.7662019, "lon": 3.147973, "tags": {"highway": "bus_stop", "name": "Mini,tren Turistic CanPicafort"}}, {"type": "node", "id": 11992280903, "lat": 39.7030964, "lon": 3.4297437, "tags": {"bench": "yes", "bin": "yes", "bus": "yes", "departures_board": "timetable", "highway": "bus_stop", "lit": "yes", "local_ref": "2", "name": "Capdepera centre 2 (Capdepera)", "network": "Transport p\u00fablic de Mallorca", "operator": "Consorci de transports de Mallorca", "public_transport": "platform", "ref": "14043", "shelter": "yes", "surface": "paving_stones", "tactile_paving": "no", "website": "https://www.tib.org/ca/parades/-/parada/14043"}}, {"type": "node", "id": 12059038611, "lat": 39.575594, "lon": 3.2077583, "tags": {"bus": "yes", "highway": "bus_stop", "lit": "yes", "local_ref": "3", "name": "Mol\u00ed - Hospital", "network": "Transports p\u00fablics de Mallorca", "operator": "Consorci de Transports de Mallorca", "passenger_information_display": "no", "public_transport": "platform", "ref": "33084", "route_ref": "411;412;417", "shelter": "no", "tactile_paving": "no", "website": "https://www.tib.org/ca/parades/-/parada/33084"}}, {"type": "node", "id": 12059038612, "lat": 39.5622639, "lon": 3.2076221, "tags": {"bus": "yes", "highway": "bus_stop", "name": "Joan Mir\u00f3", "network": "Transports p\u00fablics de Mallorca", "operator": "Consorci de Transports de Mallorca", "passenger_information_display": "no", "public_transport": "platform", "ref": "33085", "route_ref": "401;411;412;416;417;501;A42", "shelter": "no", "website": "https://www.tib.org/ca/parades/-/parada/33085"}}, {"type": "node", "id": 12061642518, "lat": 39.5867522, "lon": 3.375797, "tags": {"highway": "bus_stop", "local_ref": "2", "name": "Mare Selva", "network": "Transport p\u00fablic de Mallorca", "operator": "Sagal\u00e9s Caldentey", "public_transport": "platform", "ref": "51031", "route_ref": "401;424;425;A42", "website": "https://www.tib.org/ca/parades/-/parada/51031"}}, {"type": "node", "id": 12061642519, "lat": 39.586421, "lon": 3.3754198, "tags": {"highway": "bus_stop", "local_ref": "1", "name": "Mare Selva", "network": "Transport p\u00fablic de Mallorca", "operator": "Sagal\u00e9s Caldentey", "public_transport": "platform", "ref": "51030", "route_ref": "401;424;425;A42", "website": "https://www.tib.org/ca/parades/-/parada/51030"}}, {"type": "node", "id": 12064628595, "lat": 39.6011625, "lon": 3.381575, "tags": {"highway": "bus_stop", "name": "Cala Millor centre", "network": "Transport p\u00fablic de Mallorca", "operator": "Sagal\u00e9s Caldentey", "public_transport": "platform", "route_ref": "401", "website": "https://www.tib.org/ca/parades/-/parada/51032"}}, {"type": "node", "id": 12064782454, "lat": 39.7334192, "lon": 3.2749875, "tags": {"bus": "yes", "highway": "bus_stop", "local_ref": "1", "name": "Montferrutx", "network": "Transport p\u00fablic de Mallorca", "operator": "Sagal\u00e9s Caldentey", "public_transport": "platform", "ref": "6004", "route_ref": "421", "website": "https://www.tib.org/ca/parades/-/parada/6004"}}, {"type": "node", "id": 12064782455, "lat": 39.7334671, "lon": 3.2750724, "tags": {"bus": "yes", "highway": "bus_stop", "local_ref": "2", "name": "Montferrutx", "network": "Transport p\u00fablic de Mallorca", "operator": "Sagal\u00e9s Caldentey", "public_transport": "platform", "ref": "6009", "route_ref": "421", "website": "https://www.tib.org/ca/parades/-/parada/6009"}}, {"type": "node", "id": 12064845864, "lat": 39.6746466, "lon": 3.4508545, "tags": {"highway": "bus_stop", "name": "Cala Proven\u00e7als", "network": "Transport p\u00fablic de Mallorca", "operator": "Sagal\u00e9s Caldentey", "public_transport": "platform", "ref": "14040", "route_ref": "423", "website": "https://www.tib.org/ca/parades/-/parada/14040"}}, {"type": "node", "id": 12066619847, "lat": 39.6680976, "lon": 3.0758174, "tags": {"bus": "yes", "highway": "bus_stop", "local_ref": "1", "name": "Maria de la Salut", "network": "Transports p\u00fablics de Mallorca", "operator": "Sagal\u00e9s Caldentey", "passenger_information_display": "no", "public_transport": "platform", "ref": "35003", "route_ref": "441", "website": "https://www.tib.org/ca/parades/-/parada/35003"}}, {"type": "node", "id": 12067865271, "lat": 39.4655495, "lon": 3.1380771, "tags": {"bus": "yes", "highway": "bus_stop", "local_ref": "2", "name": "Pol\u00edgon Felanitx", "name:ca": "Pol\u00edgon Felanitx", "network": "Transport p\u00fablic de Mallorca", "operator": "Sagal\u00e9s Caldentey", "public_transport": "platform", "ref": "22024", "route_ref": "501", "website": "https://www.tib.org/ca/parades/-/parada/22024"}}, {"type": "node", "id": 12145530988, "lat": 39.7361136, "lon": 3.2188842, "tags": {"bench": "yes", "bus": "yes", "departures_board": "timetable", "highway": "bus_stop", "lit": "yes", "name": "Talaiot de sa Nineta (Son Serra de Marina)", "name:ca": "Talaiot de sa Nineta (Son Serra de Marina)", "network": "Transports p\u00fablics de Mallorca", "operator": "Consorci de Transports de Mallorca", "public_transport": "stop_position", "ref": "55042", "shelter": "no", "surface": "asphalt", "tactile_paving": "no"}}, {"type": "node", "id": 12396493730, "lat": 39.7370443, "lon": 3.0513148, "tags": {"bench": "no", "bin": "no", "bus": "yes", "departures_board": "timetable", "highway": "bus_stop", "lit": "yes", "name": "Santa Catalina Thom\u00e0s (Muro)", "network": "Transports p\u00fablics de Mallorca", "operator": "Consorci de Transportes de Mallorca", "public_transport": "platform", "ref": "39041", "shelter": "no", "surface": "paving_stones", "tactile_paving": "no"}}, {"type": "node", "id": 12396493731, "lat": 39.7651422, "lon": 3.0292334, "tags": {"bench": "yes", "bin": "no", "bus": "yes", "departures_board": "timetable", "highway": "bus_stop", "lit": "yes", "name": "Estaci\u00f3 sa Pobla 2 (Sa Pobla)", "network": "Transports p\u00fablics de Mallorca", "operator": "Consorci de transportes de Mallorca", "public_transport": "platform", "ref": "44013", "shelter": "no", "surface": "paving_stones", "tactile_paving": "no"}}, {"type": "node", "id": 12397986937, "lat": 39.837871, "lon": 3.1583228, "tags": {"bench": "no", "bin": "no", "bus": "yes", "departures_board": "timetable", "highway": "bus_stop", "lit": "yes", "name": "Cala en Poncet 2 (Alcanada)", "name:ca": "Cala en Poncet 2 (Alcanada)", "network": "Transports p\u00fablics de Mallorca", "operator": "Consorci de Transports de Mallorca", "public_transport": "platform", "ref": "3067", "shelter": "no", "surface": "ground", "tactile_paving": "no"}}, {"type": "node", "id": 12397986938, "lat": 39.8364735, "lon": 3.150621, "tags": {"bench": "no", "bin": "no", "bus": "yes", "departures_board": "timetable", "highway": "bus_stop", "lit": "yes", "name": "Ses Pedreres 2 (Alcanada)", "name:ca": "Ses Pedreres 2 (Alcanada)", "network": "Transports p\u00fablics de Mallorca", "operator": "Consorci de Transports de Mallorca", "public_transport": "platform", "ref": "3070", "shelter": "no", "surface": "paving_stones", "tactile_paving": "no"}}, {"type": "node", "id": 12397986939, "lat": 39.8365578, "lon": 3.1501272, "tags": {"bench": "no", "bin": "no", "bus": "yes", "departures_board": "timetable", "highway": "bus_stop", "lit": "yes", "name": "Ses Pedreres 1 (Alcanada)", "name:ca": "Ses Pedreres 1 (Alcanada)", "network": "Transports p\u00fablics de Mallorca", "operator": "Consorci de Transports de Mallorca", "public_transport": "platform", "ref": "3068", "shelter": "no", "surface": "paving_stones", "tactile_paving": "no"}}, {"type": "node", "id": 12397986940, "lat": 39.8384619, "lon": 3.1395624, "tags": {"bench": "no", "bin": "yes", "bus": "yes", "departures_board": "no", "highway": "bus_stop", "lit": "yes", "name": "Estaci\u00f3 mar\u00edtima (Port d'Alc\u00fadia)", "name:ca": "Estaci\u00f3 mar\u00edtima (Port d'Alc\u00fadia)", "network": "Transports p\u00fablics de Mallorca", "operator": "Consorci de Transports de Mallorca", "public_transport": "platform", "ref": "3069", "shelter": "no", "surface": "paving_stones", "tactile_paving": "no"}}]}